<?xml version="1.0" encoding="UTF-8"?>
<osm version="0.6" generator="Overpass API 0.7.62.4 2390de5a">
<note>The data included in this document is from www.openstreetmap.org. The data is made available under ODbL.</note>
<meta osm_base="2025-01-21T14:25:27Z" areas="2024-12-31T00:49:33Z"/>

  <node id="148189887" lat="52.3082818" lon="0.0399552" version="4" timestamp="2019-01-31T12:24:01Z" changeset="66800126" uid="669183" user="Andy_W">
    <tag k="addr:city" v="Cambridge"/>
    <tag k="addr:housename" v="Coldharbour Farm"/>
    <tag k="addr:postcode" v="CB24 5EY"/>
    <tag k="addr:street" v="Willingham Road"/>
    <tag k="addr:village" v="Over"/>
    <tag k="name" v="Coldharbour Farm"/>
    <tag k="place" v="farm"/>
  </node>
  <node id="2157233688" lat="52.3165062" lon="0.0172317" version="3" timestamp="2022-07-30T17:24:56Z" changeset="124276705" uid="1102246" user="jtn20">
    <tag k="addr:city" v="Over"/>
    <tag k="addr:housename" v="The Gallery"/>
    <tag k="addr:housenumber" v="25"/>
    <tag k="addr:postcode" v="CB24 5NB"/>
    <tag k="addr:street" v="High Street"/>
    <tag k="name" v="Ponders Travel"/>
    <tag k="opening_hours" v="Mo-Fr 09:00-17:30; Sa 09:00-17:00"/>
    <tag k="phone" v="+44 1954 232802"/>
    <tag k="shop" v="travel_agency"/>
    <tag k="website" v="https://www.ponderstravel.co.uk/"/>
  </node>
  <way id="15016537" version="7" timestamp="2022-10-04T20:08:52Z" changeset="127014510" uid="6476359" user="NSiecw">
    <nd ref="148189562"/>
    <nd ref="148189559"/>
    <nd ref="6476471541"/>
    <nd ref="6476471543"/>
    <nd ref="6476471542"/>
    <nd ref="6476471540"/>
    <nd ref="148189558"/>
    <nd ref="9301194504"/>
    <nd ref="148189554"/>
    <nd ref="148189562"/>
    <tag k="addr:city" v="Cambridge"/>
    <tag k="addr:housenumber" v="16"/>
    <tag k="addr:postcode" v="CB24 5NW"/>
    <tag k="addr:street" v="The Doles"/>
    <tag k="addr:village" v="Over"/>
    <tag k="building" v="community_centre"/>
    <tag k="fhrs:id" v="596322"/>
    <tag k="name" v="Over Conference and Community Centre"/>
  </way>
  <way id="15016548" version="11" timestamp="2023-08-12T12:03:41Z" changeset="139785033" uid="242345" user="confusedbuffalo">
    <nd ref="148189720"/>
    <nd ref="9301199494"/>
    <nd ref="148189733"/>
    <nd ref="148189718"/>
    <nd ref="1770441871"/>
    <nd ref="1770441868"/>
    <nd ref="9301199495"/>
    <nd ref="1770441872"/>
    <nd ref="1770441881"/>
    <nd ref="1770441877"/>
    <nd ref="1770441879"/>
    <nd ref="1770441874"/>
    <nd ref="1770441876"/>
    <nd ref="148189715"/>
    <nd ref="148189712"/>
    <nd ref="9931544702"/>
    <nd ref="1770441870"/>
    <nd ref="1770441869"/>
    <nd ref="1770441880"/>
    <nd ref="1770441873"/>
    <nd ref="1770441878"/>
    <nd ref="1770441875"/>
    <nd ref="148189720"/>
    <tag k="addr:city" v="Cambridge"/>
    <tag k="addr:place" v="Over"/>
    <tag k="addr:postcode" v="CB24 5PG"/>
    <tag k="addr:street" v="Long Furlong"/>
    <tag k="amenity" v="school"/>
    <tag k="capacity" v="250"/>
    <tag k="isced:level" v="1"/>
    <tag k="max_age" v="11"/>
    <tag k="min_age" v="4"/>
    <tag k="name" v="Over Primary School"/>
    <tag k="phone" v="+44 1954 273332"/>
    <tag k="ref:GB:uprn" v="10003196008"/>
    <tag k="ref:edubase" v="110616"/>
    <tag k="school:trust" v="no"/>
    <tag k="school:type" v="community"/>
    <tag k="website" v="https://overprimary.org/"/>
    <tag k="wikidata" v="Q67148325"/>
  </way>
  <way id="162274363" version="7" timestamp="2024-10-24T18:47:13Z" changeset="158309507" uid="669183" user="Andy_W">
    <nd ref="1741871667"/>
    <nd ref="1741871664"/>
    <nd ref="9210237012"/>
    <nd ref="9210241620"/>
    <nd ref="1741871655"/>
    <nd ref="1741871671"/>
    <nd ref="1741871674"/>
    <nd ref="1741871666"/>
    <nd ref="1741871651"/>
    <nd ref="12285973547"/>
    <nd ref="1741871662"/>
    <nd ref="1741871661"/>
    <nd ref="1741871653"/>
    <nd ref="1741871676"/>
    <nd ref="1741871667"/>
    <tag k="access" v="customers"/>
    <tag k="addr:city" v="Cambridge"/>
    <tag k="addr:postcode" v="CB24 5NE"/>
    <tag k="addr:street" v="Long Lane"/>
    <tag k="addr:village" v="Over"/>
    <tag k="area" v="yes"/>
    <tag k="caravans" v="yes"/>
    <tag k="charge" v="14 GBP per adult per night;7 GBP per child per night"/>
    <tag k="description" v="Cuckoo Fen campsite welcomes tents and smaller campervans. Each pitch must have at least one Greener Camping Club membership associated with it - if not a member they will add the annual membership fee when you book. Not open all year; check website."/>
    <tag k="dog" v="leashed"/>
    <tag k="drinking_water" v="yes"/>
    <tag k="email" v="cuckoofen@gmail.com"/>
    <tag k="fee" v="yes"/>
    <tag k="image" v="https://www.cuckoofen.co.uk/?lightbox=dataItem-l0i1admz"/>
    <tag k="internet_access" v="no"/>
    <tag k="name" v="Cuckoo Fen Campsite"/>
    <tag k="openfire" v="yes"/>
    <tag k="opening_hours" v="00:00-24:00; Oct-May off"/>
    <tag k="phone" v="+44 7599 544652"/>
    <tag k="power_supply" v="no"/>
    <tag k="reservation" v="required"/>
    <tag k="shower" v="yes"/>
    <tag k="static_caravans" v="no"/>
    <tag k="tents" v="yes"/>
    <tag k="toilets" v="yes"/>
    <tag k="tourism" v="camp_site"/>
    <tag k="website" v="https://www.cuckoofen.co.uk"/>
  </way>
  <way id="162275355" version="3" timestamp="2019-01-31T12:25:07Z" changeset="66800154" uid="669183" user="Andy_W">
    <nd ref="1741886000"/>
    <nd ref="1741885937"/>
    <nd ref="1741885960"/>
    <nd ref="1741885948"/>
    <nd ref="1494698621"/>
    <nd ref="1741886000"/>
    <tag k="addr:city" v="Cambridge"/>
    <tag k="addr:postcode" v="CB24 5NE"/>
    <tag k="addr:street" v="Long Lane"/>
    <tag k="addr:village" v="Over"/>
    <tag k="landuse" v="farmyard"/>
    <tag k="name" v="Albany Farm"/>
  </way>
  <way id="200291993" version="6" timestamp="2021-04-06T15:56:02Z" changeset="102419287" uid="669183" user="Andy_W">
    <nd ref="2102912553"/>
    <nd ref="2102912529"/>
    <nd ref="2102912429"/>
    <nd ref="2102912423"/>
    <nd ref="2102912570"/>
    <nd ref="2102912520"/>
    <nd ref="2102912638"/>
    <nd ref="2102912418"/>
    <nd ref="2129248963"/>
    <nd ref="2102912553"/>
    <tag k="addr:city" v="Cambridge"/>
    <tag k="addr:housename" v="Over Baptist Church"/>
    <tag k="addr:housenumber" v="2"/>
    <tag k="addr:place" v="Over"/>
    <tag k="addr:postcode" v="CB24 5PL"/>
    <tag k="addr:street" v="West Street"/>
    <tag k="amenity" v="place_of_worship"/>
    <tag k="building" v="church"/>
    <tag k="denomination" v="baptist"/>
    <tag k="name" v="Over Baptist Church"/>
    <tag k="religion" v="christian"/>
    <tag k="source:name" v="dictaphone"/>
    <tag k="wikidata" v="Q26616257"/>
  </way>
  <way id="200604965" version="3" timestamp="2021-12-19T16:25:21Z" changeset="115131781" uid="669183" user="Andy_W">
    <nd ref="2105743893"/>
    <nd ref="2105743897"/>
    <nd ref="2105743925"/>
    <nd ref="2105743881"/>
    <nd ref="2105743894"/>
    <nd ref="2105743944"/>
    <nd ref="2105743909"/>
    <nd ref="2105743875"/>
    <nd ref="2105743952"/>
    <nd ref="2105743871"/>
    <nd ref="2105743913"/>
    <nd ref="2105743896"/>
    <nd ref="2105743889"/>
    <nd ref="2105743873"/>
    <nd ref="2105743887"/>
    <nd ref="2105743931"/>
    <nd ref="2105743933"/>
    <nd ref="2105743947"/>
    <nd ref="2105743862"/>
    <nd ref="2105743869"/>
    <nd ref="2105743865"/>
    <nd ref="2105743921"/>
    <nd ref="9350821438"/>
    <nd ref="2105743893"/>
    <tag k="addr:postcode" v="CB24 5PG"/>
    <tag k="addr:street" v="Long Furlong"/>
    <tag k="building" v="school"/>
    <tag k="fhrs:id" v="596299"/>
    <tag k="name" v="Over Primary School"/>
  </way>
  <way id="200604966" version="4" timestamp="2024-08-27T14:37:41Z" changeset="155835511" uid="669183" user="Andy_W">
    <nd ref="2105743891"/>
    <nd ref="2105743923"/>
    <nd ref="2105743885"/>
    <nd ref="2105743883"/>
    <nd ref="2105743915"/>
    <nd ref="2105743911"/>
    <nd ref="2105743907"/>
    <nd ref="2105743917"/>
    <nd ref="148189741"/>
    <nd ref="2105743891"/>
    <tag k="addr:city" v="Over"/>
    <tag k="addr:housenumber" v="31"/>
    <tag k="addr:postcode" v="CB24 5NB"/>
    <tag k="addr:street" v="High Street"/>
    <tag k="amenity" v="pub"/>
    <tag k="building" v="yes"/>
    <tag k="email" v="theadmiralover@gmail.com"/>
    <tag k="fhrs:id" v="596266"/>
    <tag k="name" v="The Admiral"/>
    <tag k="opening_hours" v="Mo-Sa 12:00-23:00; Su 12:00-22:30"/>
    <tag k="phone" v="01954 610837"/>
    <tag k="website:menu" v="https://order.toasttab.com/online/the-admiral-31-high-st-over"/>
  </way>
  <way id="201413547" version="5" timestamp="2018-10-17T13:18:29Z" changeset="63610597" uid="669183" user="Andy_W">
    <nd ref="2113867755"/>
    <nd ref="2113867751"/>
    <nd ref="2113867741"/>
    <nd ref="2113867742"/>
    <nd ref="2113867744"/>
    <nd ref="2113867740"/>
    <nd ref="2113867748"/>
    <nd ref="2113867738"/>
    <nd ref="2113867761"/>
    <nd ref="2113867750"/>
    <nd ref="2113867749"/>
    <nd ref="2204742217"/>
    <nd ref="2204742224"/>
    <nd ref="2204742208"/>
    <nd ref="2204742222"/>
    <nd ref="2204742220"/>
    <nd ref="2204742210"/>
    <nd ref="2204742215"/>
    <nd ref="2204742213"/>
    <nd ref="2204742218"/>
    <nd ref="2113867760"/>
    <nd ref="2113867755"/>
    <tag k="addr:city" v="Cambridge"/>
    <tag k="addr:housename" v="Elm Court"/>
    <tag k="addr:place" v="Over"/>
    <tag k="addr:postcode" v="CB24 5SB"/>
    <tag k="addr:street" v="Drings Close"/>
    <tag k="building" v="residential"/>
    <tag k="name" v="Elm Court"/>
  </way>
  <way id="210397278" version="4" timestamp="2019-01-07T12:40:42Z" changeset="66095310" uid="669183" user="Andy_W">
    <nd ref="2204719084"/>
    <nd ref="2204719090"/>
    <nd ref="2204719082"/>
    <nd ref="2204719086"/>
    <nd ref="2204719088"/>
    <nd ref="2204719080"/>
    <nd ref="2204719089"/>
    <nd ref="2204719077"/>
    <nd ref="2204719084"/>
    <tag k="addr:housename" v="Over Day Centre"/>
    <tag k="addr:postcode" v="CB24 5NZ"/>
    <tag k="addr:street" v="Drings Close"/>
    <tag k="building" v="public"/>
    <tag k="fhrs:id" v="596920"/>
    <tag k="name" v="Over Day Centre"/>
  </way>
  <way id="210399448" version="7" timestamp="2023-08-14T12:04:22Z" changeset="139868634" uid="669183" user="Andy_W">
    <nd ref="2204735430"/>
    <nd ref="2204735428"/>
    <nd ref="2204735431"/>
    <nd ref="2204830287"/>
    <nd ref="2204830288"/>
    <nd ref="11114168605"/>
    <nd ref="2204735432"/>
    <nd ref="11114168611"/>
    <nd ref="148189577"/>
    <nd ref="2204735430"/>
    <tag k="addr:city" v="Cambridge"/>
    <tag k="addr:housename" v="Overy Surgery"/>
    <tag k="addr:housenumber" v="1"/>
    <tag k="addr:place" v="Over"/>
    <tag k="addr:postcode" v="CB24 5NZ"/>
    <tag k="addr:street" v="Drings Close"/>
    <tag k="amenity" v="doctors"/>
    <tag k="building" v="yes"/>
    <tag k="healthcare" v="doctor"/>
    <tag k="name" v="Over Surgery &amp; Pharmacy"/>
    <tag k="operator" v="NHS General Practice (GP) Surgery"/>
  </way>
  <way id="210411500" version="6" timestamp="2023-08-14T12:04:22Z" changeset="139868634" uid="669183" user="Andy_W">
    <nd ref="2204830289"/>
    <nd ref="2204830286"/>
    <nd ref="2204830287"/>
    <nd ref="2204830288"/>
    <nd ref="11114168606"/>
    <nd ref="2204830289"/>
    <tag k="addr:housenumber" v="1"/>
    <tag k="addr:postcode" v="CB24 5NZ"/>
    <tag k="addr:street" v="Drings Close"/>
    <tag k="amenity" v="pharmacy"/>
    <tag k="building" v="yes"/>
    <tag k="dispensing" v="yes"/>
    <tag k="healthcare" v="pharmacy"/>
    <tag k="name" v="Over Pharmacy"/>
  </way>
  <way id="251824004" version="4" timestamp="2024-01-15T14:56:48Z" changeset="146286083" uid="10420541" user="Thingummy">
    <nd ref="2579915585"/>
    <nd ref="2579915591"/>
    <nd ref="2579915593"/>
    <nd ref="2579915599"/>
    <nd ref="2579915602"/>
    <nd ref="2579915592"/>
    <nd ref="2579915585"/>
    <tag k="addr:city" v="Cambridge"/>
    <tag k="addr:housenumber" v="29"/>
    <tag k="addr:place" v="Over"/>
    <tag k="addr:street" v="Fen End"/>
    <tag k="building" v="house"/>
    <tag k="name" v="Passionate Flowers"/>
  </way>
  <way id="437941698" version="2" timestamp="2019-01-31T12:24:02Z" changeset="66800126" uid="669183" user="Andy_W">
    <nd ref="4357221986"/>
    <nd ref="4357221987"/>
    <nd ref="4357221988"/>
    <nd ref="4357221989"/>
    <nd ref="4357221986"/>
    <tag k="addr:city" v="Cambridge"/>
    <tag k="addr:housename" v="Showroom, Dockerel Farm"/>
    <tag k="addr:postcode" v="CB24 5PF"/>
    <tag k="addr:street" v="Willingham Road"/>
    <tag k="addr:village" v="Over"/>
    <tag k="building" v="commercial"/>
    <tag k="name" v="A &amp; E Marques"/>
  </way>

</osm>
