<?xml version="1.0" encoding="UTF-8"?>
<osm version="0.6" generator="Overpass API 0.7.62.4 2390de5a">
<note>The data included in this document is from www.openstreetmap.org. The data is made available under ODbL.</note>
<meta osm_base="2025-01-20T02:58:14Z" areas="2024-12-31T00:49:33Z"/>

  <way id="232547217" version="2" timestamp="2023-05-19T23:53:30Z" changeset="136319681" uid="11022773" user="GeoFens">
    <nd ref="2408924975"/>
    <nd ref="2408925117"/>
    <nd ref="1482775611"/>
    <nd ref="1482775607"/>
    <nd ref="2408924287"/>
    <nd ref="2408924975"/>
    <tag k="addr:city" v="March"/>
    <tag k="addr:postcode" v="PE15 9LB"/>
    <tag k="addr:street" v="High Street"/>
    <tag k="building" v="yes"/>
    <tag k="fhrs:id" v="774637"/>
    <tag k="name" v="Oliver Cromwell Hotel"/>
    <tag k="tourism" v="hotel"/>
  </way>
  <way id="232638431" version="5" timestamp="2024-04-03T11:49:08Z" changeset="149520400" uid="95856" user="john paul jones &amp; gringo">
    <nd ref="8933826235"/>
    <nd ref="2409791572"/>
    <nd ref="2409791592"/>
    <nd ref="2409791705"/>
    <nd ref="2409791528"/>
    <nd ref="2409791359"/>
    <nd ref="8933826253"/>
    <nd ref="2409791504"/>
    <nd ref="2409791580"/>
    <nd ref="8933826266"/>
    <nd ref="7673197570"/>
    <nd ref="8933826235"/>
    <tag k="addr:city" v="March"/>
    <tag k="addr:country" v="GB"/>
    <tag k="addr:housenumber" v="27"/>
    <tag k="addr:postcode" v="PE15 8TP"/>
    <tag k="addr:street" v="Broad Street"/>
    <tag k="addr:town" v="March"/>
    <tag k="brand" v="Superdrug"/>
    <tag k="brand:wikidata" v="Q7643261"/>
    <tag k="brand:wikipedia" v="en:Superdrug"/>
    <tag k="building" v="yes"/>
    <tag k="contact:website" v="https://www.superdrug.com/store/march"/>
    <tag k="name" v="Superdrug"/>
    <tag k="shop" v="chemist"/>
  </way>
  <way id="232638432" version="4" timestamp="2024-04-21T08:28:40Z" changeset="150291514" uid="6816132" user="CjMalone">
    <nd ref="910430132"/>
    <nd ref="2409791718"/>
    <nd ref="2409791370"/>
    <nd ref="2409791425"/>
    <nd ref="910430132"/>
    <tag k="addr:city" v="March"/>
    <tag k="addr:housenumber" v="17-19"/>
    <tag k="addr:postcode" v="PE15 8TP"/>
    <tag k="addr:street" v="Broad Street"/>
    <tag k="brand" v="Boots"/>
    <tag k="brand:wikidata" v="Q6123139"/>
    <tag k="brand:wikipedia" v="en:Boots (company)"/>
    <tag k="building" v="retail"/>
    <tag k="fhrs:id" v="774359"/>
    <tag k="name" v="Boots"/>
    <tag k="operator" v="Boots"/>
    <tag k="shop" v="chemist"/>
    <tag k="source:addr" v="FHRS Open Data"/>
    <tag k="website" v="https://www.boots.com/stores/177-march-broad-street-pe15-8tp"/>
  </way>
  <way id="232638441" version="4" timestamp="2021-07-19T19:00:12Z" changeset="108271407" uid="2400834" user="Gyrwa">
    <nd ref="8933826248"/>
    <nd ref="8933826247"/>
    <nd ref="8933826246"/>
    <nd ref="270959007"/>
    <nd ref="8933826245"/>
    <nd ref="8933826227"/>
    <nd ref="2409791598"/>
    <nd ref="2409791437"/>
    <nd ref="8933826244"/>
    <nd ref="8933826248"/>
    <tag k="addr:city" v="March"/>
    <tag k="addr:housename" v="The Ship Inn"/>
    <tag k="addr:postcode" v="PE15 8TD"/>
    <tag k="addr:street" v="Nene Parade"/>
    <tag k="amenity" v="pub"/>
    <tag k="building" v="yes"/>
    <tag k="name" v="The Ship Inn"/>
    <tag k="source" v="survey"/>
    <tag k="wikidata" v="Q26576144"/>
  </way>
  <way id="232638464" version="2" timestamp="2021-07-19T19:00:12Z" changeset="108271407" uid="2400834" user="Gyrwa">
    <nd ref="2409791377"/>
    <nd ref="2409791398"/>
    <nd ref="2409791343"/>
    <nd ref="8933797714"/>
    <nd ref="2409791487"/>
    <nd ref="2409791723"/>
    <nd ref="8933797700"/>
    <nd ref="2409791414"/>
    <nd ref="270962604"/>
    <nd ref="2409791377"/>
    <tag k="addr:city" v="March"/>
    <tag k="addr:housenumber" v="13"/>
    <tag k="addr:postcode" v="PE15 8LB"/>
    <tag k="addr:street" v="Station Road"/>
    <tag k="amenity" v="pub"/>
    <tag k="building" v="yes"/>
    <tag k="fhrs:id" v="854117"/>
    <tag k="name" v="Coachmakers Arms"/>
    <tag k="source" v="survey"/>
    <tag k="source:addr" v="FHRS Open Data"/>
  </way>
  <way id="362553681" version="5" timestamp="2024-07-15T16:01:25Z" changeset="153979415" uid="21425661" user="CjMalone">
    <nd ref="3668318325"/>
    <nd ref="3668318326"/>
    <nd ref="3668318327"/>
    <nd ref="3668318328"/>
    <nd ref="3668318329"/>
    <nd ref="3668318330"/>
    <nd ref="3668318331"/>
    <nd ref="3668318332"/>
    <nd ref="3668318333"/>
    <nd ref="3668318334"/>
    <nd ref="3668318325"/>
    <tag k="addr:city" v="March"/>
    <tag k="addr:housenumber" v="53"/>
    <tag k="addr:postcode" v="PE15 9AT"/>
    <tag k="addr:street" v="Badgeney Road"/>
    <tag k="brand" v="Co-op Food"/>
    <tag k="brand:wikidata" v="Q3277439"/>
    <tag k="brand:wikipedia" v="en:Co-op Food"/>
    <tag k="building" v="yes"/>
    <tag k="check_date" v="2024-07-15"/>
    <tag k="check_date:opening_hours" v="2024-07-15"/>
    <tag k="name" v="Co-op Food"/>
    <tag k="opening_hours" v="Mo-Su 07:00-22:00"/>
    <tag k="operator" v="Central England Co-operative"/>
    <tag k="operator:wikidata" v="Q16986583"/>
    <tag k="shop" v="supermarket"/>
    <tag k="source" v="FoodHygeneData"/>
    <tag k="website" v="https://stores.centralengland.coop/cambridgeshire/march/badgeney-road"/>
  </way>
  <way id="587574001" version="3" timestamp="2022-04-02T12:35:09Z" changeset="119233547" uid="11022773" user="GeoFens">
    <nd ref="5612432132"/>
    <nd ref="5612432137"/>
    <nd ref="5612432138"/>
    <nd ref="5612432135"/>
    <nd ref="5612432136"/>
    <nd ref="5612432134"/>
    <nd ref="5612432133"/>
    <nd ref="5612432132"/>
    <tag k="addr:city" v="March"/>
    <tag k="addr:postcode" v="PE15 8AN"/>
    <tag k="addr:street" v="Dartford Road"/>
    <tag k="building" v="commercial"/>
    <tag k="name" v="Tyre Pros"/>
    <tag k="noaddress" v="yes"/>
    <tag k="shop" v="tyres"/>
  </way>
  <way id="587574012" version="12" timestamp="2024-04-03T11:49:08Z" changeset="149520400" uid="95856" user="john paul jones &amp; gringo">
    <nd ref="5612432166"/>
    <nd ref="6202405549"/>
    <nd ref="6202405550"/>
    <nd ref="5612432165"/>
    <nd ref="5612432164"/>
    <nd ref="5612432161"/>
    <nd ref="5612432162"/>
    <nd ref="5612432163"/>
    <nd ref="7835896767"/>
    <nd ref="5612432166"/>
    <tag k="addr:city" v="March"/>
    <tag k="addr:country" v="GB"/>
    <tag k="addr:postcode" v="PE15 5AN"/>
    <tag k="addr:street" v="Dartford Road"/>
    <tag k="brand" v="Lidl"/>
    <tag k="brand:wikidata" v="Q151954"/>
    <tag k="brand:wikipedia" v="en:Lidl"/>
    <tag k="building" v="retail"/>
    <tag k="fhrs:id" v="774480"/>
    <tag k="name" v="Lidl"/>
    <tag k="noaddress" v="yes"/>
    <tag k="opening_hours" v="Mo-Sa 08:00-22:00; Su 10:00-16:00"/>
    <tag k="shop" v="supermarket"/>
    <tag k="website" v="https://www.lidl.co.uk/s/en-GB/store-finder/march/dartford-road/"/>
  </way>
  <way id="662268217" version="5" timestamp="2024-04-09T20:22:14Z" changeset="149793727" uid="6816132" user="CjMalone">
    <nd ref="6200137567"/>
    <nd ref="6200137566"/>
    <nd ref="6200137565"/>
    <nd ref="6200137564"/>
    <nd ref="6200137567"/>
    <tag k="addr:city" v="March"/>
    <tag k="addr:country" v="GB"/>
    <tag k="addr:postcode" v="PE15 0BN"/>
    <tag k="addr:street" v="Westry Avenue"/>
    <tag k="branch" v="March"/>
    <tag k="brand" v="Howdens Joinery"/>
    <tag k="brand:wikidata" v="Q5921438"/>
    <tag k="building" v="yes"/>
    <tag k="internet_access" v="wlan"/>
    <tag k="name" v="Howdens Joinery"/>
    <tag k="opening_hours" v="Mo-Fr 08:00-17:00; Sa 08:00-12:00"/>
    <tag k="phone" v="+44 1354 661141"/>
    <tag k="shop" v="kitchen"/>
    <tag k="website" v="https://www.howdens.com/find-a-depot/march"/>
  </way>
  <way id="662524751" version="2" timestamp="2019-08-21T15:28:10Z" changeset="73586706" uid="105782" user="CyberYeti">
    <nd ref="6202404515"/>
    <nd ref="6202404514"/>
    <nd ref="6202404513"/>
    <nd ref="6202404512"/>
    <nd ref="6202404515"/>
    <tag k="addr:city" v="March"/>
    <tag k="addr:housename" v="Norton House"/>
    <tag k="addr:housenumber" v="1-8"/>
    <tag k="addr:postcode" v="PE15 8RL"/>
    <tag k="addr:street" v="St John's Chase"/>
    <tag k="building" v="residential"/>
    <tag k="name" v="Norton House"/>
  </way>
  <way id="662524880" version="2" timestamp="2021-07-19T13:17:31Z" changeset="108255670" uid="2400834" user="Gyrwa">
    <nd ref="8933139943"/>
    <nd ref="8933139920"/>
    <nd ref="8933139923"/>
    <nd ref="2409791642"/>
    <nd ref="2409791698"/>
    <nd ref="6202405692"/>
    <nd ref="8933113913"/>
    <nd ref="8933139941"/>
    <nd ref="8933139942"/>
    <nd ref="8933113907"/>
    <nd ref="8933139943"/>
    <tag k="addr:city" v="March"/>
    <tag k="addr:housenumber" v="20"/>
    <tag k="addr:postcode" v="PE15 9TG"/>
    <tag k="addr:street" v="Broad Street"/>
    <tag k="building" v="yes"/>
    <tag k="name" v="Thing-Me-Bobs"/>
    <tag k="shop" v="variety_store"/>
  </way>
  <way id="716744272" version="1" timestamp="2019-08-21T15:27:05Z" changeset="73586706" uid="105782" user="CyberYeti">
    <nd ref="6732249528"/>
    <nd ref="6732249526"/>
    <nd ref="6732249527"/>
    <nd ref="6732249529"/>
    <nd ref="6732249528"/>
    <tag k="addr:city" v="March"/>
    <tag k="addr:housename" v="Vincent House"/>
    <tag k="addr:housenumber" v="1-8"/>
    <tag k="addr:postcode" v="PE15 8RL"/>
    <tag k="addr:street" v="St John's Chase"/>
    <tag k="building" v="residential"/>
    <tag k="name" v="Vincent House"/>
    <tag k="source" v="Resident"/>
  </way>
  <way id="716745055" version="1" timestamp="2019-08-21T15:29:23Z" changeset="73586706" uid="105782" user="CyberYeti">
    <nd ref="6732283854"/>
    <nd ref="6732283856"/>
    <nd ref="6732283855"/>
    <nd ref="6732283857"/>
    <nd ref="6732283854"/>
    <tag k="addr:city" v="March"/>
    <tag k="addr:housename" v="Sparkbrook House"/>
    <tag k="addr:housenumber" v="1-8"/>
    <tag k="addr:postcode" v="PE15 8RL"/>
    <tag k="addr:street" v="St John's Chase"/>
    <tag k="building" v="residential"/>
    <tag k="name" v="Sparkbrook House"/>
  </way>
  <way id="965633745" version="1" timestamp="2021-07-19T13:17:31Z" changeset="108255670" uid="2400834" user="Gyrwa">
    <nd ref="8933139952"/>
    <nd ref="8933139930"/>
    <nd ref="8933139937"/>
    <nd ref="8933113874"/>
    <nd ref="8933113873"/>
    <nd ref="8933139952"/>
    <tag k="addr:city" v="March"/>
    <tag k="addr:housenumber" v="6"/>
    <tag k="addr:postcode" v="PE15 8DU"/>
    <tag k="addr:street" v="Grays Lane"/>
    <tag k="building" v="yes"/>
    <tag k="name" v="Carpet Warehouse"/>
    <tag k="shop" v="carpet"/>
    <tag k="website" v="https://the-carpet-warehouse-march-ltd.business.site/"/>
  </way>
  <way id="965633758" version="2" timestamp="2021-11-21T17:55:45Z" changeset="114067590" uid="11022773" user="GeoFens">
    <nd ref="8933139929"/>
    <nd ref="8933139925"/>
    <nd ref="2409791530"/>
    <nd ref="2409791597"/>
    <nd ref="2409791602"/>
    <nd ref="8933139929"/>
    <tag k="addr:city" v="March"/>
    <tag k="addr:housenumber" v="14-16"/>
    <tag k="addr:postcode" v="PE15 8TG"/>
    <tag k="addr:street" v="Broad Street"/>
    <tag k="amenity" v="fast_food"/>
    <tag k="brand" v="Domino's"/>
    <tag k="brand:wikidata" v="Q839466"/>
    <tag k="brand:wikipedia" v="en:Domino's Pizza"/>
    <tag k="building" v="retail"/>
    <tag k="cuisine" v="pizza"/>
    <tag k="name" v="Domino's"/>
    <tag k="takeaway" v="yes"/>
    <tag k="website" v="https://www.dominos.co.uk/pizza-near-me/march/14-16-broad-street"/>
  </way>
  <way id="965633768" version="4" timestamp="2024-09-03T19:47:48Z" changeset="156157798" uid="21425661" user="CjMalone">
    <nd ref="8933139936"/>
    <nd ref="8933139928"/>
    <nd ref="8933113913"/>
    <nd ref="8933139941"/>
    <nd ref="8933139942"/>
    <nd ref="8933113907"/>
    <nd ref="8933139943"/>
    <nd ref="8933139936"/>
    <tag k="addr:city" v="March"/>
    <tag k="addr:housenumber" v="22"/>
    <tag k="addr:postcode" v="PE15 8TG"/>
    <tag k="addr:street" v="Broad Street"/>
    <tag k="amenity" v="bank"/>
    <tag k="brand" v="Nationwide"/>
    <tag k="brand:wikidata" v="Q846735"/>
    <tag k="brand:wikipedia" v="en:Nationwide Building Society"/>
    <tag k="building" v="yes"/>
    <tag k="check_date" v="2024-09-02"/>
    <tag k="check_date:opening_hours" v="2024-09-02"/>
    <tag k="name" v="Nationwide"/>
    <tag k="opening_hours" v="Mo-Tu 09:00-16:30; We 10:00-16:30; Th-Fr 09:00-16:30; Sa-Su closed"/>
    <tag k="operator" v="Nationwide Building Society"/>
    <tag k="phone" v="+44 345 266 1435"/>
    <tag k="website" v="https://www.nationwide.co.uk/branches/march/22-broad-street"/>
  </way>
  <way id="965712057" version="1" timestamp="2021-07-19T19:00:12Z" changeset="108271407" uid="2400834" user="Gyrwa">
    <nd ref="8933797690"/>
    <nd ref="2409791571"/>
    <nd ref="2409791720"/>
    <nd ref="2409791671"/>
    <nd ref="8933797699"/>
    <nd ref="8933797698"/>
    <nd ref="2409791682"/>
    <nd ref="8933797689"/>
    <nd ref="8933797690"/>
    <tag k="addr:city" v="March"/>
    <tag k="addr:housenumber" v="3"/>
    <tag k="addr:postcode" v="PE15 8TD"/>
    <tag k="addr:street" v="Nene Parade"/>
    <tag k="building" v="retail"/>
    <tag k="name" v="The CYCLE Shop"/>
    <tag k="shop" v="bicycle"/>
    <tag k="website" v="https://www.thecycleshop.uk.com"/>
  </way>
  <way id="965712059" version="2" timestamp="2022-05-07T11:37:23Z" changeset="120664742" uid="6816132" user="CjMalone">
    <nd ref="8933826241"/>
    <nd ref="2409791631"/>
    <nd ref="2409791436"/>
    <nd ref="2409791605"/>
    <nd ref="2409791628"/>
    <nd ref="8933826226"/>
    <nd ref="2409791572"/>
    <nd ref="8933826235"/>
    <nd ref="1779102605"/>
    <nd ref="8933826241"/>
    <tag k="addr:city" v="March"/>
    <tag k="addr:housenumber" v="29-31"/>
    <tag k="addr:postcode" v="PE15 8TP"/>
    <tag k="addr:street" v="Broad Street"/>
    <tag k="brand" v="Tesco Express"/>
    <tag k="brand:wikidata" v="Q98456772"/>
    <tag k="brand:wikipedia" v="en:Tesco"/>
    <tag k="building" v="yes"/>
    <tag k="contact:website" v="https://www.tesco.com/store-locator/march/29-31-broad-st"/>
    <tag k="fhrs:id" v="936827"/>
    <tag k="name" v="Tesco Express"/>
    <tag k="operator" v="Tesco Stores Ltd"/>
    <tag k="shop" v="convenience"/>
    <tag k="source:addr" v="FHRS Open Data"/>
  </way>
  <way id="965712080" version="4" timestamp="2024-04-03T11:49:08Z" changeset="149520400" uid="95856" user="john paul jones &amp; gringo">
    <nd ref="8933826243"/>
    <nd ref="8933826242"/>
    <nd ref="8933797705"/>
    <nd ref="2409791315"/>
    <nd ref="8933797704"/>
    <nd ref="8933797702"/>
    <nd ref="2409791723"/>
    <nd ref="2409791487"/>
    <nd ref="2409791383"/>
    <nd ref="2409791631"/>
    <nd ref="8933826241"/>
    <nd ref="8933826243"/>
    <tag k="addr:city" v="March"/>
    <tag k="addr:country" v="GB"/>
    <tag k="addr:housenumber" v="33"/>
    <tag k="addr:postcode" v="PE15 8TP"/>
    <tag k="addr:street" v="Broad Street"/>
    <tag k="amenity" v="fast_food"/>
    <tag k="brand" v="Greggs"/>
    <tag k="brand:wikidata" v="Q3403981"/>
    <tag k="brand:wikipedia" v="en:Greggs"/>
    <tag k="building" v="retail"/>
    <tag k="contact:website" v="https://www.greggs.co.uk/shop-finder?shop-code=1314"/>
    <tag k="cuisine" v="sandwich;bakery"/>
    <tag k="fhrs:id" v="774321"/>
    <tag k="name" v="Greggs"/>
    <tag k="takeaway" v="yes"/>
  </way>
  <way id="1047418885" version="1" timestamp="2022-04-02T13:19:11Z" changeset="119234691" uid="11022773" user="GeoFens">
    <nd ref="9631372917"/>
    <nd ref="9631372918"/>
    <nd ref="9631372919"/>
    <nd ref="9631372920"/>
    <nd ref="9631372917"/>
    <tag k="addr:city" v="March"/>
    <tag k="addr:housenumber" v="44"/>
    <tag k="addr:street" v="Badgeney Road"/>
    <tag k="brand" v="The Scout Association"/>
    <tag k="brand:wikidata" v="Q849740"/>
    <tag k="brand:wikipedia" v="en:The Scout Association"/>
    <tag k="building" v="yes"/>
    <tag k="club" v="scout"/>
    <tag k="name" v="1st March Scouts"/>
  </way>
  <way id="1174460894" version="1" timestamp="2023-05-19T23:53:30Z" changeset="136319681" uid="11022773" user="GeoFens">
    <nd ref="10913157890"/>
    <nd ref="10913157891"/>
    <nd ref="10913157892"/>
    <nd ref="10913157893"/>
    <nd ref="10913157894"/>
    <nd ref="10913157895"/>
    <nd ref="10913157896"/>
    <nd ref="10913157897"/>
    <nd ref="10913157898"/>
    <nd ref="10913157899"/>
    <nd ref="10913157900"/>
    <nd ref="10913157901"/>
    <nd ref="10913157902"/>
    <nd ref="10913157903"/>
    <nd ref="10913157904"/>
    <nd ref="10913180405"/>
    <nd ref="10913180406"/>
    <nd ref="10913180407"/>
    <nd ref="10913180408"/>
    <nd ref="10913180409"/>
    <nd ref="10913180410"/>
    <nd ref="10913180411"/>
    <nd ref="10913180412"/>
    <nd ref="10913180413"/>
    <nd ref="10913180414"/>
    <nd ref="10913180415"/>
    <nd ref="10913180416"/>
    <nd ref="10913180417"/>
    <nd ref="10913180418"/>
    <nd ref="10913180419"/>
    <nd ref="10913180420"/>
    <nd ref="10913180421"/>
    <nd ref="10913180422"/>
    <nd ref="10913180423"/>
    <nd ref="10913180424"/>
    <nd ref="10913180425"/>
    <nd ref="10913180426"/>
    <nd ref="10913180427"/>
    <nd ref="10913180428"/>
    <nd ref="10913180429"/>
    <nd ref="10913157890"/>
    <tag k="addr:city" v="March"/>
    <tag k="addr:postcode" v="PE15 9PP"/>
    <tag k="addr:street" v="Coronation Close"/>
    <tag k="amenity" v="social_facility"/>
    <tag k="building" v="yes"/>
    <tag k="name" v="Aria Court Care Home"/>
    <tag k="operator" v="Athena Care Homes"/>
    <tag k="social_facility" v="group_home"/>
    <tag k="social_facility:for" v="senior"/>
    <tag k="website" v="https://www.athenacarehomes.co.uk/our-care-homes/aria-court"/>
  </way>
  <relation id="7296604" version="4" timestamp="2019-01-20T07:36:41Z" changeset="66469103" uid="322785" user="BCNorwich">
    <member type="way" ref="497033634" role="inner"/>
    <member type="way" ref="497033635" role="outer"/>
    <tag k="addr:city" v="March"/>
    <tag k="addr:country" v="GB"/>
    <tag k="addr:housename" v="Fenland Hall"/>
    <tag k="addr:postcode" v="PE15 8NQ"/>
    <tag k="addr:street" v="County Road"/>
    <tag k="building" v="public"/>
    <tag k="name" v="Fenland District Council"/>
    <tag k="office" v="government"/>
    <tag k="type" v="multipolygon"/>
  </relation>

</osm>
