<?xml version="1.0" encoding="UTF-8"?>
<osm version="0.6" generator="Overpass API 0.7.62.4 2390de5a">
<note>The data included in this document is from www.openstreetmap.org. The data is made available under ODbL.</note>
<meta osm_base="2025-01-20T03:04:15Z" areas="2024-12-31T00:49:33Z"/>

  <way id="48837812" version="7" timestamp="2024-05-21T12:20:34Z" changeset="151625764" uid="95856" user="john paul jones &amp; gringo">
    <nd ref="619551092"/>
    <nd ref="2861859663"/>
    <nd ref="2861859664"/>
    <nd ref="619551091"/>
    <nd ref="619551093"/>
    <nd ref="619551094"/>
    <nd ref="619551092"/>
    <tag k="addr:city" v="Huntingdon"/>
    <tag k="addr:country" v="GB"/>
    <tag k="addr:postcode" v="PE28 3PA"/>
    <tag k="addr:street" v="Station Road"/>
    <tag k="addr:suburb" v="Bluntisham"/>
    <tag k="brand" v="Budgens"/>
    <tag k="brand:wikidata" v="Q4985016"/>
    <tag k="building" v="yes"/>
    <tag k="name" v="Budgens"/>
    <tag k="operator" v="Budgens"/>
    <tag k="shop" v="supermarket"/>
    <tag k="website" v="https://www.budgens.co.uk/our-stores/bluntisham"/>
  </way>
  <way id="414666673" version="5" timestamp="2024-05-21T12:18:39Z" changeset="151625657" uid="95856" user="john paul jones &amp; gringo">
    <nd ref="4157822887"/>
    <nd ref="4157822996"/>
    <nd ref="4157822886"/>
    <nd ref="4157822989"/>
    <nd ref="4157822885"/>
    <nd ref="4157822884"/>
    <nd ref="4157822883"/>
    <nd ref="4157822882"/>
    <nd ref="4157822995"/>
    <nd ref="4157822888"/>
    <nd ref="4157822991"/>
    <nd ref="4157822992"/>
    <nd ref="4157822880"/>
    <nd ref="4157822997"/>
    <nd ref="4157822881"/>
    <nd ref="4157822993"/>
    <nd ref="4157822990"/>
    <nd ref="4157822887"/>
    <tag k="addr:city" v="Huntingdon"/>
    <tag k="addr:country" v="GB"/>
    <tag k="addr:postcode" v="PE28 3LN"/>
    <tag k="addr:street" v="Rectory Road"/>
    <tag k="addr:suburb" v="Bluntisham"/>
    <tag k="amenity" v="place_of_worship"/>
    <tag k="building" v="church"/>
    <tag k="denomination" v="anglican"/>
    <tag k="description" v="Parish church of Bluntisham and Earith"/>
    <tag k="name" v="St Mary's Church"/>
    <tag k="ref:dove" v="13004"/>
    <tag k="religion" v="christian"/>
    <tag k="wikidata" v="Q17527795"/>
  </way>
  <way id="440208477" version="3" timestamp="2024-05-23T09:31:14Z" changeset="151712992" uid="95856" user="john paul jones &amp; gringo">
    <nd ref="4379291189"/>
    <nd ref="4379291190"/>
    <nd ref="4379291191"/>
    <nd ref="4379291192"/>
    <nd ref="4379291193"/>
    <nd ref="4379291194"/>
    <nd ref="4379291189"/>
    <tag k="addr:city" v="Huntingdon"/>
    <tag k="addr:country" v="GB"/>
    <tag k="addr:housename" v="Heathfields"/>
    <tag k="addr:postcode" v="PE28 3BP"/>
    <tag k="addr:street" v="Somersham Road"/>
    <tag k="addr:suburb" v="Woodhurst"/>
    <tag k="building" v="yes"/>
    <tag k="email" v="info@asfenner.co.uk"/>
    <tag k="name" v="A&amp;S Fenner"/>
    <tag k="phone" v="+44 1480 466696"/>
    <tag k="shop" v="bathroom_furnishing"/>
    <tag k="website" v="https://www.asfenner.co.uk"/>
  </way>
  <way id="729998211" version="1" timestamp="2019-09-30T18:34:24Z" changeset="75116012" uid="10338375" user="Nickyb65">
    <nd ref="6838567031"/>
    <nd ref="6838567032"/>
    <nd ref="6838567033"/>
    <nd ref="6838567034"/>
    <nd ref="6838567031"/>
    <tag k="addr:city" v="Bluntisham"/>
    <tag k="addr:street" v="Wood End"/>
    <tag k="building" v="house"/>
    <tag k="name" v="North View"/>
  </way>
  <way id="729998212" version="2" timestamp="2019-09-30T20:34:18Z" changeset="75119447" uid="10338375" user="Nickyb65">
    <nd ref="6838567035"/>
    <nd ref="6838567036"/>
    <nd ref="6838567037"/>
    <nd ref="6838567038"/>
    <nd ref="6838567035"/>
    <tag k="addr:city" v="Bluntisham"/>
    <tag k="addr:housename" v="North View"/>
    <tag k="addr:street" v="Wood End"/>
    <tag k="building" v="yes"/>
    <tag k="name" v="North View Garage &amp; Office"/>
  </way>

</osm>
