<?xml version="1.0" encoding="UTF-8"?>
<osm version="0.6" generator="Overpass API 0.7.62.4 2390de5a">
<note>The data included in this document is from www.openstreetmap.org. The data is made available under ODbL.</note>
<meta osm_base="2025-01-21T14:26:30Z" areas="2024-12-31T00:49:33Z"/>

  <node id="26976845" lat="52.2707510" lon="0.1899843" version="4" timestamp="2022-04-24T12:17:51Z" changeset="120121979" uid="1102246" user="jtn20">
    <tag k="addr:city" v="Waterbeach"/>
    <tag k="addr:housenumber" v="1"/>
    <tag k="addr:postcode" v="CB25 9PB"/>
    <tag k="addr:street" v="Denny End Road"/>
    <tag k="amenity" v="fast_food"/>
    <tag k="cuisine" v="fish_and_chips"/>
    <tag k="fhrs:id" v="1433850"/>
    <tag k="name" v="The Beach Fryer"/>
    <tag k="source:name" v="survey"/>
  </node>
  <node id="467926948" lat="52.2581197" lon="0.1987522" version="7" timestamp="2023-12-07T23:27:07Z" changeset="144883638" uid="6816132" user="CjMalone">
    <tag k="addr:city" v="Waterbeach"/>
    <tag k="addr:housename" v="The Bridge"/>
    <tag k="addr:postcode" v="CB25 9HZ"/>
    <tag k="addr:street" v="Clayhithe Road"/>
    <tag k="amenity" v="pub"/>
    <tag k="brand" v="Chef &amp; Brewer"/>
    <tag k="brand:wikidata" v="Q5089491"/>
    <tag k="cuisine" v="british"/>
    <tag k="email" v="6335unit@spiritpubcompany.com"/>
    <tag k="name" v="The Bridge"/>
    <tag k="operator" v="Chef &amp; Brewer Pub Co"/>
    <tag k="phone" v="+44 1223 860622"/>
    <tag k="website" v="https://www.chefandbrewer.com/pubs/cambridgeshire/bridge"/>
  </node>
  <node id="667327413" lat="52.2681065" lon="0.1901744" version="5" timestamp="2017-09-02T17:22:01Z" changeset="51675236" uid="242345" user="confusedbuffalo">
    <tag k="addr:housenumber" v="17"/>
    <tag k="addr:street" v="High Street"/>
    <tag k="name" v="Boswell &amp; Son"/>
    <tag k="phone" v="+44 1223 860916"/>
    <tag k="shop" v="bakery"/>
    <tag k="takeaway" v="yes"/>
    <tag k="wheelchair" v="yes"/>
  </node>
  <node id="667328459" lat="52.2681508" lon="0.1901892" version="5" timestamp="2017-09-02T17:22:01Z" changeset="51675236" uid="242345" user="confusedbuffalo">
    <tag k="addr:street" v="High Street"/>
    <tag k="name" v="Hair Wellbeing"/>
    <tag k="phone" v="+44 1223 860266"/>
    <tag k="shop" v="hairdresser"/>
  </node>
  <node id="7023769918" lat="52.2722510" lon="0.1819618" version="3" timestamp="2023-07-22T13:28:25Z" changeset="138854240" uid="417738" user="MyCallisto">
    <tag k="addr:city" v="Waterbeach"/>
    <tag k="addr:housename" v="Unit G3, Blenheim House, Cambridge Innovation Park"/>
    <tag k="addr:postcode" v="CB25 9GL"/>
    <tag k="addr:street" v="Denny End Road"/>
    <tag k="name" v="Silicon Microgravity Ltd, UK"/>
    <tag k="office" v="high_resolution_gravimeters,_accelerometers_and_gyroscopes_with_mems_technology"/>
    <tag k="opening_hours" v="Mo-Fr 09:00-17:00"/>
    <tag k="website" v="https://www.silicong.com"/>
  </node>
  <node id="7023769920" lat="52.2724598" lon="0.1807706" version="2" timestamp="2019-12-01T20:36:48Z" changeset="77790759" uid="5173844" user="ndrw6">
    <tag k="addr:city" v="Waterbeach"/>
    <tag k="addr:street" v="Denny End Road"/>
    <tag k="name" v="Cambridge Innovation Park North"/>
    <tag k="office" v="Business"/>
    <tag k="opening_hours" v="Mo-Su 07:00-22:00"/>
    <tag k="website" v="https://cambridgeinnovationparks.co.uk/"/>
  </node>
  <way id="4409050" version="12" timestamp="2023-10-02T14:55:41Z" changeset="142043633" uid="37791" user="Fradeve11">
    <nd ref="5590541585"/>
    <nd ref="26976880"/>
    <nd ref="2286183215"/>
    <nd ref="26976309"/>
    <nd ref="26976883"/>
    <nd ref="320900509"/>
    <nd ref="467679302"/>
    <nd ref="320900510"/>
    <nd ref="26976875"/>
    <nd ref="26976886"/>
    <nd ref="2286183211"/>
    <nd ref="26976887"/>
    <nd ref="5590541584"/>
    <nd ref="5590541585"/>
    <tag k="addr:postcode" v="CB25 9JU"/>
    <tag k="addr:street" v="High Street"/>
    <tag k="amenity" v="school"/>
    <tag k="capacity" v="630"/>
    <tag k="isced:level" v="1"/>
    <tag k="max_age" v="11"/>
    <tag k="min_age" v="4"/>
    <tag k="name" v="Waterbeach Community Primary School"/>
    <tag k="phone" v="+44 1223 718988"/>
    <tag k="ref:GB:uprn" v="10003196247"/>
    <tag k="ref:edubase" v="110621"/>
    <tag k="school:trust" v="no"/>
    <tag k="school:type" v="community"/>
    <tag k="website" v="https://www.waterbeach.cambs.sch.uk/"/>
    <tag k="wikidata" v="Q66223509"/>
  </way>
  <way id="131415576" version="4" timestamp="2019-02-25T19:39:58Z" changeset="67560166" uid="9229116" user="Bytemark">
    <nd ref="1446329797"/>
    <nd ref="1446329889"/>
    <nd ref="1446329885"/>
    <nd ref="1446329823"/>
    <nd ref="1446329797"/>
    <tag k="addr:housename" v="Teknix House"/>
    <tag k="addr:housenumber" v="2"/>
    <tag k="addr:postcode" v="CB25 9QR"/>
    <tag k="addr:street" v="Pembroke Avenue"/>
    <tag k="building" v="commercial"/>
    <tag k="name" v="Teknix House"/>
    <tag k="operator" v="Thermoteknix Systems"/>
  </way>
  <way id="136019648" version="6" timestamp="2019-03-25T06:56:47Z" changeset="68495121" uid="9451067" user="b-jazz-bot">
    <nd ref="1492729900"/>
    <nd ref="1492729918"/>
    <nd ref="1492729919"/>
    <nd ref="1492729916"/>
    <nd ref="1492729912"/>
    <nd ref="1492729860"/>
    <nd ref="1492729898"/>
    <nd ref="1492729864"/>
    <nd ref="1492729937"/>
    <nd ref="1492729907"/>
    <nd ref="1492729861"/>
    <nd ref="1492729880"/>
    <nd ref="1492729865"/>
    <nd ref="1492729942"/>
    <nd ref="1492729929"/>
    <nd ref="1492729857"/>
    <nd ref="1492729889"/>
    <nd ref="1492729936"/>
    <nd ref="1492729920"/>
    <nd ref="1492729914"/>
    <nd ref="1492729900"/>
    <tag k="addr:housename" v="Waterbeach Lodge"/>
    <tag k="addr:street" v="Ely Road"/>
    <tag k="amenity" v="social_facility"/>
    <tag k="building" v="yes"/>
    <tag k="fixme" v="Is this building still there?"/>
    <tag k="name" v="Waterbeach Lodge Care Home"/>
    <tag k="social_facility" v="nursing_home"/>
    <tag k="social_facility:for" v="senior"/>
    <tag k="source" v="bing;local knowledge"/>
    <tag k="website" v="https://www.scimitarcare.co.uk/"/>
  </way>
  <way id="136115794" version="3" timestamp="2016-01-19T21:21:57Z" changeset="36688922" uid="3537120" user="Menavaur">
    <nd ref="1493599147"/>
    <nd ref="1493599350"/>
    <nd ref="1493599143"/>
    <nd ref="1493599235"/>
    <nd ref="1493599178"/>
    <nd ref="1493599312"/>
    <nd ref="1493599147"/>
    <tag k="addr:city" v="Waterbeach"/>
    <tag k="addr:street" v="Long Drove"/>
    <tag k="building" v="house"/>
    <tag k="name" v="Hinge Farm"/>
    <tag k="source" v="bing"/>
  </way>
  <way id="136171047" version="5" timestamp="2016-01-16T23:05:48Z" changeset="36625575" uid="3537120" user="Menavaur">
    <nd ref="1494136144"/>
    <nd ref="1494136058"/>
    <nd ref="3950525831"/>
    <nd ref="1494136150"/>
    <nd ref="3950525830"/>
    <nd ref="1494136124"/>
    <nd ref="3950847275"/>
    <nd ref="3950847276"/>
    <nd ref="1494136144"/>
    <tag k="addr:city" v="Waterbeach"/>
    <tag k="addr:housename" v="Bank Farm Cottage"/>
    <tag k="addr:postcode" v="CB25 9LR"/>
    <tag k="addr:street" v="Long Drove"/>
    <tag k="building" v="terrace"/>
    <tag k="name" v="1 &amp; 2 Bank Farm Cottage"/>
    <tag k="source" v="Local Knowledge"/>
  </way>
  <way id="136171071" version="2" timestamp="2016-01-17T16:20:18Z" changeset="36636341" uid="3537120" user="Menavaur">
    <nd ref="1494136182"/>
    <nd ref="1494136052"/>
    <nd ref="1494136230"/>
    <nd ref="1494136096"/>
    <nd ref="1494136182"/>
    <tag k="addr:city" v="Waterbeach"/>
    <tag k="addr:housename" v="Black House"/>
    <tag k="addr:street" v="Long Drove"/>
    <tag k="building" v="house"/>
    <tag k="building:levels" v="2"/>
    <tag k="name" v="Black House"/>
    <tag k="source" v="bing"/>
  </way>
  <way id="136171074" version="2" timestamp="2016-01-16T20:11:01Z" changeset="36622897" uid="3537120" user="Menavaur">
    <nd ref="1494136108"/>
    <nd ref="1494136056"/>
    <nd ref="1494136122"/>
    <nd ref="1494136149"/>
    <nd ref="1494136160"/>
    <nd ref="1494136140"/>
    <nd ref="1494136108"/>
    <tag k="addr:city" v="Waterbeach"/>
    <tag k="addr:postcode" v="CB25 9LR"/>
    <tag k="addr:street" v="Long Drove"/>
    <tag k="building" v="house"/>
    <tag k="name" v="Grange Farm"/>
  </way>
  <way id="136171076" version="2" timestamp="2016-01-19T21:21:56Z" changeset="36688922" uid="3537120" user="Menavaur">
    <nd ref="1494136098"/>
    <nd ref="1494136206"/>
    <nd ref="1494136057"/>
    <nd ref="1494136170"/>
    <nd ref="1494136098"/>
    <tag k="addr:city" v="Waterbeach"/>
    <tag k="addr:housename" v="Rush Hill Farm"/>
    <tag k="addr:street" v="Long Drove"/>
    <tag k="building" v="house"/>
    <tag k="building:levels" v="2"/>
    <tag k="name" v="Rush Hill Farm"/>
    <tag k="source" v="bing"/>
  </way>
  <way id="136171077" version="2" timestamp="2016-01-19T21:21:56Z" changeset="36688922" uid="3537120" user="Menavaur">
    <nd ref="1494136247"/>
    <nd ref="1494136142"/>
    <nd ref="1494136133"/>
    <nd ref="1494136218"/>
    <nd ref="1494136005"/>
    <nd ref="1494136216"/>
    <nd ref="1494136232"/>
    <nd ref="1494136035"/>
    <nd ref="1494136225"/>
    <nd ref="1494136141"/>
    <nd ref="1494136220"/>
    <nd ref="1494136197"/>
    <nd ref="1494136186"/>
    <nd ref="1494136075"/>
    <nd ref="1494136247"/>
    <tag k="addr:city" v="Waterbeach"/>
    <tag k="addr:housename" v="The Hawthorns"/>
    <tag k="addr:street" v="Long Drove"/>
    <tag k="building" v="house"/>
    <tag k="name" v="The Hawthorns"/>
    <tag k="source" v="bing"/>
  </way>
  <way id="136171081" version="2" timestamp="2016-01-17T16:20:18Z" changeset="36636341" uid="3537120" user="Menavaur">
    <nd ref="1494136081"/>
    <nd ref="1494136092"/>
    <nd ref="1494136018"/>
    <nd ref="1494136202"/>
    <nd ref="1494136085"/>
    <nd ref="1494136068"/>
    <nd ref="1494136139"/>
    <nd ref="1494136119"/>
    <nd ref="1494136236"/>
    <nd ref="1494136210"/>
    <nd ref="1494136021"/>
    <nd ref="1494136076"/>
    <nd ref="1494136078"/>
    <nd ref="1494136093"/>
    <nd ref="1494136081"/>
    <tag k="addr:city" v="Waterbeach"/>
    <tag k="addr:housename" v="Joist Farm"/>
    <tag k="addr:street" v="Long Drove"/>
    <tag k="building" v="house"/>
    <tag k="building:levels" v="2"/>
    <tag k="name" v="Joist Farm"/>
    <tag k="source" v="bing"/>
  </way>
  <way id="136171396" version="2" timestamp="2016-01-19T21:21:56Z" changeset="36688922" uid="3537120" user="Menavaur">
    <nd ref="1494139922"/>
    <nd ref="1494139958"/>
    <nd ref="1494139907"/>
    <nd ref="1494139939"/>
    <nd ref="1494139945"/>
    <nd ref="1494139915"/>
    <nd ref="1494139903"/>
    <nd ref="1494139891"/>
    <nd ref="1494139922"/>
    <tag k="addr:city" v="Waterbeach"/>
    <tag k="addr:housename" v="Willow Croft"/>
    <tag k="addr:street" v="Long Drove"/>
    <tag k="building" v="house"/>
    <tag k="name" v="Willow Croft"/>
    <tag k="source" v="bing"/>
  </way>
  <way id="136172475" version="2" timestamp="2016-01-17T15:14:38Z" changeset="36635215" uid="3537120" user="Menavaur">
    <nd ref="1494147642"/>
    <nd ref="1494147658"/>
    <nd ref="1494147644"/>
    <nd ref="1494147697"/>
    <nd ref="1494147680"/>
    <nd ref="1494147663"/>
    <nd ref="1494147691"/>
    <nd ref="1494147659"/>
    <nd ref="1494147642"/>
    <tag k="addr:city" v="Waterbeach"/>
    <tag k="addr:housename" v="1 , 2 New Farm Cottages"/>
    <tag k="addr:street" v="Cross Drove"/>
    <tag k="building" v="house"/>
    <tag k="building:levels" v="2"/>
    <tag k="name" v="1 , 2 New Farm Cottages"/>
    <tag k="source" v="Bing"/>
  </way>
  <way id="136172480" version="3" timestamp="2018-10-20T21:28:28Z" changeset="63715031" uid="5173844" user="ndrw6">
    <nd ref="1494147668"/>
    <nd ref="1494147649"/>
    <nd ref="1494147688"/>
    <nd ref="1494147657"/>
    <nd ref="1494147648"/>
    <nd ref="1494147667"/>
    <nd ref="1494147668"/>
    <tag k="addr:housename" v="1 - 4 Bannold Box Cottages"/>
    <tag k="addr:postcode" v="CB25 9LP"/>
    <tag k="addr:street" v="Cross Drove"/>
    <tag k="building" v="house"/>
    <tag k="building:levels" v="2"/>
    <tag k="name" v="1 - 4 Bannold Box Cottages"/>
    <tag k="source" v="bing"/>
  </way>
  <way id="136172685" version="2" timestamp="2016-01-17T15:14:38Z" changeset="36635215" uid="3537120" user="Menavaur">
    <nd ref="1494148618"/>
    <nd ref="1494148621"/>
    <nd ref="1494148616"/>
    <nd ref="1494148610"/>
    <nd ref="1494148632"/>
    <nd ref="1494148620"/>
    <nd ref="1494148600"/>
    <nd ref="1494148628"/>
    <nd ref="1494148618"/>
    <tag k="addr:housename" v="New Farm"/>
    <tag k="addr:street" v="Cross Drove"/>
    <tag k="building" v="house"/>
    <tag k="name" v="New Farm"/>
    <tag k="source" v="bing"/>
  </way>
  <way id="219789591" version="3" timestamp="2015-11-12T10:54:36Z" changeset="35258359" uid="3160320" user="MR12325">
    <nd ref="2289228359"/>
    <nd ref="2571645135"/>
    <nd ref="2289228364"/>
    <nd ref="2289228442"/>
    <nd ref="2289228385"/>
    <nd ref="2289228535"/>
    <nd ref="2289228351"/>
    <nd ref="2289228359"/>
    <tag k="addr:housenumber" v="6"/>
    <tag k="addr:postcode" v="CB25 9HP"/>
    <tag k="addr:street" v="Green Side"/>
    <tag k="amenity" v="fast_food"/>
    <tag k="building" v="yes"/>
    <tag k="cuisine" v="chinese"/>
    <tag k="delivery" v="no"/>
    <tag k="drive_through" v="no"/>
    <tag k="name" v="Chung Hwa"/>
    <tag k="smoking" v="no"/>
    <tag k="takeaway" v="only"/>
  </way>
  <way id="219789595" version="8" timestamp="2023-11-11T10:26:17Z" changeset="143893444" uid="9451067" user="b-jazz-bot">
    <nd ref="2289228444"/>
    <nd ref="5594663218"/>
    <nd ref="2289228505"/>
    <nd ref="2289228462"/>
    <nd ref="2289228448"/>
    <nd ref="2289228513"/>
    <nd ref="2289228421"/>
    <nd ref="2289228474"/>
    <nd ref="2289228488"/>
    <nd ref="2289228477"/>
    <nd ref="2289228444"/>
    <tag k="addr:housenumber" v="12"/>
    <tag k="addr:postcode" v="CB25 9HP"/>
    <tag k="addr:street" v="Green Side"/>
    <tag k="amenity" v="pub"/>
    <tag k="building" v="commercial"/>
    <tag k="fhrs:id" v="849795"/>
    <tag k="name" v="White Horse"/>
    <tag k="outdoor_seating" v="yes"/>
    <tag k="phone" v="+44 1223 505053"/>
    <tag k="website" v="https://www.thewhitehorsewaterbeach.co.uk/"/>
  </way>
  <way id="219803542" version="3" timestamp="2018-03-15T22:43:47Z" changeset="57226551" uid="84263" user="Robert Whittaker">
    <nd ref="2289356283"/>
    <nd ref="2289356303"/>
    <nd ref="2289356137"/>
    <nd ref="2289356097"/>
    <nd ref="2289356272"/>
    <nd ref="2289356222"/>
    <nd ref="2289356283"/>
    <tag k="addr:city" v="Cambridge"/>
    <tag k="addr:housenumber" v="9"/>
    <tag k="addr:postcode" v="CB25 9HR"/>
    <tag k="addr:street" v="Chapel Street"/>
    <tag k="addr:village" v="Waterbeach"/>
    <tag k="amenity" v="post_office"/>
    <tag k="building" v="yes"/>
    <tag k="name" v="Waterbeach Village Stores"/>
    <tag k="opening_hours:post_office" v="Mo-Sa 07:00-22:00; Su 08:00-20:00"/>
    <tag k="ref:pol_id" v="132711"/>
    <tag k="shop" v="convenience"/>
    <tag k="source:opening_hours" v="pol_branch_list_2018-02"/>
  </way>
  <way id="230746232" version="4" timestamp="2020-05-20T13:14:50Z" changeset="85502140" uid="141442" user="CycleStreets">
    <nd ref="2392003717"/>
    <nd ref="2392003718"/>
    <nd ref="2392003719"/>
    <nd ref="2392003720"/>
    <nd ref="2392003721"/>
    <nd ref="2392003722"/>
    <nd ref="2392003723"/>
    <nd ref="2392003724"/>
    <nd ref="2392003725"/>
    <nd ref="2392003726"/>
    <nd ref="2392003717"/>
    <tag k="addr:city" v="Waterbeach"/>
    <tag k="addr:housename" v="Pegasus House"/>
    <tag k="addr:postcode" v="CB25 9PY"/>
    <tag k="addr:street" v="Pembroke Avenue"/>
    <tag k="building" v="commercial"/>
    <tag k="cyclestreets_id" v="115844"/>
    <tag k="name" v="Milton Brewery"/>
    <tag k="website" v="https://www.miltonbrewery.co.uk/"/>
  </way>
  <way id="250807636" version="2" timestamp="2014-07-09T15:50:42Z" changeset="24048218" uid="2175737" user="SewOn">
    <nd ref="2571734453"/>
    <nd ref="2571734454"/>
    <nd ref="2571734451"/>
    <nd ref="2571734449"/>
    <nd ref="2571734448"/>
    <nd ref="2571734447"/>
    <nd ref="2571734450"/>
    <nd ref="2571734452"/>
    <nd ref="2571734453"/>
    <tag k="addr:city" v="Waterbeach"/>
    <tag k="addr:housename" v="The Gate House, Stirling House"/>
    <tag k="addr:postcode" v="CB25 9PB"/>
    <tag k="addr:street" v="Denny End Road"/>
    <tag k="building" v="commercial"/>
    <tag k="name" v="SewOn"/>
  </way>
  <way id="366331788" version="3" timestamp="2023-01-28T00:30:39Z" changeset="131792931" uid="3999" user="BarryMyles">
    <nd ref="3703077511"/>
    <nd ref="3703077512"/>
    <nd ref="3703077513"/>
    <nd ref="3703077514"/>
    <nd ref="3703077515"/>
    <nd ref="3703077516"/>
    <nd ref="3703077511"/>
    <tag k="addr:city" v="Waterbeach"/>
    <tag k="addr:housenumber" v="3"/>
    <tag k="addr:postcode" v="CB25 9NJ"/>
    <tag k="addr:street" v="Cambridge Road"/>
    <tag k="building" v="yes"/>
    <tag k="name" v="Waterbeach Telephone Exchange"/>
    <tag k="operator" v="Openreach"/>
    <tag k="operator:wikidata" v="Q7096543"/>
    <tag k="ref" v="EAWTB"/>
    <tag k="telecom" v="exchange"/>
  </way>
  <way id="366333040" version="7" timestamp="2023-10-26T20:55:00Z" changeset="143180546" uid="1418967" user="RAC_UK">
    <nd ref="3703075021"/>
    <nd ref="3703075022"/>
    <nd ref="3703075023"/>
    <nd ref="3703075024"/>
    <nd ref="3703086525"/>
    <nd ref="3703086526"/>
    <nd ref="5594663332"/>
    <nd ref="3703075021"/>
    <tag k="addr:city" v="Waterbeach"/>
    <tag k="addr:country" v="GB"/>
    <tag k="addr:housenumber" v="7"/>
    <tag k="addr:postcode" v="CB25 9HT"/>
    <tag k="addr:street" v="Station Road"/>
    <tag k="amenity" v="place_of_worship"/>
    <tag k="building" v="yes"/>
    <tag k="denomination" v="salvation_army"/>
    <tag k="email" v="waterbeach@salvationarmy.org.uk"/>
    <tag k="name" v="Waterbeach Salvation Army"/>
    <tag k="phone" v="+44 1223 506 217"/>
    <tag k="religion" v="christian"/>
    <tag k="website" v="https://www.salvationarmy.org.uk/waterbeach"/>
  </way>
  <way id="366448336" version="3" timestamp="2018-12-07T15:50:32Z" changeset="65271932" uid="207297" user="Accipiter">
    <nd ref="3704246319"/>
    <nd ref="3704246320"/>
    <nd ref="3704246321"/>
    <nd ref="3704246322"/>
    <nd ref="3704246319"/>
    <tag k="addr:city" v="Waterbeach"/>
    <tag k="addr:housenumber" v="13"/>
    <tag k="addr:postcode" v="CB25 9JU"/>
    <tag k="addr:street" v="High Street"/>
    <tag k="building" v="commercial"/>
    <tag k="name" v="Spectacular Opticians"/>
    <tag k="operator" v="Spectacular Opticians"/>
    <tag k="shop" v="optician"/>
  </way>
  <way id="391873334" version="2" timestamp="2016-01-17T10:36:40Z" changeset="36630717" uid="3537120" user="Menavaur">
    <nd ref="3951350466"/>
    <nd ref="3951350467"/>
    <nd ref="3951350468"/>
    <nd ref="3951350469"/>
    <nd ref="3951350466"/>
    <tag k="addr:city" v="Waterbeach"/>
    <tag k="addr:housename" v="Heron Farm"/>
    <tag k="addr:street" v="Long Drove"/>
    <tag k="building" v="house"/>
    <tag k="building:levels" v="2"/>
    <tag k="name" v="Heron Farm"/>
    <tag k="source" v="OS, Local Knowledge"/>
  </way>
  <way id="391877845" version="1" timestamp="2016-01-17T10:54:34Z" changeset="36630974" uid="3537120" user="Menavaur">
    <nd ref="3951400990"/>
    <nd ref="3951400991"/>
    <nd ref="3951400992"/>
    <nd ref="3951400993"/>
    <nd ref="3951400990"/>
    <tag k="addr:city" v="Waterbeach"/>
    <tag k="addr:housename" v="Lowlands"/>
    <tag k="addr:street" v="Long Drove"/>
    <tag k="building" v="house"/>
    <tag k="building:levels" v="2"/>
    <tag k="name" v="Lowlands"/>
  </way>
  <way id="391906912" version="2" timestamp="2016-01-17T16:51:27Z" changeset="36637021" uid="3537120" user="Menavaur">
    <nd ref="3951681129"/>
    <nd ref="3951681130"/>
    <nd ref="3951681131"/>
    <nd ref="3951681132"/>
    <nd ref="3951681133"/>
    <nd ref="3951681134"/>
    <nd ref="3951681129"/>
    <tag k="addr:city" v="Waterbeach"/>
    <tag k="addr:housename" v="Bannold Crossing House"/>
    <tag k="addr:street" v="Cross Drove"/>
    <tag k="building" v="house"/>
    <tag k="building:levels" v="2"/>
    <tag k="name" v="Bannold Crossing House"/>
    <tag k="source" v="survey"/>
  </way>
  <way id="412376231" version="5" timestamp="2024-05-31T22:45:47Z" changeset="152100886" uid="11022773" user="GeoFens">
    <nd ref="4138224349"/>
    <nd ref="4138224346"/>
    <nd ref="11948939607"/>
    <nd ref="4163264758"/>
    <nd ref="262711257"/>
    <nd ref="4138224325"/>
    <nd ref="4138224332"/>
    <nd ref="11948939640"/>
    <nd ref="4138224330"/>
    <nd ref="4138224339"/>
    <nd ref="4138224334"/>
    <nd ref="4138224352"/>
    <nd ref="11948939618"/>
    <nd ref="4138224327"/>
    <nd ref="4138224344"/>
    <nd ref="11948939611"/>
    <nd ref="4138224345"/>
    <nd ref="4163264927"/>
    <nd ref="4138224349"/>
    <tag k="addr:city" v="Waterbeach"/>
    <tag k="addr:postcode" v="CB25 9PQ"/>
    <tag k="addr:street" v="Ely Road"/>
    <tag k="fee" v="yes"/>
    <tag k="fee:conditional" v="no @ (age &lt; 5)"/>
    <tag k="name" v="Denny Abbey and Farmland Museum"/>
    <tag k="nohousenumber" v="yes"/>
    <tag k="opening_hours:url" v="https://www.dennyfarmlandmuseum.org.uk/content/visiting-us/admission-prices"/>
    <tag k="operator" v="English Heritage"/>
    <tag k="seasonal" v="yes"/>
    <tag k="tourism" v="museum"/>
    <tag k="website" v="https://www.dennyfarmlandmuseum.org.uk/"/>
    <tag k="wikidata" v="Q732263"/>
    <tag k="wikipedia" v="en:Denny Abbey"/>
  </way>
  <way id="548627334" version="2" timestamp="2023-12-29T17:44:06Z" changeset="145671615" uid="2406" user="JeffB">
    <nd ref="5300023990"/>
    <nd ref="5300023991"/>
    <nd ref="5300023992"/>
    <nd ref="5300023993"/>
    <nd ref="5300023990"/>
    <tag k="addr:city" v="Waterbeach"/>
    <tag k="addr:street" v="Denny End Road"/>
    <tag k="building" v="kindergarten"/>
    <tag k="name" v="Herons' Preschool"/>
  </way>
  <way id="548627335" version="2" timestamp="2023-12-29T17:44:06Z" changeset="145671615" uid="2406" user="JeffB">
    <nd ref="5300023994"/>
    <nd ref="5300023995"/>
    <nd ref="5300023996"/>
    <nd ref="5300023997"/>
    <nd ref="5300023998"/>
    <nd ref="5300023999"/>
    <nd ref="5300024000"/>
    <nd ref="5300024001"/>
    <nd ref="5300024002"/>
    <nd ref="5300024003"/>
    <nd ref="5300024004"/>
    <nd ref="5300024005"/>
    <nd ref="5300024006"/>
    <nd ref="5300024007"/>
    <nd ref="5300023994"/>
    <tag k="addr:city" v="Waterbeach"/>
    <tag k="addr:postcode" v="CB25 9PA"/>
    <tag k="addr:street" v="Denny End Road"/>
    <tag k="building" v="public"/>
    <tag k="name" v="Waterbeach Military Heritage Museum"/>
    <tag k="tourism" v="museum"/>
  </way>
  <way id="583461568" version="2" timestamp="2022-04-24T12:17:51Z" changeset="120121979" uid="1102246" user="jtn20">
    <nd ref="5578115331"/>
    <nd ref="5578115332"/>
    <nd ref="5578115333"/>
    <nd ref="5578115334"/>
    <nd ref="5578115331"/>
    <tag k="addr:city" v="Waterbeach"/>
    <tag k="addr:housenumber" v="6"/>
    <tag k="addr:postcode" v="CB25 9HR"/>
    <tag k="addr:street" v="Chapel Street"/>
    <tag k="amenity" v="cafe"/>
    <tag k="building" v="yes"/>
    <tag k="fhrs:id" v="1433245"/>
    <tag k="name" v="Pharmacie Cafe"/>
  </way>

</osm>
