<?xml version="1.0" encoding="UTF-8"?>
<osm version="0.6" generator="Overpass API 0.7.62.4 2390de5a">
<note>The data included in this document is from www.openstreetmap.org. The data is made available under ODbL.</note>
<meta osm_base="2025-01-23T15:36:00Z" areas="2024-12-31T00:49:33Z"/>

  <way id="5015900" version="12" timestamp="2022-04-15T21:34:33Z" changeset="119766421" uid="227138" user="spookypeanut">
    <nd ref="33409316"/>
    <nd ref="9667021837"/>
    <nd ref="33409317"/>
    <nd ref="5875341772"/>
    <nd ref="705359086"/>
    <nd ref="33409318"/>
    <nd ref="33409319"/>
    <nd ref="33409320"/>
    <nd ref="1820224729"/>
    <nd ref="1658546039"/>
    <nd ref="33409312"/>
    <nd ref="1820224827"/>
    <nd ref="33409313"/>
    <nd ref="1820224814"/>
    <nd ref="9669065562"/>
    <nd ref="9669065564"/>
    <nd ref="9669065566"/>
    <nd ref="1820224823"/>
    <nd ref="1820224720"/>
    <nd ref="9666995100"/>
    <nd ref="33409323"/>
    <nd ref="33409314"/>
    <nd ref="33409315"/>
    <nd ref="9667021833"/>
    <nd ref="1831233555"/>
    <nd ref="1831233547"/>
    <nd ref="9667021836"/>
    <nd ref="33409316"/>
    <tag k="addr:postcode" v="SG8 6PZ"/>
    <tag k="addr:street" v="Station Road"/>
    <tag k="contact:website" v="http://www.sheprethwildlifepark.co.uk/"/>
    <tag k="name" v="Shepreth Wildlife Park"/>
    <tag k="note" v="unsure of boundaries; merge parking area?"/>
    <tag k="old_name" v="Willers Mill"/>
    <tag k="source" v="Bing; extrapolation?"/>
    <tag k="tourism" v="zoo"/>
    <tag k="wikidata" v="Q55713636"/>
  </way>
  <way id="133496790" version="4" timestamp="2021-07-03T01:15:14Z" changeset="107335932" uid="493595" user="Yorvik Prestigitator">
    <nd ref="1469285878"/>
    <nd ref="1469285882"/>
    <nd ref="5406246828"/>
    <nd ref="1469285890"/>
    <nd ref="1469285888"/>
    <nd ref="1469285889"/>
    <nd ref="1469285878"/>
    <tag k="addr:city" v="Shepreth"/>
    <tag k="addr:housenumber" v="2"/>
    <tag k="addr:postcode" v="SG8 6PZ"/>
    <tag k="addr:street" v="Station Road"/>
    <tag k="amenity" v="community_centre"/>
    <tag k="building" v="public"/>
    <tag k="community_centre" v="village_hall"/>
    <tag k="name" v="Shepreth Village Hall"/>
    <tag k="website" v="http://www.hallsforhire.org.uk/halls/shepreth-village-hall/"/>
  </way>
  <way id="621947738" version="3" timestamp="2023-11-10T05:59:03Z" changeset="143848233" uid="9451067" user="b-jazz-bot">
    <nd ref="5875339935"/>
    <nd ref="5875339934"/>
    <nd ref="7784747549"/>
    <nd ref="5875339933"/>
    <nd ref="5875339932"/>
    <nd ref="5875339935"/>
    <tag k="addr:city" v="SHEPRETH"/>
    <tag k="addr:postcode" v="SG8 6RB"/>
    <tag k="addr:street" v="Dunsbridge Turnpike"/>
    <tag k="building" v="yes"/>
    <tag k="email" v="office@wrightsmowercentre.co.uk"/>
    <tag k="name" v="Wrights Mower Centre"/>
    <tag k="operator" v="Wrights Mower Centre Ltd"/>
    <tag k="shop" v="hardware"/>
    <tag k="website" v="https://wrightsmowercentre.co.uk/"/>
  </way>
  <way id="621947772" version="2" timestamp="2022-11-20T15:55:07Z" changeset="129161273" uid="281267" user="smb1001">
    <nd ref="5875341228"/>
    <nd ref="5875341222"/>
    <nd ref="5875341221"/>
    <nd ref="5875341225"/>
    <nd ref="5875341223"/>
    <nd ref="5875341224"/>
    <nd ref="5875341226"/>
    <nd ref="5875341227"/>
    <nd ref="5875341228"/>
    <tag k="addr:postcode" v="SG8 6RA"/>
    <tag k="addr:street" v="Dunsbridge Turnpike"/>
    <tag k="amenity" v="pub"/>
    <tag k="building" v="yes"/>
    <tag k="name" v="Green Man"/>
    <tag k="source:name" v="dictaphone"/>
  </way>
  <way id="621948002" version="2" timestamp="2020-05-15T18:07:08Z" changeset="85276299" uid="1287673" user="sloerunner">
    <nd ref="5875342593"/>
    <nd ref="5875342590"/>
    <nd ref="5875342591"/>
    <nd ref="5875342592"/>
    <nd ref="5875342593"/>
    <tag k="addr:housename" v="White Cottage"/>
    <tag k="addr:housenumber" v="12"/>
    <tag k="addr:postcode" v="SG8 6QJ"/>
    <tag k="addr:street" v="Angle Lane"/>
    <tag k="building" v="cottage"/>
    <tag k="roof" v="thatched"/>
    <tag k="source" v="survey"/>
    <tag k="source:addr" v="survey"/>
  </way>
  <way id="621948008" version="2" timestamp="2020-05-15T18:07:08Z" changeset="85276299" uid="1287673" user="sloerunner">
    <nd ref="5875342619"/>
    <nd ref="5875342616"/>
    <nd ref="5875342617"/>
    <nd ref="5875342618"/>
    <nd ref="5875342614"/>
    <nd ref="5875342615"/>
    <nd ref="5875342619"/>
    <tag k="addr:housename" v="Manor End"/>
    <tag k="addr:housenumber" v="14"/>
    <tag k="addr:postcode" v="SG8 6QJ"/>
    <tag k="addr:street" v="Angle Lane"/>
    <tag k="building" v="residential"/>
    <tag k="source" v="survey"/>
    <tag k="source:addr" v="survey"/>
  </way>
  <way id="621948014" version="2" timestamp="2020-05-15T18:07:08Z" changeset="85276299" uid="1287673" user="sloerunner">
    <nd ref="5875342657"/>
    <nd ref="5875342653"/>
    <nd ref="5875342652"/>
    <nd ref="5875342656"/>
    <nd ref="5875342655"/>
    <nd ref="5875342654"/>
    <nd ref="5875342657"/>
    <tag k="addr:housenumber" v="20"/>
    <tag k="addr:postcode" v="SG8 6QJ"/>
    <tag k="addr:street" v="Angle Lane"/>
    <tag k="building" v="residential"/>
    <tag k="source" v="survey"/>
    <tag k="source:addr" v="survey"/>
  </way>
  <way id="621948015" version="2" timestamp="2020-05-15T18:07:08Z" changeset="85276299" uid="1287673" user="sloerunner">
    <nd ref="5875342667"/>
    <nd ref="5875342666"/>
    <nd ref="5875342661"/>
    <nd ref="5875342660"/>
    <nd ref="5875342665"/>
    <nd ref="5875342662"/>
    <nd ref="5875342663"/>
    <nd ref="5875342664"/>
    <nd ref="5875342659"/>
    <nd ref="5875342658"/>
    <nd ref="5875342667"/>
    <tag k="addr:housenumber" v="22"/>
    <tag k="addr:postcode" v="SG8 6QJ"/>
    <tag k="addr:street" v="Angle Lane"/>
    <tag k="building" v="residential"/>
    <tag k="source" v="survey"/>
    <tag k="source:addr" v="survey"/>
  </way>
  <way id="621948017" version="2" timestamp="2020-05-15T18:07:08Z" changeset="85276299" uid="1287673" user="sloerunner">
    <nd ref="5875342675"/>
    <nd ref="5875342672"/>
    <nd ref="5875342673"/>
    <nd ref="5875342674"/>
    <nd ref="5875342675"/>
    <tag k="addr:housenumber" v="24A"/>
    <tag k="addr:postcode" v="SG8 6QJ"/>
    <tag k="addr:street" v="Angle Lane"/>
    <tag k="building" v="residential"/>
  </way>
  <way id="621948018" version="2" timestamp="2020-05-15T18:07:08Z" changeset="85276299" uid="1287673" user="sloerunner">
    <nd ref="5875342679"/>
    <nd ref="5875342676"/>
    <nd ref="5875342677"/>
    <nd ref="5875342678"/>
    <nd ref="5875342679"/>
    <tag k="addr:housename" v="Brookside"/>
    <tag k="addr:housenumber" v="24"/>
    <tag k="addr:postcode" v="SG8 6QJ"/>
    <tag k="addr:street" v="Angle Lane"/>
    <tag k="building" v="residential"/>
    <tag k="source" v="survey"/>
    <tag k="source:addr" v="survey"/>
  </way>
  <way id="621948029" version="6" timestamp="2024-10-29T06:58:28Z" changeset="158483932" uid="557496" user="claudia10">
    <nd ref="5875342737"/>
    <nd ref="5875342733"/>
    <nd ref="5875342732"/>
    <nd ref="5875342736"/>
    <nd ref="5875342735"/>
    <nd ref="5875342734"/>
    <nd ref="5875342737"/>
    <tag k="addr:housenumber" v="2"/>
    <tag k="addr:postcode" v="SG8 6PS"/>
    <tag k="addr:street" v="Meldreth Road"/>
    <tag k="building" v="yes"/>
    <tag k="castle_type" v="manor"/>
    <tag k="historic" v="manor"/>
    <tag k="name" v="Docwra's Manor"/>
  </way>
  <way id="808331993" version="2" timestamp="2023-04-23T23:08:02Z" changeset="135279863" uid="2969887" user="eastender">
    <nd ref="7558692201"/>
    <nd ref="7558692202"/>
    <nd ref="7558692203"/>
    <nd ref="7558692204"/>
    <nd ref="7558692201"/>
    <tag k="addr:city" v="Shepreth"/>
    <tag k="addr:housename" v="Enterprise Rent-a-car"/>
    <tag k="addr:housenumber" v="C/o Dobbies Garden Centre"/>
    <tag k="addr:postcode" v="SG8 6RA"/>
    <tag k="addr:street" v="Cambridge Road"/>
    <tag k="landuse" v="retail"/>
    <tag k="name" v="Enterprise rent-a-car"/>
  </way>

</osm>
