<?xml version="1.0" encoding="UTF-8"?>
<osm version="0.6" generator="Overpass API 0.7.62.5 1bd436f1">
<note>The data included in this document is from www.openstreetmap.org. The data is made available under ODbL.</note>
<meta osm_base="2025-02-19T01:01:56Z" areas="2025-02-06T02:17:44Z"/>

  <node id="2414711664" lat="52.2761516" lon="-0.2531347" version="2" timestamp="2022-07-16T16:09:28Z" changeset="123694679" uid="242345" user="confusedbuffalo">
    <tag k="addr:city" v="St Neots"/>
    <tag k="addr:housenumber" v="26"/>
    <tag k="addr:postcode" v="PE19 5XU"/>
    <tag k="addr:street" v="The Street"/>
  </node>
  <node id="2414711667" lat="52.2761073" lon="-0.2530448" version="2" timestamp="2022-07-16T16:09:28Z" changeset="123694679" uid="242345" user="confusedbuffalo">
    <tag k="addr:city" v="St Neots"/>
    <tag k="addr:housenumber" v="25"/>
    <tag k="addr:postcode" v="PE19 5XU"/>
    <tag k="addr:street" v="The Street"/>
  </node>
  <node id="2414711680" lat="52.2761967" lon="-0.2532205" version="2" timestamp="2022-07-16T16:09:28Z" changeset="123694679" uid="242345" user="confusedbuffalo">
    <tag k="addr:city" v="St Neots"/>
    <tag k="addr:housenumber" v="27"/>
    <tag k="addr:postcode" v="PE19 5XU"/>
    <tag k="addr:street" v="The Street"/>
  </node>
  <way id="233132776" version="5" timestamp="2023-01-28T17:55:03Z" changeset="131816980" uid="493595" user="Yorvik Prestigitator">
    <nd ref="2414665900"/>
    <nd ref="2414665916"/>
    <nd ref="2414665662"/>
    <nd ref="2414665404"/>
    <nd ref="2414665586"/>
    <nd ref="9052102013"/>
    <nd ref="9052102012"/>
    <nd ref="2414665573"/>
    <nd ref="2414665900"/>
    <tag k="addr:city" v="St Neots"/>
    <tag k="addr:postcode" v="PE19 5XU"/>
    <tag k="addr:street" v="The Street"/>
    <tag k="building" v="yes"/>
    <tag k="disused:amenity" v="community_centre"/>
    <tag k="name" v="The Old Village Hall"/>
    <tag k="old_name" v="Diddington Village Hall"/>
  </way>
  <way id="233132777" version="3" timestamp="2022-07-16T16:09:28Z" changeset="123694679" uid="242345" user="confusedbuffalo">
    <nd ref="2414665649"/>
    <nd ref="2414665579"/>
    <nd ref="2414665570"/>
    <nd ref="2414665645"/>
    <nd ref="2414665493"/>
    <nd ref="2414665580"/>
    <nd ref="2414665575"/>
    <nd ref="2414665436"/>
    <nd ref="2414665814"/>
    <nd ref="2414665704"/>
    <nd ref="2414665880"/>
    <nd ref="2414665830"/>
    <nd ref="2414665394"/>
    <nd ref="2414665892"/>
    <nd ref="2414665649"/>
    <tag k="addr:city" v="St Neots"/>
    <tag k="addr:postcode" v="PE19 5YN"/>
    <tag k="addr:street" v="Vicarage Lane"/>
    <tag k="building" v="yes"/>
    <tag k="name" v="The Vicarage"/>
  </way>
  <way id="388390913" version="2" timestamp="2016-08-08T14:04:15Z" changeset="41325265" uid="2983218" user="LovenOutdoors">
    <nd ref="3915953388"/>
    <nd ref="3915953389"/>
    <nd ref="3915953390"/>
    <nd ref="3915953391"/>
    <nd ref="3915953392"/>
    <nd ref="4341137563"/>
    <nd ref="3915953393"/>
    <nd ref="4341137564"/>
    <nd ref="3915953394"/>
    <nd ref="3915953395"/>
    <nd ref="4341137562"/>
    <nd ref="4341137561"/>
    <nd ref="3915953396"/>
    <nd ref="3915953397"/>
    <nd ref="3915953388"/>
    <tag k="addr:city" v="St Neots"/>
    <tag k="addr:postcode" v="PE19 5YN"/>
    <tag k="addr:street" v="Vicarage Lane"/>
    <tag k="landuse" v="farmyard"/>
    <tag k="name" v="Lodge Farm"/>
  </way>

</osm>
