<?xml version="1.0" encoding="UTF-8"?>
<osm version="0.6" generator="Overpass API 0.7.62.4 2390de5a">
<note>The data included in this document is from www.openstreetmap.org. The data is made available under ODbL.</note>
<meta osm_base="2025-01-23T15:42:11Z" areas="2024-12-31T00:49:33Z"/>

  <node id="6323353017" lat="52.2550728" lon="-0.0760734" version="5" timestamp="2024-12-23T20:32:46Z" changeset="160552908" uid="5173844" user="ndrw6">
    <tag k="addr:city" v="Cambridge"/>
    <tag k="addr:country" v="GB"/>
    <tag k="addr:housename" v="The Pavillion"/>
    <tag k="addr:postcode" v="CB23 4JD"/>
    <tag k="addr:street" v="Broad End"/>
    <tag k="addr:village" v="Elsworth"/>
    <tag k="amenity" v="post_office"/>
    <tag k="name" v="Elsworth Post Office"/>
    <tag k="opening_hours" v="Tu 14:00-16:00; Th 12:00-14:00"/>
    <tag k="ref:pol_id" v="108813"/>
  </node>
  <way id="13973551" version="4" timestamp="2023-01-15T03:40:27Z" changeset="131285342" uid="5173844" user="ndrw6">
    <nd ref="132350551"/>
    <nd ref="132350553"/>
    <nd ref="4076917406"/>
    <nd ref="132350556"/>
    <nd ref="132350559"/>
    <nd ref="10555768224"/>
    <nd ref="10555768223"/>
    <nd ref="10555768222"/>
    <nd ref="132350551"/>
    <tag k="addr:postcode" v="CB23 4EY"/>
    <tag k="addr:street" v="Brockley Road"/>
    <tag k="landuse" v="commercial"/>
    <tag k="name" v="Avenue Business Park"/>
  </way>
  <way id="152686984" version="3" timestamp="2024-12-23T20:32:46Z" changeset="160552908" uid="5173844" user="ndrw6">
    <nd ref="1654871877"/>
    <nd ref="1654871905"/>
    <nd ref="1654871853"/>
    <nd ref="1654871855"/>
    <nd ref="1654871877"/>
    <tag k="addr:city" v="Cambridge"/>
    <tag k="addr:country" v="GB"/>
    <tag k="addr:housenumber" v="1"/>
    <tag k="addr:postcode" v="CB23 4JS"/>
    <tag k="addr:street" v="Brockley Road"/>
    <tag k="addr:village" v="Elsworth"/>
    <tag k="amenity" v="pub"/>
    <tag k="building" v="yes"/>
    <tag k="fhrs:id" v="875024"/>
    <tag k="name" v="The Poacher"/>
  </way>
  <way id="152686985" version="5" timestamp="2024-12-23T20:32:46Z" changeset="160552908" uid="5173844" user="ndrw6">
    <nd ref="1654871887"/>
    <nd ref="1654871857"/>
    <nd ref="1654871859"/>
    <nd ref="1654871871"/>
    <nd ref="1654871887"/>
    <tag k="addr:city" v="Cambridge"/>
    <tag k="addr:country" v="GB"/>
    <tag k="addr:postcode" v="CB23 4JD"/>
    <tag k="addr:street" v="Broad End"/>
    <tag k="addr:village" v="Elsworth"/>
    <tag k="building" v="retail"/>
    <tag k="email" v="info@elsworth-shop.co.uk"/>
    <tag k="name" v="Elsworth Community Shop"/>
    <tag k="opening_hours" v="Mo-Fr 08:00-18:00; Sa-Sun 09:00-12:00"/>
    <tag k="operator" v="Elsworth Community Shop Association Limited"/>
    <tag k="phone" v="+44 01954 267951"/>
    <tag k="shop" v="convenience"/>
    <tag k="website" v="https://www.elsworth-shop.co.uk/"/>
  </way>
  <way id="219913530" version="4" timestamp="2024-12-23T20:32:46Z" changeset="160552908" uid="5173844" user="ndrw6">
    <nd ref="2290416451"/>
    <nd ref="2290416493"/>
    <nd ref="2290416473"/>
    <nd ref="2290416481"/>
    <nd ref="2290416462"/>
    <nd ref="12445454486"/>
    <nd ref="12445454484"/>
    <nd ref="12445454483"/>
    <nd ref="12445454485"/>
    <nd ref="2290416499"/>
    <nd ref="12445454487"/>
    <nd ref="12445454488"/>
    <nd ref="2290416491"/>
    <nd ref="2290416451"/>
    <tag k="addr:city" v="Cambridge"/>
    <tag k="addr:country" v="GB"/>
    <tag k="addr:housenumber" v="41"/>
    <tag k="addr:postcode" v="CB23 4JQ"/>
    <tag k="addr:street" v="Boxworth Road"/>
    <tag k="addr:village" v="Elsworth"/>
    <tag k="amenity" v="pub"/>
    <tag k="building" v="yes"/>
    <tag k="fhrs:id" v="596169"/>
    <tag k="name" v="George &amp; Dragon"/>
  </way>
  <way id="372022079" version="7" timestamp="2024-12-23T20:32:46Z" changeset="160552908" uid="5173844" user="ndrw6">
    <nd ref="3755607790"/>
    <nd ref="3755607785"/>
    <nd ref="3755607799"/>
    <nd ref="3755607804"/>
    <nd ref="3755607793"/>
    <nd ref="3755607810"/>
    <nd ref="3755607827"/>
    <nd ref="728856478"/>
    <nd ref="728856477"/>
    <nd ref="3755607790"/>
    <tag k="addr:city" v="Cambridge"/>
    <tag k="addr:country" v="GB"/>
    <tag k="addr:postcode" v="CB23 4JD"/>
    <tag k="addr:street" v="Broad End"/>
    <tag k="addr:village" v="Elsworth"/>
    <tag k="amenity" v="school"/>
    <tag k="capacity" v="140"/>
    <tag k="denomination" v="anglican"/>
    <tag k="diocese" v="Diocese of Ely"/>
    <tag k="isced:level" v="1"/>
    <tag k="max_age" v="11"/>
    <tag k="min_age" v="4"/>
    <tag k="name" v="Elsworth CofE VA Primary School"/>
    <tag k="phone" v="+44 1945 267272"/>
    <tag k="ref:GB:uprn" v="10003200514"/>
    <tag k="ref:edubase" v="110830"/>
    <tag k="religion" v="christian"/>
    <tag k="school:trust" v="no"/>
    <tag k="school:type" v="voluntary_aided"/>
    <tag k="website" v="https://www.elsworthprimaryschool.org/"/>
    <tag k="wikidata" v="Q66223650"/>
  </way>
  <way id="547146512" version="2" timestamp="2024-07-01T12:01:22Z" changeset="153408847" uid="607093" user="Rich Bartlett">
    <nd ref="5286736638"/>
    <nd ref="5286736639"/>
    <nd ref="5286736640"/>
    <nd ref="5286736641"/>
    <nd ref="5286736638"/>
    <tag k="addr:city" v="Elseworth, Camridge"/>
    <tag k="addr:housename" v="Frank's Farm Farm Shop"/>
    <tag k="addr:postcode" v="CB23 4EY"/>
    <tag k="addr:street" v="Brockley Road"/>
    <tag k="building" v="yes"/>
    <tag k="name" v="Frank's Farm"/>
    <tag k="website" v="https://franks.farm/"/>
    <tag k="wheelchair" v="yes"/>
  </way>
  <way id="550481632" version="3" timestamp="2024-12-23T20:32:46Z" changeset="160552908" uid="5173844" user="ndrw6">
    <nd ref="5316922162"/>
    <nd ref="5316922163"/>
    <nd ref="12445454250"/>
    <nd ref="12445454248"/>
    <nd ref="12445454247"/>
    <nd ref="12445454249"/>
    <nd ref="5316922164"/>
    <nd ref="5316922165"/>
    <nd ref="5316922166"/>
    <nd ref="5316922167"/>
    <nd ref="5316922168"/>
    <nd ref="5316922169"/>
    <nd ref="5316922162"/>
    <tag k="addr:city" v="Cambridge"/>
    <tag k="addr:country" v="GB"/>
    <tag k="addr:housenumber" v="5"/>
    <tag k="addr:street" v="The Drift"/>
    <tag k="addr:village" v="Elsworth"/>
    <tag k="building" v="house"/>
  </way>
  <way id="550523392" version="3" timestamp="2024-12-23T20:32:46Z" changeset="160552908" uid="5173844" user="ndrw6">
    <nd ref="5317339309"/>
    <nd ref="5317339310"/>
    <nd ref="5317339311"/>
    <nd ref="5317339312"/>
    <nd ref="5317339309"/>
    <tag k="addr:city" v="Cambridge"/>
    <tag k="addr:country" v="GB"/>
    <tag k="addr:housenumber" v="36"/>
    <tag k="addr:street" v="Smith Street"/>
    <tag k="addr:village" v="Elsworth"/>
    <tag k="building" v="house"/>
  </way>
  <way id="550523393" version="3" timestamp="2024-12-23T20:32:46Z" changeset="160552908" uid="5173844" user="ndrw6">
    <nd ref="5317339313"/>
    <nd ref="5317339314"/>
    <nd ref="5317339315"/>
    <nd ref="5317339316"/>
    <nd ref="5317339317"/>
    <nd ref="5317339318"/>
    <nd ref="5317339313"/>
    <tag k="addr:city" v="Cambridge"/>
    <tag k="addr:country" v="GB"/>
    <tag k="addr:housenumber" v="32"/>
    <tag k="addr:street" v="Smith Street"/>
    <tag k="addr:village" v="Elsworth"/>
    <tag k="building" v="house"/>
  </way>
  <way id="550523395" version="3" timestamp="2024-12-23T20:32:46Z" changeset="160552908" uid="5173844" user="ndrw6">
    <nd ref="5317339323"/>
    <nd ref="5317339324"/>
    <nd ref="5317339325"/>
    <nd ref="5317339326"/>
    <nd ref="5317339327"/>
    <nd ref="5317339328"/>
    <nd ref="5317339329"/>
    <nd ref="5317339330"/>
    <nd ref="5317339323"/>
    <tag k="addr:city" v="Cambridge"/>
    <tag k="addr:country" v="GB"/>
    <tag k="addr:housenumber" v="26"/>
    <tag k="addr:street" v="Smith Street"/>
    <tag k="addr:village" v="Elsworth"/>
    <tag k="building" v="house"/>
  </way>
  <way id="550523413" version="3" timestamp="2024-12-23T20:32:46Z" changeset="160552908" uid="5173844" user="ndrw6">
    <nd ref="5317339417"/>
    <nd ref="5317339418"/>
    <nd ref="5317339419"/>
    <nd ref="5317339420"/>
    <nd ref="5317339417"/>
    <tag k="addr:city" v="Cambridge"/>
    <tag k="addr:country" v="GB"/>
    <tag k="addr:housenumber" v="4"/>
    <tag k="addr:street" v="Broad End"/>
    <tag k="addr:village" v="Elsworth"/>
    <tag k="building" v="house"/>
  </way>
  <way id="550523415" version="3" timestamp="2024-12-23T20:32:46Z" changeset="160552908" uid="5173844" user="ndrw6">
    <nd ref="5317339427"/>
    <nd ref="5317339428"/>
    <nd ref="5317339429"/>
    <nd ref="5317339430"/>
    <nd ref="5317339427"/>
    <tag k="addr:city" v="Cambridge"/>
    <tag k="addr:country" v="GB"/>
    <tag k="addr:housenumber" v="8"/>
    <tag k="addr:street" v="Fardell's Lane"/>
    <tag k="addr:village" v="Elsworth"/>
    <tag k="building" v="house"/>
  </way>

</osm>
