<?xml version="1.0" encoding="UTF-8"?>
<osm version="0.6" generator="Overpass API 0.7.62.4 2390de5a">
<note>The data included in this document is from www.openstreetmap.org. The data is made available under ODbL.</note>
<meta osm_base="2024-11-27T17:24:14Z" areas="2024-11-27T16:03:35Z"/>

  <way id="147203770" version="8" timestamp="2021-07-09T12:41:25Z" changeset="107704752" uid="742701" user="kerr smith">
    <nd ref="1604158608"/>
    <nd ref="1604158610"/>
    <nd ref="1604158613"/>
    <nd ref="1604158614"/>
    <nd ref="8869871228"/>
    <nd ref="8869871227"/>
    <nd ref="3456391665"/>
    <nd ref="8869871225"/>
    <nd ref="8869871226"/>
    <nd ref="1604158564"/>
    <nd ref="3456391670"/>
    <nd ref="3456391673"/>
    <nd ref="3456391677"/>
    <nd ref="3456391675"/>
    <nd ref="1604158617"/>
    <nd ref="8907236712"/>
    <nd ref="8907236715"/>
    <nd ref="8907236716"/>
    <nd ref="8907236713"/>
    <nd ref="1604158621"/>
    <nd ref="1604158574"/>
    <nd ref="1604158608"/>
    <tag k="addr:street" v="Church Lane"/>
    <tag k="amenity" v="place_of_worship"/>
    <tag k="building" v="church"/>
    <tag k="denomination" v="anglican"/>
    <tag k="name" v="St Mary's"/>
    <tag k="religion" v="christian"/>
    <tag k="source" v="bing"/>
    <tag k="wikidata" v="Q17528220"/>
  </way>
  <way id="304817958" version="6" timestamp="2023-11-10T05:59:28Z" changeset="143848233" uid="9451067" user="b-jazz-bot">
    <nd ref="3094148015"/>
    <nd ref="3094148013"/>
    <nd ref="3094148016"/>
    <nd ref="3094148014"/>
    <nd ref="3094148015"/>
    <tag k="addr:postcode" v="CB23 7DY"/>
    <tag k="addr:street" v="Green End"/>
    <tag k="amenity" v="place_of_worship"/>
    <tag k="building" v="church"/>
    <tag k="denomination" v="baptist"/>
    <tag k="name" v="Comberton Baptist Church"/>
    <tag k="phone" v="+44 1223 264707"/>
    <tag k="religion" v="christian"/>
    <tag k="website" v="https://www.c-b-c.org.uk//"/>
  </way>
  <way id="328681602" version="4" timestamp="2023-11-10T05:59:27Z" changeset="143848233" uid="9451067" user="b-jazz-bot">
    <nd ref="3355085543"/>
    <nd ref="3355085544"/>
    <nd ref="3355085545"/>
    <nd ref="3355085546"/>
    <nd ref="3355085547"/>
    <nd ref="3355085548"/>
    <nd ref="3355085549"/>
    <nd ref="3355085550"/>
    <nd ref="3355085543"/>
    <tag k="addr:housenumber" v="58"/>
    <tag k="addr:postcode" v="CB23 7DY"/>
    <tag k="addr:street" v="Green End"/>
    <tag k="amenity" v="doctors"/>
    <tag k="building" v="yes"/>
    <tag k="name" v="Comberton Surgery"/>
    <tag k="opening_hours" v="Mo-Fr 08:00-12:30,13:30-18:30"/>
    <tag k="phone" v="+44 1223 262500"/>
    <tag k="website" v="https://www.combertonandeversdensurgery.nhs.uk/"/>
  </way>
  <way id="335056371" version="3" timestamp="2024-02-27T22:33:16Z" changeset="147992340" uid="742701" user="kerr smith">
    <nd ref="3421854128"/>
    <nd ref="3421854129"/>
    <nd ref="11670223734"/>
    <nd ref="11670223733"/>
    <nd ref="3421854119"/>
    <nd ref="3421854115"/>
    <nd ref="11670223731"/>
    <nd ref="11670223732"/>
    <nd ref="11670223718"/>
    <nd ref="11670223716"/>
    <nd ref="11670223715"/>
    <nd ref="11670223717"/>
    <nd ref="3421854128"/>
    <tag k="addr:housenumber" v="1,3"/>
    <tag k="addr:street" v="West Street"/>
    <tag k="amenity" v="dentist"/>
    <tag k="building" v="yes"/>
    <tag k="name" v="Apple Tree Dental Practice"/>
    <tag k="source" v="survey"/>
    <tag k="website" v="http://www.appletreedentalpractice.co.uk/"/>
  </way>
  <way id="335056374" version="6" timestamp="2021-06-21T15:39:59Z" changeset="106724967" uid="742701" user="kerr smith">
    <nd ref="3421854124"/>
    <nd ref="3421854126"/>
    <nd ref="3421854120"/>
    <nd ref="8685262558"/>
    <nd ref="3421854124"/>
    <tag k="addr:housenumber" v="5a"/>
    <tag k="addr:street" v="West Street"/>
    <tag k="building" v="yes"/>
    <tag k="name" v="Millionhairz"/>
    <tag k="opening_hours:covid19" v="closed"/>
    <tag k="shop" v="hairdresser"/>
    <tag k="source" v="survey"/>
    <tag k="website" v="http://millionhairz.com"/>
  </way>
  <way id="337232398" version="6" timestamp="2021-08-22T15:28:52Z" changeset="110066830" uid="242345" user="confusedbuffalo">
    <nd ref="3443322283"/>
    <nd ref="3443322277"/>
    <nd ref="3443322275"/>
    <nd ref="3443322274"/>
    <nd ref="3443322281"/>
    <nd ref="3443322279"/>
    <nd ref="3443322285"/>
    <nd ref="3443322282"/>
    <nd ref="3443322262"/>
    <nd ref="3443322266"/>
    <nd ref="3443322283"/>
    <tag k="addr:city" v="Cambridge"/>
    <tag k="addr:housename" v="Drayton House"/>
    <tag k="addr:postcode" v="CB23 7BN"/>
    <tag k="addr:street" v="Barton Road"/>
    <tag k="addr:village" v="Comberton"/>
    <tag k="building" v="yes"/>
    <tag k="name" v="Carter"/>
    <tag k="phone" v="+44 1223 265300"/>
  </way>
  <way id="337232400" version="3" timestamp="2021-08-22T16:23:12Z" changeset="110069427" uid="242345" user="confusedbuffalo">
    <nd ref="3443322267"/>
    <nd ref="3443323400"/>
    <nd ref="3443323398"/>
    <nd ref="3443322291"/>
    <nd ref="3443322290"/>
    <nd ref="3443322288"/>
    <nd ref="3443322289"/>
    <nd ref="3443322284"/>
    <nd ref="3443322263"/>
    <nd ref="3443322265"/>
    <nd ref="3443322269"/>
    <nd ref="3443322270"/>
    <nd ref="3443322264"/>
    <nd ref="3443322267"/>
    <tag k="addr:city" v="Cambridge"/>
    <tag k="addr:postcode" v="CB23 7AJ"/>
    <tag k="addr:street" v="Barton Road"/>
    <tag k="addr:village" v="Comberton"/>
    <tag k="building" v="yes"/>
    <tag k="name" v="Eyre Group"/>
    <tag k="phone" v="+44 1223 265540"/>
  </way>
  <way id="338544239" version="3" timestamp="2022-10-16T15:11:01Z" changeset="127622512" uid="6476359" user="NSiecw">
    <nd ref="3456393631"/>
    <nd ref="3456393624"/>
    <nd ref="3456393629"/>
    <nd ref="3456393632"/>
    <nd ref="3456393630"/>
    <nd ref="3456393633"/>
    <nd ref="3456393631"/>
    <tag k="addr:city" v="Cambridge"/>
    <tag k="addr:housenumber" v="50"/>
    <tag k="addr:postcode" v="CB23 7DZ"/>
    <tag k="addr:street" v="South Street"/>
    <tag k="addr:village" v="Comberton"/>
    <tag k="building" v="yes"/>
    <tag k="fixme" v="extrapolated, need resurvey to figure out which of these buildings is Birdlines"/>
    <tag k="name" v="Birdlines Manor Farm"/>
    <tag k="source" v="extrapolation"/>
    <tag k="wikidata" v="Q26596557"/>
  </way>
  <way id="338544404" version="1" timestamp="2015-04-14T21:32:36Z" changeset="30223018" uid="905200" user="infinigon">
    <nd ref="3456394339"/>
    <nd ref="3456394329"/>
    <nd ref="3456394336"/>
    <nd ref="3456394356"/>
    <nd ref="3456394352"/>
    <nd ref="3456394339"/>
    <tag k="addr:housenumber" v="5"/>
    <tag k="addr:street" v="Green End"/>
    <tag k="building" v="yes"/>
    <tag k="lawyer" v="solicitor"/>
    <tag k="name" v="Irena Spence &amp; Co"/>
    <tag k="office" v="lawyer"/>
    <tag k="website" v="http://www.irenaspence.co.uk/"/>
  </way>
  <way id="338544409" version="5" timestamp="2022-10-16T15:11:01Z" changeset="127622512" uid="6476359" user="NSiecw">
    <nd ref="3456393926"/>
    <nd ref="3456393911"/>
    <nd ref="3456393913"/>
    <nd ref="3456393929"/>
    <nd ref="3456393926"/>
    <tag k="addr:city" v="Cambridge"/>
    <tag k="addr:housenumber" v="22"/>
    <tag k="addr:postcode" v="CB23 7DZ"/>
    <tag k="addr:street" v="South Street"/>
    <tag k="addr:village" v="Comberton"/>
    <tag k="amenity" v="pub"/>
    <tag k="building" v="yes"/>
    <tag k="name" v="Three Horseshoes"/>
  </way>
  <way id="338544411" version="3" timestamp="2021-04-23T17:43:55Z" changeset="103498813" uid="742701" user="kerr smith">
    <nd ref="3456394341"/>
    <nd ref="3456394306"/>
    <nd ref="3456394307"/>
    <nd ref="3456394344"/>
    <nd ref="3456394341"/>
    <tag k="addr:housenumber" v="1"/>
    <tag k="addr:street" v="Green End"/>
    <tag k="building" v="yes"/>
    <tag k="name" v="W.J. Brown &amp; Son"/>
    <tag k="phone" v="+44 1223 263433"/>
    <tag k="shop" v="car_repair"/>
  </way>
  <way id="363162830" version="2" timestamp="2023-03-08T21:21:09Z" changeset="133456243" uid="10755174" user="berrysj">
    <nd ref="3673512110"/>
    <nd ref="3673512279"/>
    <nd ref="3673512310"/>
    <nd ref="3673512536"/>
    <nd ref="3673512110"/>
    <tag k="addr:postcode" v="CB23 7EE"/>
    <tag k="addr:street" v="Royston Lane"/>
    <tag k="building" v="office"/>
    <tag k="name" v="Flok Health"/>
  </way>
  <way id="386365753" version="4" timestamp="2019-02-04T10:44:07Z" changeset="66899076" uid="5173844" user="ndrw6">
    <nd ref="3896852410"/>
    <nd ref="3896852409"/>
    <nd ref="3896852408"/>
    <nd ref="3896852415"/>
    <nd ref="3896852414"/>
    <nd ref="3896852413"/>
    <nd ref="3896852411"/>
    <nd ref="3896852407"/>
    <nd ref="3896852406"/>
    <nd ref="3896852405"/>
    <nd ref="3896852392"/>
    <nd ref="3896852395"/>
    <nd ref="3896852410"/>
    <tag k="addr:city" v="Cambridge"/>
    <tag k="addr:postcode" v="CB23 7ES"/>
    <tag k="addr:street" v="The Hawtreys"/>
    <tag k="addr:village" v="Comberton"/>
    <tag k="building" v="residential"/>
    <tag k="name" v="Cumbra Place"/>
  </way>
  <way id="543021711" version="3" timestamp="2022-10-05T20:18:58Z" changeset="127066266" uid="6476359" user="NSiecw">
    <nd ref="5249732647"/>
    <nd ref="5249732648"/>
    <nd ref="5249732654"/>
    <nd ref="5249732649"/>
    <nd ref="10078377228"/>
    <nd ref="10078377229"/>
    <nd ref="5249732650"/>
    <nd ref="5249732647"/>
    <tag k="addr:city" v="Cambridge"/>
    <tag k="addr:housenumber" v="9"/>
    <tag k="addr:postcode" v="CB23 7EL"/>
    <tag k="addr:street" v="Nursery Way"/>
    <tag k="addr:village" v="Comberton"/>
    <tag k="building" v="yes"/>
    <tag k="name" v="Sheltered Housing Centre"/>
    <tag k="source" v="survey"/>
  </way>
  <way id="548172546" version="3" timestamp="2023-01-28T00:30:39Z" changeset="131792931" uid="3999" user="BarryMyles">
    <nd ref="5295926690"/>
    <nd ref="5295926691"/>
    <nd ref="5295926692"/>
    <nd ref="5295926693"/>
    <nd ref="5295926694"/>
    <nd ref="5295926695"/>
    <nd ref="5295926690"/>
    <tag k="addr:city" v="Comberton"/>
    <tag k="addr:postcode" v="CB23 7BT"/>
    <tag k="addr:street" v="Barton Road"/>
    <tag k="building" v="yes"/>
    <tag k="location" v="indoor"/>
    <tag k="name" v="Comberton Telephone Exchange"/>
    <tag k="operator" v="Openreach"/>
    <tag k="operator:wikidata" v="Q7096543"/>
    <tag k="ref" v="EACOM"/>
    <tag k="telecom" v="exchange"/>
  </way>

</osm>
