<?xml version="1.0" encoding="UTF-8"?>
<osm version="0.6" generator="Overpass API 0.7.62.5 1bd436f1">
<note>The data included in this document is from www.openstreetmap.org. The data is made available under ODbL.</note>
<meta osm_base="2025-03-05T18:03:45Z" areas="2024-12-31T00:49:33Z"/>

  <node id="600479336" lat="52.6356006" lon="0.1721494" version="5" timestamp="2023-02-03T15:43:16Z" changeset="132047457" uid="84263" user="Robert Whittaker">
    <tag k="addr:city" v="Wisbech"/>
    <tag k="addr:housenumber" v="3"/>
    <tag k="addr:postcode" v="PE14 0AP"/>
    <tag k="addr:street" v="Birch Grove"/>
    <tag k="addr:village" v="Elm"/>
    <tag k="amenity" v="post_office"/>
    <tag k="brand" v="Londis"/>
    <tag k="brand:wikidata" v="Q21008564"/>
    <tag k="fhrs:id" v="1030604"/>
    <tag k="name" v="Elm Village Store"/>
    <tag k="opening_hours" v="Mo-Sa 08:00-20:00; Su 08:00-13:00"/>
    <tag k="ref:pol_id" v="121606"/>
    <tag k="shop" v="convenience"/>
    <tag k="source:addr" v="FSA Food Hygiene Ratings Database"/>
    <tag k="source:opening_hours" v="pol_branch_list_2018-02"/>
    <tag k="source:post_office" v="pol_branch_list_2018-02"/>
    <tag k="url" v="https://supermarket.londis.co.uk/38980-elm-village-stores"/>
  </node>
  <way id="399257848" version="8" timestamp="2024-06-20T19:18:18Z" changeset="152962732" uid="95856" user="john paul jones &amp; gringo">
    <nd ref="4019951829"/>
    <nd ref="4019951846"/>
    <nd ref="4019951824"/>
    <nd ref="4019951834"/>
    <nd ref="4019951839"/>
    <nd ref="4019951822"/>
    <nd ref="4019951820"/>
    <nd ref="4019951821"/>
    <nd ref="4019951827"/>
    <nd ref="4019951829"/>
    <tag k="addr:city" v="Wisbech"/>
    <tag k="addr:country" v="GB"/>
    <tag k="addr:housenumber" v="1"/>
    <tag k="addr:postcode" v="PE14 0HA"/>
    <tag k="addr:street" v="March Road"/>
    <tag k="addr:suburb" v="Friday Bridge"/>
    <tag k="amenity" v="school"/>
    <tag k="capacity" v="10"/>
    <tag k="max_age" v="16"/>
    <tag k="min_age" v="7"/>
    <tag k="name" v="The Old School House"/>
    <tag k="phone" v="+44 1945 861114"/>
    <tag k="ref:edubase" v="133651"/>
    <tag k="religion" v="none"/>
    <tag k="school:boarding" v="yes"/>
    <tag k="school:gender" v="male"/>
    <tag k="school:selective" v="no"/>
    <tag k="school:trust" v="no"/>
    <tag k="school:type" v="special"/>
    <tag k="website" v="http://www.thechartwellgroup.co.uk/the-old-school-friday-bridge.html"/>
  </way>
  <way id="400478438" version="7" timestamp="2024-06-20T19:18:18Z" changeset="152962732" uid="95856" user="john paul jones &amp; gringo">
    <nd ref="4030257903"/>
    <nd ref="4030257996"/>
    <nd ref="4030257904"/>
    <nd ref="4030257905"/>
    <nd ref="4030257997"/>
    <nd ref="4030257903"/>
    <tag k="addr:city" v="Wisbech"/>
    <tag k="addr:country" v="GB"/>
    <tag k="addr:housenumber" v="20"/>
    <tag k="addr:postcode" v="PE14 0HJ"/>
    <tag k="addr:street" v="Main Road"/>
    <tag k="addr:suburb" v="Friday Bridge"/>
    <tag k="amenity" v="school"/>
    <tag k="capacity" v="12"/>
    <tag k="isced:level" v="2"/>
    <tag k="max_age" v="19"/>
    <tag k="min_age" v="12"/>
    <tag k="name" v="Shelldene House School"/>
    <tag k="phone" v="+44 1945 861122"/>
    <tag k="ref:edubase" v="135380"/>
    <tag k="religion" v="none"/>
    <tag k="school:boarding" v="no"/>
    <tag k="school:gender" v="male"/>
    <tag k="school:selective" v="no"/>
    <tag k="school:trust" v="no"/>
    <tag k="school:type" v="special"/>
    <tag k="source" v="Edubase;School's Website;Bing"/>
    <tag k="website" v="http://www.shelldenehouse.com/"/>
  </way>
  <way id="403100389" version="6" timestamp="2023-08-21T13:03:36Z" changeset="140181155" uid="242345" user="confusedbuffalo">
    <nd ref="4054786566"/>
    <nd ref="4054786567"/>
    <nd ref="4054786563"/>
    <nd ref="600479032"/>
    <nd ref="4054786564"/>
    <nd ref="4054786566"/>
    <tag k="addr:city" v="Wisbech"/>
    <tag k="addr:country" v="GB"/>
    <tag k="addr:hamlet" v="Elm"/>
    <tag k="addr:postcode" v="PE14 0AZ"/>
    <tag k="addr:street" v="Begdale Road"/>
    <tag k="amenity" v="school"/>
    <tag k="capacity" v="16"/>
    <tag k="isced:level" v="2"/>
    <tag k="max_age" v="16"/>
    <tag k="min_age" v="10"/>
    <tag k="name" v="Begdale House School"/>
    <tag k="note" v="School is small, but can provide residential accommodation for up to 8 pupils, so presumably all of this building, and possible adjacent ones too."/>
    <tag k="phone" v="+44 1945 860055"/>
    <tag k="ref:GB:uprn" v="100091193291"/>
    <tag k="ref:edubase" v="136236"/>
    <tag k="religion" v="none"/>
    <tag k="school:boarding" v="no"/>
    <tag k="school:gender" v="mixed"/>
    <tag k="school:selective" v="no"/>
    <tag k="school:trust" v="no"/>
    <tag k="school:type" v="special"/>
    <tag k="website" v="https://education.keyschildren.co.uk/school/begdale-house-school/"/>
  </way>
  <way id="519388282" version="4" timestamp="2024-06-20T19:43:27Z" changeset="152963704" uid="95856" user="john paul jones &amp; gringo">
    <nd ref="5064692864"/>
    <nd ref="7314099442"/>
    <nd ref="7314099443"/>
    <nd ref="7314099444"/>
    <nd ref="7314099445"/>
    <nd ref="9659435135"/>
    <nd ref="9659435136"/>
    <nd ref="9659435134"/>
    <nd ref="5064692865"/>
    <nd ref="5064692866"/>
    <nd ref="9659435130"/>
    <nd ref="9659435131"/>
    <nd ref="9659435133"/>
    <nd ref="9659435132"/>
    <nd ref="5064692873"/>
    <nd ref="9659435154"/>
    <nd ref="9659435153"/>
    <nd ref="5064692864"/>
    <tag k="addr:city" v="Wisbech"/>
    <tag k="addr:country" v="GB"/>
    <tag k="addr:postcode" v="PE13 4DD"/>
    <tag k="addr:street" v="March Road"/>
    <tag k="addr:suburb" v="Rings End"/>
    <tag k="email" v="banksidenursery@btconnect.com"/>
    <tag k="landuse" v="plant_nursery"/>
    <tag k="name" v="Bankside Nursery"/>
    <tag k="website" v="http://www.banksidenursery.co.uk"/>
  </way>
  <way id="551358971" version="4" timestamp="2019-03-25T06:58:42Z" changeset="68495161" uid="9451067" user="b-jazz-bot">
    <nd ref="5324840685"/>
    <nd ref="5324841256"/>
    <nd ref="5324841257"/>
    <nd ref="5324841258"/>
    <nd ref="5324840686"/>
    <nd ref="5324840687"/>
    <nd ref="5324840688"/>
    <nd ref="5324840685"/>
    <tag k="addr:city" v="Wisbech"/>
    <tag k="addr:country" v="GB"/>
    <tag k="addr:housename" v="Meeko House"/>
    <tag k="addr:housenumber" v="172"/>
    <tag k="addr:place" v="Friday Bridge"/>
    <tag k="addr:postcode" v="PE14 0LP"/>
    <tag k="addr:street" v="March Road"/>
    <tag k="amenity" v="hospital"/>
    <tag k="healthcare" v="hospital"/>
    <tag k="healthcare:speciality" v="psychiatry;paediatrics"/>
    <tag k="name" v="Cambian Meeko House &amp; Home Tree School"/>
    <tag k="operator" v="Cambian"/>
    <tag k="phone" v="+44 8001 381184"/>
    <tag k="ref:edubase" v="141879"/>
    <tag k="website" v="https://www.cambiangroup.com/"/>
  </way>
  <way id="564457044" version="3" timestamp="2024-06-20T19:18:18Z" changeset="152962732" uid="95856" user="john paul jones &amp; gringo">
    <nd ref="5438457357"/>
    <nd ref="5438457358"/>
    <nd ref="5438457359"/>
    <nd ref="5438457360"/>
    <nd ref="5438457361"/>
    <nd ref="5438457362"/>
    <nd ref="5438457363"/>
    <nd ref="5438457364"/>
    <nd ref="5438457357"/>
    <tag k="addr:city" v="Wisbech"/>
    <tag k="addr:country" v="GB"/>
    <tag k="addr:housename" v="Meeko House"/>
    <tag k="addr:housenumber" v="172"/>
    <tag k="addr:postcode" v="PE14 0LP"/>
    <tag k="addr:street" v="March Road"/>
    <tag k="addr:suburb" v="Friday Bridge"/>
    <tag k="building" v="hospital"/>
    <tag k="building:levels" v="1"/>
    <tag k="name" v="Meeko House"/>
    <tag k="website" v="https://www.cambiangroup.com/ourservices/service/home.aspx?id=167"/>
  </way>
  <way id="564457045" version="4" timestamp="2024-10-21T18:00:34Z" changeset="158181738" uid="21226027" user="DorneyLake123">
    <nd ref="5438457365"/>
    <nd ref="5438457366"/>
    <nd ref="5438457367"/>
    <nd ref="5438457368"/>
    <nd ref="5438457369"/>
    <nd ref="5438457370"/>
    <nd ref="5438457365"/>
    <tag k="addr:city" v="Wisbech"/>
    <tag k="addr:country" v="GB"/>
    <tag k="addr:housename" v="Home Tree"/>
    <tag k="addr:housenumber" v="172"/>
    <tag k="addr:postcode" v="PE14 0LP"/>
    <tag k="addr:street" v="March Road"/>
    <tag k="addr:suburb" v="Friday Bridge"/>
    <tag k="amenity" v="school"/>
    <tag k="building" v="hospital"/>
    <tag k="building:levels" v="3"/>
    <tag k="name" v="Home Tree School"/>
    <tag k="ref:edubase" v="141879"/>
    <tag k="website" v="https://www.cambiangroup.com/ourservices/service/home.aspx?Id=237&amp;s=16"/>
  </way>
  <way id="1013597679" version="1" timestamp="2021-12-19T22:55:18Z" changeset="115141838" uid="2400834" user="Gyrwa">
    <nd ref="9351479062"/>
    <nd ref="3377382001"/>
    <nd ref="4117672856"/>
    <nd ref="9351479068"/>
    <nd ref="4117672872"/>
    <nd ref="9351479046"/>
    <nd ref="9351479067"/>
    <nd ref="9351479066"/>
    <nd ref="9351479065"/>
    <nd ref="9351479064"/>
    <nd ref="9351479062"/>
    <tag k="addr:street" v="Low Road"/>
    <tag k="amenity" v="pub"/>
    <tag k="landuse" v="retail"/>
    <tag k="name" v="The Elm Tree Inn"/>
    <tag k="source" v="survey"/>
    <tag k="website" v="https://www.elmtreeinn.com"/>
  </way>
  <way id="1055938130" version="2" timestamp="2024-06-20T19:43:27Z" changeset="152963704" uid="95856" user="john paul jones &amp; gringo">
    <nd ref="9702621442"/>
    <nd ref="9702621443"/>
    <nd ref="9702621444"/>
    <nd ref="9702621445"/>
    <nd ref="9702621446"/>
    <nd ref="9702621447"/>
    <nd ref="9702621448"/>
    <nd ref="9702621449"/>
    <nd ref="9702621450"/>
    <nd ref="9702621451"/>
    <nd ref="9702621442"/>
    <tag k="addr:city" v="Wisbech"/>
    <tag k="addr:country" v="GB"/>
    <tag k="addr:housenumber" v="6"/>
    <tag k="addr:postcode" v="PE13 4DB"/>
    <tag k="addr:street" v="March Road"/>
    <tag k="addr:suburb" v="Rings End"/>
    <tag k="amenity" v="pub"/>
    <tag k="building" v="yes"/>
    <tag k="cuisine" v="fish_and_chips;chinese;pizza"/>
    <tag k="name" v="Foreman's Pub"/>
    <tag k="website" v="https://www.facebook.com/ForemansPubLTD"/>
  </way>

</osm>
