<?xml version="1.0" encoding="UTF-8"?>
<osm version="0.6" generator="Overpass API 0.7.62.4 2390de5a">
<note>The data included in this document is from www.openstreetmap.org. The data is made available under ODbL.</note>
<meta osm_base="2025-01-21T14:17:13Z" areas="2024-12-31T00:49:33Z"/>

  <node id="24972763" lat="52.3195783" lon="0.3609302" version="8" timestamp="2024-11-10T21:35:54Z" changeset="158986470" uid="11022773" user="GeoFens">
    <tag k="addr:city" v="Ely"/>
    <tag k="addr:postcode" v="CB7 5AJ"/>
    <tag k="addr:street" v="Fordham Road"/>
    <tag k="amenity" v="fuel"/>
    <tag k="brand" v="Esso"/>
    <tag k="brand:wikidata" v="Q867662"/>
    <tag k="name" v="Esso"/>
    <tag k="opening_hours" v="24/7"/>
    <tag k="operator" v="MFG"/>
    <tag k="phone" v="+44 1353 723765"/>
    <tag k="self_service" v="yes"/>
    <tag k="website" v="https://www.esso.co.uk/en-gb/find-station/esso-soham-essomfgdownfields-100367508"/>
  </node>
  <node id="473728751" lat="52.3282970" lon="0.3437831" version="3" timestamp="2020-01-05T10:34:48Z" changeset="79209165" uid="84263" user="Robert Whittaker">
    <tag k="addr:city" v="Ely"/>
    <tag k="addr:housenumber" v="16"/>
    <tag k="addr:postcode" v="CB7 5AQ"/>
    <tag k="addr:street" v="Fordham Road"/>
    <tag k="addr:town" v="Soham"/>
    <tag k="fhrs:id" v="336681"/>
    <tag k="name" v="Webb Stores"/>
    <tag k="shop" v="convenience"/>
    <tag k="source:addr" v="FHRS Open Data"/>
  </node>
  <node id="473728763" lat="52.3289283" lon="0.3479971" version="2" timestamp="2020-01-05T10:34:48Z" changeset="79209165" uid="84263" user="Robert Whittaker">
    <tag k="addr:city" v="Ely"/>
    <tag k="addr:housenumber" v="76"/>
    <tag k="addr:postcode" v="CB7 5AE"/>
    <tag k="addr:street" v="Brook Street"/>
    <tag k="addr:town" v="Soham"/>
    <tag k="amenity" v="pub"/>
    <tag k="fhrs:id" v="628532"/>
    <tag k="name" v="Carpenters Arms"/>
    <tag k="source:addr" v="FHRS Open Data"/>
  </node>
  <node id="473728887" lat="52.3355803" lon="0.3372811" version="3" timestamp="2020-01-05T10:34:48Z" changeset="79209165" uid="84263" user="Robert Whittaker">
    <tag k="addr:city" v="Ely"/>
    <tag k="addr:housenumber" v="2"/>
    <tag k="addr:postcode" v="CB7 5BH"/>
    <tag k="addr:street" v="Pratt Street"/>
    <tag k="addr:town" v="Soham"/>
    <tag k="fhrs:id" v="336698"/>
    <tag k="name" v="Leys Stores"/>
    <tag k="shop" v="convenience"/>
    <tag k="source:addr" v="FHRS Open Data"/>
  </node>
  <node id="473728905" lat="52.3342618" lon="0.3368668" version="4" timestamp="2020-01-05T10:34:48Z" changeset="79209165" uid="84263" user="Robert Whittaker">
    <tag k="addr:city" v="Ely"/>
    <tag k="addr:housenumber" v="1"/>
    <tag k="addr:postcode" v="CB7 5DS"/>
    <tag k="addr:street" v="Churchgate Street"/>
    <tag k="addr:town" v="Soham"/>
    <tag k="amenity" v="pub"/>
    <tag k="fhrs:id" v="336159"/>
    <tag k="name" v="The Fountain"/>
    <tag k="source:addr" v="FHRS Open Data"/>
    <tag k="wikidata" v="Q26454435"/>
  </node>
  <node id="473728907" lat="52.3337111" lon="0.3377130" version="4" timestamp="2020-01-05T21:04:16Z" changeset="79223318" uid="84263" user="Robert Whittaker">
    <tag k="addr:city" v="Ely"/>
    <tag k="addr:housenumber" v="56"/>
    <tag k="addr:postcode" v="CB7 5HE"/>
    <tag k="addr:street" v="High Street"/>
    <tag k="addr:town" v="Soham"/>
    <tag k="fhrs:id" v="336256"/>
    <tag k="name" v="Monopolowy"/>
    <tag k="shop" v="grocer"/>
    <tag k="source:addr" v="FHRS Open Data"/>
  </node>
  <node id="473728910" lat="52.3340177" lon="0.3373764" version="9" timestamp="2023-10-19T14:00:29Z" changeset="142817683" uid="4345757" user="JassKurn">
    <tag k="addr:city" v="Ely"/>
    <tag k="addr:country" v="GB"/>
    <tag k="addr:housenumber" v="6"/>
    <tag k="addr:postcode" v="CB7 5DR"/>
    <tag k="addr:street" v="Churchgate Street"/>
    <tag k="addr:town" v="Soham"/>
    <tag k="amenity" v="fast_food"/>
    <tag k="brand" v="Domino's"/>
    <tag k="brand:wikidata" v="Q839466"/>
    <tag k="brand:wikipedia" v="en:Domino's Pizza"/>
    <tag k="contact:website" v="https://www.dominos.co.uk/pizza-near-me/soham/6-churchgate-street"/>
    <tag k="cuisine" v="pizza"/>
    <tag k="fhrs:id" v="1012199"/>
    <tag k="name" v="Domino's"/>
    <tag k="source:addr" v="FHRS Open Data"/>
  </node>
  <node id="473728913" lat="52.3329858" lon="0.3377518" version="4" timestamp="2020-01-05T18:30:46Z" changeset="79219738" uid="84263" user="Robert Whittaker">
    <tag k="addr:city" v="Ely"/>
    <tag k="addr:housenumber" v="41"/>
    <tag k="addr:postcode" v="CB7 5HA"/>
    <tag k="addr:street" v="High Street"/>
    <tag k="addr:village" v="Soham"/>
    <tag k="amenity" v="post_office"/>
    <tag k="name" v="Soham Post Office"/>
    <tag k="opening_hours" v="Mo-Fr 08:00-18:00; Sa 08:00-14:00"/>
    <tag k="ref:pol_id" v="4956"/>
    <tag k="source:addr" v="pol_branch_list_2019-03"/>
    <tag k="source:opening_hours" v="pol_branch_list_2019-03"/>
  </node>
  <node id="473728917" lat="52.3321250" lon="0.3384551" version="4" timestamp="2021-09-01T18:59:02Z" changeset="110581776" uid="84263" user="Robert Whittaker">
    <tag k="addr:city" v="Ely"/>
    <tag k="addr:housenumber" v="21-23"/>
    <tag k="addr:postcode" v="CB7 5HA"/>
    <tag k="addr:street" v="High Street"/>
    <tag k="addr:town" v="Soham"/>
    <tag k="amenity" v="fast_food"/>
    <tag k="cuisine" v="fish_and_chips"/>
    <tag k="fhrs:id" v="1378155"/>
    <tag k="name" v="PropaCod"/>
    <tag k="source:addr" v="FHRS Open Data"/>
  </node>
  <node id="473729007" lat="52.3394196" lon="0.3360502" version="3" timestamp="2020-01-05T10:34:48Z" changeset="79209165" uid="84263" user="Robert Whittaker">
    <tag k="addr:city" v="Ely"/>
    <tag k="addr:housenumber" v="28"/>
    <tag k="addr:postcode" v="CB7 5BS"/>
    <tag k="addr:street" v="Hall Street"/>
    <tag k="addr:town" v="Soham"/>
    <tag k="amenity" v="fast_food"/>
    <tag k="cuisine" v="chinese"/>
    <tag k="fhrs:id" v="336688"/>
    <tag k="name" v="Golden Dragon"/>
    <tag k="source:addr" v="FHRS Open Data"/>
  </node>
  <node id="473729202" lat="52.3349625" lon="0.3372369" version="3" timestamp="2013-05-11T00:02:14Z" changeset="16073148" uid="281267" user="smb1001">
    <tag k="addr:housenumber" v="24"/>
    <tag k="addr:street" v="Churchgate Street"/>
    <tag k="amenity" v="fast_food"/>
    <tag k="cuisine" v="indian"/>
    <tag k="name" v="Naz"/>
  </node>
  <node id="473729203" lat="52.3347412" lon="0.3371779" version="3" timestamp="2020-01-05T10:34:48Z" changeset="79209165" uid="84263" user="Robert Whittaker">
    <tag k="addr:city" v="Ely"/>
    <tag k="addr:housenumber" v="18"/>
    <tag k="addr:postcode" v="CB7 5DS"/>
    <tag k="addr:street" v="Churchgate Street"/>
    <tag k="addr:town" v="Soham"/>
    <tag k="amenity" v="fast_food"/>
    <tag k="cuisine" v="bangladeshi"/>
    <tag k="fhrs:id" v="336125"/>
    <tag k="name" v="Ali Taj"/>
    <tag k="source:addr" v="FHRS Open Data"/>
  </node>
  <node id="473729204" lat="52.3342798" lon="0.3376607" version="4" timestamp="2020-01-05T10:34:48Z" changeset="79209165" uid="84263" user="Robert Whittaker">
    <tag k="addr:city" v="Ely"/>
    <tag k="addr:housenumber" v="2"/>
    <tag k="addr:postcode" v="CB7 5JG"/>
    <tag k="addr:street" v="Market Street"/>
    <tag k="addr:town" v="Soham"/>
    <tag k="amenity" v="fast_food"/>
    <tag k="cuisine" v="fish_and_chips"/>
    <tag k="fhrs:id" v="1031370"/>
    <tag k="name" v="Handy Plaice"/>
    <tag k="source:addr" v="FHRS Open Data"/>
  </node>
  <node id="473729205" lat="52.3344962" lon="0.3379195" version="3" timestamp="2020-01-05T21:04:16Z" changeset="79223318" uid="84263" user="Robert Whittaker">
    <tag k="addr:city" v="Ely"/>
    <tag k="addr:housenumber" v="3"/>
    <tag k="addr:postcode" v="CB7 5JG"/>
    <tag k="addr:street" v="Market Street"/>
    <tag k="addr:town" v="Soham"/>
    <tag k="amenity" v="pub"/>
    <tag k="fhrs:id" v="336694"/>
    <tag k="name" v="Comrades Club"/>
    <tag k="source:addr" v="FHRS Open Data"/>
  </node>
  <node id="473729209" lat="52.3318180" lon="0.3385115" version="6" timestamp="2020-01-05T17:32:51Z" changeset="79218316" uid="84263" user="Robert Whittaker">
    <tag k="addr:housenumber" v="17"/>
    <tag k="addr:postcode" v="CB7 5HA"/>
    <tag k="addr:street" v="High Street"/>
    <tag k="amenity" v="pub"/>
    <tag k="fhrs:id" v="1007215"/>
    <tag k="name" v="Red Lion"/>
    <tag k="url" v="www.redlionsoham.co.uk"/>
    <tag k="wheelchair" v="yes"/>
    <tag k="wikidata" v="Q26596815"/>
  </node>
  <node id="473729211" lat="52.3314792" lon="0.3385122" version="5" timestamp="2020-01-05T18:30:46Z" changeset="79219738" uid="84263" user="Robert Whittaker">
    <tag k="addr:city" v="Soham"/>
    <tag k="addr:housenumber" v="17"/>
    <tag k="addr:postcode" v="CB7 5HQ"/>
    <tag k="addr:street" v="Red Lion Square"/>
    <tag k="name" v="The Cutting Edge"/>
    <tag k="shop" v="hairdresser"/>
  </node>
  <node id="473729213" lat="52.3311748" lon="0.3389793" version="2" timestamp="2020-01-05T10:34:48Z" changeset="79209165" uid="84263" user="Robert Whittaker">
    <tag k="addr:city" v="Ely"/>
    <tag k="addr:housenumber" v="2"/>
    <tag k="addr:postcode" v="CB7 5HD"/>
    <tag k="addr:street" v="High Street"/>
    <tag k="addr:town" v="Soham"/>
    <tag k="amenity" v="pub"/>
    <tag k="fhrs:id" v="643636"/>
    <tag k="name" v="The Ship"/>
    <tag k="source:addr" v="FHRS Open Data"/>
  </node>
  <node id="649209195" lat="52.3318467" lon="0.3387885" version="5" timestamp="2020-01-06T15:27:29Z" changeset="79254624" uid="84263" user="Robert Whittaker">
    <tag k="addr:city" v="Ely"/>
    <tag k="addr:housenumber" v="16"/>
    <tag k="addr:postcode" v="CB7 5HD"/>
    <tag k="addr:street" v="High Street"/>
    <tag k="addr:town" v="Soham"/>
    <tag k="amenity" v="restaurant"/>
    <tag k="cuisine" v="indian"/>
    <tag k="fhrs:id" v="736852"/>
    <tag k="name" v="Naz"/>
    <tag k="source:addr" v="FHRS Open Data"/>
  </node>
  <node id="1997286727" lat="52.3349535" lon="0.3280963" version="15" timestamp="2023-12-28T12:11:12Z" changeset="145616597" uid="6101984" user="Guidaccio">
    <tag k="addr:city" v="Soham"/>
    <tag k="addr:postcode" v="CB7 5DY"/>
    <tag k="addr:street" v="Station Road"/>
    <tag k="name" v="Soham"/>
    <tag k="network" v="National Rail"/>
    <tag k="network:website" v="https://www.nationalrail.co.uk/stations/soj/"/>
    <tag k="network:wikidata" v="Q26334"/>
    <tag k="platforms" v="1"/>
    <tag k="public_transport" v="station"/>
    <tag k="railway" v="station"/>
    <tag k="ref:crs" v="SOJ"/>
    <tag k="ref:tiploc" v="SOHAM"/>
    <tag k="start_date" v="2021-12-13"/>
    <tag k="train" v="yes"/>
    <tag k="wikidata" v="Q7554647"/>
    <tag k="wikipedia" v="en:Soham railway station"/>
  </node>
  <node id="2298607642" lat="52.3314665" lon="0.3386195" version="2" timestamp="2020-01-06T15:27:29Z" changeset="79254624" uid="84263" user="Robert Whittaker">
    <tag k="addr:city" v="Ely"/>
    <tag k="addr:housenumber" v="15"/>
    <tag k="addr:postcode" v="CB7 5HB"/>
    <tag k="addr:street" v="High Street"/>
    <tag k="addr:town" v="Soham"/>
    <tag k="amenity" v="restaurant"/>
    <tag k="cuisine" v="pizza"/>
    <tag k="fhrs:id" v="336130"/>
    <tag k="name" v="Soham Kebab and Pizza House"/>
    <tag k="source:addr" v="FHRS Open Data"/>
  </node>
  <node id="2298607645" lat="52.3322499" lon="0.3387054" version="3" timestamp="2020-01-06T15:27:29Z" changeset="79254624" uid="84263" user="Robert Whittaker">
    <tag k="addr:city" v="Ely"/>
    <tag k="addr:housenumber" v="26"/>
    <tag k="addr:postcode" v="CB7 5HE"/>
    <tag k="addr:street" v="High Street"/>
    <tag k="addr:town" v="Soham"/>
    <tag k="amenity" v="cafe"/>
    <tag k="fhrs:id" v="945030"/>
    <tag k="name" v="The Stable"/>
    <tag k="source:addr" v="FHRS Open Data"/>
  </node>
  <node id="2298607665" lat="52.3321533" lon="0.3387590" version="3" timestamp="2020-01-06T15:27:29Z" changeset="79254624" uid="84263" user="Robert Whittaker">
    <tag k="addr:city" v="Ely"/>
    <tag k="addr:housenumber" v="24"/>
    <tag k="addr:postcode" v="CB7 5HE"/>
    <tag k="addr:street" v="High Street"/>
    <tag k="addr:town" v="Soham"/>
    <tag k="amenity" v="cafe"/>
    <tag k="fhrs:id" v="1199004"/>
    <tag k="name" v="A Tasca"/>
    <tag k="source:addr" v="FHRS Open Data"/>
  </node>
  <node id="2298607730" lat="52.3327868" lon="0.3382803" version="3" timestamp="2020-01-05T18:30:46Z" changeset="79219738" uid="84263" user="Robert Whittaker">
    <tag k="addr:city" v="Ely"/>
    <tag k="addr:housenumber" v="44"/>
    <tag k="addr:postcode" v="CB7 5HE"/>
    <tag k="addr:street" v="High Street"/>
    <tag k="addr:town" v="Soham"/>
    <tag k="amenity" v="restaurant"/>
    <tag k="cuisine" v="chicken"/>
    <tag k="fhrs:id" v="336120"/>
    <tag k="name" v="USA Chicken"/>
    <tag k="source:addr" v="FHRS Open Data"/>
  </node>
  <node id="2299007068" lat="52.3329433" lon="0.3377719" version="4" timestamp="2020-01-05T18:30:46Z" changeset="79219738" uid="84263" user="Robert Whittaker">
    <tag k="addr:housenumber" v="41A"/>
    <tag k="addr:street" v="High Street"/>
    <tag k="addr:village" v="Soham"/>
    <tag k="name" v="Peter Michael"/>
    <tag k="office" v="estate_agent"/>
    <tag k="website" v="http://www.petermichael.co.uk/"/>
  </node>
  <node id="2299007104" lat="52.3339464" lon="0.3374609" version="3" timestamp="2020-01-05T18:30:46Z" changeset="79219738" uid="84263" user="Robert Whittaker">
    <tag k="addr:city" v="Ely"/>
    <tag k="addr:housenumber" v="4"/>
    <tag k="addr:postcode" v="CB7 5DR"/>
    <tag k="addr:street" v="Churchgate Street"/>
    <tag k="addr:town" v="Soham"/>
    <tag k="amenity" v="cafe"/>
    <tag k="fhrs:id" v="336317"/>
    <tag k="name" v="Poppies"/>
    <tag k="source:addr" v="FHRS Open Data"/>
  </node>
  <node id="2299007255" lat="52.3326794" lon="0.3380321" version="2" timestamp="2020-01-05T18:30:46Z" changeset="79219738" uid="84263" user="Robert Whittaker">
    <tag k="addr:housenumber" v="35"/>
    <tag k="addr:street" v="High Street"/>
    <tag k="name" v="356 Residential"/>
    <tag k="office" v="estate_agent"/>
  </node>
  <node id="2299007280" lat="52.3347797" lon="0.3369499" version="1" timestamp="2013-05-11T00:02:09Z" changeset="16073148" uid="281267" user="smb1001">
    <tag k="addr:housenumber" v="9"/>
    <tag k="addr:street" v="Churchgate Street"/>
    <tag k="name" v="City Kitchens"/>
    <tag k="shop" v="kitchen"/>
  </node>
  <node id="7110503244" lat="52.3341861" lon="0.3372221" version="1" timestamp="2020-01-05T18:30:46Z" changeset="79219738" uid="84263" user="Robert Whittaker">
    <tag k="addr:housename" v="10"/>
    <tag k="addr:street" v="Churchgate Street"/>
    <tag k="name" v="Time 2 Vape"/>
    <tag k="shop" v="e-cigarette"/>
  </node>
  <node id="7110503278" lat="52.3326159" lon="0.3380710" version="1" timestamp="2020-01-05T18:30:46Z" changeset="79219738" uid="84263" user="Robert Whittaker">
    <tag k="addr:city" v="Ely"/>
    <tag k="addr:housenumber" v="33"/>
    <tag k="addr:street" v="High Street"/>
    <tag k="addr:town" v="Soham"/>
    <tag k="name" v="Jack Hibs"/>
    <tag k="shop" v="variety_store"/>
  </node>
  <node id="7110506394" lat="52.3320857" lon="0.3384653" version="1" timestamp="2020-01-05T18:30:46Z" changeset="79219738" uid="84263" user="Robert Whittaker">
    <tag k="addr:city" v="Ely"/>
    <tag k="addr:housenumber" v="21"/>
    <tag k="addr:street" v="High Street"/>
    <tag k="addr:town" v="Soham"/>
    <tag k="amenity" v="fast_food"/>
    <tag k="cuisine" v="pizza"/>
    <tag k="name" v="PropaPizza"/>
  </node>
  <node id="10166610752" lat="52.3274618" lon="0.3435241" version="2" timestamp="2024-10-04T18:27:00Z" changeset="157473527" uid="13959902" user="yojimble">
    <tag k="addr:city" v="Soham"/>
    <tag k="addr:postcode" v="CB7 5FB"/>
    <tag k="addr:street" v="Meadow Close"/>
    <tag k="check_date" v="2024-10-04"/>
    <tag k="contact:twitter" v="@Fistfullofsats"/>
    <tag k="craft" v="painter"/>
    <tag k="currency:XBT" v="yes"/>
    <tag k="description" v="Painting &amp; Decorating"/>
    <tag k="email" v="dcnewman04@outlook.com"/>
    <tag k="name" v="Newman Painting &amp; Decorating"/>
    <tag k="payment:lightning" v="yes"/>
    <tag k="payment:lightning_contactless" v="no"/>
    <tag k="payment:onchain" v="no"/>
  </node>
  <way id="39539119" version="7" timestamp="2024-08-18T20:41:25Z" changeset="155433745" uid="21425661" user="CjMalone">
    <nd ref="7108180342"/>
    <nd ref="7108180341"/>
    <nd ref="7108180344"/>
    <nd ref="473727922"/>
    <nd ref="473727919"/>
    <nd ref="473727921"/>
    <nd ref="7108180342"/>
    <tag k="addr:city" v="Ely"/>
    <tag k="addr:country" v="GB"/>
    <tag k="addr:housenumber" v="2A"/>
    <tag k="addr:postcode" v="CB7 5HH"/>
    <tag k="addr:street" v="Clay Street"/>
    <tag k="addr:town" v="Soham"/>
    <tag k="brand" v="Asda"/>
    <tag k="brand:wikidata" v="Q297410"/>
    <tag k="brand:wikipedia" v="en:Asda"/>
    <tag k="building" v="yes"/>
    <tag k="check_date" v="2024-08-18"/>
    <tag k="check_date:opening_hours" v="2024-08-18"/>
    <tag k="contact:facebook" v="https://www.facebook.com/asdasoham/"/>
    <tag k="contact:twitter" v="asda"/>
    <tag k="contact:website" v="https://storelocator.asda.com/east-of-england/soham/2a-clay-street"/>
    <tag k="fhrs:id" v="710398"/>
    <tag k="name" v="Asda"/>
    <tag k="opening_hours" v="Mo-Sa 07:00-22:00; Su 10:00-16:00"/>
    <tag k="operator" v="Asda Stores Ltd"/>
    <tag k="shop" v="supermarket"/>
    <tag k="source:addr" v="FHRS Open Data"/>
  </way>
  <way id="39539236" version="4" timestamp="2020-01-06T15:27:29Z" changeset="79254624" uid="84263" user="Robert Whittaker">
    <nd ref="473728739"/>
    <nd ref="473728740"/>
    <nd ref="473728741"/>
    <nd ref="2301212599"/>
    <nd ref="473728742"/>
    <nd ref="2301212783"/>
    <nd ref="2301212725"/>
    <nd ref="473728739"/>
    <tag k="addr:city" v="Ely"/>
    <tag k="addr:postcode" v="CB7 5HP"/>
    <tag k="addr:street" v="College Close"/>
    <tag k="addr:town" v="Soham"/>
    <tag k="fhrs:id" v="336680"/>
    <tag k="leisure" v="sports_centre"/>
    <tag k="name" v="Ross Peers Sports Centre"/>
    <tag k="source:addr" v="FHRS Open Data"/>
  </way>
  <way id="39539267" version="12" timestamp="2022-04-04T07:14:52Z" changeset="119289351" uid="364" user="Edward">
    <nd ref="473729025"/>
    <nd ref="473729024"/>
    <nd ref="2300806171"/>
    <nd ref="2300806198"/>
    <nd ref="2300806164"/>
    <nd ref="473729197"/>
    <nd ref="2302318123"/>
    <nd ref="473729199"/>
    <nd ref="473729198"/>
    <nd ref="6625503531"/>
    <nd ref="2300806234"/>
    <nd ref="473729018"/>
    <nd ref="473729015"/>
    <nd ref="473729016"/>
    <nd ref="473729025"/>
    <tag k="addr:city" v="Ely"/>
    <tag k="addr:postcode" v="CB7 5BH"/>
    <tag k="addr:street" v="Pratt Street"/>
    <tag k="addr:town" v="Soham"/>
    <tag k="amenity" v="school"/>
    <tag k="capacity" v="630"/>
    <tag k="fhrs:id" v="1129160"/>
    <tag k="isced:level" v="0;1"/>
    <tag k="max_age" v="11"/>
    <tag k="min_age" v="3"/>
    <tag k="name" v="The Weatheralls Primary School"/>
    <tag k="phone" v="+44 1353 720456"/>
    <tag k="ref:GB:uprn" v="10002597549"/>
    <tag k="ref:edubase" v="143941"/>
    <tag k="ref:edubase:group" v="4824"/>
    <tag k="religion" v="none"/>
    <tag k="school:boarding" v="no"/>
    <tag k="school:gender" v="mixed"/>
    <tag k="school:selective" v="no"/>
    <tag k="school:trust" v="yes"/>
    <tag k="school:trust:name" v="Staploe Education Trust"/>
    <tag k="school:trust:type" v="multi_academy"/>
    <tag k="school:type" v="academy"/>
    <tag k="source:addr" v="FHRS Open Data"/>
    <tag k="website" v="https://www.weatheralls.cambs.sch.uk/"/>
    <tag k="wikidata" v="Q66231771"/>
  </way>
  <way id="220758229" version="4" timestamp="2023-11-07T09:02:09Z" changeset="143726366" uid="84263" user="Robert Whittaker">
    <nd ref="2298479038"/>
    <nd ref="2298479063"/>
    <nd ref="2298479083"/>
    <nd ref="2298479056"/>
    <nd ref="2298479077"/>
    <nd ref="2298479049"/>
    <nd ref="2298479042"/>
    <nd ref="2298479012"/>
    <nd ref="2298479048"/>
    <nd ref="2298479021"/>
    <nd ref="2298479057"/>
    <nd ref="2298479034"/>
    <nd ref="2298479038"/>
    <tag k="addr:city" v="Ely"/>
    <tag k="addr:housenumber" v="66"/>
    <tag k="addr:postcode" v="CB7 5AH"/>
    <tag k="addr:street" v="Fordham Road"/>
    <tag k="addr:town" v="Soham"/>
    <tag k="amenity" v="pub"/>
    <tag k="building" v="yes"/>
    <tag k="name" v="Cherry Tree"/>
    <tag k="url" v="www.cherrytree-soham.co.uk"/>
  </way>
  <way id="220813252" version="1" timestamp="2013-05-11T00:02:12Z" changeset="16073148" uid="281267" user="smb1001">
    <nd ref="2299006827"/>
    <nd ref="2299007272"/>
    <nd ref="2299007222"/>
    <nd ref="2299007275"/>
    <nd ref="2299006827"/>
    <tag k="addr:housenumber" v="7"/>
    <tag k="addr:street" v="Churchgate Street"/>
    <tag k="building" v="yes"/>
    <tag k="name" v="The Viva Centre"/>
  </way>
  <way id="220813261" version="7" timestamp="2024-07-15T22:33:09Z" changeset="153991674" uid="21425661" user="CjMalone">
    <nd ref="2299007098"/>
    <nd ref="2299007038"/>
    <nd ref="2299007351"/>
    <nd ref="2299006914"/>
    <nd ref="2299007345"/>
    <nd ref="2299007274"/>
    <nd ref="2299007145"/>
    <nd ref="7110503265"/>
    <nd ref="7110503264"/>
    <nd ref="2299006901"/>
    <nd ref="2299007266"/>
    <nd ref="7110503255"/>
    <nd ref="7110503253"/>
    <nd ref="7110503254"/>
    <nd ref="2299007098"/>
    <tag k="addr:city" v="Ely"/>
    <tag k="addr:housenumber" v="43"/>
    <tag k="addr:postcode" v="CB7 5HA"/>
    <tag k="addr:street" v="High Street"/>
    <tag k="addr:town" v="Soham"/>
    <tag k="brand" v="Co-op Food"/>
    <tag k="brand:wikidata" v="Q3277439"/>
    <tag k="brand:wikipedia" v="en:Co-op Food"/>
    <tag k="building" v="yes"/>
    <tag k="check_date" v="2024-07-15"/>
    <tag k="check_date:opening_hours" v="2024-07-15"/>
    <tag k="fhrs:id" v="336691"/>
    <tag k="name" v="The Co-operative Food"/>
    <tag k="opening_hours" v="Mo-Su 07:00-22:00"/>
    <tag k="operator" v="The Co-operative Group"/>
    <tag k="operator:wikidata" v="Q117202"/>
    <tag k="shop" v="supermarket"/>
    <tag k="source:addr" v="FHRS Open Data"/>
    <tag k="website" v="https://www.coop.co.uk/store-finder/CB7-5HA/43-high-street"/>
  </way>
  <way id="221049315" version="4" timestamp="2020-06-17T14:27:57Z" changeset="86779223" uid="364" user="Edward">
    <nd ref="2301043315"/>
    <nd ref="2301043351"/>
    <nd ref="2301212893"/>
    <nd ref="2301212618"/>
    <nd ref="2301043329"/>
    <nd ref="2301043309"/>
    <nd ref="2301043323"/>
    <nd ref="2301043277"/>
    <nd ref="7110937406"/>
    <nd ref="7110937407"/>
    <nd ref="2301043404"/>
    <nd ref="2301043205"/>
    <nd ref="2301043304"/>
    <nd ref="2301043319"/>
    <nd ref="2301043269"/>
    <nd ref="2301043298"/>
    <nd ref="2301043315"/>
    <tag k="addr:postcode" v="CB7 5HJ"/>
    <tag k="addr:street" v="Clay Street"/>
    <tag k="amenity" v="library"/>
    <tag k="building" v="yes"/>
    <tag k="name" v="Soham Library"/>
    <tag k="operator" v="Cambridgeshire County Council"/>
    <tag k="website" v="https://www.cambridgeshire.gov.uk/soham-library/"/>
    <tag k="wikidata" v="Q55163461"/>
  </way>
  <way id="221177681" version="2" timestamp="2023-10-12T21:56:41Z" changeset="142498518" uid="5173844" user="ndrw6">
    <nd ref="2302318152"/>
    <nd ref="2302318104"/>
    <nd ref="2302318177"/>
    <nd ref="2302318119"/>
    <nd ref="2302318112"/>
    <nd ref="2302318158"/>
    <nd ref="2302318200"/>
    <nd ref="2302318131"/>
    <nd ref="2302318152"/>
    <tag k="addr:housenumber" v="49"/>
    <tag k="addr:postcode" v="CB7 5AD"/>
    <tag k="addr:street" v="Brook Street"/>
    <tag k="amenity" v="restaurant"/>
    <tag k="building" v="yes"/>
    <tag k="cuisine" v="chinese"/>
    <tag k="name" v="Yim Wah House"/>
  </way>
  <way id="288286195" version="1" timestamp="2014-06-16T10:37:18Z" changeset="22961616" uid="2127295" user="Simon Peverett">
    <nd ref="2918460440"/>
    <nd ref="2918460441"/>
    <nd ref="2918460442"/>
    <nd ref="2918460443"/>
    <nd ref="2918460444"/>
    <nd ref="2918460445"/>
    <nd ref="2918460446"/>
    <nd ref="2918460447"/>
    <nd ref="2918460448"/>
    <nd ref="2918460449"/>
    <nd ref="2918460440"/>
    <tag k="addr:city" v="Ely"/>
    <tag k="addr:housenumber" v="6"/>
    <tag k="addr:postcode" v="CB7 5UP"/>
    <tag k="addr:street" v="Long Dolver Drove"/>
    <tag k="building" v="house"/>
    <tag k="name" v="Dane's Lodge"/>
  </way>
  <way id="288286196" version="1" timestamp="2014-06-16T10:37:18Z" changeset="22961616" uid="2127295" user="Simon Peverett">
    <nd ref="2918460450"/>
    <nd ref="2918460451"/>
    <nd ref="2918460452"/>
    <nd ref="2918460453"/>
    <nd ref="2918460450"/>
    <tag k="addr:city" v="Ely"/>
    <tag k="addr:postcode" v="CB7 5UP"/>
    <tag k="addr:street" v="Long Dolver Drove"/>
    <tag k="building" v="yes"/>
    <tag k="name" v="Country Club Kennels"/>
  </way>
  <way id="288286197" version="1" timestamp="2014-06-16T10:37:18Z" changeset="22961616" uid="2127295" user="Simon Peverett">
    <nd ref="2918460454"/>
    <nd ref="2918460455"/>
    <nd ref="2918460456"/>
    <nd ref="2918460457"/>
    <nd ref="2918460454"/>
    <tag k="addr:city" v="Ely"/>
    <tag k="addr:postcode" v="CB7 5UP"/>
    <tag k="addr:street" v="Long Dolver Drove"/>
    <tag k="building" v="yes"/>
    <tag k="name" v="Country Club Cattery"/>
  </way>
  <way id="288286198" version="1" timestamp="2014-06-16T10:37:18Z" changeset="22961616" uid="2127295" user="Simon Peverett">
    <nd ref="2918460458"/>
    <nd ref="2918460459"/>
    <nd ref="2918460460"/>
    <nd ref="2918460461"/>
    <nd ref="2918460458"/>
    <tag k="addr:city" v="Ely"/>
    <tag k="addr:postcode" v="CB7 5UP"/>
    <tag k="addr:street" v="Long Dolver Drove"/>
    <tag k="building" v="yes"/>
    <tag k="name" v="Country Club Kennels &amp; Cattery Office"/>
  </way>
  <way id="437215797" version="3" timestamp="2023-02-01T12:49:32Z" changeset="131962320" uid="2969887" user="eastender">
    <nd ref="4350314954"/>
    <nd ref="4350314955"/>
    <nd ref="4350314953"/>
    <nd ref="4350314952"/>
    <nd ref="4350314954"/>
    <tag k="addr:city" v="Ely"/>
    <tag k="addr:housenumber" v="1-5"/>
    <tag k="addr:postcode" v="CB7 5HB"/>
    <tag k="addr:street" v="High Street"/>
    <tag k="building" v="yes"/>
    <tag k="name" v="Crown Garage (Honda)"/>
    <tag k="phone" v="+44 1353 720779"/>
    <tag k="shop" v="car"/>
  </way>
  <way id="586096141" version="11" timestamp="2024-06-06T07:48:22Z" changeset="152317644" uid="5173844" user="ndrw6">
    <nd ref="473728719"/>
    <nd ref="473728721"/>
    <nd ref="2301212680"/>
    <nd ref="473728604"/>
    <nd ref="473728603"/>
    <nd ref="7107912496"/>
    <nd ref="473728712"/>
    <nd ref="473728706"/>
    <nd ref="11959792205"/>
    <nd ref="11959792206"/>
    <nd ref="11959792203"/>
    <nd ref="11959792204"/>
    <nd ref="473728708"/>
    <nd ref="473728702"/>
    <nd ref="7107912429"/>
    <nd ref="7107912428"/>
    <nd ref="7107912403"/>
    <nd ref="473728704"/>
    <nd ref="473728726"/>
    <nd ref="473728847"/>
    <nd ref="2301212843"/>
    <nd ref="473728848"/>
    <nd ref="473728724"/>
    <nd ref="2301212621"/>
    <nd ref="473728725"/>
    <nd ref="7107912483"/>
    <nd ref="2004637134"/>
    <nd ref="2004637127"/>
    <nd ref="2004637130"/>
    <nd ref="2004637133"/>
    <nd ref="7922134330"/>
    <nd ref="2301212747"/>
    <nd ref="7922134334"/>
    <nd ref="473728722"/>
    <nd ref="2298081681"/>
    <nd ref="2298081679"/>
    <nd ref="2298081669"/>
    <nd ref="2298081674"/>
    <nd ref="5600547630"/>
    <nd ref="5600547628"/>
    <nd ref="5600547627"/>
    <nd ref="7107912269"/>
    <nd ref="5600547625"/>
    <nd ref="473728719"/>
    <tag k="addr:city" v="Ely"/>
    <tag k="addr:postcode" v="CB7 5AA"/>
    <tag k="addr:street" v="Sand Street"/>
    <tag k="addr:town" v="Soham"/>
    <tag k="amenity" v="school"/>
    <tag k="capacity" v="1350"/>
    <tag k="fhrs:id" v="1129162"/>
    <tag k="isced:level" v="2"/>
    <tag k="max_age" v="16"/>
    <tag k="min_age" v="11"/>
    <tag k="name" v="Soham Village College"/>
    <tag k="phone" v="+44 1353 724100"/>
    <tag k="ref:GB:uprn" v="10002597555"/>
    <tag k="ref:edubase" v="136610"/>
    <tag k="ref:edubase:group" v="4824"/>
    <tag k="school:trust" v="yes"/>
    <tag k="school:trust:name" v="Staploe Education Trust"/>
    <tag k="school:trust:type" v="multi_academy"/>
    <tag k="school:type" v="academy"/>
    <tag k="source:addr" v="FHRS Open Data"/>
    <tag k="website" v="https://www.sohamvc.org/"/>
    <tag k="wikidata" v="Q3134983"/>
  </way>
  <way id="586096142" version="11" timestamp="2023-10-11T08:20:08Z" changeset="142425246" uid="37791" user="Fradeve11">
    <nd ref="2298081669"/>
    <nd ref="2298081674"/>
    <nd ref="5600547630"/>
    <nd ref="5600547628"/>
    <nd ref="5600547627"/>
    <nd ref="7107912269"/>
    <nd ref="5600547625"/>
    <nd ref="473728719"/>
    <nd ref="5600547631"/>
    <nd ref="2301212873"/>
    <nd ref="473728723"/>
    <nd ref="7108808771"/>
    <nd ref="2004637124"/>
    <nd ref="473728722"/>
    <nd ref="2298081681"/>
    <nd ref="2298081679"/>
    <nd ref="2298081669"/>
    <tag k="addr:city" v="Ely"/>
    <tag k="addr:postcode" v="CB7 5AA"/>
    <tag k="addr:street" v="Sand Street"/>
    <tag k="addr:town" v="Soham"/>
    <tag k="amenity" v="school"/>
    <tag k="capacity" v="480"/>
    <tag k="denomination" v="anglican"/>
    <tag k="diocese" v="Diocese of Ely"/>
    <tag k="fhrs:id" v="1105977"/>
    <tag k="isced:level" v="0;1"/>
    <tag k="max_age" v="11"/>
    <tag k="min_age" v="3"/>
    <tag k="name" v="St Andrew's CofE Primary School"/>
    <tag k="phone" v="+44 1353 720345"/>
    <tag k="ref:GB:uprn" v="10002597555"/>
    <tag k="ref:edubase" v="141552"/>
    <tag k="ref:edubase:group" v="2905"/>
    <tag k="religion" v="christian"/>
    <tag k="school:trust" v="yes"/>
    <tag k="school:trust:name" v="The Diocese of Ely Multi-Academy Trust"/>
    <tag k="school:trust:type" v="multi_academy"/>
    <tag k="school:type" v="academy"/>
    <tag k="source:addr" v="FHRS Open Data"/>
    <tag k="website" v="https://www.st-andrews-pri.cambs.sch.uk/"/>
    <tag k="wikidata" v="Q67149808"/>
  </way>
  <way id="626395613" version="9" timestamp="2023-08-02T19:11:29Z" changeset="139361116" uid="242345" user="confusedbuffalo">
    <nd ref="5913644216"/>
    <nd ref="5913644237"/>
    <nd ref="7843157290"/>
    <nd ref="5913643077"/>
    <nd ref="5913644197"/>
    <nd ref="5913644225"/>
    <nd ref="5913644247"/>
    <nd ref="5913644220"/>
    <nd ref="5913644232"/>
    <nd ref="5913644216"/>
    <tag k="addr:city" v="Ely"/>
    <tag k="addr:postcode" v="CB7 5DE"/>
    <tag k="addr:street" v="The Shade"/>
    <tag k="addr:village" v="Soham"/>
    <tag k="amenity" v="school"/>
    <tag k="capacity" v="420"/>
    <tag k="fhrs:id" v="1004486;1129161"/>
    <tag k="isced:level" v="0;1"/>
    <tag k="max_age" v="11"/>
    <tag k="min_age" v="4"/>
    <tag k="name" v="The Shade Primary School"/>
    <tag k="phone" v="+44 1353 886880"/>
    <tag k="ref:GB:uprn" v="10002611280"/>
    <tag k="ref:edubase" v="139555"/>
    <tag k="ref:edubase:group" v="4824"/>
    <tag k="school:trust" v="yes"/>
    <tag k="school:trust:name" v="Staploe Education Trust"/>
    <tag k="school:trust:type" v="multi_academy"/>
    <tag k="school:type" v="academy"/>
    <tag k="source" v="DigitalGlobe-Premium"/>
    <tag k="website" v="https://www.theshadeprimary.org.uk/"/>
    <tag k="wikidata" v="Q67149637"/>
  </way>
  <way id="640682889" version="6" timestamp="2024-07-22T20:44:47Z" changeset="154280304" uid="21425661" user="CjMalone">
    <nd ref="6035359999"/>
    <nd ref="6035360000"/>
    <nd ref="6035360001"/>
    <nd ref="6035360002"/>
    <nd ref="6035359999"/>
    <tag k="addr:city" v="Ely"/>
    <tag k="addr:postcode" v="CB7 5DE"/>
    <tag k="addr:street" v="The Shade"/>
    <tag k="addr:town" v="Soham"/>
    <tag k="brand" v="M&amp;S Simply Food"/>
    <tag k="brand:wikidata" v="Q714491"/>
    <tag k="brand:wikipedia" v="en:Marks &amp; Spencer"/>
    <tag k="building" v="yes"/>
    <tag k="check_date" v="2024-07-21"/>
    <tag k="check_date:opening_hours" v="2024-07-21"/>
    <tag k="contact:website" v="https://www.marksandspencer.com/stores/soham-connect-bp-2065"/>
    <tag k="fhrs:id" v="929386"/>
    <tag k="name" v="M&amp;S Simply Food"/>
    <tag k="opening_hours" v="Mo-Su 00:00-24:00"/>
    <tag k="operator" v="BP"/>
    <tag k="shop" v="convenience"/>
    <tag k="source:addr" v="FHRS Open Data"/>
    <tag k="source:outline" v="ESRI World Imagery"/>
  </way>
  <way id="705319898" version="4" timestamp="2024-04-12T09:15:29Z" changeset="149900472" uid="84263" user="Robert Whittaker">
    <nd ref="11811332509"/>
    <nd ref="6625510570"/>
    <nd ref="6625510566"/>
    <nd ref="6625510568"/>
    <nd ref="6625510567"/>
    <nd ref="6625510569"/>
    <nd ref="6625510571"/>
    <nd ref="6625510572"/>
    <nd ref="11811332507"/>
    <nd ref="11811332508"/>
    <nd ref="6625510564"/>
    <nd ref="6625510565"/>
    <nd ref="11811362127"/>
    <nd ref="11811362128"/>
    <nd ref="11811332509"/>
    <tag k="addr:city" v="Ely"/>
    <tag k="addr:housenumber" v="107a"/>
    <tag k="addr:postcode" v="CB7 5HL"/>
    <tag k="addr:street" v="Clay Street"/>
    <tag k="addr:town" v="Soham"/>
    <tag k="building" v="yes"/>
    <tag k="leisure" v="fitness_centre"/>
    <tag k="name" v="Sweat Gymnasium"/>
    <tag k="website" v="https://sweatgym.co.uk/"/>
  </way>
  <way id="760752104" version="3" timestamp="2020-01-05T10:34:48Z" changeset="79209165" uid="84263" user="Robert Whittaker">
    <nd ref="6025969364"/>
    <nd ref="7106818639"/>
    <nd ref="7106818643"/>
    <nd ref="7106818642"/>
    <nd ref="7106818640"/>
    <nd ref="7106818641"/>
    <nd ref="6025969364"/>
    <tag k="addr:city" v="Ely"/>
    <tag k="addr:housenumber" v="2A"/>
    <tag k="addr:postcode" v="CB7 5HZ"/>
    <tag k="addr:street" v="Brook Dam Lane"/>
    <tag k="addr:town" v="Soham"/>
    <tag k="amenity" v="fast_food"/>
    <tag k="building" v="yes"/>
    <tag k="cuisine" v="chinese"/>
    <tag k="fhrs:id" v="336674"/>
    <tag k="name" v="Good Luck Takeaway"/>
    <tag k="source" v="Bing"/>
    <tag k="source:addr" v="FHRS Open Data"/>
  </way>
  <way id="761051402" version="2" timestamp="2020-01-05T22:40:05Z" changeset="79225101" uid="84263" user="Robert Whittaker">
    <nd ref="7110503206"/>
    <nd ref="7110503205"/>
    <nd ref="7110503204"/>
    <nd ref="7110503203"/>
    <nd ref="7110503206"/>
    <tag k="addr:housenumber" v="10"/>
    <tag k="addr:street" v="High Street"/>
    <tag k="building" v="yes"/>
    <tag k="name" v="Soham Barbers"/>
    <tag k="shop" v="hairdresser"/>
  </way>
  <way id="1150306929" version="1" timestamp="2023-03-01T00:07:54Z" changeset="133150449" uid="3999" user="BarryMyles">
    <nd ref="10700749134"/>
    <nd ref="10700749135"/>
    <nd ref="10700749136"/>
    <nd ref="10700749137"/>
    <nd ref="10700749138"/>
    <nd ref="10700749139"/>
    <nd ref="10700749134"/>
    <tag k="addr:city" v="Soham"/>
    <tag k="addr:postcode" v="CB7 5AA"/>
    <tag k="addr:street" v="Sand Street"/>
    <tag k="building" v="yes"/>
    <tag k="name" v="Soham Telephone Exchange"/>
    <tag k="operator" v="Openreach"/>
    <tag k="operator:wikidata" v="Q7096543"/>
    <tag k="ref" v="EASOH"/>
    <tag k="telecom" v="exchange"/>
  </way>
  <way id="1284490535" version="1" timestamp="2024-05-18T20:53:09Z" changeset="151511766" uid="5173844" user="ndrw6">
    <nd ref="11916594603"/>
    <nd ref="2918460453"/>
    <nd ref="2918460463"/>
    <nd ref="2918460464"/>
    <nd ref="11916594602"/>
    <nd ref="11916594603"/>
    <tag k="access" v="customers"/>
    <tag k="addr:city" v="Ely"/>
    <tag k="addr:housenumber" v="6"/>
    <tag k="addr:postcode" v="CB7 5UP"/>
    <tag k="addr:street" v="Long Dolver Drove"/>
    <tag k="amenity" v="parking"/>
    <tag k="fee" v="no"/>
    <tag k="name" v="Country Club Kennels &amp; Cattery Customer Car Park"/>
    <tag k="park_ride" v="no"/>
    <tag k="supervised" v="no"/>
  </way>

</osm>
