<?xml version="1.0" encoding="UTF-8"?>
<osm version="0.6" generator="Overpass API 0.7.62.4 2390de5a">
<note>The data included in this document is from www.openstreetmap.org. The data is made available under ODbL.</note>
<meta osm_base="2024-11-27T17:22:15Z" areas="2024-11-27T10:45:57Z"/>

  <way id="45841379" version="2" timestamp="2023-09-21T09:39:14Z" changeset="141549988" uid="20240549" user="Sforzando9500">
    <nd ref="583433276"/>
    <nd ref="583433277"/>
    <nd ref="583433278"/>
    <nd ref="583433279"/>
    <nd ref="583433276"/>
    <tag k="addr:city" v="Little Shelford"/>
    <tag k="addr:housename" v="Little Shelford Farm"/>
    <tag k="addr:postcode" v="CB22 5EU"/>
    <tag k="addr:street" v="Whittlesford Road"/>
    <tag k="building" v="yes"/>
    <tag k="name" v="Little Shelford Farm"/>
    <tag k="source" v="yahoo"/>
  </way>
  <way id="83269947" version="3" timestamp="2023-09-21T09:39:14Z" changeset="141549988" uid="20240549" user="Sforzando9500">
    <nd ref="968822216"/>
    <nd ref="2497263650"/>
    <nd ref="2497263647"/>
    <nd ref="968822121"/>
    <nd ref="968822433"/>
    <nd ref="968822364"/>
    <nd ref="968822216"/>
    <tag k="addr:city" v="Little Shelford"/>
    <tag k="addr:postcode" v="CB22 5EU"/>
    <tag k="addr:street" v="Whittlesford Road"/>
    <tag k="building" v="house"/>
    <tag k="name" v="Sainsfoins Lodge"/>
  </way>
  <way id="83270004" version="3" timestamp="2023-09-21T09:39:14Z" changeset="141549988" uid="20240549" user="Sforzando9500">
    <nd ref="968822507"/>
    <nd ref="968822588"/>
    <nd ref="968822633"/>
    <nd ref="968822410"/>
    <nd ref="968822512"/>
    <nd ref="968822284"/>
    <nd ref="968822335"/>
    <nd ref="968822171"/>
    <nd ref="968822507"/>
    <tag k="addr:city" v="Little Shelford"/>
    <tag k="addr:housename" v="Sainsfoins House"/>
    <tag k="addr:postcode" v="CB22 5EU"/>
    <tag k="addr:street" v="Whittlesford Road"/>
    <tag k="building" v="house"/>
    <tag k="name" v="Sainsfoins House"/>
    <tag k="source:name" v="OS Opendata StreetView"/>
    <tag k="source:outline" v="OS Opendata StreetView"/>
  </way>
  <way id="83270015" version="5" timestamp="2023-09-21T09:39:14Z" changeset="141549988" uid="20240549" user="Sforzando9500">
    <nd ref="968822632"/>
    <nd ref="5810212853"/>
    <nd ref="5810212752"/>
    <nd ref="5810212863"/>
    <nd ref="5810212862"/>
    <nd ref="968822235"/>
    <nd ref="5810212860"/>
    <nd ref="5810212861"/>
    <nd ref="5810212866"/>
    <nd ref="5810212865"/>
    <nd ref="5810212864"/>
    <nd ref="5810212867"/>
    <nd ref="968822105"/>
    <nd ref="5810212858"/>
    <nd ref="5810212859"/>
    <nd ref="968822142"/>
    <nd ref="968822612"/>
    <nd ref="5810212857"/>
    <nd ref="5810212856"/>
    <nd ref="968822644"/>
    <nd ref="968822340"/>
    <nd ref="5810212854"/>
    <nd ref="5810212855"/>
    <nd ref="968822416"/>
    <nd ref="968822632"/>
    <tag k="addr:city" v="Little Shelford"/>
    <tag k="addr:postcode" v="CB22 5EU"/>
    <tag k="addr:street" v="Whittlesford Road"/>
    <tag k="building" v="yes"/>
    <tag k="name" v="Lismore"/>
    <tag k="source:name" v="OS Opendata StreetView"/>
    <tag k="source:outline" v="OS Opendata StreetView"/>
  </way>
  <way id="103599048" version="4" timestamp="2023-10-09T16:40:10Z" changeset="142357646" uid="20240549" user="Sforzando9500">
    <nd ref="1196185176"/>
    <nd ref="1196185167"/>
    <nd ref="9358484465"/>
    <nd ref="1196185178"/>
    <nd ref="9358484462"/>
    <nd ref="9358484463"/>
    <nd ref="9358484464"/>
    <nd ref="1196185168"/>
    <nd ref="1196185176"/>
    <tag k="addr:city" v="Little Shelford"/>
    <tag k="addr:postcode" v="CB22 5EW"/>
    <tag k="addr:street" v="Whittlesford Road"/>
    <tag k="building" v="sports_centre"/>
    <tag k="name" v="Pavilion"/>
    <tag k="source" v="Bing"/>
  </way>
  <way id="175428785" version="5" timestamp="2024-08-28T18:13:24Z" changeset="155894338" uid="10554793" user="dstansby">
    <nd ref="1860197699"/>
    <nd ref="1860197711"/>
    <nd ref="1860197700"/>
    <nd ref="1860197701"/>
    <nd ref="1860197699"/>
    <tag k="addr:city" v="Stapleford"/>
    <tag k="addr:housename" v="Dernford Mill House"/>
    <tag k="addr:postcode" v="CB22 5DY"/>
    <tag k="addr:street" v="Sawston Road"/>
    <tag k="building" v="detached"/>
    <tag k="name" v="Dernford Mill House"/>
  </way>
  <way id="219004371" version="5" timestamp="2023-11-05T22:46:44Z" changeset="143670458" uid="20240549" user="Sforzando9500">
    <nd ref="9536002211"/>
    <nd ref="11328300022"/>
    <nd ref="9536006018"/>
    <nd ref="11328300012"/>
    <nd ref="2282095575"/>
    <nd ref="3590210099"/>
    <nd ref="3590211115"/>
    <nd ref="3590211116"/>
    <nd ref="2282095622"/>
    <nd ref="9536002211"/>
    <tag k="addr:city" v="Little Shelford"/>
    <tag k="addr:housenumber" v="13"/>
    <tag k="addr:postcode" v="CB22 5HG"/>
    <tag k="addr:street" v="Church Street"/>
    <tag k="amenity" v="townhall"/>
    <tag k="building" v="yes"/>
    <tag k="name" v="Little Shelford Memorial Hall"/>
  </way>
  <way id="219004380" version="3" timestamp="2023-09-19T11:34:51Z" changeset="141464832" uid="20240549" user="Sforzando9500">
    <nd ref="2282095665"/>
    <nd ref="2282095636"/>
    <nd ref="2282095559"/>
    <nd ref="2282095505"/>
    <nd ref="2282095720"/>
    <nd ref="2282095495"/>
    <nd ref="11202213806"/>
    <nd ref="11202213805"/>
    <nd ref="2282095665"/>
    <tag k="addr:city" v="Little Shelford"/>
    <tag k="addr:housenumber" v="1"/>
    <tag k="addr:postcode" v="CB22 5HG"/>
    <tag k="addr:street" v="Church Street"/>
    <tag k="amenity" v="restaurant"/>
    <tag k="building" v="yes"/>
    <tag k="name" v="Sycamore House"/>
  </way>
  <way id="219004383" version="10" timestamp="2023-11-10T05:59:39Z" changeset="143848251" uid="9451067" user="b-jazz-bot">
    <nd ref="2282095696"/>
    <nd ref="11194939862"/>
    <nd ref="2282095729"/>
    <nd ref="3590212658"/>
    <nd ref="3590212657"/>
    <nd ref="11328153607"/>
    <nd ref="3590212659"/>
    <nd ref="3590212660"/>
    <nd ref="2282095676"/>
    <nd ref="2282095700"/>
    <nd ref="2282095699"/>
    <nd ref="2282095698"/>
    <nd ref="2282095670"/>
    <nd ref="2282095722"/>
    <nd ref="11328153611"/>
    <nd ref="2282095508"/>
    <nd ref="2282095667"/>
    <nd ref="2282095666"/>
    <nd ref="2282095635"/>
    <nd ref="2282095604"/>
    <nd ref="3590216738"/>
    <nd ref="2282095690"/>
    <nd ref="11194939865"/>
    <nd ref="11194939864"/>
    <nd ref="11194939863"/>
    <nd ref="2282095696"/>
    <tag k="addr:city" v="Cambridge"/>
    <tag k="addr:housename" v="All Saints Church"/>
    <tag k="addr:postcode" v="CB22 5HG"/>
    <tag k="addr:street" v="Church Street"/>
    <tag k="addr:village" v="Little Shelford"/>
    <tag k="amenity" v="place_of_worship"/>
    <tag k="building" v="church"/>
    <tag k="denomination" v="anglican"/>
    <tag k="name" v="All Saints"/>
    <tag k="ref:dove" v="11637"/>
    <tag k="religion" v="christian"/>
    <tag k="website" v="https://www.allsaintslittleshelford.org/"/>
    <tag k="wikidata" v="Q17550570"/>
  </way>
  <way id="307583670" version="4" timestamp="2023-09-21T09:39:14Z" changeset="141549988" uid="20240549" user="Sforzando9500">
    <nd ref="3127807793"/>
    <nd ref="3127807795"/>
    <nd ref="3127807792"/>
    <nd ref="6102577535"/>
    <nd ref="3127807794"/>
    <nd ref="3127807793"/>
    <tag k="addr:city" v="Little Shelford"/>
    <tag k="addr:housename" v="Ley Grove Cottages"/>
    <tag k="addr:housenumber" v="1-9"/>
    <tag k="addr:postcode" v="CB22 5EX"/>
    <tag k="addr:street" v="Whittlesford Road"/>
    <tag k="building" v="yes"/>
    <tag k="name" v="Ley Grove Cottages"/>
  </way>
  <way id="346596932" version="2" timestamp="2023-09-21T09:39:14Z" changeset="141549988" uid="20240549" user="Sforzando9500">
    <nd ref="3531081966"/>
    <nd ref="3531081967"/>
    <nd ref="3531081968"/>
    <nd ref="3531081969"/>
    <nd ref="3531081966"/>
    <tag k="addr:city" v="Little Shelford"/>
    <tag k="addr:postcode" v="CB22 5EU"/>
    <tag k="addr:street" v="Whittlesford Road"/>
    <tag k="building" v="yes"/>
    <tag k="name" v="Farm Cottage"/>
  </way>
  <way id="353241562" version="7" timestamp="2024-04-27T16:00:58Z" changeset="150586705" uid="11108132" user="matheusgomesms-import">
    <nd ref="3590211115"/>
    <nd ref="3590211116"/>
    <nd ref="11202213759"/>
    <nd ref="11202213760"/>
    <nd ref="3590211117"/>
    <nd ref="5810211969"/>
    <nd ref="3590211118"/>
    <nd ref="3590211115"/>
    <tag k="addr:city" v="Little Shelford"/>
    <tag k="addr:housenumber" v="15"/>
    <tag k="addr:postcode" v="CB22 5HG"/>
    <tag k="addr:street" v="Church Street"/>
    <tag k="amenity" v="fast_food"/>
    <tag k="area" v="yes"/>
    <tag k="building" v="yes"/>
    <tag k="cuisine" v="fish_and_chips;chinese"/>
    <tag k="drive_through" v="no"/>
    <tag k="name" v="Shelford Winners"/>
    <tag k="opening_hours" v="Wednesday 12-2pm, 5-11pm Thursday 12-2pm, 5-11pm Friday 12-2pm, 5-11:30pm Saturday 12-2pm, 5-11:30pm Sunday 5-11pm Monday 12-2pm, 5-11pm Tuesday 12-2pm, 5-11pm"/>
    <tag k="phone" v="+44 1223 844688"/>
    <tag k="takeaway" v="yes"/>
  </way>
  <way id="614204271" version="3" timestamp="2023-09-21T18:11:55Z" changeset="141572290" uid="20240549" user="Sforzando9500">
    <nd ref="5810211392"/>
    <nd ref="5810211391"/>
    <nd ref="5810211369"/>
    <nd ref="5810211376"/>
    <nd ref="5810211372"/>
    <nd ref="5810211392"/>
    <tag k="addr:city" v="Little Shelford"/>
    <tag k="addr:housenumber" v="15"/>
    <tag k="addr:postcode" v="CB22 5ES"/>
    <tag k="addr:street" v="High Street"/>
    <tag k="building" v="house"/>
    <tag k="name" v="The Old Bakery"/>
  </way>
  <way id="614204274" version="3" timestamp="2024-11-03T21:55:13Z" changeset="158716324" uid="20240549" user="Sforzando9500">
    <nd ref="5810211400"/>
    <nd ref="5810211399"/>
    <nd ref="5810211398"/>
    <nd ref="11207336834"/>
    <nd ref="11207336795"/>
    <nd ref="5810211397"/>
    <nd ref="5810211400"/>
    <tag k="addr:city" v="Little Shelford"/>
    <tag k="addr:housename" v="The Old Chapel"/>
    <tag k="addr:postcode" v="CB22 5ES"/>
    <tag k="addr:street" v="High Street"/>
    <tag k="building" v="house"/>
    <tag k="name" v="The Old Chapel"/>
  </way>
  <way id="614204275" version="3" timestamp="2023-09-21T18:11:55Z" changeset="141572290" uid="20240549" user="Sforzando9500">
    <nd ref="5810211406"/>
    <nd ref="5810211405"/>
    <nd ref="5810211404"/>
    <nd ref="5810211402"/>
    <nd ref="5810211401"/>
    <nd ref="5810211403"/>
    <nd ref="5810211406"/>
    <tag k="addr:city" v="Little Shelford"/>
    <tag k="addr:housenumber" v="9"/>
    <tag k="addr:postcode" v="CB22 5ES"/>
    <tag k="addr:street" v="High Street"/>
    <tag k="building" v="house"/>
    <tag k="name" v="Holly Tree Cottage"/>
  </way>
  <way id="614204276" version="3" timestamp="2023-09-21T18:11:55Z" changeset="141572290" uid="20240549" user="Sforzando9500">
    <nd ref="5810211412"/>
    <nd ref="5810211411"/>
    <nd ref="5810211410"/>
    <nd ref="5810211407"/>
    <nd ref="5810211408"/>
    <nd ref="5810211409"/>
    <nd ref="5810211412"/>
    <tag k="addr:city" v="Little Shelford"/>
    <tag k="addr:housenumber" v="19"/>
    <tag k="addr:postcode" v="CB22 5ES"/>
    <tag k="addr:street" v="High Street"/>
    <tag k="building" v="house"/>
    <tag k="name" v="Stable House"/>
  </way>
  <way id="614204279" version="3" timestamp="2023-09-21T18:11:55Z" changeset="141572290" uid="20240549" user="Sforzando9500">
    <nd ref="5810211424"/>
    <nd ref="5810211420"/>
    <nd ref="5810211419"/>
    <nd ref="5810211421"/>
    <nd ref="5810211422"/>
    <nd ref="5810211417"/>
    <nd ref="5810211418"/>
    <nd ref="5810211423"/>
    <nd ref="5810211424"/>
    <tag k="addr:city" v="Little Shelford"/>
    <tag k="addr:housenumber" v="19a"/>
    <tag k="addr:postcode" v="CB22 5ES"/>
    <tag k="addr:street" v="High Street"/>
    <tag k="building" v="house"/>
    <tag k="name" v="The Courts"/>
  </way>
  <way id="614204281" version="3" timestamp="2023-10-09T16:40:56Z" changeset="142357646" uid="20240549" user="Sforzando9500">
    <nd ref="5810211428"/>
    <nd ref="5810211427"/>
    <nd ref="5810211426"/>
    <nd ref="5810211425"/>
    <nd ref="5810211428"/>
    <tag k="addr:city" v="Little Shelford"/>
    <tag k="addr:housenumber" v="21"/>
    <tag k="addr:postcode" v="CB22 5ES"/>
    <tag k="addr:street" v="High Street"/>
    <tag k="building" v="detached"/>
    <tag k="name" v="Kings Farmhouse"/>
  </way>
  <way id="614204282" version="3" timestamp="2023-09-21T18:21:44Z" changeset="141572588" uid="20240549" user="Sforzando9500">
    <nd ref="5810211432"/>
    <nd ref="5810211431"/>
    <nd ref="5810211430"/>
    <nd ref="5810211429"/>
    <nd ref="5810211432"/>
    <tag k="addr:city" v="Little Shelford"/>
    <tag k="addr:housenumber" v="29"/>
    <tag k="addr:postcode" v="CB22 5ES"/>
    <tag k="addr:street" v="High Street"/>
    <tag k="building" v="house"/>
    <tag k="name" v="Kings Garden"/>
  </way>
  <way id="614204290" version="2" timestamp="2023-09-21T18:21:44Z" changeset="141572588" uid="20240549" user="Sforzando9500">
    <nd ref="5810211456"/>
    <nd ref="5810211455"/>
    <nd ref="5810211454"/>
    <nd ref="5810211453"/>
    <nd ref="5810211456"/>
    <tag k="addr:city" v="Little Shelford"/>
    <tag k="addr:housenumber" v="59"/>
    <tag k="addr:postcode" v="CB22 5ES"/>
    <tag k="addr:street" v="High Street"/>
    <tag k="building" v="house"/>
    <tag k="name" v="Donalson Villa"/>
  </way>
  <way id="614204310" version="3" timestamp="2023-09-21T18:21:44Z" changeset="141572588" uid="20240549" user="Sforzando9500">
    <nd ref="5810211520"/>
    <nd ref="11208419138"/>
    <nd ref="11208419137"/>
    <nd ref="5810211519"/>
    <nd ref="5810211518"/>
    <nd ref="5810211515"/>
    <nd ref="5810211516"/>
    <nd ref="5810211517"/>
    <nd ref="5810211520"/>
    <tag k="addr:city" v="Little Shelford"/>
    <tag k="addr:housenumber" v="77"/>
    <tag k="addr:postcode" v="CB22 5ES"/>
    <tag k="addr:street" v="High Street"/>
    <tag k="building" v="house"/>
    <tag k="name" v="Pump Cottage"/>
  </way>
  <way id="614204312" version="4" timestamp="2023-09-21T18:21:44Z" changeset="141572588" uid="20240549" user="Sforzando9500">
    <nd ref="5810211526"/>
    <nd ref="2282095725"/>
    <nd ref="2282095692"/>
    <nd ref="5810211522"/>
    <nd ref="5810211521"/>
    <nd ref="5810211525"/>
    <nd ref="5810211526"/>
    <tag k="addr:city" v="Little Shelford"/>
    <tag k="addr:housenumber" v="65"/>
    <tag k="addr:postcode" v="CB22 5ES"/>
    <tag k="addr:street" v="High Street"/>
    <tag k="building" v="house"/>
    <tag k="name" v="Close Cottage"/>
  </way>
  <way id="614204313" version="3" timestamp="2023-09-21T18:21:44Z" changeset="141572588" uid="20240549" user="Sforzando9500">
    <nd ref="5810211530"/>
    <nd ref="5810211527"/>
    <nd ref="11208411424"/>
    <nd ref="11208411425"/>
    <nd ref="5810211528"/>
    <nd ref="11208411426"/>
    <nd ref="11208411427"/>
    <nd ref="5810211529"/>
    <nd ref="5810211530"/>
    <tag k="addr:city" v="Little Shelford"/>
    <tag k="addr:housenumber" v="67"/>
    <tag k="addr:postcode" v="CB22 5ES"/>
    <tag k="addr:street" v="High Street"/>
    <tag k="building" v="house"/>
    <tag k="name" v="The Carriers"/>
  </way>
  <way id="614204337" version="3" timestamp="2023-09-15T22:10:00Z" changeset="141321728" uid="20240549" user="Sforzando9500">
    <nd ref="5810211614"/>
    <nd ref="5810211611"/>
    <nd ref="5810211612"/>
    <nd ref="5810211613"/>
    <nd ref="11194900547"/>
    <nd ref="5810211614"/>
    <tag k="addr:city" v="Little Shelford"/>
    <tag k="addr:housenumber" v="48"/>
    <tag k="addr:postcode" v="CB22 5EW"/>
    <tag k="addr:street" v="Whittlesford Road"/>
    <tag k="building" v="commercial"/>
    <tag k="name" v="Cambridge Creative"/>
  </way>
  <way id="614204338" version="3" timestamp="2023-09-15T22:10:00Z" changeset="141321728" uid="20240549" user="Sforzando9500">
    <nd ref="5810211618"/>
    <nd ref="5810211615"/>
    <nd ref="5810211616"/>
    <nd ref="5810211617"/>
    <nd ref="11194900546"/>
    <nd ref="5810211618"/>
    <tag k="addr:city" v="Little Shelford"/>
    <tag k="addr:housenumber" v="46a"/>
    <tag k="addr:postcode" v="CB22 5EW"/>
    <tag k="addr:street" v="Whittlesford Road"/>
    <tag k="building" v="commercial"/>
    <tag k="name" v="Annesley Gordon"/>
  </way>
  <way id="614204374" version="3" timestamp="2023-10-09T16:44:01Z" changeset="142357646" uid="20240549" user="Sforzando9500">
    <nd ref="5810211734"/>
    <nd ref="5810211731"/>
    <nd ref="5810211732"/>
    <nd ref="5810211730"/>
    <nd ref="5810211729"/>
    <nd ref="5810211733"/>
    <nd ref="5810211727"/>
    <nd ref="5810211728"/>
    <nd ref="5810211734"/>
    <tag k="addr:city" v="Little Shelford"/>
    <tag k="addr:housenumber" v="2"/>
    <tag k="addr:postcode" v="CB22 5HE"/>
    <tag k="addr:street" v="Bridge Lane"/>
    <tag k="building" v="detached"/>
    <tag k="name" v="East Lodge"/>
  </way>
  <way id="614204391" version="3" timestamp="2023-10-09T16:44:00Z" changeset="142357646" uid="20240549" user="Sforzando9500">
    <nd ref="5810211798"/>
    <nd ref="5810211794"/>
    <nd ref="5810211793"/>
    <nd ref="5810211792"/>
    <nd ref="5810211791"/>
    <nd ref="5810211797"/>
    <nd ref="5810211796"/>
    <nd ref="5810211795"/>
    <nd ref="5810211789"/>
    <nd ref="5810211790"/>
    <nd ref="5810211798"/>
    <tag k="addr:housenumber" v="10"/>
    <tag k="addr:postcode" v="CB22 5HE"/>
    <tag k="addr:street" v="Bridge Lane"/>
    <tag k="building" v="detached"/>
    <tag k="name" v="Riverside House"/>
  </way>
  <way id="614204393" version="4" timestamp="2023-09-15T21:36:28Z" changeset="141320988" uid="20240549" user="Sforzando9500">
    <nd ref="5810211814"/>
    <nd ref="5810211813"/>
    <nd ref="5810211812"/>
    <nd ref="5810211810"/>
    <nd ref="5810211809"/>
    <nd ref="5810211811"/>
    <nd ref="5810211814"/>
    <tag k="addr:housenumber" v="1"/>
    <tag k="addr:postcode" v="CB22 5EW"/>
    <tag k="addr:street" v="Whittlesford Road"/>
    <tag k="building" v="detached"/>
    <tag k="name" v="The Lodge"/>
  </way>
  <way id="614204513" version="2" timestamp="2023-09-24T15:41:13Z" changeset="141688339" uid="20240549" user="Sforzando9500">
    <nd ref="5810212295"/>
    <nd ref="5810212294"/>
    <nd ref="5810212293"/>
    <nd ref="5810212292"/>
    <nd ref="5810212295"/>
    <tag k="addr:city" v="Little Shelford"/>
    <tag k="addr:postcode" v="CB22 5HJ"/>
    <tag k="addr:street" v="Hauxton Road"/>
    <tag k="building" v="yes"/>
    <tag k="name" v="Brookfield Cottage"/>
  </way>
  <way id="614204561" version="4" timestamp="2023-09-21T18:11:55Z" changeset="141572290" uid="20240549" user="Sforzando9500">
    <nd ref="5810212499"/>
    <nd ref="5810212490"/>
    <nd ref="11202213834"/>
    <nd ref="5810212491"/>
    <nd ref="5810212493"/>
    <nd ref="5810212492"/>
    <nd ref="5810212497"/>
    <nd ref="5810212495"/>
    <nd ref="5810212494"/>
    <nd ref="5810212496"/>
    <nd ref="5810212499"/>
    <tag k="addr:city" v="Little Shelford"/>
    <tag k="addr:housenumber" v="3"/>
    <tag k="addr:postcode" v="CB22 5ES"/>
    <tag k="addr:street" v="High Street"/>
    <tag k="building" v="house"/>
    <tag k="name" v="Flintcombe"/>
  </way>
  <way id="614204591" version="4" timestamp="2023-10-09T16:41:10Z" changeset="142357646" uid="20240549" user="Sforzando9500">
    <nd ref="5810212584"/>
    <nd ref="5810212581"/>
    <nd ref="5810212582"/>
    <nd ref="5810212583"/>
    <nd ref="5810212584"/>
    <tag k="addr:city" v="Little Shelford"/>
    <tag k="addr:housenumber" v="26"/>
    <tag k="addr:postcode" v="CB22 5ES"/>
    <tag k="addr:street" v="High Street"/>
    <tag k="building" v="detached"/>
    <tag k="name" v="Whites Farmhouse"/>
  </way>
  <way id="614204594" version="2" timestamp="2023-09-21T17:10:27Z" changeset="141569840" uid="20240549" user="Sforzando9500">
    <nd ref="5810212604"/>
    <nd ref="5810212601"/>
    <nd ref="5810212600"/>
    <nd ref="5810212599"/>
    <nd ref="5810212598"/>
    <nd ref="5810212597"/>
    <nd ref="5810212602"/>
    <nd ref="5810212603"/>
    <nd ref="11208419236"/>
    <nd ref="5810212595"/>
    <nd ref="5810212596"/>
    <nd ref="5810212593"/>
    <nd ref="5810212592"/>
    <nd ref="5810212590"/>
    <nd ref="5810212589"/>
    <nd ref="5810212591"/>
    <nd ref="5810212604"/>
    <tag k="addr:city" v="Little Shelford"/>
    <tag k="addr:housenumber" v="32"/>
    <tag k="addr:postcode" v="CB22 5ES"/>
    <tag k="addr:street" v="High Street"/>
    <tag k="building" v="house"/>
    <tag k="name" v="Kirby Lodge"/>
  </way>
  <way id="614204596" version="3" timestamp="2023-09-21T18:21:44Z" changeset="141572588" uid="20240549" user="Sforzando9500">
    <nd ref="5810212620"/>
    <nd ref="5810212619"/>
    <nd ref="5810212611"/>
    <nd ref="5810212610"/>
    <nd ref="5810212609"/>
    <nd ref="5810212612"/>
    <nd ref="5810212618"/>
    <nd ref="5810212615"/>
    <nd ref="5810212614"/>
    <nd ref="5810212613"/>
    <nd ref="5810212616"/>
    <nd ref="5810212617"/>
    <nd ref="5810212607"/>
    <nd ref="5810212606"/>
    <nd ref="5810212605"/>
    <nd ref="5810212608"/>
    <nd ref="5810212620"/>
    <tag k="addr:city" v="Little Shelford"/>
    <tag k="addr:housenumber" v="34"/>
    <tag k="addr:postcode" v="CB22 5ES"/>
    <tag k="addr:street" v="High Street"/>
    <tag k="building" v="house"/>
    <tag k="name" v="Yew Trees"/>
  </way>
  <way id="614204598" version="3" timestamp="2023-09-21T18:21:44Z" changeset="141572588" uid="20240549" user="Sforzando9500">
    <nd ref="5810212632"/>
    <nd ref="5810212631"/>
    <nd ref="5810212623"/>
    <nd ref="5810212624"/>
    <nd ref="5810212622"/>
    <nd ref="5810212621"/>
    <nd ref="11208419244"/>
    <nd ref="5810212630"/>
    <nd ref="5810212628"/>
    <nd ref="5810212627"/>
    <nd ref="5810212626"/>
    <nd ref="5810212625"/>
    <nd ref="5810212629"/>
    <nd ref="5810212632"/>
    <tag k="addr:city" v="Little Shelford"/>
    <tag k="addr:housenumber" v="38"/>
    <tag k="addr:postcode" v="CB22 5ES"/>
    <tag k="addr:street" v="High Street"/>
    <tag k="building" v="house"/>
    <tag k="name" v="Low Brooms"/>
  </way>
  <way id="614204610" version="2" timestamp="2023-09-21T17:44:45Z" changeset="141571252" uid="20240549" user="Sforzando9500">
    <nd ref="5810212696"/>
    <nd ref="5810212693"/>
    <nd ref="5810212681"/>
    <nd ref="5810212682"/>
    <nd ref="5810212684"/>
    <nd ref="5810212683"/>
    <nd ref="5810212694"/>
    <nd ref="5810212695"/>
    <nd ref="5810212696"/>
    <tag k="addr:city" v="Little Shelford"/>
    <tag k="addr:postcode" v="CB22 5ES"/>
    <tag k="addr:street" v="High Street"/>
    <tag k="building" v="yes"/>
    <tag k="name" v="The New Barn"/>
  </way>
  <way id="614204614" version="3" timestamp="2023-10-09T17:03:37Z" changeset="142357646" uid="20240549" user="Sforzando9500">
    <nd ref="5810212713"/>
    <nd ref="5810212709"/>
    <nd ref="5810212708"/>
    <nd ref="5810212706"/>
    <nd ref="5810212707"/>
    <nd ref="5810212710"/>
    <nd ref="5810212711"/>
    <nd ref="5810212712"/>
    <nd ref="5810212713"/>
    <tag k="addr:city" v="Little Shelford"/>
    <tag k="addr:housenumber" v="50"/>
    <tag k="addr:postcode" v="CB22 5ES"/>
    <tag k="addr:street" v="High Street"/>
    <tag k="building" v="detached"/>
    <tag k="name" v="Hall Farm"/>
  </way>
  <way id="614204623" version="2" timestamp="2023-09-21T09:39:14Z" changeset="141549988" uid="20240549" user="Sforzando9500">
    <nd ref="5810212747"/>
    <nd ref="5810212746"/>
    <nd ref="5810212745"/>
    <nd ref="5810212738"/>
    <nd ref="5810212739"/>
    <nd ref="5810212741"/>
    <nd ref="5810212740"/>
    <nd ref="5810212742"/>
    <nd ref="5810212743"/>
    <nd ref="5810212744"/>
    <nd ref="5810212747"/>
    <tag k="addr:city" v="Little Shelford"/>
    <tag k="addr:postcode" v="CB22 5EU"/>
    <tag k="addr:street" v="Whittlesford Road"/>
    <tag k="building" v="yes"/>
    <tag k="name" v="Rectory Farm"/>
  </way>
  <way id="614204626" version="4" timestamp="2023-09-21T18:21:44Z" changeset="141572588" uid="20240549" user="Sforzando9500">
    <nd ref="5810212875"/>
    <nd ref="11194785102"/>
    <nd ref="5810212872"/>
    <nd ref="5810212868"/>
    <nd ref="5810212870"/>
    <nd ref="5810212875"/>
    <tag k="addr:city" v="Little Shelford"/>
    <tag k="addr:housenumber" v="95"/>
    <tag k="addr:postcode" v="CB22 5ES"/>
    <tag k="addr:street" v="High Street"/>
    <tag k="building" v="house"/>
    <tag k="name" v="Meadow Cottage"/>
  </way>
  <way id="614204629" version="5" timestamp="2023-10-09T17:27:52Z" changeset="142357646" uid="20240549" user="Sforzando9500">
    <nd ref="5810212887"/>
    <nd ref="11216702091"/>
    <nd ref="5810212886"/>
    <nd ref="5810212885"/>
    <nd ref="5810212882"/>
    <nd ref="5810212883"/>
    <nd ref="5810212884"/>
    <nd ref="11208487537"/>
    <nd ref="11208487538"/>
    <nd ref="5810212887"/>
    <tag k="addr:city" v="Little Shelford"/>
    <tag k="addr:housenumber" v="68"/>
    <tag k="addr:postcode" v="CB22 5ES"/>
    <tag k="addr:street" v="High Street"/>
    <tag k="building" v="detached"/>
    <tag k="name" v="The White House"/>
  </way>
  <way id="614204632" version="3" timestamp="2023-09-21T18:21:44Z" changeset="141572588" uid="20240549" user="Sforzando9500">
    <nd ref="5810212903"/>
    <nd ref="5810212902"/>
    <nd ref="11208487553"/>
    <nd ref="11208487554"/>
    <nd ref="5810212901"/>
    <nd ref="5810212900"/>
    <nd ref="11208487556"/>
    <nd ref="11208487555"/>
    <nd ref="5810212896"/>
    <nd ref="5810212898"/>
    <nd ref="5810212899"/>
    <nd ref="5810212903"/>
    <tag k="addr:city" v="Little Shelford"/>
    <tag k="addr:housenumber" v="82"/>
    <tag k="addr:postcode" v="CB22 5ES"/>
    <tag k="addr:street" v="High Street"/>
    <tag k="building" v="house"/>
    <tag k="name" v="Westfield"/>
  </way>
  <way id="1207612285" version="1" timestamp="2023-09-13T22:48:56Z" changeset="141232400" uid="20240549" user="Sforzando9500">
    <nd ref="11189258271"/>
    <nd ref="5810211617"/>
    <nd ref="5810211616"/>
    <nd ref="11189258272"/>
    <nd ref="11189258273"/>
    <nd ref="11189258274"/>
    <nd ref="11189258271"/>
    <tag k="addr:city" v="Little Shelford"/>
    <tag k="addr:housenumber" v="46"/>
    <tag k="addr:postcode" v="CB22 5EW"/>
    <tag k="addr:street" v="Whittlesford Road"/>
    <tag k="building" v="commercial"/>
    <tag k="name" v="Diverse Technologies"/>
  </way>
  <way id="1209695670" version="1" timestamp="2023-09-21T09:39:14Z" changeset="141549988" uid="20240549" user="Sforzando9500">
    <nd ref="11207310479"/>
    <nd ref="11207310480"/>
    <nd ref="11207310481"/>
    <nd ref="11207310482"/>
    <nd ref="11207310479"/>
    <tag k="addr:city" v="Little Shelford"/>
    <tag k="addr:postcode" v="CB22 5EU"/>
    <tag k="addr:street" v="Whittlesford Road"/>
    <tag k="building" v="house"/>
    <tag k="name" v="Liss Cottage"/>
  </way>
  <way id="1209700635" version="2" timestamp="2023-09-21T18:11:55Z" changeset="141572290" uid="20240549" user="Sforzando9500">
    <nd ref="11207336774"/>
    <nd ref="11207336775"/>
    <nd ref="5810212490"/>
    <nd ref="5810212499"/>
    <nd ref="11207336774"/>
    <tag k="addr:city" v="Little Shelford"/>
    <tag k="addr:housenumber" v="1"/>
    <tag k="addr:postcode" v="CB22 5ES"/>
    <tag k="addr:street" v="High Street"/>
    <tag k="building" v="house"/>
    <tag k="name" v="Corner House"/>
  </way>
  <way id="1209846670" version="1" timestamp="2023-09-21T18:21:44Z" changeset="141572588" uid="20240549" user="Sforzando9500">
    <nd ref="11208537581"/>
    <nd ref="11207336823"/>
    <nd ref="5810211442"/>
    <nd ref="11208537582"/>
    <nd ref="11208537581"/>
    <tag k="addr:city" v="Little Shelford"/>
    <tag k="addr:housenumber" v="37"/>
    <tag k="addr:postcode" v="CB22 5ES"/>
    <tag k="addr:street" v="High Street"/>
    <tag k="building" v="house"/>
    <tag k="name" v="Tulip Cottage"/>
  </way>
  <way id="1209846672" version="1" timestamp="2023-09-21T18:21:44Z" changeset="141572588" uid="20240549" user="Sforzando9500">
    <nd ref="11207336826"/>
    <nd ref="11208537584"/>
    <nd ref="11208537585"/>
    <nd ref="11208537583"/>
    <nd ref="11207336826"/>
    <tag k="addr:city" v="Little Shelford"/>
    <tag k="addr:housenumber" v="43"/>
    <tag k="addr:postcode" v="CB22 5ES"/>
    <tag k="addr:street" v="High Street"/>
    <tag k="building" v="house"/>
    <tag k="name" v="Kings Cottage"/>
  </way>
  <way id="1209846673" version="1" timestamp="2023-09-21T18:21:44Z" changeset="141572588" uid="20240549" user="Sforzando9500">
    <nd ref="5810211439"/>
    <nd ref="11207336829"/>
    <nd ref="11208537586"/>
    <nd ref="11208537585"/>
    <nd ref="11208537584"/>
    <nd ref="5810211439"/>
    <tag k="addr:city" v="Little Shelford"/>
    <tag k="addr:housenumber" v="47"/>
    <tag k="addr:postcode" v="CB22 5ES"/>
    <tag k="addr:street" v="High Street"/>
    <tag k="building" v="house"/>
    <tag k="name" v="Marigold Cottage"/>
  </way>
  <way id="1209846675" version="1" timestamp="2023-09-21T18:21:44Z" changeset="141572588" uid="20240549" user="Sforzando9500">
    <nd ref="11208537588"/>
    <nd ref="11208537589"/>
    <nd ref="11208537590"/>
    <nd ref="11208419194"/>
    <nd ref="11208537588"/>
    <tag k="addr:city" v="Little Shelford"/>
    <tag k="addr:housenumber" v="55"/>
    <tag k="addr:postcode" v="CB22 5ES"/>
    <tag k="addr:street" v="High Street"/>
    <tag k="building" v="house"/>
    <tag k="name" v="Alberta"/>
  </way>
  <way id="1209846676" version="1" timestamp="2023-09-21T18:21:44Z" changeset="141572588" uid="20240549" user="Sforzando9500">
    <nd ref="11208537589"/>
    <nd ref="11208537591"/>
    <nd ref="11207400003"/>
    <nd ref="11208537590"/>
    <nd ref="11208537589"/>
    <tag k="addr:city" v="Little Shelford"/>
    <tag k="addr:housenumber" v="57"/>
    <tag k="addr:postcode" v="CB22 5ES"/>
    <tag k="addr:street" v="High Street"/>
    <tag k="building" v="house"/>
    <tag k="name" v="Editha"/>
  </way>
  <way id="1210566879" version="1" timestamp="2023-09-24T15:41:13Z" changeset="141688339" uid="20240549" user="Sforzando9500">
    <nd ref="11215758896"/>
    <nd ref="11215758897"/>
    <nd ref="11215758898"/>
    <nd ref="11215758899"/>
    <nd ref="11215758900"/>
    <nd ref="11215758901"/>
    <nd ref="11215758896"/>
    <tag k="addr:city" v="Little Shelford"/>
    <tag k="addr:postcode" v="CB22 5HJ"/>
    <tag k="addr:street" v="Hauxton Road"/>
    <tag k="building" v="house"/>
    <tag k="name" v="Sycamore Lodge"/>
  </way>

</osm>
