<?xml version="1.0" encoding="UTF-8"?>
<osm version="0.6" generator="Overpass API 0.7.62.4 2390de5a">
<note>The data included in this document is from www.openstreetmap.org. The data is made available under ODbL.</note>
<meta osm_base="2025-01-21T14:17:13Z" areas="2024-12-31T00:49:33Z"/>

  <node id="696928875" lat="52.5541575" lon="-0.1329358" version="5" timestamp="2024-08-20T19:28:53Z" changeset="155526477" uid="95856" user="john paul jones &amp; gringo">
    <tag k="addr:city" v="Peterborough"/>
    <tag k="addr:country" v="GB"/>
    <tag k="addr:postcode" v="PE7 1DR"/>
    <tag k="addr:street" v="Ramsey Road"/>
    <tag k="addr:suburb" v="Whittlesey"/>
    <tag k="amenity" v="pub"/>
    <tag k="name" v="The Boat Inn"/>
    <tag k="website" v="http://outa-stock.co.uk/boat/boatfrontpage.htm"/>
  </node>
  <node id="701830343" lat="52.5621487" lon="-0.1278390" version="8" timestamp="2024-08-23T16:22:49Z" changeset="155661688" uid="18907749" user="J220194t">
    <tag k="addr:city" v="Peterborough"/>
    <tag k="addr:postcode" v="PE7 1RQ"/>
    <tag k="addr:street" v="West Delph"/>
    <tag k="amenity" v="fuel"/>
    <tag k="brand" v="BP"/>
    <tag k="brand:wikidata" v="Q152057"/>
    <tag k="brand:wikipedia" v="en:BP"/>
    <tag k="compressed_air" v="yes"/>
    <tag k="name" v="BP Delph Service Station"/>
    <tag k="operator" v="BP"/>
    <tag k="self_service" v="no"/>
    <tag k="website" v="https://map.bp.com/en-GB/GB/petrol-station/peterborough/platinum-delph-service-station/61988138"/>
  </node>
  <node id="701830344" lat="52.5621714" lon="-0.1279799" version="8" timestamp="2024-08-23T16:22:49Z" changeset="155661688" uid="18907749" user="J220194t">
    <tag k="addr:city" v="Peterborough"/>
    <tag k="addr:country" v="GB"/>
    <tag k="addr:housenumber" v="3"/>
    <tag k="addr:postcode" v="PE7 1QJ"/>
    <tag k="addr:street" v="West Delph"/>
    <tag k="addr:suburb" v="Whittlesey"/>
    <tag k="brand" v="Spar"/>
    <tag k="brand:wikidata" v="Q610492"/>
    <tag k="brand:wikipedia" v="en:SPAR (retailer)"/>
    <tag k="name" v="Spar"/>
    <tag k="opening_hours" v="Mo-Su 06:00-21:00"/>
    <tag k="operator" v="PLATINUM RETAIL"/>
    <tag k="payment:cash" v="yes"/>
    <tag k="payment:contactless" v="yes"/>
    <tag k="payment:credit_cards" v="yes"/>
    <tag k="payment:debit_cards" v="yes"/>
    <tag k="payment:visa" v="yes"/>
    <tag k="phone" v="+44 1733 202007"/>
    <tag k="shop" v="convenience"/>
    <tag k="website" v="https://www.spar.co.uk/store-locator/afb31917-spar-mansfield-service-station/"/>
  </node>
  <node id="765346115" lat="52.5600862" lon="-0.1144337" version="4" timestamp="2016-09-26T16:04:54Z" changeset="42449296" uid="123614" user="bfrposh of whittlesey">
    <tag k="addr:city" v="Whittlesey"/>
    <tag k="addr:housenumber" v="58"/>
    <tag k="addr:street" v="Victory Avenue"/>
    <tag k="alt_name" v="Keshco LTD"/>
    <tag k="name" v="Nisa Local"/>
    <tag k="opening_hours" v="Open until 10pm"/>
    <tag k="operator" v="Keshco Limited"/>
    <tag k="shop" v="convenience"/>
    <tag k="source" v="survey/local knowledge"/>
    <tag k="source:name" v="voice"/>
  </node>
  <node id="1575955489" lat="52.5568573" lon="-0.1294866" version="3" timestamp="2024-08-20T19:27:01Z" changeset="155526402" uid="95856" user="john paul jones &amp; gringo">
    <tag k="addr:city" v="Peterborough"/>
    <tag k="addr:country" v="GB"/>
    <tag k="addr:postcode" v="PE7 1BD"/>
    <tag k="addr:street" v="Market Street"/>
    <tag k="addr:suburb" v="Whittlesey"/>
    <tag k="amenity" v="bar"/>
    <tag k="name" v="Quinns Bar"/>
    <tag k="old_name" v="Dons Club"/>
    <tag k="website" v="http://outa-stock.co.uk/boat/quinnsfrontpage.htm"/>
  </node>
  <node id="1575974943" lat="52.5576710" lon="-0.1274132" version="8" timestamp="2024-09-10T12:54:48Z" changeset="156439198" uid="21425661" user="CjMalone">
    <tag k="addr:city" v="Peterborough"/>
    <tag k="addr:country" v="GB"/>
    <tag k="addr:housenumber" v="23"/>
    <tag k="addr:postcode" v="PE7 1AJ"/>
    <tag k="addr:street" v="High Causeway"/>
    <tag k="brand" v="Heron Foods"/>
    <tag k="brand:wikidata" v="Q5743472"/>
    <tag k="brand:wikipedia" v="en:Heron Foods"/>
    <tag k="check_date" v="2024-09-10"/>
    <tag k="check_date:opening_hours" v="2024-09-10"/>
    <tag k="contact:website" v="https://heronfoods.com/store/whittlesey/"/>
    <tag k="fhrs:id" v="1041318"/>
    <tag k="name" v="Heron Foods"/>
    <tag k="opening_hours" v="Mo-Sa 08:00-20:00; Su 09:00-17:00"/>
    <tag k="shop" v="supermarket"/>
  </node>
  <node id="4915712697" lat="52.5497424" lon="-0.1886924" version="3" timestamp="2024-08-20T19:36:19Z" changeset="155526749" uid="95856" user="john paul jones &amp; gringo">
    <tag k="addr:city" v="Peterborough"/>
    <tag k="addr:country" v="GB"/>
    <tag k="addr:housenumber" v="127"/>
    <tag k="addr:postcode" v="PE7 2PD"/>
    <tag k="addr:street" v="Kings Delph"/>
    <tag k="addr:suburb" v="Whittlesey"/>
    <tag k="name" v="New Peterborough Auto"/>
    <tag k="opening_hours" v="Mo-Sa 09:00-18:00; Su 10:00-16:00"/>
    <tag k="service:vehicle:car_repair" v="yes"/>
    <tag k="service:vehicle:used_car_sales" v="yes"/>
    <tag k="shop" v="car_repair"/>
  </node>
  <node id="5838014735" lat="52.5565915" lon="-0.1289316" version="5" timestamp="2023-09-29T20:19:31Z" changeset="141929243" uid="11022773" user="GeoFens">
    <tag k="addr:city" v="Peterborough"/>
    <tag k="addr:street" v="Market Street"/>
    <tag k="name" v="Whittlesey Museum"/>
    <tag k="opening_hours" v="Fr-Su 14:30-16:30; Sa 10:00-12:00"/>
    <tag k="phone" v="+44 7706132437"/>
    <tag k="tourism" v="museum"/>
    <tag k="website" v="https://www.whittleseymuseum.co.uk/"/>
    <tag k="wikidata" v="Q16903375"/>
  </node>
  <node id="9258516308" lat="52.5568012" lon="-0.1278044" version="3" timestamp="2023-10-19T14:52:41Z" changeset="142820318" uid="4345757" user="JassKurn">
    <tag k="addr:housenumber" v="6"/>
    <tag k="addr:street" v="Queen Street"/>
    <tag k="amenity" v="fast_food"/>
    <tag k="brand" v="Domino's"/>
    <tag k="brand:wikidata" v="Q839466"/>
    <tag k="brand:wikipedia" v="en:Domino's Pizza"/>
    <tag k="cuisine" v="pizza"/>
    <tag k="name" v="Domino's"/>
    <tag k="takeaway" v="yes"/>
  </node>
  <node id="9946755507" lat="52.5566021" lon="-0.1267849" version="5" timestamp="2024-08-20T19:32:57Z" changeset="155526634" uid="95856" user="john paul jones &amp; gringo">
    <tag k="addr:city" v="Peterborough"/>
    <tag k="addr:country" v="GB"/>
    <tag k="addr:housename" v="3 Angel House"/>
    <tag k="addr:postcode" v="PE7 1SE"/>
    <tag k="addr:street" v="Eastgate"/>
    <tag k="addr:suburb" v="Whittlesey"/>
    <tag k="facebook" v="https://www.facebook.com/harrisonroseproperty"/>
    <tag k="name" v="Harrison Rose Estate Agents"/>
    <tag k="office" v="estate_agent"/>
    <tag k="opening_hours" v="Mo-Su 09:00-22:00"/>
    <tag k="phone" v="+44 1733 202525"/>
    <tag k="website" v="https://www.harrisonroseproperty.com/"/>
  </node>
  <node id="11227975991" lat="52.5565700" lon="-0.1306244" version="2" timestamp="2024-08-20T18:57:26Z" changeset="155525390" uid="95856" user="john paul jones &amp; gringo">
    <tag k="addr:city" v="Peterborough"/>
    <tag k="addr:housenumber" v="37"/>
    <tag k="addr:postcode" v="PE7 1BA"/>
    <tag k="addr:street" v="Market Street"/>
    <tag k="addr:suburb" v="Whittlesey"/>
    <tag k="name" v="Aspect Fires"/>
    <tag k="shop" v="fireplace"/>
    <tag k="website" v="https://www.aspectfires.co.uk"/>
  </node>
  <node id="11227976005" lat="52.5564697" lon="-0.1300236" version="1" timestamp="2023-09-29T20:19:31Z" changeset="141929243" uid="11022773" user="GeoFens">
    <tag k="addr:city" v="Whittlesea"/>
    <tag k="addr:housenumber" v="27"/>
    <tag k="addr:street" v="Market Street"/>
    <tag k="name" v="Boome Hair &amp; Beauty"/>
    <tag k="shop" v="hairdresser"/>
    <tag k="website" v="https://www.boome.biz"/>
  </node>
  <way id="685011752" version="4" timestamp="2024-08-20T19:27:01Z" changeset="155526402" uid="95856" user="john paul jones &amp; gringo">
    <nd ref="6418514074"/>
    <nd ref="6418514073"/>
    <nd ref="6418514072"/>
    <nd ref="6418514071"/>
    <nd ref="6418514070"/>
    <nd ref="6418514069"/>
    <nd ref="6418514068"/>
    <nd ref="6418514067"/>
    <nd ref="6418514074"/>
    <tag k="addr:city" v="Peterborough"/>
    <tag k="addr:country" v="GB"/>
    <tag k="addr:postcode" v="PE7 1DB"/>
    <tag k="addr:street" v="Church Street"/>
    <tag k="addr:suburb" v="Whittlesey"/>
    <tag k="amenity" v="place_of_worship"/>
    <tag k="building" v="yes"/>
    <tag k="denomination" v="salvation_army"/>
    <tag k="email" v="whittlesey@salvationarmy.org.uk"/>
    <tag k="name" v="Whittlesey Salvation Army"/>
    <tag k="phone" v="+44 1733 350639"/>
    <tag k="religion" v="christian"/>
    <tag k="website" v="https://www.salvationarmy.org.uk/whittlesey"/>
  </way>

</osm>
