<?xml version="1.0" encoding="UTF-8"?>
<osm version="0.6" generator="Overpass API 0.7.62.4 2390de5a">
<note>The data included in this document is from www.openstreetmap.org. The data is made available under ODbL.</note>
<meta osm_base="2025-01-21T14:32:30Z" areas="2024-12-31T00:49:33Z"/>

  <node id="6323385077" lat="52.1501220" lon="0.0563628" version="3" timestamp="2024-08-28T13:04:31Z" changeset="155879632" uid="21425661" user="CjMalone">
    <tag k="addr:housenumber" v="2"/>
    <tag k="addr:postcode" v="CB23 1LT"/>
    <tag k="addr:street" v="Fountain Lane"/>
    <tag k="amenity" v="post_office"/>
    <tag k="brand" v="Post Office"/>
    <tag k="brand:wikidata" v="Q1783168"/>
    <tag k="name" v="Haslingfield Post Office"/>
    <tag k="ref:pol_id" v="1171"/>
    <tag k="website" v="https://www.postoffice.co.uk/branch-finder/0971138/haslingfield"/>
  </node>
  <way id="4991400" version="10" timestamp="2023-09-11T12:57:01Z" changeset="141111866" uid="242345" user="confusedbuffalo">
    <nd ref="33129581"/>
    <nd ref="33129582"/>
    <nd ref="33129583"/>
    <nd ref="33129584"/>
    <nd ref="1829859825"/>
    <nd ref="1830308874"/>
    <nd ref="1830308971"/>
    <nd ref="33129578"/>
    <nd ref="33129580"/>
    <nd ref="33129581"/>
    <tag k="addr:city" v="Cambridge"/>
    <tag k="addr:postcode" v="CB23 1JW"/>
    <tag k="addr:street" v="High Street"/>
    <tag k="addr:village" v="Haslingfield"/>
    <tag k="amenity" v="school"/>
    <tag k="capacity" v="160"/>
    <tag k="isced:level" v="1"/>
    <tag k="max_age" v="11"/>
    <tag k="min_age" v="4"/>
    <tag k="name" v="Haslingfield Endowed Primary School"/>
    <tag k="phone" v="+44 1223 870457"/>
    <tag k="ref:GB:uprn" v="100091416375"/>
    <tag k="ref:edubase" v="110796"/>
    <tag k="school:trust" v="no"/>
    <tag k="school:type" v="voluntary_controlled"/>
    <tag k="website" v="https://www.haslingfield.cambs.sch.uk/"/>
    <tag k="wikidata" v="Q66223616"/>
  </way>
  <way id="172036264" version="6" timestamp="2024-10-28T22:53:56Z" changeset="158476924" uid="6476359" user="NSiecw">
    <nd ref="1829859920"/>
    <nd ref="1829859817"/>
    <nd ref="1829859808"/>
    <nd ref="1829859811"/>
    <nd ref="1829859917"/>
    <nd ref="1829859847"/>
    <nd ref="1829859799"/>
    <nd ref="1829859857"/>
    <nd ref="1829859826"/>
    <nd ref="1829859818"/>
    <nd ref="1829859886"/>
    <nd ref="1829859827"/>
    <nd ref="1829859889"/>
    <nd ref="1829859837"/>
    <nd ref="1829859855"/>
    <nd ref="1829859824"/>
    <nd ref="1829859838"/>
    <nd ref="1829859830"/>
    <nd ref="1829859877"/>
    <nd ref="1829859845"/>
    <nd ref="1829859920"/>
    <tag k="addr:city" v="Cambridge"/>
    <tag k="addr:housename" v="All Saints Church"/>
    <tag k="addr:postcode" v="CB23 1JR"/>
    <tag k="addr:street" v="Church Way"/>
    <tag k="addr:village" v="Haslingfield"/>
    <tag k="amenity" v="place_of_worship"/>
    <tag k="building" v="church"/>
    <tag k="denomination" v="anglican"/>
    <tag k="name" v="All Saints' (Haslingfield Parish Church)"/>
    <tag k="ref:dove" v="14663"/>
    <tag k="religion" v="christian"/>
    <tag k="wikidata" v="Q17528257"/>
  </way>
  <way id="340472062" version="5" timestamp="2019-03-07T16:18:15Z" changeset="67889365" uid="281267" user="smb1001">
    <nd ref="5232746497"/>
    <nd ref="3477053998"/>
    <nd ref="33129827"/>
    <nd ref="3477053999"/>
    <nd ref="5232746497"/>
    <tag k="addr:housenumber" v="2"/>
    <tag k="addr:postcode" v="CB23 1LT"/>
    <tag k="addr:street" v="Fountain Lane"/>
    <tag k="building" v="yes"/>
    <tag k="name" v="Village Shop and Post Office"/>
    <tag k="shop" v="convenience"/>
  </way>
  <way id="619845874" version="4" timestamp="2024-10-28T22:53:56Z" changeset="158476924" uid="6476359" user="NSiecw">
    <nd ref="5856954193"/>
    <nd ref="5856954190"/>
    <nd ref="5856954189"/>
    <nd ref="5856954188"/>
    <nd ref="5856954191"/>
    <nd ref="5856954192"/>
    <nd ref="5856954187"/>
    <nd ref="5856954186"/>
    <nd ref="5856954193"/>
    <tag k="addr:city" v="Cambridge"/>
    <tag k="addr:housename" v="Old Vicarage"/>
    <tag k="addr:housenumber" v="3"/>
    <tag k="addr:postcode" v="CB23 1JF"/>
    <tag k="addr:street" v="Broad Lane"/>
    <tag k="addr:village" v="Haslingfield"/>
    <tag k="building" v="house"/>
    <tag k="name" v="Old Vicarage"/>
    <tag k="wikidata" v="Q26595821"/>
  </way>
  <way id="619845876" version="3" timestamp="2024-10-28T22:53:56Z" changeset="158476924" uid="6476359" user="NSiecw">
    <nd ref="5856954203"/>
    <nd ref="5856954200"/>
    <nd ref="5856954199"/>
    <nd ref="5856954198"/>
    <nd ref="5856954201"/>
    <nd ref="9265019127"/>
    <nd ref="9265019128"/>
    <nd ref="5856954202"/>
    <nd ref="5856954203"/>
    <tag k="addr:city" v="Cambridge"/>
    <tag k="addr:housename" v="New Vicarage"/>
    <tag k="addr:housenumber" v="5"/>
    <tag k="addr:postcode" v="CB23 1JF"/>
    <tag k="addr:street" v="Broad Lane"/>
    <tag k="addr:village" v="Haslingfield"/>
    <tag k="building" v="yes"/>
    <tag k="name" v="New Vicarage"/>
  </way>
  <way id="619845999" version="4" timestamp="2022-03-08T22:23:41Z" changeset="118254762" uid="1102246" user="jtn20">
    <nd ref="5856954507"/>
    <nd ref="5856954504"/>
    <nd ref="5856954505"/>
    <nd ref="5856954506"/>
    <nd ref="9563627761"/>
    <nd ref="5856954507"/>
    <tag k="addr:city" v="Cambridge"/>
    <tag k="addr:housenumber" v="11a"/>
    <tag k="addr:postcode" v="CB23 1JE"/>
    <tag k="addr:street" v="Church Street"/>
    <tag k="addr:village" v="Haslingfield"/>
    <tag k="amenity" v="cafe"/>
    <tag k="building" v="yes"/>
    <tag k="cuisine" v="coffee_shop;curry"/>
    <tag k="fhrs:id" v="1508098"/>
    <tag k="name" v="Mohak Cafe"/>
    <tag k="outdoor_seating" v="yes"/>
  </way>
  <way id="638350103" version="4" timestamp="2021-03-25T21:38:45Z" changeset="101746091" uid="145231" user="woodpeck_repair">
    <nd ref="6016440248"/>
    <nd ref="6016440245"/>
    <nd ref="6016440246"/>
    <nd ref="6016440247"/>
    <nd ref="6016440248"/>
    <tag k="addr:city" v="Cambridge"/>
    <tag k="addr:housename" v="Brook Farm"/>
    <tag k="addr:postcode" v="CB23 1LN"/>
    <tag k="addr:street" v="Barton Road, Haslingfield"/>
    <tag k="building" v="yes"/>
    <tag k="name" v="Brook Farm"/>
  </way>

</osm>
