<?xml version="1.0" encoding="UTF-8"?>
<osm version="0.6" generator="Overpass API 0.7.62.4 2390de5a">
<note>The data included in this document is from www.openstreetmap.org. The data is made available under ODbL.</note>
<meta osm_base="2025-01-21T14:37:37Z" areas="2024-12-31T00:49:33Z"/>

  <node id="481450949" lat="52.2183572" lon="-0.0687926" version="11" timestamp="2023-11-02T21:06:32Z" changeset="143549262" uid="13750939" user="FortQuake">
    <tag k="addr:housenumber" v="3"/>
    <tag k="addr:postcode" v="CB23 6JX"/>
    <tag k="addr:street" v="High Street"/>
    <tag k="amenity" v="fast_food"/>
    <tag k="cuisine" v="chinese;pizza"/>
    <tag k="name" v="Wokswagon"/>
    <tag k="opening_hours" v="Mo-Su 16:30-22:00, Fr-Su 12:00-14:00"/>
    <tag k="wheelchair" v="yes"/>
  </node>
  <node id="481450951" lat="52.2183255" lon="-0.0689349" version="9" timestamp="2023-11-02T21:06:32Z" changeset="143549262" uid="13750939" user="FortQuake">
    <tag k="addr:housenumber" v="1"/>
    <tag k="addr:postcode" v="CB23 6JX"/>
    <tag k="addr:street" v="High Street"/>
    <tag k="amenity" v="restaurant"/>
    <tag k="cuisine" v="indian"/>
    <tag k="name" v="Chutney Joe's"/>
    <tag k="opening_hours" v="Mo-Su 12:00-14:00,16:30-22:00"/>
    <tag k="wheelchair" v="yes"/>
  </node>
  <node id="667287962" lat="52.2183761" lon="-0.0685880" version="10" timestamp="2023-11-02T21:06:32Z" changeset="143549262" uid="13750939" user="FortQuake">
    <tag k="addr:housenumber" v="5"/>
    <tag k="addr:postcode" v="CB23 6JX"/>
    <tag k="addr:street" v="High Street"/>
    <tag k="amenity" v="cafe"/>
    <tag k="name" v="Green's Coffee &amp; Co."/>
    <tag k="opening_hours" v="Mo-Sa 09:00-16:00; Su 10:00-16:00"/>
    <tag k="wheelchair" v="yes"/>
  </node>
  <node id="3705735765" lat="52.2184600" lon="-0.0681229" version="7" timestamp="2024-01-23T18:17:30Z" changeset="146603456" uid="84263" user="Robert Whittaker">
    <tag k="addr:housenumber" v="15"/>
    <tag k="addr:postcode" v="CB23 6JX"/>
    <tag k="addr:street" v="High Street"/>
    <tag k="amenity" v="bank"/>
    <tag k="brand" v="The Cambridge Building Society"/>
    <tag k="brand:wikidata" v="Q5025370"/>
    <tag k="name" v="The Cambridge Building Society"/>
    <tag k="opening_hours" v="Mo,Th,Fr 09:00-17:00; Tu,We 09:00-15:00; Sa 09:00-12:00"/>
    <tag k="website" v="https://www.cambridgebs.co.uk/contact/cambourne"/>
    <tag k="wheelchair" v="yes"/>
  </node>
  <node id="3705735766" lat="52.2184563" lon="-0.0681960" version="8" timestamp="2024-06-27T07:58:59Z" changeset="153234908" uid="13750939" user="FortQuake">
    <tag k="addr:housenumber" v="13"/>
    <tag k="addr:postcode" v="CB23 6JX"/>
    <tag k="addr:street" v="High Street"/>
    <tag k="name" v="Sharman Quinney"/>
    <tag k="office" v="estate_agent"/>
    <tag k="opening_hours" v="Mo-Fr 08:30-18:00; Sa 09:00-17:00"/>
    <tag k="wheelchair" v="yes"/>
  </node>
  <node id="3705735767" lat="52.2183656" lon="-0.0687022" version="8" timestamp="2023-11-02T21:06:32Z" changeset="143549262" uid="13750939" user="FortQuake">
    <tag k="addr:housenumber" v="7"/>
    <tag k="addr:postcode" v="CB23 6JX"/>
    <tag k="addr:street" v="High Street"/>
    <tag k="name" v="Salon Se7en"/>
    <tag k="opening_hours" v="Mo-We,Fr 09:00-18:00; Th 09:00-19:30; Sa 09:00-15:00"/>
    <tag k="shop" v="hairdresser"/>
    <tag k="website" v="https://www.salon-se7en.co.uk/"/>
    <tag k="wheelchair" v="yes"/>
  </node>
  <node id="5160065055" lat="52.2181942" lon="-0.0705709" version="8" timestamp="2023-08-22T14:01:13Z" changeset="140231181" uid="17393756" user="ExoMal">
    <tag k="addr:city" v="Cambridge"/>
    <tag k="addr:housename" v="9 Caxton House"/>
    <tag k="addr:locality" v="Great Cambourne"/>
    <tag k="addr:postcode" v="CB23 6JN"/>
    <tag k="addr:street" v="Broad Street"/>
    <tag k="check_date:opening_hours" v="2022-07-26"/>
    <tag k="email" v="info@taylorkeeble.co.uk"/>
    <tag k="name" v="Taylor Keeble LLP"/>
    <tag k="office" v="accountant"/>
    <tag k="opening_hours:signed" v="no"/>
    <tag k="phone" v="+44 1954 771025"/>
    <tag k="website" v="https://www.taylorkeeble.co.uk/"/>
  </node>
  <node id="6123277684" lat="52.2207180" lon="-0.0733183" version="1" timestamp="2018-12-07T12:29:46Z" changeset="65266834" uid="281267" user="smb1001">
    <tag k="addr:housenumber" v="1020"/>
    <tag k="addr:postcode" v="CB23 6DW"/>
    <tag k="addr:street" v="Cambourne Business Park"/>
    <tag k="name" v="Biochrom Ltd"/>
  </node>
  <node id="6123277786" lat="52.2212111" lon="-0.0724653" version="1" timestamp="2018-12-07T12:29:46Z" changeset="65266834" uid="281267" user="smb1001">
    <tag k="addr:housenumber" v="1010"/>
    <tag k="addr:postcode" v="CB23 6DP"/>
    <tag k="addr:street" v="Cambourne Business Park"/>
    <tag k="name" v="Shield Care"/>
  </node>
  <node id="6123277787" lat="52.2226142" lon="-0.0744982" version="1" timestamp="2018-12-07T12:29:47Z" changeset="65266834" uid="281267" user="smb1001">
    <tag k="addr:housenumber" v="2020"/>
    <tag k="addr:postcode" v="CB23 6DW"/>
    <tag k="addr:street" v="Cambourne Business Park"/>
    <tag k="name" v="Fluenta"/>
  </node>
  <node id="6123277790" lat="52.2223547" lon="-0.0755713" version="1" timestamp="2018-12-07T12:29:47Z" changeset="65266834" uid="281267" user="smb1001">
    <tag k="addr:housenumber" v="2030"/>
    <tag k="addr:postcode" v="CB23 6DW"/>
    <tag k="addr:street" v="Cambourne Business Park"/>
    <tag k="name" v="MediaTek"/>
  </node>
  <node id="6123277791" lat="52.2224827" lon="-0.0755338" version="1" timestamp="2018-12-07T12:29:47Z" changeset="65266834" uid="281267" user="smb1001">
    <tag k="addr:housenumber" v="2030"/>
    <tag k="addr:postcode" v="CB23 6DW"/>
    <tag k="addr:street" v="Cambourne Business Park"/>
    <tag k="name" v="EEF"/>
  </node>
  <node id="6123277792" lat="52.2207213" lon="-0.0730662" version="1" timestamp="2018-12-07T12:29:47Z" changeset="65266834" uid="281267" user="smb1001">
    <tag k="addr:housenumber" v="1020"/>
    <tag k="addr:postcode" v="CB23 6DW"/>
    <tag k="addr:street" v="Cambourne Business Park"/>
    <tag k="name" v="Premier Travel"/>
  </node>
  <node id="6123277794" lat="52.2226010" lon="-0.0755016" version="1" timestamp="2018-12-07T12:29:47Z" changeset="65266834" uid="281267" user="smb1001">
    <tag k="addr:housenumber" v="2030"/>
    <tag k="addr:postcode" v="CB23 6DW"/>
    <tag k="addr:street" v="Cambourne Business Park"/>
    <tag k="name" v="Global Graphics"/>
  </node>
  <node id="6123277795" lat="52.2222856" lon="-0.0729911" version="1" timestamp="2018-12-07T12:29:47Z" changeset="65266834" uid="281267" user="smb1001">
    <tag k="addr:housenumber" v="2010"/>
    <tag k="addr:postcode" v="CB23 6DW"/>
    <tag k="addr:street" v="Cambourne Business Park"/>
    <tag k="name" v="Netcracker"/>
  </node>
  <node id="6123277798" lat="52.2225289" lon="-0.0737633" version="1" timestamp="2018-12-07T12:29:47Z" changeset="65266834" uid="281267" user="smb1001">
    <tag k="addr:housenumber" v="2020"/>
    <tag k="addr:postcode" v="CB23 6DW"/>
    <tag k="addr:street" v="Cambourne Business Park"/>
    <tag k="name" v="ProCam"/>
  </node>
  <node id="7371988763" lat="52.2161869" lon="-0.0522799" version="6" timestamp="2024-07-15T22:33:06Z" changeset="153991674" uid="21425661" user="CjMalone">
    <tag k="addr:city" v="Cambridge"/>
    <tag k="addr:housenumber" v="29"/>
    <tag k="addr:postcode" v="CB23 6FJ"/>
    <tag k="addr:street" v="Mosquito Road"/>
    <tag k="addr:village" v="Upper Cambourne"/>
    <tag k="brand" v="Co-op Food"/>
    <tag k="brand:wikidata" v="Q3277439"/>
    <tag k="check_date" v="2024-07-15"/>
    <tag k="check_date:opening_hours" v="2024-07-15"/>
    <tag k="name" v="Co-op Food"/>
    <tag k="opening_hours" v="Mo-Su 07:00-22:00"/>
    <tag k="operator" v="The Co-operative Group"/>
    <tag k="operator:wikidata" v="Q117202"/>
    <tag k="shop" v="convenience"/>
    <tag k="website" v="https://www.coop.co.uk/store-finder/CB23-6FJ/29-mosquito-road"/>
  </node>
  <node id="10018330960" lat="52.2226584" lon="-0.0747398" version="1" timestamp="2022-09-12T14:44:56Z" changeset="126094089" uid="6476359" user="NSiecw">
    <tag k="addr:housenumber" v="2020"/>
    <tag k="addr:postcode" v="CB23 6DW"/>
    <tag k="addr:street" v="Cambourne Business Park"/>
    <tag k="name" v="Gewiss UK Ltd"/>
  </node>
  <node id="10021855686" lat="52.2183525" lon="-0.0684809" version="2" timestamp="2023-11-02T21:06:32Z" changeset="143549262" uid="13750939" user="FortQuake">
    <tag k="addr:city" v="Cambridge"/>
    <tag k="addr:country" v="GB"/>
    <tag k="addr:flats" v=";1-18"/>
    <tag k="addr:locality" v="Great Cambourne"/>
    <tag k="addr:postcode" v="CB23 6JX"/>
    <tag k="addr:street" v="High Street"/>
    <tag k="addr:town" v="Cambourne"/>
    <tag k="entrance" v="main"/>
    <tag k="name" v="Horizon House"/>
  </node>
  <node id="12000475409" lat="52.2210005" lon="-0.0726542" version="2" timestamp="2024-06-22T12:43:44Z" changeset="153028134" uid="322785" user="BCNorwich">
    <tag k="addr:city" v="Cambridge"/>
    <tag k="addr:country" v="GB"/>
    <tag k="addr:housename" v="Regus House"/>
    <tag k="addr:housenumber" v="1010"/>
    <tag k="addr:postcode" v="CB23 6DP"/>
    <tag k="addr:street" v="Cambourne Road"/>
    <tag k="contact:website" v="https://www.shopequip.co.uk/home.html"/>
    <tag k="name" v="Shop Equipment &amp; Design Ltd"/>
  </node>
  <way id="4937619" version="12" timestamp="2023-08-27T06:07:44Z" changeset="140437270" uid="242345" user="confusedbuffalo">
    <nd ref="32534100"/>
    <nd ref="879552477"/>
    <nd ref="1027152626"/>
    <nd ref="1027152427"/>
    <nd ref="1027152558"/>
    <nd ref="1027152436"/>
    <nd ref="32534093"/>
    <nd ref="1027151924"/>
    <nd ref="1027152152"/>
    <nd ref="879552491"/>
    <nd ref="1027151850"/>
    <nd ref="32534094"/>
    <nd ref="2324275764"/>
    <nd ref="32632502"/>
    <nd ref="32633224"/>
    <nd ref="32633223"/>
    <nd ref="1027152017"/>
    <nd ref="1027151643"/>
    <nd ref="1027152116"/>
    <nd ref="1027151806"/>
    <nd ref="32534071"/>
    <nd ref="1046441506"/>
    <nd ref="879552502"/>
    <nd ref="1027152063"/>
    <nd ref="1027152439"/>
    <nd ref="1027151824"/>
    <nd ref="32534100"/>
    <tag k="addr:postcode" v="CB23 5AX"/>
    <tag k="addr:street" v="School Lane"/>
    <tag k="amenity" v="school"/>
    <tag k="barrier" v="fence"/>
    <tag k="capacity" v="420"/>
    <tag k="isced:level" v="1"/>
    <tag k="max_age" v="11"/>
    <tag k="min_age" v="4"/>
    <tag k="name" v="Monkfield Park Primary School"/>
    <tag k="phone" v="+44 1954 273377"/>
    <tag k="ref:GB:uprn" v="200001484855"/>
    <tag k="ref:edubase" v="131996"/>
    <tag k="school:trust" v="no"/>
    <tag k="school:type" v="community"/>
    <tag k="wikidata" v="Q66228272"/>
  </way>
  <way id="4937676" version="18" timestamp="2024-04-02T11:08:21Z" changeset="149474909" uid="13750939" user="FortQuake">
    <nd ref="32533874"/>
    <nd ref="480473407"/>
    <nd ref="480473408"/>
    <nd ref="9281122883"/>
    <nd ref="9281122885"/>
    <nd ref="9281122884"/>
    <nd ref="9281122882"/>
    <nd ref="9281122879"/>
    <nd ref="9281122881"/>
    <nd ref="9281122880"/>
    <nd ref="9281122878"/>
    <nd ref="480473409"/>
    <nd ref="480473411"/>
    <nd ref="480473412"/>
    <nd ref="480473413"/>
    <nd ref="4585970331"/>
    <nd ref="32533873"/>
    <nd ref="480473415"/>
    <nd ref="11308420932"/>
    <nd ref="480473416"/>
    <nd ref="9281122889"/>
    <nd ref="9281122888"/>
    <nd ref="32533872"/>
    <nd ref="9281122887"/>
    <nd ref="9281122886"/>
    <nd ref="480473417"/>
    <nd ref="1019402803"/>
    <nd ref="32533875"/>
    <nd ref="480473418"/>
    <nd ref="1019402811"/>
    <nd ref="480473420"/>
    <nd ref="1019402833"/>
    <nd ref="480473421"/>
    <nd ref="480473423"/>
    <nd ref="4585970330"/>
    <nd ref="480473424"/>
    <nd ref="4588975094"/>
    <nd ref="4588975095"/>
    <nd ref="32533874"/>
    <tag k="addr:city" v="Cambridge"/>
    <tag k="addr:country" v="GB"/>
    <tag k="addr:locality" v="Great Cambourne"/>
    <tag k="addr:postcode" v="CB23 6EY"/>
    <tag k="addr:street" v="Broad Street"/>
    <tag k="brand" v="Morrisons"/>
    <tag k="brand:wikidata" v="Q922344"/>
    <tag k="brand:wikipedia" v="en:Morrisons"/>
    <tag k="building" v="supermarket"/>
    <tag k="name" v="Morrisons"/>
    <tag k="opening_hours" v="Mo-Sa 06:00-22:00; Su 10:00-16:00"/>
    <tag k="shop" v="supermarket"/>
    <tag k="website" v="https://my.morrisons.com/storefinder/118/cambourne"/>
    <tag k="wheelchair" v="yes"/>
  </way>
  <way id="40472508" version="7" timestamp="2021-07-25T16:18:47Z" changeset="108571771" uid="13647338" user="Palmint">
    <nd ref="490268126"/>
    <nd ref="1041450627"/>
    <nd ref="1041306022"/>
    <nd ref="1041306021"/>
    <nd ref="490268127"/>
    <nd ref="490268128"/>
    <nd ref="490268129"/>
    <nd ref="1041450732"/>
    <nd ref="490268130"/>
    <nd ref="1041305990"/>
    <nd ref="1041306032"/>
    <nd ref="1041306046"/>
    <nd ref="1041305884"/>
    <nd ref="1041306048"/>
    <nd ref="1041306000"/>
    <nd ref="1041306035"/>
    <nd ref="1041305988"/>
    <nd ref="1041305971"/>
    <nd ref="1041305900"/>
    <nd ref="1041305924"/>
    <nd ref="1041305933"/>
    <nd ref="1041306020"/>
    <nd ref="1041305980"/>
    <nd ref="1041305973"/>
    <nd ref="1041305889"/>
    <nd ref="1041306047"/>
    <nd ref="1041306036"/>
    <nd ref="1041305883"/>
    <nd ref="490268131"/>
    <nd ref="490268126"/>
    <tag k="addr:street" v="School Lane"/>
    <tag k="building" v="kindergarten"/>
    <tag k="building:levels" v="1"/>
    <tag k="name" v="Sunflower @ Cambourne"/>
    <tag k="nohousenumber" v="yes"/>
    <tag k="preschool" v="yes"/>
    <tag k="roof:levels" v="1"/>
    <tag k="roof:shape" v="gabled"/>
  </way>
  <way id="40933006" version="8" timestamp="2022-08-06T15:23:05Z" changeset="124567110" uid="13647338" user="Palmint">
    <nd ref="498495662"/>
    <nd ref="498495664"/>
    <nd ref="678847740"/>
    <nd ref="678847743"/>
    <nd ref="678847746"/>
    <nd ref="678847749"/>
    <nd ref="678847751"/>
    <nd ref="1044075798"/>
    <nd ref="1044075867"/>
    <nd ref="498495668"/>
    <nd ref="1084659150"/>
    <nd ref="1084659243"/>
    <nd ref="498495669"/>
    <nd ref="498495662"/>
    <tag k="addr:postcode" v="CB23 6GW"/>
    <tag k="addr:street" v="High Street"/>
    <tag k="amenity" v="community_centre"/>
    <tag k="building" v="yes"/>
    <tag k="check_date:opening_hours" v="2022-08-06"/>
    <tag k="name" v="The Hub"/>
    <tag k="opening_hours:signed" v="no"/>
  </way>
  <way id="40933309" version="11" timestamp="2022-10-02T16:04:32Z" changeset="126900251" uid="13647338" user="Palmint">
    <nd ref="498499479"/>
    <nd ref="1432533149"/>
    <nd ref="1126479804"/>
    <nd ref="1126479840"/>
    <nd ref="1021271325"/>
    <nd ref="1021271342"/>
    <nd ref="498499482"/>
    <nd ref="1021271335"/>
    <nd ref="1128692179"/>
    <nd ref="1131564381"/>
    <nd ref="1021271333"/>
    <nd ref="498499479"/>
    <tag k="addr:city" v="Cambridge"/>
    <tag k="addr:housename" v="Monkfield House"/>
    <tag k="addr:postcode" v="CB23 6AJ"/>
    <tag k="addr:street" v="Monkfield Lane"/>
    <tag k="amenity" v="dentist"/>
    <tag k="building" v="yes"/>
    <tag k="healthcare" v="dentist"/>
    <tag k="name" v="Cambourne Dental Practice"/>
    <tag k="opening_hours" v="Mo 08:00-13:00, Mo-Fr 14:00-17:00, Tu 08:00-13:00,14:00-19:30, We,Th 08:00-12:00,13:00-17:00, Fr 08:00-12:00"/>
    <tag k="phone" v="+44 1954 718585"/>
    <tag k="url" v="http://www.cambournedental.com/"/>
  </way>
  <way id="74341420" version="5" timestamp="2024-02-20T14:16:07Z" changeset="147694369" uid="742701" user="kerr smith">
    <nd ref="878806473"/>
    <nd ref="1019402805"/>
    <nd ref="1019402850"/>
    <nd ref="1019402856"/>
    <nd ref="1019402857"/>
    <nd ref="1019402809"/>
    <nd ref="1019402866"/>
    <nd ref="878806479"/>
    <nd ref="1019402804"/>
    <nd ref="1019402799"/>
    <nd ref="1019402852"/>
    <nd ref="878806484"/>
    <nd ref="1019402851"/>
    <nd ref="1019402800"/>
    <nd ref="1019402854"/>
    <nd ref="1019402845"/>
    <nd ref="878806488"/>
    <nd ref="1019402842"/>
    <nd ref="1019402862"/>
    <nd ref="1019402846"/>
    <nd ref="878806473"/>
    <tag k="addr:city" v="Great Cambourne"/>
    <tag k="addr:housenumber" v="1"/>
    <tag k="addr:postcode" v="CB23 6AH"/>
    <tag k="addr:street" v="Monkfield Lane"/>
    <tag k="amenity" v="pub"/>
    <tag k="building" v="yes"/>
    <tag k="name" v="Monkfield Arms"/>
    <tag k="source:name" v="dictaphone"/>
    <tag k="wheelchair" v="yes"/>
  </way>
  <way id="89651469" version="3" timestamp="2018-12-07T12:29:49Z" changeset="65266834" uid="281267" user="smb1001">
    <nd ref="1039020959"/>
    <nd ref="1039021040"/>
    <nd ref="1039020997"/>
    <nd ref="1039021000"/>
    <nd ref="1039020960"/>
    <nd ref="1039021098"/>
    <nd ref="1039021003"/>
    <nd ref="1039021026"/>
    <nd ref="1039021070"/>
    <nd ref="1039021079"/>
    <nd ref="1039021041"/>
    <nd ref="1039021072"/>
    <nd ref="1039020986"/>
    <nd ref="1039020959"/>
    <tag k="addr:housenumber" v="1010"/>
    <tag k="addr:postcode" v="CB23 6DP"/>
    <tag k="addr:street" v="Cambourne Business Park"/>
    <tag k="building" v="yes"/>
    <tag k="name" v="Regus House"/>
  </way>
  <way id="89754938" version="6" timestamp="2019-02-04T10:42:28Z" changeset="66899076" uid="5173844" user="ndrw6">
    <nd ref="1040078944"/>
    <nd ref="1057258456"/>
    <nd ref="1040078843"/>
    <nd ref="1040078952"/>
    <nd ref="1040078847"/>
    <nd ref="1269087976"/>
    <nd ref="1040078944"/>
    <tag k="addr:city" v="Cambridge"/>
    <tag k="addr:housenumber" v="2020"/>
    <tag k="addr:locality" v="Cambourne"/>
    <tag k="addr:postcode" v="CB23 6DW"/>
    <tag k="addr:street" v="Sheepfold Lane"/>
    <tag k="building" v="commercial"/>
    <tag k="name" v="Cambourne Business Park Building 2020"/>
  </way>
  <way id="89901995" version="8" timestamp="2022-09-13T17:23:09Z" changeset="126144414" uid="6476359" user="NSiecw">
    <nd ref="1041983437"/>
    <nd ref="1041983489"/>
    <nd ref="1041983504"/>
    <nd ref="1041983571"/>
    <nd ref="1041983521"/>
    <nd ref="1224759645"/>
    <nd ref="1224759717"/>
    <nd ref="1224759605"/>
    <nd ref="1224759793"/>
    <nd ref="1224759701"/>
    <nd ref="1224759655"/>
    <nd ref="1224759706"/>
    <nd ref="1224759586"/>
    <nd ref="1224759553"/>
    <nd ref="1041983596"/>
    <nd ref="1041983561"/>
    <nd ref="1041983582"/>
    <nd ref="10021855690"/>
    <nd ref="10021855691"/>
    <nd ref="10021855692"/>
    <nd ref="10021855693"/>
    <nd ref="10021855694"/>
    <nd ref="1041983716"/>
    <nd ref="1041983633"/>
    <nd ref="10021855695"/>
    <nd ref="1041983697"/>
    <nd ref="10021855696"/>
    <nd ref="10021855697"/>
    <nd ref="10021855698"/>
    <nd ref="10021855699"/>
    <nd ref="10021855700"/>
    <nd ref="1132645725"/>
    <nd ref="1041983470"/>
    <nd ref="1132645680"/>
    <nd ref="1041983501"/>
    <nd ref="1132645701"/>
    <nd ref="1041983559"/>
    <nd ref="1041983488"/>
    <nd ref="1041983471"/>
    <nd ref="1041983437"/>
    <tag k="addr:city" v="Cambridge"/>
    <tag k="addr:flats" v=";1-48"/>
    <tag k="addr:housename" v="Cavendish Court"/>
    <tag k="addr:locality" v="Great Cambourne"/>
    <tag k="addr:postcode" v="CB23 6HB"/>
    <tag k="addr:street" v="Sackville Way"/>
    <tag k="addr:town" v="Cambourne"/>
    <tag k="building" v="apartments"/>
    <tag k="building:levels" v="3"/>
    <tag k="name" v="Cavendish Court"/>
    <tag k="roof:levels" v="1"/>
    <tag k="roof:shape" v="gabled"/>
  </way>
  <way id="90264861" version="2" timestamp="2018-12-07T12:29:49Z" changeset="65266834" uid="281267" user="smb1001">
    <nd ref="1046609790"/>
    <nd ref="1046609818"/>
    <nd ref="1046609823"/>
    <nd ref="1046609770"/>
    <nd ref="1046609776"/>
    <nd ref="1046609780"/>
    <nd ref="1046609788"/>
    <nd ref="1046609867"/>
    <nd ref="1046609877"/>
    <nd ref="1046609782"/>
    <nd ref="1046609792"/>
    <nd ref="1046609854"/>
    <nd ref="1046609874"/>
    <nd ref="1046609870"/>
    <nd ref="1046559937"/>
    <nd ref="1046559947"/>
    <nd ref="1046609850"/>
    <nd ref="1046609837"/>
    <nd ref="1046609864"/>
    <nd ref="1046543412"/>
    <nd ref="1046609790"/>
    <tag k="addr:housename" v="South Cambridgeshire Hall"/>
    <tag k="addr:postcode" v="CB23 6EA"/>
    <tag k="addr:street" v="Cambourne Business Park"/>
    <tag k="building" v="yes"/>
    <tag k="name" v="South Cambridgeshire District Council"/>
  </way>
  <way id="91055545" version="3" timestamp="2019-02-04T10:42:28Z" changeset="66899076" uid="5173844" user="ndrw6">
    <nd ref="1057376014"/>
    <nd ref="1057375749"/>
    <nd ref="1057376366"/>
    <nd ref="1057376128"/>
    <nd ref="1057376013"/>
    <nd ref="1057375839"/>
    <nd ref="1057375855"/>
    <nd ref="1057375576"/>
    <nd ref="1057375608"/>
    <nd ref="1057375674"/>
    <nd ref="1057376000"/>
    <nd ref="1057375678"/>
    <nd ref="1057375617"/>
    <nd ref="1057376014"/>
    <tag k="addr:city" v="Cambridge"/>
    <tag k="addr:housename" v="The Manor House"/>
    <tag k="addr:postcode" v="CB23 6DH"/>
    <tag k="addr:street" v="Broad Street"/>
    <tag k="addr:village" v="Great Cambourne"/>
    <tag k="building" v="yes"/>
    <tag k="name" v="Wildlife Trust"/>
  </way>
  <way id="91089027" version="8" timestamp="2022-09-13T14:35:55Z" changeset="126137417" uid="6476359" user="NSiecw">
    <nd ref="1057599738"/>
    <nd ref="1057600187"/>
    <nd ref="1057599764"/>
    <nd ref="1057599989"/>
    <nd ref="1057599690"/>
    <nd ref="1057599795"/>
    <nd ref="1057599993"/>
    <nd ref="1057599876"/>
    <nd ref="1057600089"/>
    <nd ref="1057599815"/>
    <nd ref="1057599841"/>
    <nd ref="10021391595"/>
    <nd ref="1057599671"/>
    <nd ref="1057600271"/>
    <nd ref="1057600213"/>
    <nd ref="1057599738"/>
    <tag k="addr:city" v="Cambridge"/>
    <tag k="addr:country" v="GB"/>
    <tag k="addr:flats" v=";1-12"/>
    <tag k="addr:housename" v="Bramling Apartments"/>
    <tag k="addr:locality" v="Great Cambourne"/>
    <tag k="addr:postcode" v="CB23 6HF"/>
    <tag k="addr:street" v="Broad Street"/>
    <tag k="addr:town" v="Cambourne"/>
    <tag k="building" v="apartments"/>
    <tag k="building:levels" v="3"/>
    <tag k="name" v="Bramling Apartments"/>
    <tag k="roof:levels" v="1"/>
    <tag k="roof:shape" v="skillion"/>
  </way>
  <way id="91089029" version="9" timestamp="2022-09-13T14:35:55Z" changeset="126137417" uid="6476359" user="NSiecw">
    <nd ref="1057599799"/>
    <nd ref="1057600192"/>
    <nd ref="10021391587"/>
    <nd ref="1057599845"/>
    <nd ref="1057683259"/>
    <nd ref="1057683262"/>
    <nd ref="1057599956"/>
    <nd ref="1057599726"/>
    <nd ref="1057600297"/>
    <nd ref="1057599799"/>
    <tag k="addr:city" v="Cambridge"/>
    <tag k="addr:country" v="GB"/>
    <tag k="addr:flats" v=";1-6"/>
    <tag k="addr:housename" v="Chaucer Apartments"/>
    <tag k="addr:locality" v="Great Cambourne"/>
    <tag k="addr:postcode" v="CB23 6HG"/>
    <tag k="addr:street" v="Broad Street"/>
    <tag k="addr:town" v="Cambourne"/>
    <tag k="building" v="apartments"/>
    <tag k="building:levels" v="3"/>
    <tag k="name" v="Chaucer Apartments"/>
    <tag k="roof:levels" v="0"/>
    <tag k="roof:shape" v="gabled"/>
  </way>
  <way id="91106814" version="8" timestamp="2022-09-13T14:35:55Z" changeset="126137417" uid="6476359" user="NSiecw">
    <nd ref="1057744911"/>
    <nd ref="1057744966"/>
    <nd ref="1057744813"/>
    <nd ref="1057745012"/>
    <nd ref="1057745031"/>
    <nd ref="1144183278"/>
    <nd ref="1057745052"/>
    <nd ref="1057744911"/>
    <tag k="addr:city" v="Cambridge"/>
    <tag k="addr:country" v="GB"/>
    <tag k="addr:flats" v=";1-6"/>
    <tag k="addr:housename" v="Durham Apartments"/>
    <tag k="addr:locality" v="Great Cambourne"/>
    <tag k="addr:postcode" v="CB23 6HH"/>
    <tag k="addr:street" v="Broad Street"/>
    <tag k="addr:town" v="Cambourne"/>
    <tag k="building" v="apartments"/>
    <tag k="building:levels" v="3"/>
    <tag k="name" v="Durham Apartments"/>
    <tag k="roof:levels" v="0"/>
    <tag k="roof:shape" v="gabled"/>
  </way>
  <way id="116049358" version="10" timestamp="2024-03-14T18:40:11Z" changeset="148656592" uid="742701" user="kerr smith">
    <nd ref="1309632787"/>
    <nd ref="4585970334"/>
    <nd ref="1269085630"/>
    <nd ref="1269085516"/>
    <nd ref="11731474457"/>
    <nd ref="1269085547"/>
    <nd ref="1269085609"/>
    <nd ref="1269085602"/>
    <nd ref="1269085529"/>
    <nd ref="1269085631"/>
    <nd ref="1269085593"/>
    <nd ref="11731474446"/>
    <nd ref="1309632790"/>
    <nd ref="1309632788"/>
    <nd ref="4585970347"/>
    <nd ref="1309632787"/>
    <tag k="addr:city" v="Cambridge"/>
    <tag k="addr:locality" v="Cambourne"/>
    <tag k="addr:postcode" v="CB23 6FR"/>
    <tag k="addr:street" v="Sheepfold Lane"/>
    <tag k="amenity" v="school"/>
    <tag k="capacity" v="1250"/>
    <tag k="fee" v="no"/>
    <tag k="isced:level" v="2"/>
    <tag k="max_age" v="16"/>
    <tag k="min_age" v="11"/>
    <tag k="name" v="Cambourne Village College"/>
    <tag k="operator" v="Comberton Academy Trust"/>
    <tag k="phone" v="+44 1954 284000"/>
    <tag k="ref:GB:uprn" v="10090707194"/>
    <tag k="ref:edubase" v="139408"/>
    <tag k="ref:edubase:group" v="2753"/>
    <tag k="school:trust" v="yes"/>
    <tag k="school:trust:name" v="The Cam Academy Trust"/>
    <tag k="school:trust:type" v="multi_academy"/>
    <tag k="school:type" v="free"/>
    <tag k="website" v="https://www.cambournevc.org/"/>
    <tag k="wikidata" v="Q16256164"/>
    <tag k="wikipedia" v="en:Cambourne Village College"/>
  </way>
  <way id="255900670" version="8" timestamp="2024-09-03T10:18:48Z" changeset="156135122" uid="21425661" user="CjMalone">
    <nd ref="2616131278"/>
    <nd ref="2616131279"/>
    <nd ref="2616131280"/>
    <nd ref="2616131281"/>
    <nd ref="2616131278"/>
    <tag k="addr:city" v="Caxton"/>
    <tag k="addr:housename" v="Unit 1, Caxton Gibbet Park"/>
    <tag k="addr:postcode" v="CB23 3AS"/>
    <tag k="addr:street" v="Ermine Street"/>
    <tag k="amenity" v="fast_food"/>
    <tag k="brand" v="McDonald's"/>
    <tag k="brand:wikidata" v="Q38076"/>
    <tag k="brand:wikipedia" v="en:McDonald's"/>
    <tag k="building" v="yes"/>
    <tag k="check_date" v="2024-08-31"/>
    <tag k="check_date:opening_hours" v="2024-08-31"/>
    <tag k="contact:website" v="https://www.mcdonalds.com/gb/en-gb/location/caxton/caxton-gibbet/caxton-gibbet-park/8261416.html"/>
    <tag k="cuisine" v="burger"/>
    <tag k="delivery" v="no"/>
    <tag k="drive_through" v="yes"/>
    <tag k="fhrs:id" v="623645"/>
    <tag k="internet_access" v="wlan"/>
    <tag k="name" v="McDonald's"/>
    <tag k="opening_hours" v="24/7"/>
    <tag k="phone" v="+44 1954 269308"/>
    <tag k="self_service" v="yes"/>
    <tag k="source:addr:postcode" v="FSA Food Hygiene Ratings Database"/>
    <tag k="takeaway" v="yes"/>
  </way>
  <way id="255900672" version="4" timestamp="2022-11-20T18:00:55Z" changeset="129165146" uid="6816132" user="CjMalone">
    <nd ref="2616131288"/>
    <nd ref="2616131289"/>
    <nd ref="2616131290"/>
    <nd ref="2616131291"/>
    <nd ref="2616131288"/>
    <tag k="addr:city" v="Caxton"/>
    <tag k="addr:housename" v="Caxton Gibbet Park"/>
    <tag k="addr:postcode" v="CB23 3AS"/>
    <tag k="addr:street" v="Ermine Street"/>
    <tag k="addr:unit" v="2"/>
    <tag k="amenity" v="cafe"/>
    <tag k="brand" v="Costa"/>
    <tag k="brand:wikidata" v="Q608845"/>
    <tag k="brand:wikipedia" v="en:Costa Coffee"/>
    <tag k="building" v="yes"/>
    <tag k="cuisine" v="coffee_shop"/>
    <tag k="drive_through" v="yes"/>
    <tag k="fhrs:id" v="610759"/>
    <tag k="name" v="Costa"/>
    <tag k="source:addr:postcode" v="FSA Food Hygiene Ratings Database"/>
    <tag k="takeaway" v="yes"/>
  </way>
  <way id="255900673" version="6" timestamp="2022-10-12T11:08:20Z" changeset="127408560" uid="6816132" user="CjMalone">
    <nd ref="2616131292"/>
    <nd ref="2616131293"/>
    <nd ref="2616131294"/>
    <nd ref="2616131295"/>
    <nd ref="2616131292"/>
    <tag k="addr:city" v="Caxton"/>
    <tag k="addr:housename" v="Unit 3, Caxton Gibbet Park"/>
    <tag k="addr:postcode" v="CB23 3AS"/>
    <tag k="addr:street" v="Ermine Street"/>
    <tag k="amenity" v="fast_food"/>
    <tag k="brand" v="Subway"/>
    <tag k="brand:wikidata" v="Q244457"/>
    <tag k="brand:wikipedia" v="en:Subway (restaurant)"/>
    <tag k="building" v="yes"/>
    <tag k="contact:website" v="https://restaurants.subway.com/united-kingdom/en/cambridge/unit-3-caxton-gibbet-park-ermine-street"/>
    <tag k="cuisine" v="sandwich"/>
    <tag k="fhrs:id" v="643663"/>
    <tag k="name" v="Subway"/>
    <tag k="source:addr:postcode" v="FSA Food Hygiene Ratings Database"/>
    <tag k="takeaway" v="yes"/>
  </way>
  <way id="255900674" version="10" timestamp="2023-04-25T13:55:51Z" changeset="135345139" uid="742701" user="kerr smith">
    <nd ref="2616131294"/>
    <nd ref="2616131296"/>
    <nd ref="2616131297"/>
    <nd ref="2616131293"/>
    <nd ref="2616131294"/>
    <tag k="addr:housename" v="Unit 4, Caxton Gibbet Park"/>
    <tag k="addr:postcode" v="CB23 3AS"/>
    <tag k="addr:street" v="Ermine Street"/>
    <tag k="addr:village" v="Cambourne"/>
    <tag k="amenity" v="restaurant"/>
    <tag k="building" v="yes"/>
    <tag k="cuisine" v="turkish"/>
    <tag k="name" v="Kebab Station"/>
    <tag k="note" v="K10's until 2017, Broccoli Pizza and Pasta until 2021"/>
    <tag k="website" v="https://kebabstation.co.uk"/>
  </way>
  <way id="349735294" version="10" timestamp="2023-09-13T15:26:57Z" changeset="141217109" uid="242162" user="Stephen Borrill">
    <nd ref="1118061532"/>
    <nd ref="1118061478"/>
    <nd ref="9077403605"/>
    <nd ref="1118061577"/>
    <nd ref="9077403577"/>
    <nd ref="1118061580"/>
    <nd ref="1136390330"/>
    <nd ref="728856255"/>
    <nd ref="566643678"/>
    <nd ref="566643679"/>
    <nd ref="2990530536"/>
    <nd ref="566643680"/>
    <nd ref="2990530537"/>
    <nd ref="3555610976"/>
    <nd ref="566643683"/>
    <nd ref="566643684"/>
    <nd ref="3555610977"/>
    <nd ref="1118061532"/>
    <tag k="addr:postcode" v="CB23 6DZ"/>
    <tag k="addr:street" v="Eastgate"/>
    <tag k="amenity" v="school"/>
    <tag k="capacity" v="420"/>
    <tag k="isced:level" v="1"/>
    <tag k="max_age" v="11"/>
    <tag k="min_age" v="4"/>
    <tag k="name" v="Jeavons Wood Primary School"/>
    <tag k="phone" v="+44 1954 717180"/>
    <tag k="ref:edubase" v="144537"/>
    <tag k="ref:edubase:group" v="2753"/>
    <tag k="school:trust" v="yes"/>
    <tag k="school:trust:name" v="The Cam Academy Trust"/>
    <tag k="school:trust:type" v="multi_academy"/>
    <tag k="school:type" v="academy"/>
    <tag k="wikidata" v="Q66231980"/>
  </way>
  <way id="366575012" version="7" timestamp="2023-12-07T20:09:26Z" changeset="144879302" uid="6816132" user="CjMalone">
    <nd ref="3705735763"/>
    <nd ref="3705735759"/>
    <nd ref="9281122868"/>
    <nd ref="9281122869"/>
    <nd ref="3705735760"/>
    <nd ref="3705735764"/>
    <nd ref="3705735763"/>
    <tag k="addr:city" v="Cambridge"/>
    <tag k="addr:housename" v="Cambourne Retail Park"/>
    <tag k="addr:locality" v="Great Cambourne"/>
    <tag k="addr:street" v="Back Lane"/>
    <tag k="brand" v="Just for Pets"/>
    <tag k="brand:website" v="https://justforpets.co.uk/"/>
    <tag k="name" v="Just for Pets"/>
    <tag k="opening_hours" v="Mo-Sa 09:00-18:00; Su 10:00-16:00"/>
    <tag k="shop" v="pet"/>
    <tag k="wheelchair" v="yes"/>
  </way>
  <way id="463318243" version="9" timestamp="2022-11-20T19:54:54Z" changeset="129168154" uid="6816132" user="CjMalone">
    <nd ref="3705735762"/>
    <nd ref="9281122867"/>
    <nd ref="9281122866"/>
    <nd ref="3705735757"/>
    <nd ref="3705735758"/>
    <nd ref="4585970328"/>
    <nd ref="3705735761"/>
    <nd ref="3705735762"/>
    <tag k="addr:city" v="Cambridge"/>
    <tag k="addr:housenumber" v="Unit 1"/>
    <tag k="addr:locality" v="Great Cambourne"/>
    <tag k="addr:place" v="Cambourne Retail Park"/>
    <tag k="addr:postcode" v="CB23 6EY"/>
    <tag k="addr:street" v="Back Lane"/>
    <tag k="brand" v="Home Bargains"/>
    <tag k="brand:wikidata" v="Q5888229"/>
    <tag k="brand:wikipedia" v="en:Home Bargains"/>
    <tag k="building" v="retail"/>
    <tag k="contact:website" v="https://storelocator.homebargains.co.uk/store/A468/Cambourne+Retail+Park,+Back+Lane,+Cambourne"/>
    <tag k="name" v="Home Bargains"/>
    <tag k="opening_hours" v="Mo-Fr 08:00-20:00; Sa 08:00-19:00; Su 10:00-16:00"/>
    <tag k="shop" v="variety_store"/>
    <tag k="wheelchair" v="yes"/>
  </way>
  <way id="463318245" version="12" timestamp="2023-11-03T15:31:40Z" changeset="143580004" uid="6816132" user="CjMalone">
    <nd ref="3705735758"/>
    <nd ref="3705735763"/>
    <nd ref="3705735764"/>
    <nd ref="6054593701"/>
    <nd ref="6054593691"/>
    <nd ref="4585970328"/>
    <nd ref="3705735758"/>
    <tag k="addr:city" v="Cambridge"/>
    <tag k="addr:housename" v="Cambourne Retail Park"/>
    <tag k="addr:locality" v="Great Cambourne"/>
    <tag k="addr:postcode" v="CB23 6EY"/>
    <tag k="addr:street" v="Back Lane"/>
    <tag k="brand" v="British Heart Foundation"/>
    <tag k="brand:wikidata" v="Q4970039"/>
    <tag k="brand:wikipedia" v="en:British Heart Foundation"/>
    <tag k="building" v="retail"/>
    <tag k="name" v="British Heart Foundation"/>
    <tag k="nohousenumber" v="yes"/>
    <tag k="opening_hours" v="Mo-Sa 10:00-18:00; Su 10:00-16:00"/>
    <tag k="shop" v="charity"/>
    <tag k="website" v="https://www.bhf.org.uk/what-we-do/find-bhf-near-you/cambourne-furniture-electrical-store"/>
    <tag k="wheelchair" v="yes"/>
  </way>
  <way id="1093567020" version="3" timestamp="2024-09-25T12:23:35Z" changeset="157079765" uid="13750939" user="FortQuake">
    <nd ref="10015722582"/>
    <nd ref="12198894394"/>
    <nd ref="12198894393"/>
    <nd ref="10015722581"/>
    <nd ref="10015722580"/>
    <nd ref="10015722579"/>
    <nd ref="10015722578"/>
    <nd ref="10015722577"/>
    <nd ref="10015722576"/>
    <nd ref="12198948810"/>
    <nd ref="10015722575"/>
    <nd ref="10015722582"/>
    <tag k="addr:city" v="Cambridge"/>
    <tag k="addr:country" v="GB"/>
    <tag k="addr:housename" v="Holiday Inn Express Cambridge West Cambourne"/>
    <tag k="addr:postcode" v="CB23 6LJ"/>
    <tag k="addr:street" v="Back Lane"/>
    <tag k="addr:town" v="Cambourne"/>
    <tag k="addr:village" v="Great Cambourne"/>
    <tag k="brand" v="Holiday Inn Express"/>
    <tag k="brand:wikidata" v="Q5880423"/>
    <tag k="building" v="hotel"/>
    <tag k="name" v="Holiday Inn Express"/>
    <tag k="tourism" v="hotel"/>
  </way>
  <way id="1102893924" version="3" timestamp="2022-10-16T10:40:33Z" changeset="127609072" uid="6476359" user="NSiecw">
    <nd ref="10092297470"/>
    <nd ref="10092297471"/>
    <nd ref="3755574447"/>
    <nd ref="1044075732"/>
    <nd ref="10092297472"/>
    <nd ref="10092297470"/>
    <tag k="addr:housename" v="The Blue Space"/>
    <tag k="addr:postcode" v="CB23 6DZ"/>
    <tag k="addr:street" v="Eastgate"/>
    <tag k="building:part" v="yes"/>
    <tag k="name" v="Cambourne Church Offices"/>
  </way>
  <way id="1104391203" version="1" timestamp="2022-10-16T10:40:33Z" changeset="127609072" uid="6476359" user="NSiecw">
    <nd ref="10106171238"/>
    <nd ref="7371988766"/>
    <nd ref="10106171265"/>
    <nd ref="1044075732"/>
    <tag k="addr:postcode" v="CB23 6DZ"/>
    <tag k="addr:street" v="Eastgate"/>
    <tag k="barrier" v="hedge"/>
    <tag k="name" v="The Blue Space"/>
    <tag k="operator" v="Cambourne Town Council"/>
  </way>
  <relation id="1769242" version="9" timestamp="2021-09-21T09:31:50Z" changeset="111485422" uid="6816132" user="CjMalone">
    <member type="way" ref="49169058" role="outer"/>
    <member type="way" ref="131655761" role="inner"/>
    <tag k="addr:city" v="Cambridge"/>
    <tag k="addr:country" v="GB"/>
    <tag k="addr:postcode" v="CB23 6BW"/>
    <tag k="addr:street" v="Back Lane"/>
    <tag k="building" v="yes"/>
    <tag k="building:levels" v="4"/>
    <tag k="fax" v="+44 1954 714610"/>
    <tag k="fhrs:id" v="596978"/>
    <tag k="internet_access" v="wlan"/>
    <tag k="internet_access:fee" v="no"/>
    <tag k="name" v="The Cambridge Belfry"/>
    <tag k="phone" v="+44 1954 714600"/>
    <tag k="roof:shape" v="gabled"/>
    <tag k="rooms" v="120"/>
    <tag k="smoking" v="no"/>
    <tag k="stars" v="4"/>
    <tag k="survey:date" v="2021-02-13"/>
    <tag k="tourism" v="hotel"/>
    <tag k="type" v="multipolygon"/>
    <tag k="wheelchair" v="yes"/>
  </relation>

</osm>
