<?xml version="1.0" encoding="UTF-8"?>
<osm version="0.6" generator="Overpass API 0.7.62.4 2390de5a">
<note>The data included in this document is from www.openstreetmap.org. The data is made available under ODbL.</note>
<meta osm_base="2025-01-21T14:39:45Z" areas="2024-12-31T00:49:33Z"/>

  <node id="1707747025" lat="52.2598908" lon="0.0641568" version="3" timestamp="2019-01-31T12:44:01Z" changeset="66800768" uid="669183" user="Andy_W">
    <tag k="addr:city" v="Cambridge"/>
    <tag k="addr:housenumber" v="27"/>
    <tag k="addr:postcode" v="CB24 3BB"/>
    <tag k="addr:street" v="Longstanton Road"/>
    <tag k="addr:village" v="Oakington"/>
    <tag k="name" v="Nisa Local"/>
    <tag k="shop" v="convenience"/>
  </node>
  <node id="3571818593" lat="52.2598618" lon="0.0641753" version="7" timestamp="2023-10-21T10:05:08Z" changeset="142916462" uid="6816132" user="CjMalone">
    <tag k="addr:city" v="Cambridge"/>
    <tag k="addr:housenumber" v="27"/>
    <tag k="addr:postcode" v="CB24 3BB"/>
    <tag k="addr:street" v="Longstanton Road"/>
    <tag k="addr:village" v="Oakington"/>
    <tag k="amenity" v="post_office"/>
    <tag k="brand" v="Post Office"/>
    <tag k="brand:wikidata" v="Q1783168"/>
    <tag k="name" v="Oakington Post Office"/>
    <tag k="opening_hours" v="Mo,Tu,Th,Fr 09:00-13:00,14:00-16:30; We 09:00-13:00; Sa 09:00-12:30"/>
    <tag k="ref:pol_id" v="1939"/>
    <tag k="source:opening_hours" v="pol_branch_list_2018-02"/>
    <tag k="website" v="https://www.postoffice.co.uk/branch-finder/1201131/oakington"/>
  </node>
  <node id="5570014032" lat="52.2582605" lon="0.0646093" version="3" timestamp="2019-01-31T12:42:20Z" changeset="66800706" uid="669183" user="Andy_W">
    <tag k="addr:city" v="Cambridge"/>
    <tag k="addr:housenumber" v="1"/>
    <tag k="addr:postcode" v="CB24 3BB"/>
    <tag k="addr:street" v="Longstanton Road"/>
    <tag k="addr:village" v="Oakington"/>
    <tag k="amenity" v="cafe"/>
    <tag k="fhrs:id" v="1024881"/>
    <tag k="name" v="Crossways Communitea Cafe"/>
  </node>
  <node id="5570014033" lat="52.2582278" lon="0.0645002" version="2" timestamp="2019-01-31T12:42:19Z" changeset="66800706" uid="669183" user="Andy_W">
    <tag k="addr:city" v="Cambridge"/>
    <tag k="addr:housenumber" v="1"/>
    <tag k="addr:postcode" v="CB24 3BB"/>
    <tag k="addr:street" v="Longstanton Road"/>
    <tag k="addr:village" v="Oakington"/>
    <tag k="amenity" v="clinic"/>
    <tag k="healthcare" v="clinic"/>
    <tag k="healthcare:speciality" v="osteopathy"/>
    <tag k="name" v="Oakingtons"/>
  </node>
  <node id="5570014044" lat="52.2558638" lon="0.0635943" version="1" timestamp="2018-04-21T23:55:03Z" changeset="58300345" uid="5173844" user="ndrw6">
    <tag k="addr:city" v="Oakington"/>
    <tag k="addr:postcode" v="CB24 3BD"/>
    <tag k="addr:street" v="Dry Drayton Road"/>
    <tag k="amenity" v="animal_boarding"/>
    <tag k="name" v="Oakington Dog Day Care Centre"/>
    <tag k="website" v="https://www.oakingtondogdaycare.co.uk/"/>
  </node>
  <way id="4372825" version="11" timestamp="2023-11-14T10:05:36Z" changeset="144003433" uid="5173844" user="ndrw6">
    <nd ref="26664312"/>
    <nd ref="1605059588"/>
    <nd ref="11348129218"/>
    <nd ref="26664311"/>
    <nd ref="5323196769"/>
    <nd ref="26664310"/>
    <nd ref="5323196767"/>
    <nd ref="11348129220"/>
    <nd ref="11348129222"/>
    <nd ref="11348129221"/>
    <nd ref="26664313"/>
    <nd ref="26664312"/>
    <tag k="addr:postcode" v="CB24 3AL"/>
    <tag k="addr:street" v="Water Lane"/>
    <tag k="amenity" v="school"/>
    <tag k="capacity" v="149"/>
    <tag k="denomination" v="anglican"/>
    <tag k="diocese" v="Diocese of Ely"/>
    <tag k="email" v="office@oakington.cambs.sch.uk"/>
    <tag k="fax" v="+44 1223 232273"/>
    <tag k="isced:level" v="1"/>
    <tag k="max_age" v="11"/>
    <tag k="min_age" v="5"/>
    <tag k="name" v="Oakington CofE Primary School"/>
    <tag k="phone" v="+44 1223 232328"/>
    <tag k="ref:GB:uprn" v="100091421073"/>
    <tag k="ref:edubase" v="147110"/>
    <tag k="ref:edubase:group" v="2905"/>
    <tag k="religion" v="christian"/>
    <tag k="school:trust" v="yes"/>
    <tag k="school:trust:name" v="The Diocese of Ely Multi-Academy Trust"/>
    <tag k="school:trust:type" v="multi_academy"/>
    <tag k="school:type" v="academy"/>
    <tag k="website" v="http://www.oakingtonschool.org.uk/"/>
    <tag k="wikidata" v="Q66232930"/>
  </way>
  <way id="83204294" version="5" timestamp="2024-12-03T10:02:16Z" changeset="159873869" uid="374342" user="hocu">
    <nd ref="968160408"/>
    <nd ref="968160149"/>
    <nd ref="968160281"/>
    <nd ref="968160554"/>
    <nd ref="968160435"/>
    <nd ref="968160408"/>
    <tag k="addr:county" v="Cambridgeshire"/>
    <tag k="addr:housename" v="Oakington Garden Centre"/>
    <tag k="addr:postcode" v="CB24 3BD"/>
    <tag k="addr:street" v="Dry Drayton Road"/>
    <tag k="amenity" v="cafe"/>
    <tag k="building" v="yes"/>
    <tag k="fhrs:id" v="1433024"/>
    <tag k="name" v="Olive Tree Cafe"/>
    <tag k="nohousenumber" v="yes"/>
    <tag k="opening_hours" v="Mo-Sa 09:30-16:00; Su 10:00-16:00"/>
    <tag k="operator" v="Oakington Garden Centre"/>
    <tag k="source" v="survey"/>
    <tag k="source:addr" v="FHRS Open Data"/>
  </way>
  <way id="83204296" version="6" timestamp="2023-11-14T10:05:36Z" changeset="144003433" uid="5173844" user="ndrw6">
    <nd ref="968160408"/>
    <nd ref="11348128676"/>
    <nd ref="11348128677"/>
    <nd ref="11348128678"/>
    <nd ref="11348128679"/>
    <nd ref="11348128680"/>
    <nd ref="11348128681"/>
    <nd ref="11348128682"/>
    <nd ref="968160225"/>
    <nd ref="4459272822"/>
    <nd ref="968160435"/>
    <nd ref="968160408"/>
    <tag k="addr:city" v="Cambridge"/>
    <tag k="addr:postcode" v="CB24 3BD"/>
    <tag k="addr:street" v="Dry Drayton Road"/>
    <tag k="addr:village" v="Oakington"/>
    <tag k="landuse" v="retail"/>
    <tag k="name" v="Oakington Garden Centre"/>
    <tag k="shop" v="garden_centre"/>
    <tag k="source" v="Yahoo! (2006?)"/>
    <tag k="website" v="https://www.oakingtongardencentre.co.uk/"/>
  </way>
  <way id="125552228" version="5" timestamp="2023-04-26T17:12:16Z" changeset="135395917" uid="1102246" user="jtn20">
    <nd ref="1394157135"/>
    <nd ref="1394157136"/>
    <nd ref="1394157137"/>
    <nd ref="1394157144"/>
    <nd ref="1394157146"/>
    <nd ref="1394157135"/>
    <tag k="addr:housenumber" v="Westwick Hall Farm"/>
    <tag k="addr:place" v="Westwick"/>
    <tag k="addr:postcode" v="CB24 3AR"/>
    <tag k="addr:street" v="Station Road"/>
    <tag k="amenity" v="kindergarten"/>
    <tag k="fhrs:id" v="1433762"/>
    <tag k="name" v="Busy Bees Nursery"/>
    <tag k="phone" v="+44 1223 232400"/>
    <tag k="website" v="https://www.busybeeschildcare.co.uk/nursery/westwick"/>
  </way>
  <way id="136551772" version="3" timestamp="2019-01-31T12:39:28Z" changeset="66800586" uid="669183" user="Andy_W">
    <nd ref="1497905395"/>
    <nd ref="1497905400"/>
    <nd ref="1497905406"/>
    <nd ref="1497905401"/>
    <nd ref="1497905395"/>
    <tag k="addr:city" v="Cambridge"/>
    <tag k="addr:housenumber" v="1A"/>
    <tag k="addr:postcode" v="CB24 3DQ"/>
    <tag k="addr:street" v="Oakington Business Park"/>
    <tag k="addr:village" v="Oakington"/>
    <tag k="building" v="yes"/>
    <tag k="name" v="Ingleton Wood"/>
    <tag k="office" v="company"/>
    <tag k="website" v="https://www.ingletonwood.co.uk/"/>
  </way>
  <way id="136551773" version="3" timestamp="2019-01-31T12:39:28Z" changeset="66800586" uid="669183" user="Andy_W">
    <nd ref="1497905395"/>
    <nd ref="1497905401"/>
    <nd ref="1497905396"/>
    <nd ref="1497905393"/>
    <nd ref="1497905390"/>
    <nd ref="1497905395"/>
    <tag k="addr:city" v="Cambridge"/>
    <tag k="addr:housenumber" v="1A"/>
    <tag k="addr:postcode" v="CB24 3DQ"/>
    <tag k="addr:street" v="Oakington Business Park"/>
    <tag k="addr:village" v="Oakington"/>
    <tag k="building" v="yes"/>
    <tag k="name" v="Martindales"/>
    <tag k="office" v="architect"/>
  </way>
  <way id="136551789" version="6" timestamp="2022-05-24T11:39:00Z" changeset="121418919" uid="4709" user="DerekLLaw">
    <nd ref="1497905391"/>
    <nd ref="1497905377"/>
    <nd ref="1497905375"/>
    <nd ref="1497905356"/>
    <nd ref="1497905353"/>
    <nd ref="1497905368"/>
    <nd ref="1497905358"/>
    <nd ref="1497905387"/>
    <nd ref="1497905391"/>
    <tag k="addr:city" v="Cambridge"/>
    <tag k="addr:housename" v="Vision House"/>
    <tag k="addr:housenumber" v="7/8"/>
    <tag k="addr:postcode" v="CB24 3DQ"/>
    <tag k="addr:street" v="Oakington Business Park"/>
    <tag k="addr:village" v="Oakington"/>
    <tag k="building" v="yes"/>
    <tag k="name" v="Munro Building Services"/>
    <tag k="office" v="charity"/>
    <tag k="phone" v="+44 1223 702100"/>
    <tag k="website" v="https://www.munrobuildingservices.co.uk/"/>
  </way>
  <way id="136551792" version="4" timestamp="2019-01-31T12:39:29Z" changeset="66800586" uid="669183" user="Andy_W">
    <nd ref="1497905373"/>
    <nd ref="1497905378"/>
    <nd ref="1497905371"/>
    <nd ref="1497905366"/>
    <nd ref="1497905369"/>
    <nd ref="1497905365"/>
    <nd ref="1497905376"/>
    <nd ref="1497905361"/>
    <nd ref="1497905373"/>
    <tag k="addr:city" v="Cambridge"/>
    <tag k="addr:housenumber" v="4"/>
    <tag k="addr:postcode" v="CB24 3DQ"/>
    <tag k="addr:street" v="Oakington Business Park"/>
    <tag k="addr:village" v="Oakington"/>
    <tag k="building" v="yes"/>
    <tag k="name" v="Fen Technology"/>
    <tag k="office" v="company"/>
  </way>
  <way id="582387758" version="2" timestamp="2019-01-02T13:43:16Z" changeset="65958934" uid="669183" user="Andy_W">
    <nd ref="5570014052"/>
    <nd ref="5570014053"/>
    <nd ref="5570014054"/>
    <nd ref="5570014055"/>
    <nd ref="5570014052"/>
    <tag k="addr:place" v="Oakington"/>
    <tag k="addr:postcode" v="CB24 3BD"/>
    <tag k="addr:street" v="Dry Drayton Road"/>
    <tag k="landuse" v="retail"/>
    <tag k="name" v="Fare Acres Farm"/>
  </way>

</osm>
