<?xml version="1.0" encoding="UTF-8"?>
<osm version="0.6" generator="Overpass API 0.7.62.4 2390de5a">
<note>The data included in this document is from www.openstreetmap.org. The data is made available under ODbL.</note>
<meta osm_base="2025-01-20T03:04:15Z" areas="2024-12-31T00:49:33Z"/>

  <way id="43591130" version="12" timestamp="2024-03-19T13:32:42Z" changeset="148861484" uid="84263" user="Robert Whittaker">
    <nd ref="550507784"/>
    <nd ref="2786117291"/>
    <nd ref="2786117285"/>
    <nd ref="550507786"/>
    <nd ref="1718063992"/>
    <nd ref="1718063990"/>
    <nd ref="1718063964"/>
    <nd ref="1718063961"/>
    <nd ref="1718063987"/>
    <nd ref="550507788"/>
    <nd ref="1718063993"/>
    <nd ref="1718063995"/>
    <nd ref="550507789"/>
    <nd ref="550507784"/>
    <tag k="addr:city" v="St Ives"/>
    <tag k="addr:postcode" v="PE27 5BW"/>
    <tag k="addr:street" v="Station Road"/>
    <tag k="brand" v="Waitrose"/>
    <tag k="brand:wikidata" v="Q771734"/>
    <tag k="brand:wikipedia" v="en:Waitrose &amp; Partners"/>
    <tag k="building" v="yes"/>
    <tag k="name" v="Waitrose"/>
    <tag k="official_name" v="Waitrose &amp; Partners"/>
    <tag k="operator" v="Waitrose &amp; Partners"/>
    <tag k="phone" v="+44 1480 492949"/>
    <tag k="shop" v="supermarket"/>
    <tag k="website" v="https://www.waitrose.com/find-a-store/st-ives"/>
  </way>
  <way id="99242819" version="12" timestamp="2024-11-16T22:39:28Z" changeset="159224769" uid="11022773" user="GeoFens">
    <nd ref="1147964754"/>
    <nd ref="2810532102"/>
    <nd ref="1147964791"/>
    <nd ref="2781466892"/>
    <nd ref="1147964757"/>
    <nd ref="1147964774"/>
    <nd ref="9258705920"/>
    <nd ref="3374758450"/>
    <nd ref="1147964749"/>
    <nd ref="1147964743"/>
    <nd ref="1147964739"/>
    <nd ref="1147964769"/>
    <nd ref="1147964752"/>
    <nd ref="1147964788"/>
    <nd ref="1147964784"/>
    <nd ref="1147964763"/>
    <nd ref="1147964737"/>
    <nd ref="1147964767"/>
    <nd ref="1147964771"/>
    <nd ref="9258705921"/>
    <nd ref="9258705922"/>
    <nd ref="2810529400"/>
    <nd ref="1147964793"/>
    <nd ref="2810532104"/>
    <nd ref="2781466886"/>
    <nd ref="1147964768"/>
    <nd ref="2781466889"/>
    <nd ref="1147964741"/>
    <nd ref="1147964754"/>
    <tag k="addr:city" v="St Ives"/>
    <tag k="addr:housename" v="Dolphin Hotel"/>
    <tag k="addr:postcode" v="PE27 5EP"/>
    <tag k="addr:street" v="London Road"/>
    <tag k="bar" v="yes"/>
    <tag k="brand" v="Best Western"/>
    <tag k="brand:wikidata" v="Q830334"/>
    <tag k="building" v="yes"/>
    <tag k="email" v="dolphinhotelinfo@gmail.com"/>
    <tag k="fhrs:id" v="974873"/>
    <tag k="internet_access" v="wlan"/>
    <tag k="internet_access:fee" v="customers"/>
    <tag k="name" v="Dolphin Hotel"/>
    <tag k="operator" v="Best Western"/>
    <tag k="pets_allowed" v="no"/>
    <tag k="phone" v="+44 1480 466 966"/>
    <tag k="rooms" v="67"/>
    <tag k="smoking" v="no"/>
    <tag k="stars" v="3"/>
    <tag k="tourism" v="hotel"/>
    <tag k="website" v="https://www.dolphinhotelcambs.co.uk/"/>
    <tag k="wikidata" v="Q26615604"/>
  </way>
  <way id="136168725" version="10" timestamp="2024-05-26T11:20:56Z" changeset="151846575" uid="95856" user="john paul jones &amp; gringo">
    <nd ref="2783069735"/>
    <nd ref="2783069737"/>
    <nd ref="1494115822"/>
    <nd ref="1494115819"/>
    <nd ref="1494115817"/>
    <nd ref="1494115815"/>
    <nd ref="1494115828"/>
    <nd ref="2843589838"/>
    <nd ref="2783069739"/>
    <nd ref="1600326349"/>
    <nd ref="1600326350"/>
    <nd ref="2783069729"/>
    <nd ref="2783069731"/>
    <nd ref="1600326359"/>
    <nd ref="2796681062"/>
    <nd ref="2796681061"/>
    <nd ref="2783069733"/>
    <nd ref="2783069735"/>
    <tag k="addr:city" v="St Ives"/>
    <tag k="addr:country" v="GB"/>
    <tag k="addr:housename" v="One Leisure St Ives Indoor"/>
    <tag k="addr:postcode" v="PE27 6WU"/>
    <tag k="addr:street" v="Westwood Rd"/>
    <tag k="building" v="yes"/>
    <tag k="contact:phone" v="+44 1480 388111"/>
    <tag k="contact:website" v="https://www.oneleisure.net"/>
    <tag k="leisure" v="sports_centre"/>
    <tag k="name" v="One Leisure St Ives Indoor"/>
    <tag k="sport" v="swimming;fitness;cardio"/>
    <tag k="wheelchair" v="yes"/>
  </way>
  <way id="273275804" version="8" timestamp="2023-12-26T17:50:15Z" changeset="145544249" uid="242345" user="confusedbuffalo">
    <nd ref="2781519857"/>
    <nd ref="2781519858"/>
    <nd ref="2781519859"/>
    <nd ref="2781519860"/>
    <nd ref="2781519861"/>
    <nd ref="2781519863"/>
    <nd ref="2781519864"/>
    <nd ref="2781519865"/>
    <nd ref="2781519866"/>
    <nd ref="2781519867"/>
    <nd ref="2781519868"/>
    <nd ref="2781519869"/>
    <nd ref="2781519857"/>
    <tag k="addr:city" v="St Ives"/>
    <tag k="addr:postcode" v="PE27 6RG"/>
    <tag k="addr:street" v="Ramsey Road"/>
    <tag k="amenity" v="fuel"/>
    <tag k="brand" v="Shell"/>
    <tag k="brand:wikidata" v="Q110716465"/>
    <tag k="building" v="yes"/>
    <tag k="building:levels" v="1"/>
    <tag k="check_date" v="2023-12-26"/>
    <tag k="fuel:diesel" v="yes"/>
    <tag k="fuel:octane_95" v="yes"/>
    <tag k="fuel:octane_98" v="yes"/>
    <tag k="name" v="Shell"/>
    <tag k="opening_hours" v="Mo-Su 06:00-22:00"/>
    <tag k="phone" v="+44 1480 493850"/>
    <tag k="ref:navads" v="NVDS353_10019182"/>
    <tag k="website" v="https://find.shell.com/gb/fuel/10019182-shell-st-ives"/>
  </way>
  <way id="273275817" version="6" timestamp="2023-04-07T18:58:10Z" changeset="134629244" uid="11022773" user="GeoFens">
    <nd ref="2781519939"/>
    <nd ref="2781519940"/>
    <nd ref="2781519942"/>
    <nd ref="2781519943"/>
    <nd ref="2781519939"/>
    <tag k="addr:housename" v="Andros House"/>
    <tag k="addr:street" v="Compass Point Business Park"/>
    <tag k="building" v="commercial"/>
    <tag k="building:levels" v="2"/>
    <tag k="name" v="Andros"/>
  </way>
  <way id="273275818" version="3" timestamp="2024-04-20T13:38:18Z" changeset="150263914" uid="11022773" user="GeoFens">
    <nd ref="2781519944"/>
    <nd ref="2781519945"/>
    <nd ref="2781519946"/>
    <nd ref="2781519947"/>
    <nd ref="2781519944"/>
    <tag k="addr:city" v="St Ives"/>
    <tag k="addr:postcode" v="PE27 5JL"/>
    <tag k="addr:street" v="Stocks Bridge Way"/>
    <tag k="amenity" v="childcare"/>
    <tag k="building" v="yes"/>
    <tag k="building:levels" v="2"/>
    <tag k="name" v="Kindred St Ives Day Nursery and Pre-School"/>
    <tag k="operator" v="Kindred Nurseries"/>
    <tag k="website" v="https://kindrednurseries.co.uk/our-nurseries/stives"/>
  </way>
  <way id="273800828" version="7" timestamp="2022-07-04T18:56:48Z" changeset="123204116" uid="379166" user="Borbus">
    <nd ref="2786117285"/>
    <nd ref="2786117286"/>
    <nd ref="2786117287"/>
    <nd ref="9866560775"/>
    <nd ref="2786117289"/>
    <nd ref="2786117290"/>
    <nd ref="2786117291"/>
    <nd ref="2786117285"/>
    <tag k="addr:city" v="St Ives"/>
    <tag k="addr:housename" v="Library Row"/>
    <tag k="addr:housenumber" v="4"/>
    <tag k="addr:postcode" v="PE27 5BW"/>
    <tag k="addr:street" v="Station Road"/>
    <tag k="addr:unit" v="4"/>
    <tag k="air_conditioning" v="yes"/>
    <tag k="amenity" v="library"/>
    <tag k="building" v="yes"/>
    <tag k="internet_access" v="yes;wlan;terminal;wired;service"/>
    <tag k="internet_access:fee" v="no"/>
    <tag k="internet_access:ssid" v="CambWifi"/>
    <tag k="name" v="St Ives Library and Learning Centre"/>
    <tag k="opening_hours" v="Mo-We 09:30-17:00; Th 09:30-13:00,13:30-18:00; Fr 09:30-19:00; Sa 09:30-16:00; Su 12:00-16:00; Dec 25 off; Dec 31 off; Jan 01 off"/>
    <tag k="website" v="https://www.cambridgeshire.gov.uk/st-ives-library/"/>
    <tag k="wikidata" v="Q55163457"/>
  </way>
  <way id="273800830" version="6" timestamp="2022-07-04T18:56:48Z" changeset="123204116" uid="379166" user="Borbus">
    <nd ref="2786117295"/>
    <nd ref="9866560774"/>
    <nd ref="9866560773"/>
    <nd ref="9866560772"/>
    <nd ref="2786117292"/>
    <nd ref="2786117295"/>
    <tag k="addr:city" v="St Ives"/>
    <tag k="addr:country" v="GB"/>
    <tag k="addr:housename" v="Library Row"/>
    <tag k="addr:postcode" v="PE27 5BW"/>
    <tag k="addr:street" v="Station Road"/>
    <tag k="addr:unit" v="1"/>
    <tag k="amenity" v="fast_food"/>
    <tag k="brand" v="Domino's"/>
    <tag k="brand:wikidata" v="Q839466"/>
    <tag k="brand:wikipedia" v="en:Domino's Pizza"/>
    <tag k="building" v="yes"/>
    <tag k="contact:phone" v="+44 1480 494000"/>
    <tag k="contact:website" v="https://www.dominos.co.uk/pizza-near-me/st-ives/unit-1-library-row"/>
    <tag k="cuisine" v="pizza"/>
    <tag k="name" v="Domino's"/>
    <tag k="takeaway" v="yes"/>
  </way>
  <way id="275011845" version="7" timestamp="2023-11-03T18:42:34Z" changeset="143587142" uid="504708" user="HillWithSmallFields">
    <nd ref="2796745347"/>
    <nd ref="2796745348"/>
    <nd ref="2796745349"/>
    <nd ref="2796745350"/>
    <nd ref="2796745351"/>
    <nd ref="2796745352"/>
    <nd ref="2796745353"/>
    <nd ref="2796745354"/>
    <nd ref="2796745347"/>
    <tag k="addr:city" v="St Ives"/>
    <tag k="addr:postcode" v="PE27 6DG"/>
    <tag k="addr:street" v="Church Street"/>
    <tag k="amenity" v="place_of_worship"/>
    <tag k="building" v="church"/>
    <tag k="denomination" v="anglican"/>
    <tag k="name" v="All Saints"/>
    <tag k="ref:dove" v="14667"/>
    <tag k="religion" v="christian"/>
    <tag k="website" v="https://www.stivesparishchurch.org.uk/"/>
    <tag k="wikidata" v="Q17527821"/>
  </way>
  <way id="276517613" version="9" timestamp="2024-11-16T21:43:28Z" changeset="159223681" uid="11022773" user="GeoFens">
    <nd ref="2811156875"/>
    <nd ref="2811156877"/>
    <nd ref="2811156878"/>
    <nd ref="2811156879"/>
    <nd ref="5509483700"/>
    <nd ref="5509483701"/>
    <nd ref="3374701335"/>
    <nd ref="2811156881"/>
    <nd ref="2811156876"/>
    <nd ref="2811156875"/>
    <tag k="addr:city" v="St Ives"/>
    <tag k="addr:housenumber" v="8-9"/>
    <tag k="addr:postcode" v="PE27 5AW"/>
    <tag k="addr:street" v="Market Hill"/>
    <tag k="amenity" v="pub"/>
    <tag k="brand" v="Wetherspoon"/>
    <tag k="brand:wikidata" v="Q6109362"/>
    <tag k="building" v="yes"/>
    <tag k="dog" v="no"/>
    <tag k="fhrs:id" v="974860"/>
    <tag k="name" v="The Swan &amp; Angel"/>
    <tag k="operator" v="J D Weatherspoon"/>
    <tag k="website" v="https://www.jdwetherspoon.com/pubs/all-pubs/england/cambridgeshire/the-swan-and-angel-st-ives"/>
  </way>
  <way id="304492545" version="8" timestamp="2024-12-18T20:32:29Z" changeset="160367748" uid="10420541" user="Thingummy">
    <nd ref="11513764061"/>
    <nd ref="3090387605"/>
    <nd ref="3090387608"/>
    <nd ref="3090387611"/>
    <nd ref="3090387607"/>
    <nd ref="12431673854"/>
    <nd ref="11513764061"/>
    <tag k="addr:city" v="St Ives"/>
    <tag k="addr:housenumber" v="2"/>
    <tag k="addr:postcode" v="PE27 5EB"/>
    <tag k="addr:street" v="Crown Street"/>
    <tag k="brand" v="Leaders"/>
    <tag k="brand:wikidata" v="Q111522674"/>
    <tag k="building" v="retail"/>
    <tag k="contact:website" v="https://www.leaders.co.uk/cambridgeshire/st-ives"/>
    <tag k="name" v="Leaders"/>
    <tag k="office" v="estate_agent"/>
  </way>
  <way id="304496485" version="5" timestamp="2022-10-15T23:36:13Z" changeset="127593270" uid="84263" user="Robert Whittaker">
    <nd ref="3090434994"/>
    <nd ref="5251201454"/>
    <nd ref="5251201455"/>
    <nd ref="3090434996"/>
    <nd ref="3090435004"/>
    <nd ref="3090435003"/>
    <nd ref="3090435001"/>
    <nd ref="3090434998"/>
    <nd ref="3090434995"/>
    <nd ref="3090434994"/>
    <tag k="addr:city" v="St Ives"/>
    <tag k="addr:housenumber" v="22"/>
    <tag k="addr:postcode" v="PE27 5AB"/>
    <tag k="addr:street" v="Crown Street"/>
    <tag k="brand" v="WHSmith"/>
    <tag k="brand:wikidata" v="Q1548712"/>
    <tag k="brand:wikipedia" v="en:WHSmith"/>
    <tag k="building" v="retail"/>
    <tag k="name" v="WHSmith"/>
    <tag k="shop" v="books"/>
    <tag k="website" v="https://www.whsmith.co.uk/stores/details/?StoreID=6098"/>
  </way>
  <way id="330502305" version="3" timestamp="2024-11-16T21:43:28Z" changeset="159223681" uid="11022773" user="GeoFens">
    <nd ref="2811156881"/>
    <nd ref="3374701333"/>
    <nd ref="3374701336"/>
    <nd ref="3374701334"/>
    <nd ref="5509483702"/>
    <nd ref="5509483700"/>
    <nd ref="5509483701"/>
    <nd ref="3374701335"/>
    <nd ref="2811156881"/>
    <tag k="addr:city" v="St Ives"/>
    <tag k="addr:housenumber" v="10"/>
    <tag k="addr:postcode" v="PE27 5AL"/>
    <tag k="addr:street" v="Market Hill"/>
    <tag k="building" v="commercial"/>
    <tag k="name" v="Copleys"/>
    <tag k="office" v="lawyer"/>
  </way>
  <way id="330502307" version="6" timestamp="2023-09-24T14:53:58Z" changeset="141686418" uid="231017" user="swimdb">
    <nd ref="5509483703"/>
    <nd ref="3374701337"/>
    <nd ref="3374701338"/>
    <nd ref="11215688771"/>
    <nd ref="6504929062"/>
    <nd ref="5509483703"/>
    <tag k="addr:city" v="St Ives"/>
    <tag k="addr:housenumber" v="19"/>
    <tag k="addr:postcode" v="PE27 5AL"/>
    <tag k="addr:street" v="Market Hill"/>
    <tag k="amenity" v="cafe"/>
    <tag k="building" v="yes"/>
    <tag k="fhrs:id" v="679439"/>
    <tag k="name" v="Tom's Cakes"/>
    <tag k="website" v="https://www.tomscakes.co.uk/"/>
  </way>
  <way id="342703815" version="3" timestamp="2024-05-26T12:14:55Z" changeset="151848544" uid="95856" user="john paul jones &amp; gringo">
    <nd ref="3496687036"/>
    <nd ref="3496687037"/>
    <nd ref="3496687038"/>
    <nd ref="3496687040"/>
    <nd ref="3496687043"/>
    <nd ref="3496687042"/>
    <nd ref="3496687041"/>
    <nd ref="3496687039"/>
    <nd ref="3496687035"/>
    <nd ref="3496687036"/>
    <tag k="addr:city" v="St Ives"/>
    <tag k="addr:country" v="GB"/>
    <tag k="addr:postcode" v="PE27 3ER"/>
    <tag k="addr:street" v="Constable Road"/>
    <tag k="amenity" v="doctors"/>
    <tag k="building" v="yes"/>
    <tag k="healthcare" v="doctor"/>
    <tag k="name" v="The Orchard Surgery"/>
  </way>
  <way id="375347321" version="4" timestamp="2016-08-05T11:04:07Z" changeset="41257157" uid="2983218" user="LovenOutdoors">
    <nd ref="3787160742"/>
    <nd ref="3787959590"/>
    <nd ref="3787160741"/>
    <nd ref="3787160740"/>
    <nd ref="3787160739"/>
    <nd ref="3787160738"/>
    <nd ref="3787160737"/>
    <nd ref="3787160744"/>
    <nd ref="3787160743"/>
    <nd ref="3787160742"/>
    <tag k="addr:city" v="St Ives"/>
    <tag k="addr:housename" v="Cromwell Barn"/>
    <tag k="addr:postcode" v="PE27 3LY"/>
    <tag k="addr:street" v="Burleigh Hill Farm"/>
    <tag k="building" v="barn"/>
    <tag k="name" v="Cromwell Barn"/>
  </way>
  <way id="395862845" version="2" timestamp="2018-03-27T21:53:11Z" changeset="57581919" uid="5173844" user="ndrw6">
    <nd ref="3986580436"/>
    <nd ref="3986580437"/>
    <nd ref="3986580438"/>
    <nd ref="3986580439"/>
    <nd ref="3986580436"/>
    <tag k="addr:city" v="St Ives"/>
    <tag k="addr:postcode" v="PE27 5BH"/>
    <tag k="addr:street" v="Station Road"/>
    <tag k="building" v="yes"/>
    <tag k="name" v="Girl Guides"/>
  </way>
  <way id="436554716" version="1" timestamp="2016-08-10T13:31:16Z" changeset="41367668" uid="2983218" user="LovenOutdoors">
    <nd ref="4344425092"/>
    <nd ref="4344425093"/>
    <nd ref="4344425094"/>
    <nd ref="4344425095"/>
    <nd ref="4344425092"/>
    <tag k="addr:city" v="St Ives"/>
    <tag k="addr:postcode" v="PE27 3LL"/>
    <tag k="addr:street" v="Old Ramsey Road"/>
    <tag k="building" v="commercial"/>
    <tag k="name" v="St Ives Caravans"/>
  </way>
  <way id="542757479" version="4" timestamp="2018-03-27T21:53:12Z" changeset="57581919" uid="5173844" user="ndrw6">
    <nd ref="5247185042"/>
    <nd ref="5247185045"/>
    <nd ref="5247185046"/>
    <nd ref="5247185041"/>
    <nd ref="5247185049"/>
    <nd ref="5247185047"/>
    <nd ref="5247185040"/>
    <nd ref="5247185039"/>
    <nd ref="5247185044"/>
    <nd ref="5247185043"/>
    <nd ref="5247185038"/>
    <nd ref="5247185048"/>
    <nd ref="5247185042"/>
    <tag k="addr:city" v="St Ives"/>
    <tag k="addr:housename" v="Eden Place"/>
    <tag k="addr:postcode" v="PE27 6ST"/>
    <tag k="addr:street" v="Langley Close"/>
    <tag k="building" v="apartments"/>
    <tag k="name" v="Eden Place"/>
    <tag k="note" v="drawn free hand newer than aireil pics"/>
    <tag k="source" v="free hand sketch from  survey"/>
  </way>
  <way id="543196776" version="4" timestamp="2023-10-24T14:47:09Z" changeset="143069289" uid="9451067" user="b-jazz-bot">
    <nd ref="5251201340"/>
    <nd ref="5251201341"/>
    <nd ref="5251201342"/>
    <nd ref="5251201343"/>
    <nd ref="5251201340"/>
    <tag k="addr:city" v="St Ives"/>
    <tag k="addr:housename" v="St Ives Free Church"/>
    <tag k="addr:postcode" v="PE27 5AL"/>
    <tag k="addr:street" v="Market Hill"/>
    <tag k="amenity" v="place_of_worship"/>
    <tag k="building" v="yes"/>
    <tag k="denomination" v="free_church"/>
    <tag k="name" v="Saint Ives Free Church"/>
    <tag k="phone" v="+44 1480 468535"/>
    <tag k="religion" v="christian"/>
    <tag k="website" v="https://www.stivesfreechurch.org/"/>
    <tag k="wikidata" v="Q26596464"/>
  </way>
  <way id="543196777" version="6" timestamp="2023-10-12T09:16:56Z" changeset="142469410" uid="16586381" user="KasperSFranz">
    <nd ref="5251201344"/>
    <nd ref="5251201345"/>
    <nd ref="5251201346"/>
    <nd ref="5251201347"/>
    <nd ref="5251201344"/>
    <tag k="addr:city" v="St Ives"/>
    <tag k="addr:housename" v="Golden Lion Hotel"/>
    <tag k="addr:postcode" v="PE27 5AL"/>
    <tag k="addr:street" v="Market Hill"/>
    <tag k="building" v="yes"/>
    <tag k="fhrs:id" v="917970"/>
    <tag k="name" v="Golden Lion Hotel"/>
    <tag k="phone" v="+44 1480 492 100"/>
    <tag k="tourism" v="hotel"/>
    <tag k="website" v="https://www.thegoldenlionhotel.co.uk/"/>
    <tag k="wikidata" v="Q5579637"/>
  </way>
  <way id="543196810" version="6" timestamp="2024-11-16T21:43:28Z" changeset="159223681" uid="11022773" user="GeoFens">
    <nd ref="5251201476"/>
    <nd ref="5251201477"/>
    <nd ref="5251201478"/>
    <nd ref="9733235408"/>
    <nd ref="9733235410"/>
    <nd ref="9733235409"/>
    <nd ref="5251201479"/>
    <nd ref="9733235411"/>
    <nd ref="5251201476"/>
    <tag k="addr:city" v="St Ives"/>
    <tag k="addr:country" v="GB"/>
    <tag k="addr:housenumber" v="1-2"/>
    <tag k="addr:parentstreet" v="Bridge Street"/>
    <tag k="addr:place" v="St Ives"/>
    <tag k="addr:postcode" v="PE27 5UW"/>
    <tag k="addr:street" v="Manor Mews"/>
    <tag k="alt_name" v="The River Terrace"/>
    <tag k="amenity" v="cafe"/>
    <tag k="building" v="yes"/>
    <tag k="fhrs:id" v="1051144"/>
    <tag k="name" v="River Tea Rooms"/>
    <tag k="opening_hours" v="Mo-Su 09:00-16:00"/>
    <tag k="phone" v="+44 1480 468098"/>
    <tag k="website" v="https://www.riverterracecafe.co.uk"/>
  </way>
  <way id="543196837" version="4" timestamp="2024-11-16T22:08:48Z" changeset="159224154" uid="11022773" user="GeoFens">
    <nd ref="5251201583"/>
    <nd ref="5251201584"/>
    <nd ref="5251201585"/>
    <nd ref="5251201586"/>
    <nd ref="5251201583"/>
    <tag k="addr:city" v="St Ives"/>
    <tag k="addr:housename" v="Chapel House"/>
    <tag k="addr:postcode" v="PE27 5DX"/>
    <tag k="addr:street" v="Chapel Lane"/>
    <tag k="amenity" v="restaurant"/>
    <tag k="building" v="yes"/>
    <tag k="building:levels" v="2"/>
    <tag k="cuisine" v="indian"/>
    <tag k="name" v="Bengal Spice"/>
    <tag k="outdoor_seating" v="no"/>
    <tag k="website" v="https://www.bengalspicestives.com"/>
    <tag k="website:menu" v="https://www.bengalspicestives.com/menu"/>
  </way>
  <way id="543196843" version="3" timestamp="2020-08-19T19:39:51Z" changeset="89651597" uid="379166" user="Borbus">
    <nd ref="7827448631"/>
    <nd ref="5251201609"/>
    <nd ref="5251201610"/>
    <nd ref="7827448632"/>
    <nd ref="7827448631"/>
    <tag k="addr:city" v="St Ives"/>
    <tag k="addr:housenumber" v="13"/>
    <tag k="addr:postcode" v="PE27 5AZ"/>
    <tag k="addr:street" v="Wellington Street"/>
    <tag k="amenity" v="pub"/>
    <tag k="building" v="yes"/>
    <tag k="building:levels" v="2"/>
    <tag k="name" v="Oliver Cromwell"/>
    <tag k="website" v="http://theolivercromwell.co.uk/"/>
  </way>
  <way id="543196864" version="9" timestamp="2024-12-18T20:50:11Z" changeset="160368258" uid="10420541" user="Thingummy">
    <nd ref="5251201691"/>
    <nd ref="6180849718"/>
    <nd ref="5251201378"/>
    <nd ref="5251202149"/>
    <nd ref="5251201697"/>
    <nd ref="12431722734"/>
    <nd ref="5251201694"/>
    <nd ref="5251201695"/>
    <nd ref="5251201691"/>
    <tag k="addr:city" v="St Ives"/>
    <tag k="addr:place" v="St Ives"/>
    <tag k="addr:postcode" v="PE27 5AD"/>
    <tag k="addr:street" v="The Pavement"/>
    <tag k="building" v="yes"/>
    <tag k="fhrs:id" v="446577"/>
    <tag k="name" v="Corn Exchange"/>
    <tag k="wikidata" v="Q26596472"/>
  </way>
  <way id="543196960" version="3" timestamp="2018-03-30T20:25:24Z" changeset="57672504" uid="5173844" user="ndrw6">
    <nd ref="5251202016"/>
    <nd ref="5517208436"/>
    <nd ref="5517208437"/>
    <nd ref="5251202017"/>
    <nd ref="5251202018"/>
    <nd ref="5517208435"/>
    <nd ref="5517208434"/>
    <nd ref="5251202019"/>
    <nd ref="5251202016"/>
    <tag k="addr:city" v="St Ives"/>
    <tag k="addr:postcode" v="PE27 5BY"/>
    <tag k="addr:street" v="The Waits"/>
    <tag k="amenity" v="place_of_worship"/>
    <tag k="building" v="yes"/>
    <tag k="denomination" v="methodist"/>
    <tag k="name" v="Saint Ives Methodist Church"/>
    <tag k="religion" v="christian"/>
    <tag k="website" v="http://stivesmethodistchurch.org.uk/"/>
  </way>
  <way id="543196966" version="2" timestamp="2023-08-31T08:49:13Z" changeset="140623844" uid="10420541" user="Thingummy">
    <nd ref="5251202043"/>
    <nd ref="5251202044"/>
    <nd ref="5251202045"/>
    <nd ref="5251202046"/>
    <nd ref="5251202043"/>
    <tag k="addr:city" v="St Ives"/>
    <tag k="addr:parentstreet" v="East Street"/>
    <tag k="addr:postcode" v="PE27 5PA"/>
    <tag k="addr:street" v="Crown Place"/>
    <tag k="amenity" v="place_of_worship"/>
    <tag k="building" v="chapel"/>
    <tag k="denomination" v="baptist"/>
    <tag k="fixme" v="Current use?"/>
    <tag k="heritage" v="2"/>
    <tag k="heritage:operator" v="eh"/>
    <tag k="heritage:ref" v="1310096"/>
    <tag k="name" v="Particular Baptist Meeting House"/>
    <tag k="religion" v="christian"/>
    <tag k="start_date" v="1839"/>
    <tag k="wikidata" v="Q26596549"/>
  </way>
  <way id="543196969" version="4" timestamp="2023-08-30T23:58:10Z" changeset="140611232" uid="10420541" user="Thingummy">
    <nd ref="5251202049"/>
    <nd ref="11158122280"/>
    <nd ref="5251202051"/>
    <nd ref="11158122279"/>
    <nd ref="5251202052"/>
    <nd ref="5251202050"/>
    <nd ref="5251202049"/>
    <tag k="HE_ref" v="1128730"/>
    <tag k="addr:city" v="St Ives"/>
    <tag k="addr:housename" v="Liberal Hall"/>
    <tag k="addr:parentstreet" v="Easr Street"/>
    <tag k="addr:postcode" v="PE27 5PA"/>
    <tag k="addr:street" v="Crown Yard"/>
    <tag k="addr:unit" v="1-4"/>
    <tag k="alt_name" v="Public Institution"/>
    <tag k="building" v="apartments"/>
    <tag k="heritage" v="2"/>
    <tag k="heritage:operator" v="Historic England"/>
    <tag k="listed_status" v="Grade II"/>
    <tag k="name" v="Liberal Hall"/>
  </way>
  <way id="571110815" version="8" timestamp="2024-12-12T19:50:26Z" changeset="160221476" uid="10420541" user="Thingummy">
    <nd ref="5489701796"/>
    <nd ref="5489701797"/>
    <nd ref="5489701798"/>
    <nd ref="5489701799"/>
    <nd ref="5489701796"/>
    <tag k="addr:city" v="St Ives"/>
    <tag k="addr:country" v="GB"/>
    <tag k="addr:housenumber" v="122"/>
    <tag k="addr:postcode" v="PE27 5LA"/>
    <tag k="addr:street" v="Needingworth Road"/>
    <tag k="alt_name" v="Huws Gray Ridgeons"/>
    <tag k="brand" v="Huws Gray"/>
    <tag k="brand:wikidata" v="Q16965780"/>
    <tag k="building" v="yes"/>
    <tag k="name" v="Huws Gray"/>
    <tag k="operator" v="Huws Gray Ridgeons"/>
    <tag k="shop" v="trade"/>
    <tag k="trade" v="building_supplies"/>
    <tag k="website" v="https://www.huwsgray.co.uk/storefinder/store/St+Ives-15089"/>
  </way>
  <way id="571991440" version="5" timestamp="2024-05-29T11:24:30Z" changeset="151984070" uid="95856" user="john paul jones &amp; gringo">
    <nd ref="5496002521"/>
    <nd ref="7873819201"/>
    <nd ref="5496002522"/>
    <nd ref="5496002523"/>
    <nd ref="5496002524"/>
    <nd ref="5496002525"/>
    <nd ref="5496002526"/>
    <nd ref="5496002527"/>
    <nd ref="5496002528"/>
    <nd ref="5496002529"/>
    <nd ref="5496002530"/>
    <nd ref="5496002521"/>
    <tag k="addr:city" v="St Ives"/>
    <tag k="addr:country" v="GB"/>
    <tag k="addr:place" v="St Ives"/>
    <tag k="addr:postcode" v="PE27 5RB"/>
    <tag k="addr:street" v="Ramsey Road"/>
    <tag k="building" v="commercial"/>
    <tag k="fhrs:id" v="1031432"/>
    <tag k="name" v="Slepe Hall Hotel"/>
    <tag k="tourism" v="hotel"/>
  </way>
  <way id="573325509" version="4" timestamp="2024-05-29T11:24:30Z" changeset="151984070" uid="95856" user="john paul jones &amp; gringo">
    <nd ref="5506792442"/>
    <nd ref="5506792443"/>
    <nd ref="5506792444"/>
    <nd ref="5506792445"/>
    <nd ref="5506792446"/>
    <nd ref="5506792447"/>
    <nd ref="5506792448"/>
    <nd ref="5506792449"/>
    <nd ref="5506792450"/>
    <nd ref="5506792451"/>
    <nd ref="5506792452"/>
    <nd ref="5506792453"/>
    <nd ref="5506792454"/>
    <nd ref="5506792455"/>
    <nd ref="5506792442"/>
    <tag k="addr:city" v="St Ives"/>
    <tag k="addr:country" v="GB"/>
    <tag k="addr:postcode" v="PE27 5WQ"/>
    <tag k="addr:street" v="Darwood West"/>
    <tag k="building" v="yes"/>
    <tag k="name" v="Darwood Court"/>
  </way>
  <way id="573737865" version="2" timestamp="2024-11-16T21:43:28Z" changeset="159223681" uid="11022773" user="GeoFens">
    <nd ref="3374701333"/>
    <nd ref="5509483704"/>
    <nd ref="5509483705"/>
    <nd ref="5509483706"/>
    <nd ref="5509483707"/>
    <nd ref="5509483708"/>
    <nd ref="3374701336"/>
    <nd ref="3374701333"/>
    <tag k="addr:city" v="St Ives"/>
    <tag k="addr:housenumber" v="11"/>
    <tag k="addr:postcode" v="PE27 5AL"/>
    <tag k="addr:street" v="Market Hill"/>
    <tag k="amenity" v="pub"/>
    <tag k="building" v="yes"/>
    <tag k="name" v="The Whisky Cafe"/>
    <tag k="old_name" v="The Robin Hood"/>
    <tag k="website" v="https://www.thewhiskycafe.co.uk"/>
    <tag k="wikidata" v="Q26421567"/>
  </way>
  <way id="574782440" version="4" timestamp="2024-05-29T11:24:30Z" changeset="151984070" uid="95856" user="john paul jones &amp; gringo">
    <nd ref="5516503856"/>
    <nd ref="5516503857"/>
    <nd ref="5516503858"/>
    <nd ref="5516503859"/>
    <nd ref="5516503860"/>
    <nd ref="5516503861"/>
    <nd ref="5516503862"/>
    <nd ref="5516503863"/>
    <nd ref="5516503864"/>
    <nd ref="5516503865"/>
    <nd ref="5516503866"/>
    <nd ref="5516503867"/>
    <nd ref="5516503868"/>
    <nd ref="5516503869"/>
    <nd ref="5516503870"/>
    <nd ref="5516503871"/>
    <nd ref="5516503872"/>
    <nd ref="5516503873"/>
    <nd ref="5516503874"/>
    <nd ref="5516503875"/>
    <nd ref="5516503876"/>
    <nd ref="5516503877"/>
    <nd ref="5516503878"/>
    <nd ref="5516503879"/>
    <nd ref="5516503880"/>
    <nd ref="5516503881"/>
    <nd ref="5516503882"/>
    <nd ref="5516503883"/>
    <nd ref="5516503856"/>
    <tag k="addr:city" v="St Ives"/>
    <tag k="addr:country" v="GB"/>
    <tag k="addr:postcode" v="PE27 5PH"/>
    <tag k="addr:street" v="Saint Johns Road"/>
    <tag k="building" v="yes"/>
    <tag k="name" v="Burleigh terrace"/>
  </way>
  <way id="574865401" version="4" timestamp="2024-05-29T11:24:30Z" changeset="151984070" uid="95856" user="john paul jones &amp; gringo">
    <nd ref="5517208376"/>
    <nd ref="5517208377"/>
    <nd ref="5517208378"/>
    <nd ref="5517208379"/>
    <nd ref="5517208376"/>
    <tag k="addr:city" v="St Ives"/>
    <tag k="addr:country" v="GB"/>
    <tag k="addr:postcode" v="PE27 5PS"/>
    <tag k="addr:street" v="West Street"/>
    <tag k="building" v="yes"/>
    <tag k="name" v="Butleigh Cottages"/>
  </way>
  <way id="576460686" version="2" timestamp="2022-03-08T14:15:50Z" changeset="118238610" uid="13750939" user="FortQuake">
    <nd ref="5528949684"/>
    <nd ref="9562715496"/>
    <nd ref="9562715495"/>
    <nd ref="5528949685"/>
    <nd ref="9562715494"/>
    <nd ref="9562715493"/>
    <nd ref="5528949686"/>
    <nd ref="5528949687"/>
    <nd ref="5528949688"/>
    <nd ref="5528949689"/>
    <nd ref="5528949684"/>
    <tag k="addr:city" v="St Ives"/>
    <tag k="addr:street" v="Ramsey Road"/>
    <tag k="brand" v="Costcutter"/>
    <tag k="brand:wikidata" v="Q5175072"/>
    <tag k="brand:wikipedia" v="en:Costcutter"/>
    <tag k="building" v="yes"/>
    <tag k="name" v="Costcutter"/>
    <tag k="shop" v="convenience"/>
  </way>
  <way id="660149978" version="5" timestamp="2024-05-29T11:24:30Z" changeset="151984070" uid="95856" user="john paul jones &amp; gringo">
    <nd ref="5251201691"/>
    <nd ref="5251201379"/>
    <nd ref="5251201378"/>
    <nd ref="6180849718"/>
    <nd ref="5251201691"/>
    <tag k="addr:city" v="St Ives"/>
    <tag k="addr:country" v="GB"/>
    <tag k="addr:housenumber" v="2"/>
    <tag k="addr:postcode" v="PE27 5AD"/>
    <tag k="addr:street" v="The Pavement"/>
    <tag k="addr:village" v="St Ives"/>
    <tag k="amenity" v="restaurant"/>
    <tag k="building" v="commercial"/>
    <tag k="cuisine" v="italian"/>
    <tag k="name" v="Di Rita's at No 2"/>
    <tag k="phone" v="+44 1480 465737"/>
    <tag k="website" v="https://www.diritasitalian.com/"/>
  </way>
  <way id="660153191" version="2" timestamp="2024-05-26T11:20:56Z" changeset="151846575" uid="95856" user="john paul jones &amp; gringo">
    <nd ref="6180874336"/>
    <nd ref="2796681061"/>
    <nd ref="2783069733"/>
    <nd ref="6180874337"/>
    <nd ref="6180874336"/>
    <tag k="addr:city" v="St Ives"/>
    <tag k="addr:country" v="GB"/>
    <tag k="addr:place" v="St Ives"/>
    <tag k="addr:postcode" v="PE27 6WU"/>
    <tag k="addr:street" v="Westwood Road"/>
    <tag k="building" v="yes"/>
    <tag k="fhrs:id" v="635572"/>
    <tag k="name" v="Burgess Hall Events and Conference Centre"/>
  </way>
  <way id="660155107" version="3" timestamp="2024-05-29T11:24:30Z" changeset="151984070" uid="95856" user="john paul jones &amp; gringo">
    <nd ref="6180888021"/>
    <nd ref="6180888019"/>
    <nd ref="6180888022"/>
    <nd ref="6180888023"/>
    <nd ref="6180888021"/>
    <tag k="addr:city" v="St Ives"/>
    <tag k="addr:country" v="GB"/>
    <tag k="addr:housenumber" v="6"/>
    <tag k="addr:place" v="St Ives"/>
    <tag k="addr:postcode" v="PE27 5FW"/>
    <tag k="addr:street" v="Foundry Walk"/>
    <tag k="amenity" v="cafe"/>
    <tag k="building" v="yes"/>
    <tag k="cuisine" v="coffee_shop"/>
    <tag k="fhrs:id" v="944809"/>
    <tag k="name" v="Black Robin Coffee"/>
    <tag k="phone" v="+44 1480 462023"/>
  </way>
  <way id="660158096" version="2" timestamp="2022-07-04T18:56:48Z" changeset="123204116" uid="379166" user="Borbus">
    <nd ref="6180936037"/>
    <nd ref="6180936038"/>
    <nd ref="6180936039"/>
    <nd ref="6180936040"/>
    <nd ref="5506792532"/>
    <nd ref="6180936041"/>
    <nd ref="6180936037"/>
    <tag k="addr:city" v="St Ives"/>
    <tag k="addr:housename" v="White Hart"/>
    <tag k="addr:place" v="St Ives"/>
    <tag k="addr:postcode" v="PE27 5AH"/>
    <tag k="addr:street" v="The Sheep Market"/>
    <tag k="amenity" v="pub"/>
    <tag k="building" v="yes"/>
    <tag k="fhrs:id" v="1007657"/>
    <tag k="name" v="The White Hart Inn"/>
    <tag k="phone" v="+44 1480 463275"/>
    <tag k="website" v="http://www.whitehartstives.co.uk/index"/>
    <tag k="wikidata" v="Q26455323"/>
  </way>
  <way id="694652248" version="7" timestamp="2024-05-29T11:24:30Z" changeset="151984070" uid="95856" user="john paul jones &amp; gringo">
    <nd ref="6522712550"/>
    <nd ref="6522712547"/>
    <nd ref="6522712548"/>
    <nd ref="6522712549"/>
    <nd ref="6522712550"/>
    <tag k="addr:city" v="St Ives"/>
    <tag k="addr:country" v="GB"/>
    <tag k="addr:housename" v="Abbey Retail Park"/>
    <tag k="addr:postcode" v="PE27 4AE"/>
    <tag k="addr:street" v="Harrison Way"/>
    <tag k="addr:unit" v="2"/>
    <tag k="amenity" v="cafe"/>
    <tag k="brand" v="Costa"/>
    <tag k="brand:wikidata" v="Q608845"/>
    <tag k="building" v="yes"/>
    <tag k="check_date" v="2023-12-26"/>
    <tag k="cuisine" v="coffee_shop"/>
    <tag k="drive_through" v="yes"/>
    <tag k="fhrs:id" v="1357025"/>
    <tag k="name" v="Costa"/>
    <tag k="outdoor_seating" v="yes"/>
    <tag k="takeaway" v="yes"/>
  </way>
  <way id="953735340" version="1" timestamp="2021-06-12T13:50:05Z" changeset="106254231" uid="11022773" user="GeoFens">
    <nd ref="8827436901"/>
    <nd ref="8827436902"/>
    <nd ref="8827436903"/>
    <nd ref="8827436904"/>
    <nd ref="8827436901"/>
    <tag k="addr:city" v="St Ives"/>
    <tag k="addr:housename" v="Abbey Retail Park"/>
    <tag k="addr:postcode" v="PE27 4AE"/>
    <tag k="addr:street" v="Harrison Way"/>
    <tag k="building" v="yes"/>
    <tag k="drive_through" v="no"/>
    <tag k="email" v="info@thefilling-station.com"/>
    <tag k="name" v="The Filling Station"/>
    <tag k="shop" v="alcohol"/>
    <tag k="website" v="https://www.thefilling-station.com/"/>
  </way>
  <way id="1075849925" version="4" timestamp="2023-11-03T14:30:32Z" changeset="143577303" uid="242345" user="confusedbuffalo">
    <nd ref="9866560771"/>
    <nd ref="9866560775"/>
    <nd ref="2786117289"/>
    <nd ref="2786117290"/>
    <nd ref="9866560770"/>
    <nd ref="9866560771"/>
    <tag k="addr:city" v="St Ives"/>
    <tag k="addr:housenumber" v="3"/>
    <tag k="addr:postcode" v="PE27 5BW"/>
    <tag k="addr:street" v="Library Row, Station Road"/>
    <tag k="building" v="retail"/>
    <tag k="name" v="Hambleton Bakery"/>
    <tag k="opening_hours" v="Mo-Sa 08:00-17:00"/>
    <tag k="operator" v="Hambleton Bakery"/>
    <tag k="outdoor_seating" v="no"/>
    <tag k="payment:cash" v="yes"/>
    <tag k="payment:debit_cards" v="yes"/>
    <tag k="phone" v="+44 1480 509464"/>
    <tag k="shop" v="bakery"/>
    <tag k="website" v="https://www.hambletonbakery.co.uk/"/>
  </way>
  <way id="1166069414" version="1" timestamp="2023-04-27T08:41:37Z" changeset="135416793" uid="10633286" user="Moorit">
    <nd ref="10845727624"/>
    <nd ref="10845727625"/>
    <nd ref="10845727626"/>
    <nd ref="10845727627"/>
    <nd ref="10845727624"/>
    <tag k="addr:city" v="St Ives"/>
    <tag k="addr:housename" v="The Stables"/>
    <tag k="addr:housenumber" v="Flat B"/>
    <tag k="addr:street" v="Saint Johns Road"/>
    <tag k="building" v="yes"/>
    <tag k="name" v="The Stables"/>
  </way>
  <way id="1166069415" version="1" timestamp="2023-04-27T08:41:37Z" changeset="135416793" uid="10633286" user="Moorit">
    <nd ref="10845727624"/>
    <nd ref="10845727628"/>
    <nd ref="10845727629"/>
    <nd ref="10845727625"/>
    <nd ref="10845727624"/>
    <tag k="addr:city" v="St Ives"/>
    <tag k="addr:housename" v="The Stables"/>
    <tag k="addr:housenumber" v="Flat A"/>
    <tag k="addr:street" v="Saint Johns Road"/>
    <tag k="building" v="yes"/>
    <tag k="name" v="The Stables"/>
  </way>
  <way id="1203825769" version="3" timestamp="2024-12-18T20:50:11Z" changeset="160368258" uid="10420541" user="Thingummy">
    <nd ref="11158122269"/>
    <nd ref="11158122268"/>
    <nd ref="3428787560"/>
    <nd ref="11158122271"/>
    <nd ref="5251201709"/>
    <nd ref="11158122265"/>
    <nd ref="11158122264"/>
    <nd ref="11158122274"/>
    <nd ref="11158122269"/>
    <tag k="addr:city" v="St Ives"/>
    <tag k="addr:housenumber" v="13"/>
    <tag k="addr:postcode" v="PE27 5EB"/>
    <tag k="addr:street" v="Crown Street"/>
    <tag k="amenity" v="pub"/>
    <tag k="building" v="yes"/>
    <tag k="name" v="Royal Oak"/>
    <tag k="wikidata" v="Q26421558"/>
  </way>
  <way id="1239145266" version="2" timestamp="2024-11-16T21:43:28Z" changeset="159223681" uid="11022773" user="GeoFens">
    <nd ref="11511410837"/>
    <nd ref="11511410838"/>
    <nd ref="11511410839"/>
    <nd ref="5506792544"/>
    <nd ref="11511410837"/>
    <tag k="addr:city" v="St Ives"/>
    <tag k="addr:housenumber" v="9/10"/>
    <tag k="addr:postcode" v="PE27 5AH"/>
    <tag k="addr:street" v="Sheepmarket"/>
    <tag k="amenity" v="restaurant"/>
    <tag k="brand" v="Lounges"/>
    <tag k="brand:wikidata" v="Q114313933"/>
    <tag k="building" v="retail"/>
    <tag k="cuisine" v="british"/>
    <tag k="diet:gluten_free" v="yes"/>
    <tag k="diet:vegan" v="yes"/>
    <tag k="diet:vegetarian" v="yes"/>
    <tag k="email" v="ivo@thelounges.co.uk"/>
    <tag k="name" v="Ivo Lounge"/>
    <tag k="opening_hours" v="Su-Th 09:00-23:00; Fr-Sa 09:00-24:00"/>
    <tag k="phone" v="01480 702124"/>
    <tag k="website" v="https://www.thelounges.co.uk/ivo/"/>
  </way>
  <way id="1291792877" version="1" timestamp="2024-06-12T14:55:09Z" changeset="152591536" uid="90943" user="chris_debian">
    <nd ref="11975608962"/>
    <nd ref="11975608963"/>
    <nd ref="11975608961"/>
    <nd ref="11975608960"/>
    <nd ref="11975608962"/>
    <tag k="addr:city" v="St Ives"/>
    <tag k="addr:country" v="GB"/>
    <tag k="addr:housenumber" v="3"/>
    <tag k="addr:postcode" v="PE27 3LS"/>
    <tag k="addr:street" v="Caxton Road"/>
    <tag k="building" v="industrial"/>
    <tag k="contact:phone" v="+441223516662"/>
    <tag k="name" v="Cambridge Lambretta"/>
    <tag k="shop" v="scooter"/>
    <tag k="website" v="https://www.lambretta.co.uk/"/>
  </way>
  <way id="1334600580" version="1" timestamp="2024-11-16T22:08:48Z" changeset="159224154" uid="11022773" user="GeoFens">
    <nd ref="12346835464"/>
    <nd ref="12346835465"/>
    <nd ref="12346835466"/>
    <nd ref="12346835467"/>
    <nd ref="12346835464"/>
    <tag k="addr:city" v="St Ives"/>
    <tag k="addr:housename" v="The Annexe"/>
    <tag k="addr:housenumber" v="The Old Courthouse"/>
    <tag k="addr:postcode" v="PE27 5BB"/>
    <tag k="addr:street" v="Priory Road"/>
    <tag k="building" v="yes"/>
    <tag k="email" v="info@parkerprops.co.uk"/>
    <tag k="name" v="Parker Properties"/>
    <tag k="office" v="estate_agent"/>
    <tag k="opening_hours" v="Mo-Fr 09:00-17:00"/>
    <tag k="operator" v="Angela Parker Ltd."/>
    <tag k="phone" v="+44 1480 462906"/>
    <tag k="toilets" v="yes"/>
    <tag k="website" v="https://www.parkerprops.co.uk"/>
  </way>

</osm>
