<?xml version="1.0" encoding="UTF-8"?>
<osm version="0.6" generator="Overpass API 0.7.62.4 2390de5a">
<note>The data included in this document is from www.openstreetmap.org. The data is made available under ODbL.</note>
<meta osm_base="2025-01-21T14:18:15Z" areas="2024-12-31T00:49:33Z"/>

  <node id="26385707" lat="52.2752983" lon="0.3271282" version="12" timestamp="2024-07-08T16:57:03Z" changeset="153711916" uid="21615891" user="kilroyd">
    <tag k="addr:city" v="Cambridge"/>
    <tag k="addr:country" v="GB"/>
    <tag k="addr:housenumber" v="11"/>
    <tag k="addr:postcode" v="CB25 0DU"/>
    <tag k="addr:street" v="The Causeway"/>
    <tag k="addr:village" v="Burwell"/>
    <tag k="amenity" v="post_office"/>
    <tag k="brand" v="Post Office"/>
    <tag k="brand:wikidata" v="Q1783168"/>
    <tag k="check_date:opening_hours" v="2024-07-08"/>
    <tag k="contact:website" v="https://www.postoffice.co.uk/branch-finder/0671134/burwell"/>
    <tag k="fhrs:id" v="336471"/>
    <tag k="name" v="Burwell Post Office"/>
    <tag k="opening_hours" v="Mo-Fr 09:00-17:30; Sa 09:00-12:30"/>
    <tag k="opening_hours:post_office" v="Mo-Fr 09:00-17:30; Sa 09:00-12:30"/>
    <tag k="ref:pol_id" v="465"/>
    <tag k="shop" v="gift"/>
    <tag k="source:addr" v="FHRS Open Data"/>
  </node>
  <node id="304736366" lat="52.2799663" lon="0.3247658" version="6" timestamp="2018-12-18T18:27:28Z" changeset="65589365" uid="364" user="Edward">
    <tag k="addr:housenumber" v="2"/>
    <tag k="addr:postcode" v="CB25 0BA"/>
    <tag k="addr:street" v="North Street"/>
    <tag k="amenity" v="pub"/>
    <tag k="fhrs:id" v="336466"/>
    <tag k="food" v="yes"/>
    <tag k="name" v="The Fox"/>
    <tag k="outdoor_seating" v="yes"/>
    <tag k="source:addr" v="FHRS Open Data"/>
    <tag k="wikidata" v="Q26419376"/>
  </node>
  <node id="304736391" lat="52.2844660" lon="0.3246570" version="5" timestamp="2024-01-03T12:42:02Z" changeset="145838135" uid="84263" user="Robert Whittaker">
    <tag k="addr:housenumber" v="63"/>
    <tag k="addr:postcode" v="CB25 0BA"/>
    <tag k="addr:street" v="North Street"/>
    <tag k="amenity" v="pub"/>
    <tag k="fhrs:id" v="1543521"/>
    <tag k="food" v="yes"/>
    <tag k="name" v="The Anchor"/>
    <tag k="note" v="fhrs;Id is old one, new one doesnt appear to have been assigned"/>
    <tag k="real_ale" v="4 handpumps"/>
    <tag k="real_fire" v="wood-burner"/>
    <tag k="source:addr" v="FHRS Open Data"/>
    <tag k="toilets" v="customers"/>
    <tag k="wheelchair:description" v="fairly steep access to front door, no steps"/>
  </node>
  <node id="304736523" lat="52.2712636" lon="0.3277123" version="4" timestamp="2024-01-03T12:42:02Z" changeset="145838135" uid="84263" user="Robert Whittaker">
    <tag k="addr:housenumber" v="44"/>
    <tag k="addr:postcode" v="CB25 0HD"/>
    <tag k="addr:street" v="High Street"/>
    <tag k="amenity" v="pub"/>
    <tag k="fhrs:id" v="1105973"/>
    <tag k="name" v="The Five Bells"/>
    <tag k="source:addr" v="FHRS Open Data"/>
  </node>
  <node id="2149835304" lat="52.2799769" lon="0.3250491" version="6" timestamp="2023-11-11T10:26:51Z" changeset="143893477" uid="9451067" user="b-jazz-bot">
    <tag k="addr:city" v="Burwell"/>
    <tag k="addr:housename" v="The Bengal Fox"/>
    <tag k="addr:housenumber" v="2"/>
    <tag k="addr:postcode" v="CB25 0BA"/>
    <tag k="addr:street" v="North Street"/>
    <tag k="amenity" v="restaurant"/>
    <tag k="cuisine" v="indian"/>
    <tag k="delivery" v="yes"/>
    <tag k="name" v="The Bengal Fox"/>
    <tag k="phone" v="+44 1638 605559"/>
    <tag k="takeaway" v="yes"/>
    <tag k="website" v="https://www.bengalfox.co.uk/"/>
  </node>
  <node id="2151126519" lat="52.2779883" lon="0.3261421" version="2" timestamp="2016-10-03T12:46:26Z" changeset="42602880" uid="84681" user="SK53">
    <tag k="addr:housenumber" v="40"/>
    <tag k="addr:postcode" v="CB25 0DU"/>
    <tag k="addr:street" v="The Causeway"/>
    <tag k="amenity" v="fast_food"/>
    <tag k="cuisine" v="fish_and_chips"/>
    <tag k="fhrs:id" v="336275"/>
    <tag k="name" v="The Best Plaice"/>
    <tag k="source:addr" v="FHRS Open Data"/>
  </node>
  <node id="4428894632" lat="52.2748181" lon="0.3278044" version="3" timestamp="2024-01-03T12:42:02Z" changeset="145838135" uid="84263" user="Robert Whittaker">
    <tag k="addr:housenumber" v="90"/>
    <tag k="addr:postcode" v="CB25 0HD"/>
    <tag k="addr:street" v="High Street"/>
    <tag k="amenity" v="kindergarten"/>
    <tag k="fhrs:id" v="1439774"/>
    <tag k="kindergarten" v="day_nursery"/>
    <tag k="name" v="Red House Day Nursery"/>
    <tag k="source:addr" v="http://www.redhousedaynursery.co.uk/"/>
    <tag k="url" v="http://www.redhousedaynursery.co.uk/"/>
  </node>
  <node id="5578053302" lat="52.2784192" lon="0.3253392" version="4" timestamp="2023-09-10T13:08:52Z" changeset="141062390" uid="84263" user="Robert Whittaker">
    <tag k="addr:city" v="Burwell"/>
    <tag k="addr:housename" v="Foon Lok"/>
    <tag k="addr:housenumber" v="97"/>
    <tag k="addr:postcode" v="CB25 0DU"/>
    <tag k="addr:street" v="The Causeway"/>
    <tag k="amenity" v="fast_food"/>
    <tag k="cuisine" v="chinese"/>
    <tag k="name" v="Foon Lok Chinese Take-Away"/>
    <tag k="takeaway" v="only"/>
  </node>
  <node id="5578198994" lat="52.2801293" lon="0.3242702" version="8" timestamp="2024-07-08T16:46:09Z" changeset="153711916" uid="21615891" user="kilroyd">
    <tag k="addr:city" v="Burwell"/>
    <tag k="addr:housename" v="Tina's"/>
    <tag k="addr:housenumber" v="1"/>
    <tag k="addr:postcode" v="CB25 0BA"/>
    <tag k="addr:street" v="North Street"/>
    <tag k="contact:facebook" v="https://www.facebook.com/Tinas-Burwell-504810036223254/"/>
    <tag k="name" v="Tina's"/>
    <tag k="opening_hours" v="Mo-We 09:00-17:00; Sa 09:00-16:00"/>
    <tag k="shop" v="arts_and_crafts"/>
  </node>
  <node id="5589172614" lat="52.2765640" lon="0.3272162" version="2" timestamp="2018-04-30T20:57:07Z" changeset="58567834" uid="8171533" user="1n50">
    <tag k="addr:city" v="Burwell"/>
    <tag k="addr:housenumber" v="6-8"/>
    <tag k="addr:postcode" v="CB25 0DU"/>
    <tag k="addr:street" v="The Causeway"/>
    <tag k="name" v="Idina Curtains and Blinds"/>
    <tag k="source" v="https://www.idina.co.uk/contact"/>
    <tag k="website" v="https://www.idina.co.uk/contact"/>
  </node>
  <node id="5589176647" lat="52.2767266" lon="0.3270770" version="1" timestamp="2018-04-30T21:01:42Z" changeset="58567834" uid="8171533" user="1n50">
    <tag k="addr:city" v="Burwell"/>
    <tag k="addr:housename" v="Rco Optics"/>
    <tag k="addr:housenumber" v="10A"/>
    <tag k="addr:postcode" v="CB25 0DU"/>
    <tag k="addr:street" v="The Causeway"/>
    <tag k="name" v="Ryco Optics"/>
    <tag k="website" v="https://www.rycooptics.co.uk/"/>
  </node>
  <node id="11799679593" lat="52.2746030" lon="0.3301434" version="1" timestamp="2024-04-07T12:57:52Z" changeset="149691204" uid="17340731" user="groenroos">
    <tag k="addr:city" v="Burwell"/>
    <tag k="addr:housename" v="Burwell Surgery"/>
    <tag k="addr:postcode" v="CB25 0AE"/>
    <tag k="addr:street" v="Newmarket Road"/>
    <tag k="amenity" v="pharmacy"/>
    <tag k="dispensing" v="yes"/>
    <tag k="drive_through" v="no"/>
    <tag k="healthcare" v="pharmacy"/>
    <tag k="name" v="Burwell Surgery Dispensary"/>
    <tag k="opening_hours" v="Mo-Fr 08:30-18:00"/>
    <tag k="operator" v="Burwell Surgery"/>
    <tag k="payment:american_express" v="yes"/>
    <tag k="payment:credit_cards" v="yes"/>
    <tag k="payment:debit_cards" v="yes"/>
    <tag k="payment:mastercard" v="yes"/>
    <tag k="payment:visa" v="yes"/>
    <tag k="payment:visa_debit" v="yes"/>
  </node>
  <way id="122886690" version="5" timestamp="2021-09-13T11:22:59Z" changeset="111139777" uid="5173844" user="ndrw6">
    <nd ref="1371747406"/>
    <nd ref="1371747381"/>
    <nd ref="1371747387"/>
    <nd ref="1371747402"/>
    <nd ref="1380227983"/>
    <nd ref="1371747377"/>
    <nd ref="1371747382"/>
    <nd ref="1371747404"/>
    <nd ref="1371747388"/>
    <nd ref="1371747399"/>
    <nd ref="1380228094"/>
    <nd ref="1371747405"/>
    <nd ref="1371747391"/>
    <nd ref="1371747375"/>
    <nd ref="1371747379"/>
    <nd ref="1371747380"/>
    <nd ref="1371747394"/>
    <nd ref="1371747403"/>
    <nd ref="1371747406"/>
    <tag k="addr:housenumber" v="46"/>
    <tag k="addr:postcode" v="CB25 0EF"/>
    <tag k="addr:street" v="North Street"/>
    <tag k="amenity" v="conference_centre"/>
    <tag k="fhrs:id" v="336469"/>
    <tag k="leisure" v="garden"/>
    <tag k="name" v="Burwell House"/>
    <tag k="not:addr:postcode" v="CB5 0EF"/>
    <tag k="operator" v="Cambridgeshire County Council"/>
    <tag k="source:addr" v="FHRS Open Data"/>
    <tag k="source:addr:postcode" v="http://www.burwellhouse.com/"/>
    <tag k="website" v="http://www.burwellhouse.com/"/>
  </way>
  <way id="224896008" version="7" timestamp="2024-07-15T22:33:09Z" changeset="153991674" uid="21425661" user="CjMalone">
    <nd ref="2337401887"/>
    <nd ref="2337401888"/>
    <nd ref="2337401889"/>
    <nd ref="2337401890"/>
    <nd ref="2337401887"/>
    <tag k="addr:city" v="Burwell"/>
    <tag k="addr:housenumber" v="5"/>
    <tag k="addr:postcode" v="CB25 0BA"/>
    <tag k="addr:street" v="North Street"/>
    <tag k="atm" v="yes"/>
    <tag k="brand" v="The Co-operative Food"/>
    <tag k="brand:wikidata" v="Q107617274"/>
    <tag k="building" v="yes"/>
    <tag k="check_date" v="2024-07-15"/>
    <tag k="check_date:opening_hours" v="2024-07-15"/>
    <tag k="fhrs:id" v="336468"/>
    <tag k="name" v="The Co-operative Food"/>
    <tag k="opening_hours" v="Mo-Su 07:00-22:00"/>
    <tag k="operator" v="The Co-operative Group"/>
    <tag k="operator:wikidata" v="Q117202"/>
    <tag k="shop" v="supermarket"/>
    <tag k="source:addr" v="FHRS Open Data"/>
    <tag k="website" v="https://www.coop.co.uk/store-finder/CB25-0BA/5-north-street"/>
  </way>
  <way id="225108349" version="5" timestamp="2023-12-30T00:27:44Z" changeset="145681392" uid="6816132" user="CjMalone">
    <nd ref="2339304074"/>
    <nd ref="2339304081"/>
    <nd ref="2339304083"/>
    <nd ref="2339304079"/>
    <nd ref="2339304074"/>
    <tag k="addr:city" v="Burwell"/>
    <tag k="addr:country" v="GB"/>
    <tag k="addr:housenumber" v="1"/>
    <tag k="addr:postcode" v="CB25 0AA"/>
    <tag k="addr:street" v="Ness Road"/>
    <tag k="branch" v="Burwell"/>
    <tag k="brand" v="Asda Express"/>
    <tag k="brand:wikidata" v="Q114826023"/>
    <tag k="building" v="yes"/>
    <tag k="fhrs:id" v="1665885"/>
    <tag k="name" v="Asda Express"/>
    <tag k="shop" v="convenience"/>
    <tag k="website" v="https://storelocator.asda.com/east-of-england/cambridge/ness-road"/>
  </way>
  <way id="225110563" version="5" timestamp="2021-11-21T21:24:21Z" changeset="114073720" uid="8661831" user="Colin_Jones">
    <nd ref="2339317136"/>
    <nd ref="2339317137"/>
    <nd ref="2339317138"/>
    <nd ref="2339317139"/>
    <nd ref="2339317140"/>
    <nd ref="2339317141"/>
    <nd ref="2339317136"/>
    <tag k="addr:housenumber" v="20"/>
    <tag k="addr:postcode" v="CB25 0HB"/>
    <tag k="addr:street" v="High Street"/>
    <tag k="addr:village" v="Burwell"/>
    <tag k="building" v="retail"/>
    <tag k="fhrs:id" v="336462"/>
    <tag k="name" v="Lane's Bakery"/>
    <tag k="not:addr:postcode" v="CB5 0HB"/>
    <tag k="shop" v="bakery"/>
    <tag k="source" v="survey"/>
    <tag k="source:addr" v="FHRS Open Data"/>
    <tag k="source:addr:postcode" v="code-point_open"/>
    <tag k="source:geometry" v="Bing"/>
    <tag k="wikidata" v="Q26616627"/>
  </way>
  <way id="354825977" version="13" timestamp="2023-08-06T15:59:15Z" changeset="139522080" uid="242345" user="confusedbuffalo">
    <nd ref="1175265397"/>
    <nd ref="3604926919"/>
    <nd ref="3604924563"/>
    <nd ref="3604926902"/>
    <nd ref="3604924581"/>
    <nd ref="9087753389"/>
    <nd ref="9087753388"/>
    <nd ref="3604924572"/>
    <nd ref="1175265409"/>
    <nd ref="3604926912"/>
    <nd ref="1175265397"/>
    <tag k="addr:postcode" v="CB25 0DU"/>
    <tag k="addr:street" v="The Causeway"/>
    <tag k="amenity" v="school"/>
    <tag k="capacity" v="450"/>
    <tag k="fhrs:id" v="336476"/>
    <tag k="isced:level" v="1"/>
    <tag k="max_age" v="11"/>
    <tag k="min_age" v="4"/>
    <tag k="name" v="Burwell Village College (Primary)"/>
    <tag k="not:addr:postcode" v="CB25 0DX"/>
    <tag k="phone" v="+44 1638 613103"/>
    <tag k="ref:GB:uprn" v="10002600109"/>
    <tag k="ref:edubase" v="110758"/>
    <tag k="school:trust" v="no"/>
    <tag k="school:type" v="community"/>
    <tag k="source:addr" v="url"/>
    <tag k="website" v="https://www.burwellvillage.cambs.sch.uk/"/>
    <tag k="wikidata" v="Q66223572"/>
  </way>
  <way id="445463303" version="3" timestamp="2021-11-21T21:24:21Z" changeset="114073720" uid="8661831" user="Colin_Jones">
    <nd ref="4428884767"/>
    <nd ref="4428884769"/>
    <nd ref="4428884766"/>
    <nd ref="4428884771"/>
    <nd ref="4428884770"/>
    <nd ref="4428884768"/>
    <nd ref="4428884767"/>
    <tag k="addr:housenumber" v="26"/>
    <tag k="addr:postcode" v="CB25 0HB"/>
    <tag k="addr:street" v="High Street"/>
    <tag k="building" v="retail"/>
    <tag k="fhrs:id" v="336463"/>
    <tag k="name" v="Jack Hurrell"/>
    <tag k="not:addr:postcode" v="CB5 0HB"/>
    <tag k="shop" v="butcher"/>
    <tag k="source" v="survey"/>
    <tag k="source:addr" v="FHRS Open Data"/>
    <tag k="source:addr:postcode" v="code-point_open"/>
    <tag k="source:geometry" v="Bing"/>
  </way>
  <way id="445464266" version="5" timestamp="2024-04-07T12:57:52Z" changeset="149691204" uid="17340731" user="groenroos">
    <nd ref="4428897781"/>
    <nd ref="11799665320"/>
    <nd ref="11799665319"/>
    <nd ref="11799665296"/>
    <nd ref="11799665323"/>
    <nd ref="4428897787"/>
    <nd ref="4428897777"/>
    <nd ref="4428897788"/>
    <nd ref="11799665298"/>
    <nd ref="4428897889"/>
    <nd ref="4428897782"/>
    <nd ref="11799665322"/>
    <nd ref="11799665321"/>
    <nd ref="11799665318"/>
    <nd ref="4428897781"/>
    <tag k="addr:city" v="Burwell"/>
    <tag k="addr:postcode" v="CB25 0AE"/>
    <tag k="addr:street" v="Newmarket Road"/>
    <tag k="amenity" v="doctors"/>
    <tag k="building" v="yes"/>
    <tag k="email" v="admin.burwellsurgery@nhs.net"/>
    <tag k="healthcare" v="doctor"/>
    <tag k="healthcare:speciality" v="general"/>
    <tag k="name" v="Burwell Surgery"/>
    <tag k="opening_hours" v="Mo-Fr 08:30-18:00"/>
    <tag k="phone" v="+44 1638 741234"/>
    <tag k="website" v="https://www.theburwellsurgery.co.uk/"/>
  </way>
  <way id="445470983" version="1" timestamp="2016-10-03T13:05:46Z" changeset="42602880" uid="84681" user="SK53">
    <nd ref="4428953778"/>
    <nd ref="4428953774"/>
    <nd ref="4428953779"/>
    <nd ref="4428953780"/>
    <nd ref="4428953775"/>
    <nd ref="4428953776"/>
    <nd ref="4428953778"/>
    <tag k="addr:housenumber" v="21"/>
    <tag k="addr:postcode" v="CB25 0DU"/>
    <tag k="addr:street" v="The Causeway"/>
    <tag k="amenity" v="social_club"/>
    <tag k="building" v="social_club"/>
    <tag k="fhrs:id" v="336472"/>
    <tag k="name" v="Burwell Ex-Serviceman's Club"/>
    <tag k="source" v="survey"/>
    <tag k="source:addr" v="FHRS Open Data"/>
    <tag k="source:geometry" v="Bing"/>
  </way>
  <way id="454865801" version="2" timestamp="2023-07-23T11:47:23Z" changeset="138890089" uid="19931229" user="Linfindel">
    <nd ref="4513564934"/>
    <nd ref="4513564935"/>
    <nd ref="4513564936"/>
    <nd ref="4513564937"/>
    <nd ref="4513564934"/>
    <tag k="addr:city" v="Burwell"/>
    <tag k="addr:housenumber" v="4"/>
    <tag k="addr:postcode" v="CB25 0BA"/>
    <tag k="addr:street" v="North Street"/>
    <tag k="area" v="yes"/>
    <tag k="brand" v="Nisa Local"/>
    <tag k="brand:wikidata" v="Q16999069"/>
    <tag k="building" v="yes"/>
    <tag k="name" v="Nisa Local"/>
    <tag k="shop" v="convenience"/>
  </way>
  <way id="583457217" version="6" timestamp="2023-11-11T10:26:29Z" changeset="143893444" uid="9451067" user="b-jazz-bot">
    <nd ref="5578076248"/>
    <nd ref="5578076246"/>
    <nd ref="5578076245"/>
    <nd ref="5578076247"/>
    <nd ref="5578076248"/>
    <tag k="addr:city" v="Burwell"/>
    <tag k="addr:housename" v="Burwell Dental Surgery"/>
    <tag k="addr:housenumber" v="25"/>
    <tag k="addr:postcode" v="CB25 0AA"/>
    <tag k="addr:street" v="Ness Road"/>
    <tag k="amenity" v="dentist"/>
    <tag k="building" v="yes"/>
    <tag k="healthcare" v="dentist"/>
    <tag k="name" v="Burwell Dental Surgery"/>
    <tag k="opening_hours" v="Mo-We 08:30-17:00;Th 08:30-18:00;Fr 08:30-16:00"/>
    <tag k="website" v="https://www.burwelldental.co.uk/"/>
  </way>
  <way id="583458162" version="5" timestamp="2021-12-30T20:24:23Z" changeset="115581655" uid="8661831" user="Colin_Jones">
    <nd ref="5578086353"/>
    <nd ref="9380231296"/>
    <nd ref="9380231295"/>
    <nd ref="5578086352"/>
    <nd ref="5578086353"/>
    <tag k="addr:city" v="Burwell"/>
    <tag k="addr:housename" v="Morris Armitage"/>
    <tag k="addr:housenumber" v="63"/>
    <tag k="addr:postcode" v="CB25 0HD"/>
    <tag k="addr:street" v="High Street"/>
    <tag k="building" v="commercial"/>
    <tag k="description" v="Estate Agent"/>
    <tag k="name" v="Morris Armitage"/>
  </way>
  <way id="583463808" version="6" timestamp="2024-02-19T09:08:55Z" changeset="147640383" uid="21043298" user="wolftroupe">
    <nd ref="5578144325"/>
    <nd ref="5578144327"/>
    <nd ref="5578772152"/>
    <nd ref="5578144326"/>
    <nd ref="5578144325"/>
    <tag k="addr:city" v="Burwell"/>
    <tag k="addr:housename" v="Village Green Coffee Shop"/>
    <tag k="addr:housenumber" v="105"/>
    <tag k="addr:postcode" v="CB25 0DU"/>
    <tag k="addr:street" v="The Causeway"/>
    <tag k="amenity" v="cafe"/>
    <tag k="building" v="commercial"/>
    <tag k="cuisine" v="coffee_shop"/>
    <tag k="internet_access" v="wlan"/>
    <tag k="internet_access:fee" v="customers"/>
    <tag k="name" v="Village Green Coffee Shop"/>
    <tag k="opening_hours" v="Tu-Fr 08:30-16:30; Sa 09:00-16:00; Su 10:00-14:00"/>
    <tag k="outdoor_seating" v="yes"/>
    <tag k="website" v="https://www.villagegreencoffee.com"/>
  </way>
  <way id="982192405" version="3" timestamp="2022-09-01T16:19:23Z" changeset="125663296" uid="616774" user="mueschel">
    <nd ref="9083749901"/>
    <nd ref="9083749898"/>
    <nd ref="9083749899"/>
    <nd ref="9083749900"/>
    <nd ref="9083749901"/>
    <tag k="addr:city" v="Burwell"/>
    <tag k="addr:housename" v="Prestige Fire Safety Ltd."/>
    <tag k="addr:housenumber" v="Unit 7"/>
    <tag k="addr:place" v="Meadow View Industrial Estate"/>
    <tag k="addr:postcode" v="CB25 0GH"/>
    <tag k="addr:street" v="Reach Road"/>
    <tag k="building" v="office"/>
    <tag k="description" v="Fire door survey;Ansul systems;Kitchen suppression system;Fire Hydrant Testing;Security Doors;Fire Stopping;Compartmentation surveys;extinguishers;training;risk assessment;fire alarms"/>
    <tag k="image" v="https://www.prestigefiresafety.com/"/>
    <tag k="name" v="Prestige Fire Safety Ltd."/>
  </way>
  <way id="1079226163" version="1" timestamp="2022-07-17T13:15:12Z" changeset="123720848" uid="15967999" user="SimpleBob345">
    <nd ref="9893259778"/>
    <nd ref="9893259779"/>
    <nd ref="9893259780"/>
    <nd ref="9893259781"/>
    <nd ref="9893259782"/>
    <nd ref="9893259783"/>
    <nd ref="9893259784"/>
    <nd ref="9893259785"/>
    <nd ref="9893259786"/>
    <nd ref="9893259787"/>
    <nd ref="9893259778"/>
    <tag k="addr:city" v="Burwell"/>
    <tag k="addr:housename" v="The Old Manse"/>
    <tag k="addr:housenumber" v="49"/>
    <tag k="addr:postcode" v="CB25 0HD"/>
    <tag k="addr:street" v="High Street"/>
    <tag k="building" v="house"/>
    <tag k="building:levels" v="2"/>
    <tag k="building:levels:underground" v="1"/>
    <tag k="name" v="The Old Manse"/>
  </way>
  <way id="1136043501" version="3" timestamp="2023-03-30T22:34:47Z" changeset="134322185" uid="3999" user="BarryMyles">
    <nd ref="10590009962"/>
    <nd ref="10590009963"/>
    <nd ref="10590009964"/>
    <nd ref="10590009965"/>
    <nd ref="10590009966"/>
    <nd ref="10590009967"/>
    <nd ref="10590009962"/>
    <tag k="addr:city" v="Burwell"/>
    <tag k="addr:postcode" v="CB25 0DU"/>
    <tag k="addr:street" v="The Causeway"/>
    <tag k="building" v="yes"/>
    <tag k="name" v="Burwell Telephone Exchange"/>
    <tag k="not:addr:postcode" v="CB5 0DU"/>
    <tag k="operator" v="Openreach"/>
    <tag k="operator:wikidata" v="Q7096543"/>
    <tag k="ref" v="EABWL"/>
    <tag k="telecom" v="exchange"/>
  </way>
  <way id="1285912353" version="1" timestamp="2024-05-23T11:25:19Z" changeset="151718558" uid="5173844" user="ndrw6">
    <nd ref="11928142157"/>
    <nd ref="11928142156"/>
    <nd ref="11928142155"/>
    <nd ref="11928142154"/>
    <nd ref="11928142157"/>
    <tag k="addr:city" v="Burwell"/>
    <tag k="addr:housename" v="Audi Specialists"/>
    <tag k="addr:housenumber" v="40"/>
    <tag k="addr:postcode" v="CB25 0DU"/>
    <tag k="addr:street" v="The Causeway"/>
    <tag k="brand" v="Audi"/>
    <tag k="brand:wikidata" v="Q23317"/>
    <tag k="building" v="yes"/>
    <tag k="name" v="Audi Specialists"/>
    <tag k="opening_hours" v="Mo-Fr 08:30-18:00; Sa 09:30-14:00"/>
    <tag k="payment:credit_cards" v="yes"/>
    <tag k="payment:debit_cards" v="yes"/>
    <tag k="service:vehicle:MOT" v="yes"/>
    <tag k="service:vehicle:car_repair" v="yes"/>
    <tag k="service:vehicle:used_car_sales" v="yes"/>
    <tag k="shop" v="car_repair"/>
    <tag k="website" v="https://www.audi-specialists.co.uk"/>
  </way>

</osm>
