<?xml version="1.0" encoding="UTF-8"?>
<osm version="0.6" generator="Overpass API 0.7.62.4 2390de5a">
<note>The data included in this document is from www.openstreetmap.org. The data is made available under ODbL.</note>
<meta osm_base="2025-01-20T03:10:29Z" areas="2024-12-31T00:49:33Z"/>

  <way id="155194950" version="3" timestamp="2017-06-16T11:07:12Z" changeset="49588263" uid="5844915" user="University Of Cambridge Space Data Team">
    <nd ref="1676123291"/>
    <nd ref="1676123306"/>
    <nd ref="1676123343"/>
    <nd ref="1676123334"/>
    <nd ref="1676123291"/>
    <tag k="addr:city" v="Cambridge"/>
    <tag k="addr:street" v="Huntingdon Road"/>
    <tag k="building" v="yes"/>
    <tag k="name" v="Stables and Pens (Research Station)"/>
    <tag k="operator" v="University of Cambridge"/>
    <tag k="ref" v="F079"/>
  </way>
  <way id="155194951" version="3" timestamp="2017-06-16T11:07:11Z" changeset="49588263" uid="5844915" user="University Of Cambridge Space Data Team">
    <nd ref="1676123363"/>
    <nd ref="1676123359"/>
    <nd ref="1676123337"/>
    <nd ref="1676123341"/>
    <nd ref="4918746686"/>
    <nd ref="4918746687"/>
    <nd ref="4918746685"/>
    <nd ref="1676123363"/>
    <tag k="addr:city" v="Cambridge"/>
    <tag k="addr:street" v="Huntingdon Road"/>
    <tag k="building" v="yes"/>
    <tag k="name" v="Horse Pens (Research Station)"/>
    <tag k="operator" v="University of Cambridge"/>
    <tag k="ref" v="F178"/>
  </way>
  <way id="155194965" version="3" timestamp="2017-06-16T11:07:12Z" changeset="49588263" uid="5844915" user="University Of Cambridge Space Data Team">
    <nd ref="1676123289"/>
    <nd ref="1676123272"/>
    <nd ref="1676123264"/>
    <nd ref="1676123276"/>
    <nd ref="1676123289"/>
    <tag k="addr:city" v="Cambridge"/>
    <tag k="addr:street" v="Huntingdon Road"/>
    <tag k="building" v="yes"/>
    <tag k="name" v="Pig Farrowing Unit (Research Station)"/>
    <tag k="operator" v="University of Cambridge"/>
    <tag k="ref" v="F184"/>
  </way>
  <way id="155194972" version="4" timestamp="2018-10-31T16:30:10Z" changeset="64051349" uid="281267" user="smb1001">
    <nd ref="1676123250"/>
    <nd ref="1676123230"/>
    <nd ref="1676123218"/>
    <nd ref="1676123234"/>
    <nd ref="1676123250"/>
    <tag k="addr:city" v="Cambridge"/>
    <tag k="addr:postcode" v="CB3 0JH"/>
    <tag k="addr:street" v="Huntingdon Road"/>
    <tag k="building" v="yes"/>
    <tag k="name" v="Equine Fertility Unit (Research Station)"/>
    <tag k="operator" v="University of Cambridge"/>
    <tag k="ref" v="F187"/>
  </way>
  <way id="155194973" version="3" timestamp="2017-06-16T11:07:12Z" changeset="49588263" uid="5844915" user="University Of Cambridge Space Data Team">
    <nd ref="1676123278"/>
    <nd ref="1676123283"/>
    <nd ref="1676123256"/>
    <nd ref="1676123248"/>
    <nd ref="1676123259"/>
    <nd ref="1676123278"/>
    <tag k="addr:city" v="Cambridge"/>
    <tag k="addr:street" v="Huntingdon Road"/>
    <tag k="building" v="yes"/>
    <tag k="name" v="New Stock Pen (Research Station)"/>
    <tag k="operator" v="University of Cambridge"/>
    <tag k="ref" v="F323"/>
  </way>
  <way id="155194974" version="3" timestamp="2017-06-16T11:07:12Z" changeset="49588263" uid="5844915" user="University Of Cambridge Space Data Team">
    <nd ref="1676123329"/>
    <nd ref="1676123340"/>
    <nd ref="1676123355"/>
    <nd ref="1676123339"/>
    <nd ref="1676123329"/>
    <tag k="addr:city" v="Cambridge"/>
    <tag k="addr:street" v="Huntingdon Road"/>
    <tag k="building" v="yes"/>
    <tag k="name" v="Feed Store and Garaging (Research Station)"/>
    <tag k="operator" v="University of Cambridge"/>
    <tag k="ref" v="F078"/>
  </way>
  <way id="155194977" version="4" timestamp="2018-10-31T16:30:10Z" changeset="64051349" uid="281267" user="smb1001">
    <nd ref="1676123312"/>
    <nd ref="1676123280"/>
    <nd ref="1676123267"/>
    <nd ref="1676123319"/>
    <nd ref="1676123332"/>
    <nd ref="1676123316"/>
    <nd ref="1676123312"/>
    <tag k="addr:city" v="Cambridge"/>
    <tag k="addr:postcode" v="CB3 0JX"/>
    <tag k="addr:street" v="Huntingdon Road"/>
    <tag k="building" v="yes"/>
    <tag k="name" v="Animal Recovery Block C (Research Station)"/>
    <tag k="operator" v="University of Cambridge"/>
    <tag k="ref" v="F176"/>
  </way>
  <way id="158900357" version="5" timestamp="2024-07-15T22:33:09Z" changeset="153991674" uid="21425661" user="CjMalone">
    <nd ref="1710232878"/>
    <nd ref="10069610840"/>
    <nd ref="1710232884"/>
    <nd ref="1710232872"/>
    <nd ref="1710232873"/>
    <nd ref="1710232878"/>
    <tag k="addr:housenumber" v="120"/>
    <tag k="addr:postcode" v="CB3 0LW"/>
    <tag k="addr:street" v="Girton Road"/>
    <tag k="brand" v="Co-op Food"/>
    <tag k="brand:wikidata" v="Q3277439"/>
    <tag k="building" v="supermarket"/>
    <tag k="check_date" v="2024-07-15"/>
    <tag k="check_date:opening_hours" v="2024-07-15"/>
    <tag k="name" v="Co-op Food"/>
    <tag k="opening_hours" v="Mo-Su 07:00-22:00"/>
    <tag k="operator" v="The Co-operative Group"/>
    <tag k="operator:wikidata" v="Q117202"/>
    <tag k="shop" v="supermarket"/>
    <tag k="website" v="https://www.coop.co.uk/store-finder/CB3-0LW/120-girton-road"/>
    <tag k="wheelchair" v="limited"/>
  </way>
  <way id="159256001" version="6" timestamp="2022-10-03T15:55:39Z" changeset="126945648" uid="6476359" user="NSiecw">
    <nd ref="1713491168"/>
    <nd ref="1713491198"/>
    <nd ref="1713491201"/>
    <nd ref="2808074829"/>
    <nd ref="1713491221"/>
    <nd ref="1713491229"/>
    <nd ref="2808074830"/>
    <nd ref="1713491209"/>
    <nd ref="1713491215"/>
    <nd ref="1713491195"/>
    <nd ref="1713491189"/>
    <nd ref="1713491183"/>
    <nd ref="1713491172"/>
    <nd ref="1713491168"/>
    <tag k="addr:city" v="Cambridge"/>
    <tag k="addr:housename" v="The George"/>
    <tag k="addr:housenumber" v="71"/>
    <tag k="addr:postcode" v="CB3 0QD"/>
    <tag k="addr:street" v="High Street"/>
    <tag k="addr:village" v="Girton"/>
    <tag k="amenity" v="pub"/>
    <tag k="building" v="yes"/>
    <tag k="name" v="George Inn"/>
    <tag k="wheelchair" v="limited"/>
  </way>
  <way id="159256015" version="7" timestamp="2023-10-10T07:57:23Z" changeset="142380410" uid="82438" user="growse">
    <nd ref="1713491592"/>
    <nd ref="1713491585"/>
    <nd ref="1713491583"/>
    <nd ref="8542101962"/>
    <nd ref="1713491579"/>
    <nd ref="1713491575"/>
    <nd ref="8542101963"/>
    <nd ref="1713491560"/>
    <nd ref="1713491554"/>
    <nd ref="1713491567"/>
    <nd ref="1713491571"/>
    <nd ref="1713491577"/>
    <nd ref="1713491573"/>
    <nd ref="1713491581"/>
    <nd ref="8542101964"/>
    <nd ref="8542101965"/>
    <nd ref="1713491587"/>
    <nd ref="1713491589"/>
    <nd ref="1713491588"/>
    <nd ref="1713491590"/>
    <nd ref="8542101967"/>
    <nd ref="8542101968"/>
    <nd ref="8542101969"/>
    <nd ref="8542101966"/>
    <nd ref="1713491592"/>
    <tag k="addr:city" v="Cambridge"/>
    <tag k="addr:housename" v="Old Crown"/>
    <tag k="addr:housenumber" v="89"/>
    <tag k="addr:postcode" v="CB3 0QD"/>
    <tag k="addr:street" v="High Street"/>
    <tag k="addr:village" v="Girton"/>
    <tag k="amenity" v="pub"/>
    <tag k="building" v="yes"/>
    <tag k="building:levels" v="1"/>
    <tag k="name" v="Old Crown"/>
    <tag k="opening_hours" v="Tu-Th,Su 12:00-22:30; Fr,Sa 12:00-23:00"/>
    <tag k="roof:levels" v="1"/>
    <tag k="roof:material" v="thatch"/>
  </way>
  <way id="166255484" version="2" timestamp="2021-04-02T13:18:43Z" changeset="102196428" uid="281267" user="smb1001">
    <nd ref="1777158954"/>
    <nd ref="1777158948"/>
    <nd ref="1777158932"/>
    <nd ref="1777158967"/>
    <nd ref="1777158987"/>
    <nd ref="1777158971"/>
    <nd ref="1777158976"/>
    <nd ref="1777158960"/>
    <nd ref="1777158954"/>
    <tag k="addr:city" v="Cambridge"/>
    <tag k="addr:housenumber" v="Unit 6"/>
    <tag k="addr:postcode" v="CB3 0NA"/>
    <tag k="addr:street" v="Welbrook Court"/>
    <tag k="building" v="yes"/>
    <tag k="name" v="Lambert Smith Hampton"/>
  </way>
  <way id="166255485" version="3" timestamp="2021-04-02T14:54:30Z" changeset="102201109" uid="281267" user="smb1001">
    <nd ref="8586843300"/>
    <nd ref="8586843302"/>
    <nd ref="1777159020"/>
    <nd ref="1777159050"/>
    <nd ref="1777159053"/>
    <nd ref="1777159051"/>
    <nd ref="1777159052"/>
    <nd ref="1777159048"/>
    <nd ref="1777159047"/>
    <nd ref="1777159045"/>
    <nd ref="1777159023"/>
    <nd ref="1777159043"/>
    <nd ref="8586843300"/>
    <tag k="addr:city" v="Cambridge"/>
    <tag k="addr:housenumber" v="Unit 4"/>
    <tag k="addr:postcode" v="CB3 0NA"/>
    <tag k="addr:street" v="Welbrook Court"/>
    <tag k="building" v="yes"/>
    <tag k="name" v="Anatune"/>
  </way>
  <way id="171753914" version="4" timestamp="2019-02-16T10:47:21Z" changeset="67250645" uid="5173844" user="ndrw6">
    <nd ref="1827346196"/>
    <nd ref="1827346238"/>
    <nd ref="1827346236"/>
    <nd ref="1827346237"/>
    <nd ref="1827346196"/>
    <tag k="addr:city" v="Cambridge"/>
    <tag k="addr:housenumber" v="144"/>
    <tag k="addr:postcode" v="CB3 0ND"/>
    <tag k="addr:street" v="Thornton Road"/>
    <tag k="building" v="residential"/>
    <tag k="name" v="Finches"/>
    <tag k="tourism" v="guest_house"/>
  </way>
  <way id="171764951" version="4" timestamp="2023-01-27T00:43:47Z" changeset="131753180" uid="3999" user="BarryMyles">
    <nd ref="1827442904"/>
    <nd ref="1827443316"/>
    <nd ref="1827442910"/>
    <nd ref="1827443324"/>
    <nd ref="1827443213"/>
    <nd ref="1827443323"/>
    <nd ref="1827442864"/>
    <nd ref="1827443325"/>
    <nd ref="1827442922"/>
    <nd ref="1827442858"/>
    <nd ref="1827442862"/>
    <nd ref="1827442869"/>
    <nd ref="1827442876"/>
    <nd ref="1827442900"/>
    <nd ref="1827442904"/>
    <tag k="addr:city" v="Cambridge"/>
    <tag k="addr:postcode" v="CB3 0LG"/>
    <tag k="addr:street" v="Huntingdon Road"/>
    <tag k="building" v="yes"/>
    <tag k="name" v="Girton Telephone Exchange"/>
    <tag k="operator" v="Openreach"/>
    <tag k="operator:wikidata" v="Q7096543"/>
    <tag k="ref" v="EAGIR"/>
    <tag k="telecom" v="exchange"/>
  </way>
  <way id="238869169" version="6" timestamp="2023-11-11T10:26:02Z" changeset="143893444" uid="9451067" user="b-jazz-bot">
    <nd ref="2466675297"/>
    <nd ref="2466675298"/>
    <nd ref="2466675299"/>
    <nd ref="2466675300"/>
    <nd ref="2466675301"/>
    <nd ref="2466675302"/>
    <nd ref="2466675303"/>
    <nd ref="2466675304"/>
    <nd ref="2466675297"/>
    <tag k="addr:city" v="Cambridge"/>
    <tag k="addr:housenumber" v="1a"/>
    <tag k="addr:postcode" v="CB3 0PA"/>
    <tag k="addr:street" v="Pepys Way"/>
    <tag k="addr:village" v="Girton"/>
    <tag k="amenity" v="doctors"/>
    <tag k="building" v="yes"/>
    <tag k="name" v="Huntingdon Road Surgery, Girton branch"/>
    <tag k="website" v="https://www.huntingdonroadsurgery.co.uk/"/>
  </way>
  <way id="275654424" version="5" timestamp="2023-10-09T17:48:30Z" changeset="142359892" uid="82438" user="growse">
    <nd ref="2803123902"/>
    <nd ref="2803123907"/>
    <nd ref="2803123903"/>
    <nd ref="2803123916"/>
    <nd ref="2803123924"/>
    <nd ref="2803123919"/>
    <nd ref="2803123918"/>
    <nd ref="2803123914"/>
    <nd ref="2803123930"/>
    <nd ref="2803123925"/>
    <nd ref="2803123931"/>
    <nd ref="2803123926"/>
    <nd ref="2803123923"/>
    <nd ref="2803123922"/>
    <nd ref="2803123927"/>
    <nd ref="2803123921"/>
    <nd ref="2803123917"/>
    <nd ref="2803123915"/>
    <nd ref="2803123912"/>
    <nd ref="2803123911"/>
    <nd ref="2803123904"/>
    <nd ref="2803123908"/>
    <nd ref="2803123902"/>
    <tag k="addr:city" v="Cambridge"/>
    <tag k="addr:postcode" v="CB3 0QE"/>
    <tag k="addr:street" v="Dodford Lane"/>
    <tag k="addr:village" v="Girton"/>
    <tag k="building" v="sports_centre"/>
    <tag k="name" v="Girton Golf Club Clubhouse"/>
  </way>
  <way id="276185735" version="4" timestamp="2024-03-26T21:22:35Z" changeset="149196201" uid="11212507" user="danieldegroot2">
    <nd ref="2808074843"/>
    <nd ref="2808074845"/>
    <nd ref="2808074846"/>
    <nd ref="2808074844"/>
    <nd ref="2808074843"/>
    <tag k="addr:city" v="Cambridge"/>
    <tag k="addr:housename" v="Physic"/>
    <tag k="addr:postcode" v="CB3 0QH"/>
    <tag k="addr:street" v="Oakington Road"/>
    <tag k="building" v="yes"/>
    <tag k="description" v="Complementary medical centre"/>
    <tag k="name" v="Physic (Oakington Therapy Centre)"/>
  </way>
  <way id="370695821" version="2" timestamp="2020-07-26T14:01:23Z" changeset="88521896" uid="10494963" user="j0hnj0nes">
    <nd ref="3743912408"/>
    <nd ref="3743912412"/>
    <nd ref="3743912417"/>
    <nd ref="3743912424"/>
    <nd ref="3743912408"/>
    <tag k="addr:city" v="Cambridge"/>
    <tag k="addr:postcode" v="CB3 0LF"/>
    <tag k="addr:street" v="Whitehouse Lane"/>
    <tag k="building" v="pavilion"/>
    <tag k="building:levels" v="1"/>
    <tag k="height" v="3"/>
    <tag k="name" v="Anglia Ruskin University Pavilion"/>
  </way>
  <way id="500946414" version="2" timestamp="2018-10-31T16:30:11Z" changeset="64051349" uid="281267" user="smb1001">
    <nd ref="4918746688"/>
    <nd ref="4918746689"/>
    <nd ref="4918746690"/>
    <nd ref="4918746691"/>
    <nd ref="4918746692"/>
    <nd ref="4918746693"/>
    <nd ref="4918746688"/>
    <tag k="addr:city" v="Cambridge"/>
    <tag k="addr:housenumber" v="301"/>
    <tag k="addr:postcode" v="CB3 0JH"/>
    <tag k="addr:street" v="Huntingdon Road"/>
    <tag k="building" v="yes"/>
    <tag k="name" v="301 Huntingdon Road"/>
    <tag k="operator" v="University of Cambridge"/>
    <tag k="ref" v="F026"/>
  </way>
  <way id="500946415" version="2" timestamp="2018-10-31T16:30:10Z" changeset="64051349" uid="281267" user="smb1001">
    <nd ref="4918746694"/>
    <nd ref="4918746695"/>
    <nd ref="4918746692"/>
    <nd ref="4918746693"/>
    <nd ref="4918746694"/>
    <tag k="addr:city" v="Cambridge"/>
    <tag k="addr:housenumber" v="303"/>
    <tag k="addr:postcode" v="CB3 0JH"/>
    <tag k="addr:street" v="Huntingdon Road"/>
    <tag k="building" v="yes"/>
    <tag k="name" v="303 Huntingdon Road"/>
    <tag k="operator" v="University of Cambridge"/>
    <tag k="ref" v="F027"/>
  </way>
  <way id="523785732" version="3" timestamp="2023-08-01T22:23:54Z" changeset="139320542" uid="1102246" user="jtn20">
    <nd ref="5098425434"/>
    <nd ref="5098424975"/>
    <nd ref="5098424997"/>
    <nd ref="5098425410"/>
    <nd ref="5098425406"/>
    <nd ref="5098425017"/>
    <nd ref="5098425434"/>
    <tag k="addr:city" v="Cambridge"/>
    <tag k="addr:housenumber" v="103"/>
    <tag k="addr:postcode" v="CB3 0QQ"/>
    <tag k="addr:street" v="High Street"/>
    <tag k="addr:village" v="Girton"/>
    <tag k="amenity" v="place_of_worship"/>
    <tag k="building" v="yes"/>
    <tag k="denomination" v="baptist"/>
    <tag k="name" v="Girton Baptist Church"/>
    <tag k="religion" v="christian"/>
    <tag k="roof:shape" v="gabled"/>
  </way>
  <way id="543451089" version="2" timestamp="2024-01-18T13:54:37Z" changeset="146406765" uid="10420541" user="Thingummy">
    <nd ref="5253603804"/>
    <nd ref="5253603805"/>
    <nd ref="5253603806"/>
    <nd ref="5253603807"/>
    <nd ref="5253603808"/>
    <nd ref="5253603809"/>
    <nd ref="5253603804"/>
    <tag k="addr:city" v="Cambridge"/>
    <tag k="addr:housename" v="Criterion House"/>
    <tag k="addr:postcode" v="CB3 0QH"/>
    <tag k="addr:street" v="Oakington Road"/>
    <tag k="building" v="industrial"/>
    <tag k="name" v="Criterion Audio"/>
    <tag k="website" v="https://criterionaudio.com/contact/"/>
  </way>
  <way id="636104255" version="3" timestamp="2022-02-22T22:18:30Z" changeset="117746080" uid="10633286" user="Moorit">
    <nd ref="5998992386"/>
    <nd ref="5998992385"/>
    <nd ref="5998992384"/>
    <nd ref="5998992383"/>
    <nd ref="5998992386"/>
    <tag k="addr:city" v="Cambridge"/>
    <tag k="addr:postcode" v="CB3 0JJ"/>
    <tag k="addr:street" v="Huntingdon Road"/>
    <tag k="building" v="yes"/>
    <tag k="name" v="Catchall Farm Cottages"/>
  </way>
  <way id="640386509" version="7" timestamp="2023-05-29T14:52:58Z" changeset="136704663" uid="1102246" user="jtn20">
    <nd ref="6032839345"/>
    <nd ref="6032839344"/>
    <nd ref="6032839343"/>
    <nd ref="6032839341"/>
    <nd ref="6032839340"/>
    <nd ref="6032839342"/>
    <nd ref="6032839338"/>
    <nd ref="6032839339"/>
    <nd ref="6032839345"/>
    <tag k="addr:housenumber" v="127-179"/>
    <tag k="addr:postcode" v="CB3 1BH"/>
    <tag k="addr:street" v="Rudduck Way"/>
    <tag k="building" v="residential"/>
    <tag k="building:levels" v="5"/>
    <tag k="building:levels:underground" v="1"/>
    <tag k="name" v="The Oak Building"/>
  </way>
  <way id="675122441" version="2" timestamp="2019-03-07T09:47:25Z" changeset="67875798" uid="322785" user="BCNorwich">
    <nd ref="6322580338"/>
    <nd ref="6322580339"/>
    <nd ref="6322580340"/>
    <nd ref="6322580341"/>
    <nd ref="6322580338"/>
    <tag k="addr:postcode" v="CB3 0GL"/>
    <tag k="addr:street" v="Wellbrook Way"/>
    <tag k="building" v="community_centre"/>
    <tag k="building:levels" v="1"/>
    <tag k="name" v="The William Collyn Community Centre"/>
  </way>
  <way id="675122690" version="4" timestamp="2022-09-29T20:51:17Z" changeset="126798113" uid="6476359" user="NSiecw">
    <nd ref="6322585208"/>
    <nd ref="8586132628"/>
    <nd ref="6322585209"/>
    <nd ref="6322585210"/>
    <nd ref="6322585211"/>
    <nd ref="6322585212"/>
    <nd ref="6322585213"/>
    <nd ref="6322585214"/>
    <nd ref="6322585215"/>
    <nd ref="6322585216"/>
    <nd ref="6322585217"/>
    <nd ref="6322585218"/>
    <nd ref="6322585219"/>
    <nd ref="8586132649"/>
    <nd ref="6322585208"/>
    <tag k="addr:city" v="Cambridge"/>
    <tag k="addr:postcode" v="CB3 0GL"/>
    <tag k="addr:street" v="Wellbrook Way"/>
    <tag k="addr:village" v="Girton"/>
    <tag k="building" v="yes"/>
    <tag k="building:levels" v="3"/>
    <tag k="name" v="Arlington Manor"/>
  </way>
  <way id="925236194" version="2" timestamp="2021-05-13T18:43:09Z" changeset="104654525" uid="9499916" user="AndrewMcLoughlin">
    <nd ref="8586843300"/>
    <nd ref="1777159012"/>
    <nd ref="1777159010"/>
    <nd ref="1777159004"/>
    <nd ref="1777158997"/>
    <nd ref="1777158998"/>
    <nd ref="1777158990"/>
    <nd ref="1777158988"/>
    <nd ref="8729186031"/>
    <nd ref="1777158987"/>
    <nd ref="1777158967"/>
    <nd ref="1777158994"/>
    <nd ref="8586843302"/>
    <nd ref="8586843300"/>
    <tag k="addr:city" v="Cambridge"/>
    <tag k="addr:housenumber" v="Unit 5"/>
    <tag k="addr:postcode" v="CB3 0NA"/>
    <tag k="addr:street" v="Welbrook Court"/>
    <tag k="building" v="yes"/>
    <tag k="name" v="WS Atkins"/>
  </way>
  <way id="1100587230" version="2" timestamp="2022-10-03T22:45:50Z" changeset="126961987" uid="6476359" user="NSiecw">
    <nd ref="1713489836"/>
    <nd ref="1713489824"/>
    <nd ref="1713489832"/>
    <nd ref="1713489826"/>
    <nd ref="1713489838"/>
    <nd ref="1713489858"/>
    <nd ref="1713489848"/>
    <nd ref="1713489873"/>
    <nd ref="10072728867"/>
    <nd ref="1713489834"/>
    <nd ref="1713489820"/>
    <nd ref="1713489836"/>
    <tag k="addr:city" v="Cambridge"/>
    <tag k="addr:housename" v="Jesters"/>
    <tag k="addr:housenumber" v="9"/>
    <tag k="addr:postcode" v="CB3 0PZ"/>
    <tag k="addr:street" v="Duck End"/>
    <tag k="addr:village" v="Girton"/>
    <tag k="building" v="yes"/>
    <tag k="name" v="Jesters"/>
    <tag k="wikidata" v="Q26457661"/>
  </way>

</osm>
