<?xml version="1.0" encoding="UTF-8"?>
<osm version="0.6" generator="Overpass API 0.7.62.5 1bd436f1">
<note>The data included in this document is from www.openstreetmap.org. The data is made available under ODbL.</note>
<meta osm_base="2025-02-19T01:06:02Z" areas="2025-02-06T02:17:44Z"/>

  <way id="154590228" version="10" timestamp="2023-05-24T22:59:45Z" changeset="136519989" uid="3999" user="BarryMyles">
    <nd ref="1671185430"/>
    <nd ref="1671185229"/>
    <nd ref="1671185131"/>
    <nd ref="2278501086"/>
    <nd ref="1671185087"/>
    <nd ref="1671185193"/>
    <nd ref="2278501130"/>
    <nd ref="10925336085"/>
    <nd ref="10925336086"/>
    <nd ref="1671185430"/>
    <tag k="addr:city" v="Royston"/>
    <tag k="addr:county" v="Hertfordshire"/>
    <tag k="addr:housename" v="Steeple Morden CofE VC Primary School"/>
    <tag k="addr:housenumber" v="7"/>
    <tag k="addr:postcode" v="SG8 0PD"/>
    <tag k="addr:street" v="Hay Street"/>
    <tag k="addr:suburb" v="Steeple Morden"/>
    <tag k="amenity" v="school"/>
    <tag k="capacity" v="208"/>
    <tag k="denomination" v="anglican"/>
    <tag k="diocese" v="Diocese of Ely"/>
    <tag k="email" v="office@steeplemorden.cambs.sch.uk"/>
    <tag k="isced:level" v="1"/>
    <tag k="max_age" v="11"/>
    <tag k="min_age" v="4"/>
    <tag k="name" v="Steeple Morden CofE VC Primary School"/>
    <tag k="operator" v="Cambridgeshire County Council"/>
    <tag k="operator:wikidata" v="Q5025648"/>
    <tag k="phone" v="+44 1763 852 474"/>
    <tag k="ref:GB:uprn" v="100091577296"/>
    <tag k="ref:edubase" v="110793"/>
    <tag k="religion" v="christian"/>
    <tag k="school:boarding" v="no"/>
    <tag k="school:gender" v="mixed"/>
    <tag k="school:selective" v="no"/>
    <tag k="school:trust" v="no"/>
    <tag k="school:type" v="voluntary_controlled"/>
    <tag k="website" v="https://www.steeplemorden.cambs.sch.uk/"/>
    <tag k="wikidata" v="Q66223613"/>
  </way>
  <way id="301937418" version="2" timestamp="2023-11-16T16:38:01Z" changeset="144103995" uid="13445" user="zorque">
    <nd ref="3061125964"/>
    <nd ref="3061125965"/>
    <nd ref="3061125966"/>
    <nd ref="3061125967"/>
    <nd ref="3061125964"/>
    <tag k="addr:city" v="Royston"/>
    <tag k="addr:housenumber" v="17"/>
    <tag k="addr:postcode" v="SG8 0LP"/>
    <tag k="addr:street" v="Cheyney Street"/>
    <tag k="addr:suburb" v="Steeple Morden"/>
    <tag k="building" v="house"/>
  </way>
  <way id="548082118" version="1" timestamp="2017-12-20T08:52:56Z" changeset="54780357" uid="1180904" user="Lightswitchr">
    <nd ref="5295247802"/>
    <nd ref="5295247803"/>
    <nd ref="5295247804"/>
    <nd ref="5295247805"/>
    <nd ref="5295247802"/>
    <tag k="addr:city" v="Steeple Morden"/>
    <tag k="addr:street" v="Ashwell Street"/>
    <tag k="building" v="house"/>
    <tag k="name" v="Gatley End Farm"/>
  </way>
  <way id="730143471" version="1" timestamp="2019-10-01T09:23:48Z" changeset="75138397" uid="281267" user="smb1001">
    <nd ref="275942501"/>
    <nd ref="6840023126"/>
    <nd ref="6840023129"/>
    <nd ref="6840023125"/>
    <nd ref="6840023139"/>
    <nd ref="6840023138"/>
    <nd ref="275942501"/>
    <tag k="addr:housename" v="The Fox"/>
    <tag k="addr:housenumber" v="34"/>
    <tag k="addr:street" v="The Green"/>
    <tag k="building" v="yes"/>
    <tag k="note" v="former Fox public house"/>
  </way>
  <way id="1076890250" version="1" timestamp="2022-07-08T16:21:39Z" changeset="123373416" uid="13792107" user="LordGarySugar">
    <nd ref="275942804"/>
    <nd ref="9874797558"/>
    <nd ref="9874797559"/>
    <nd ref="9874797560"/>
    <nd ref="9874797561"/>
    <nd ref="9874797562"/>
    <nd ref="275942804"/>
    <tag k="addr:city" v="Baldock"/>
    <tag k="addr:housenumber" v="116"/>
    <tag k="addr:postcode" v="SG7 5RS"/>
    <tag k="addr:street" v="Station Road"/>
    <tag k="amenity" v="pub"/>
    <tag k="building" v="yes"/>
    <tag k="fhrs:id" v="596129"/>
    <tag k="name" v="The Jester"/>
    <tag k="survey:date" v="2021-06-22"/>
    <tag k="tourism" v="hotel"/>
  </way>
  <way id="1175781717" version="2" timestamp="2023-11-16T16:38:01Z" changeset="144103995" uid="13445" user="zorque">
    <nd ref="10925336089"/>
    <nd ref="10925336090"/>
    <nd ref="10925336091"/>
    <nd ref="10925336092"/>
    <nd ref="10925336093"/>
    <nd ref="10925336094"/>
    <nd ref="10925336089"/>
    <tag k="addr:city" v="Royston"/>
    <tag k="addr:postcode" v="SG8 0PD"/>
    <tag k="addr:street" v="Hay Street"/>
    <tag k="addr:suburb" v="Steeple Morden"/>
    <tag k="building" v="yes"/>
    <tag k="name" v="Steeple Morden Telephone Exchange"/>
    <tag k="operator" v="Openreach"/>
    <tag k="operator:wikidata" v="Q7096543"/>
    <tag k="ref" v="EASMD"/>
    <tag k="telecom" v="exchange"/>
  </way>
  <way id="1175781718" version="2" timestamp="2023-11-16T16:38:01Z" changeset="144103995" uid="13445" user="zorque">
    <nd ref="10925336095"/>
    <nd ref="10925336096"/>
    <nd ref="10925336097"/>
    <nd ref="10925336098"/>
    <nd ref="10925336099"/>
    <nd ref="10925336100"/>
    <nd ref="10925336101"/>
    <nd ref="10925336102"/>
    <nd ref="10925336103"/>
    <nd ref="10925336104"/>
    <nd ref="10925336095"/>
    <tag k="addr:city" v="Royston"/>
    <tag k="addr:housenumber" v="23"/>
    <tag k="addr:postcode" v="SG8 0PD"/>
    <tag k="addr:street" v="Hay Street"/>
    <tag k="addr:suburb" v="Steeple Morden"/>
    <tag k="building" v="detached"/>
  </way>
  <way id="1314169419" version="1" timestamp="2024-09-08T14:12:08Z" changeset="156353869" uid="742701" user="kerr smith">
    <nd ref="12163562142"/>
    <nd ref="12163562196"/>
    <nd ref="12163562195"/>
    <nd ref="12163562194"/>
    <nd ref="12163562193"/>
    <nd ref="12163562142"/>
    <tag k="addr:housenumber" v="78"/>
    <tag k="addr:street" v="Station Road"/>
    <tag k="building" v="house"/>
    <tag k="source" v="microsoft/BuildingFootprints"/>
  </way>
  <way id="1314169420" version="1" timestamp="2024-09-08T14:12:08Z" changeset="156353869" uid="742701" user="kerr smith">
    <nd ref="12163562196"/>
    <nd ref="12163562142"/>
    <nd ref="12163562192"/>
    <nd ref="12163562191"/>
    <nd ref="12163562198"/>
    <nd ref="12163562197"/>
    <nd ref="12163562196"/>
    <tag k="addr:housenumber" v="80"/>
    <tag k="addr:street" v="Station Road"/>
    <tag k="building" v="house"/>
    <tag k="source" v="microsoft/BuildingFootprints"/>
  </way>
  <way id="1314169423" version="1" timestamp="2024-09-08T14:12:08Z" changeset="156353869" uid="742701" user="kerr smith">
    <nd ref="12163562172"/>
    <nd ref="12163562171"/>
    <nd ref="12163562170"/>
    <nd ref="12163562169"/>
    <nd ref="12163562168"/>
    <nd ref="12163562167"/>
    <nd ref="12163562166"/>
    <nd ref="12163562165"/>
    <nd ref="12163562172"/>
    <tag k="addr:housenumber" v="67"/>
    <tag k="addr:street" v="Station Road"/>
    <tag k="building" v="yes"/>
    <tag k="source" v="microsoft/BuildingFootprints"/>
  </way>
  <way id="1314169427" version="1" timestamp="2024-09-08T14:12:08Z" changeset="156353869" uid="742701" user="kerr smith">
    <nd ref="12163562190"/>
    <nd ref="12163562189"/>
    <nd ref="12163562188"/>
    <nd ref="12163562187"/>
    <nd ref="12163562190"/>
    <tag k="addr:housenumber" v="69"/>
    <tag k="addr:street" v="Station Road"/>
    <tag k="building" v="yes"/>
    <tag k="source" v="microsoft/BuildingFootprints"/>
  </way>

</osm>
