<?xml version="1.0" encoding="UTF-8"?>
<osm version="0.6" generator="Overpass API 0.7.62.4 2390de5a">
<note>The data included in this document is from www.openstreetmap.org. The data is made available under ODbL.</note>
<meta osm_base="2025-01-21T14:25:27Z" areas="2024-12-31T00:49:33Z"/>

  <node id="339081052" lat="52.2279243" lon="-0.2686399" version="4" timestamp="2018-03-17T18:03:46Z" changeset="57272632" uid="84263" user="Robert Whittaker">
    <tag k="addr:city" v="St Neots"/>
    <tag k="addr:housenumber" v="18"/>
    <tag k="addr:postcode" v="PE19 1JA"/>
    <tag k="addr:street" v="High Street"/>
    <tag k="amenity" v="pub"/>
    <tag k="fhrs:id" v="341305"/>
    <tag k="name" v="Coach House"/>
    <tag k="source:addr" v="FHRS Open Data"/>
  </node>
  <node id="339087673" lat="52.2296883" lon="-0.2657061" version="4" timestamp="2019-11-12T17:30:37Z" changeset="76974301" uid="4948143" user="doublah">
    <tag k="addr:city" v="St Neots"/>
    <tag k="addr:housenumber" v="1"/>
    <tag k="addr:postcode" v="PE19 1RJ"/>
    <tag k="addr:street" v="Tebbutts Road"/>
    <tag k="amenity" v="dentist"/>
    <tag k="healthcare" v="dentist"/>
    <tag k="name" v="Tebbutts Road Dental Centre"/>
    <tag k="website" v="http://idhdentiststneotstebbuttsroad.co.uk/?plain=1"/>
  </node>
  <node id="339101330" lat="52.2277879" lon="-0.2694496" version="8" timestamp="2023-10-19T14:00:25Z" changeset="142817683" uid="4345757" user="JassKurn">
    <tag k="addr:city" v="St Neots"/>
    <tag k="addr:housenumber" v="56"/>
    <tag k="addr:postcode" v="PE19 2HL"/>
    <tag k="addr:street" v="Market Square"/>
    <tag k="amenity" v="bank"/>
    <tag k="brand" v="Santander"/>
    <tag k="brand:wikidata" v="Q7420065"/>
    <tag k="brand:wikipedia" v="en:Santander UK"/>
    <tag k="name" v="Santander"/>
    <tag k="operator" v="Santander"/>
    <tag k="website" v="https://www.santander.co.uk/uk/index"/>
  </node>
  <node id="345591774" lat="52.2316268" lon="-0.2470646" version="18" timestamp="2024-01-15T21:04:46Z" changeset="146298083" uid="16586381" user="KasperSFranz">
    <tag k="addr:city" v="St Neots"/>
    <tag k="addr:postcode" v="PE19 1QF"/>
    <tag k="addr:street" v="Hawkesden Road"/>
    <tag k="alt_name" v="Saint Neots"/>
    <tag k="name" v="St Neots"/>
    <tag k="naptan:AtcoCode" v="9100STNEOTS"/>
    <tag k="network" v="National Rail"/>
    <tag k="network:website" v="https://www.nationalrail.co.uk/stations/sno/"/>
    <tag k="network:wikidata" v="Q26334"/>
    <tag k="operator" v="Great Northern"/>
    <tag k="public_transport" v="station"/>
    <tag k="railway" v="station"/>
    <tag k="ref:crs" v="SNO"/>
    <tag k="ref:tiploc" v="STNEOTS"/>
    <tag k="wheelchair" v="yes"/>
    <tag k="wikidata" v="Q3072111"/>
    <tag k="wikipedia" v="en:St Neots railway station"/>
  </node>
  <node id="663865801" lat="52.2291687" lon="-0.2674792" version="4" timestamp="2021-09-05T17:29:11Z" changeset="110759156" uid="5589" user="user_5589">
    <tag k="addr:city" v="St Neots"/>
    <tag k="addr:housenumber" v="24"/>
    <tag k="addr:postcode" v="PE19 1AG"/>
    <tag k="addr:street" v="Moores Walk"/>
    <tag k="amenity" v="doctors"/>
    <tag k="healthcare" v="doctor"/>
    <tag k="name" v="St Neots Health Centre"/>
    <tag k="website" v="https://www.mhstneots.co.uk/"/>
  </node>
  <node id="836056155" lat="52.2276533" lon="-0.2698286" version="11" timestamp="2024-08-23T16:44:17Z" changeset="155662841" uid="21425661" user="CjMalone">
    <tag k="addr:city" v="St Neots"/>
    <tag k="addr:housenumber" v="50-52"/>
    <tag k="addr:postcode" v="PE19 2AA"/>
    <tag k="addr:street" v="Market Square"/>
    <tag k="amenity" v="cafe"/>
    <tag k="brand" v="Caffè Nero"/>
    <tag k="brand:wikidata" v="Q675808"/>
    <tag k="brand:wikipedia" v="en:Caffè Nero"/>
    <tag k="check_date" v="2024-08-22"/>
    <tag k="check_date:opening_hours" v="2024-08-22"/>
    <tag k="cuisine" v="coffee_shop"/>
    <tag k="fhrs:id" v="340999"/>
    <tag k="internet_access" v="yes"/>
    <tag k="name" v="Caffè Nero"/>
    <tag k="opening_hours" v="Mo-Sa 07:30-18:00; Su 08:30-17:30"/>
    <tag k="operator" v="Caffè Nero"/>
    <tag k="source:addr" v="FHRS Open Data"/>
    <tag k="takeaway" v="yes"/>
    <tag k="website" v="https://www.caffenero.com/uk/stores/st-neots/"/>
  </node>
  <node id="836056156" lat="52.2277291" lon="-0.2698286" version="4" timestamp="2018-03-17T18:03:47Z" changeset="57272632" uid="84263" user="Robert Whittaker">
    <tag k="addr:city" v="St Neots"/>
    <tag k="addr:housenumber" v="54"/>
    <tag k="addr:postcode" v="PE19 2AA"/>
    <tag k="addr:street" v="Market Square"/>
    <tag k="amenity" v="pub"/>
    <tag k="fhrs:id" v="341052"/>
    <tag k="food" v="yes"/>
    <tag k="name" v="Corner House"/>
    <tag k="source:addr" v="FHRS Open Data"/>
  </node>
  <node id="1280246614" lat="52.2105486" lon="-0.2906922" version="4" timestamp="2022-09-09T16:46:23Z" changeset="125989066" uid="84263" user="Robert Whittaker">
    <tag k="addr:city" v="St Neots"/>
    <tag k="addr:housename" v="Unit 2"/>
    <tag k="addr:housenumber" v="Plot 1"/>
    <tag k="addr:postcode" v="PE19 8JH"/>
    <tag k="addr:street" v="Little End Road"/>
    <tag k="name" v="A1M Cash &amp; Carry"/>
    <tag k="shop" v="wholesale"/>
  </node>
  <node id="1390892388" lat="52.2283830" lon="-0.2691244" version="3" timestamp="2024-07-05T20:54:50Z" changeset="153604444" uid="13097056" user="PCarew_EG">
    <tag k="addr:city" v="St Neots"/>
    <tag k="addr:housenumber" v="8"/>
    <tag k="addr:postcode" v="PE19 1AE"/>
    <tag k="addr:street" v="New Street"/>
    <tag k="fee" v="yes"/>
    <tag k="name" v="St Neots Museum"/>
    <tag k="opening_hours" v="Tu-Sa 11:00-16:00"/>
    <tag k="tourism" v="museum"/>
    <tag k="website" v="https://www.stneotsmuseum.org.uk/"/>
    <tag k="wheelchair" v="yes"/>
    <tag k="wikidata" v="Q7594906"/>
  </node>
  <node id="1446374653" lat="52.2098669" lon="-0.2884335" version="4" timestamp="2023-10-14T22:40:59Z" changeset="142594414" uid="10420541" user="Thingummy">
    <tag k="addr:housename" v="Colmworth Trade Centre"/>
    <tag k="addr:street" v="Chester Road"/>
    <tag k="name" v="Carpet World"/>
    <tag k="shop" v="carpet"/>
  </node>
  <node id="3300505308" lat="52.2289992" lon="-0.2673052" version="3" timestamp="2018-03-17T18:03:47Z" changeset="57272632" uid="84263" user="Robert Whittaker">
    <tag k="addr:city" v="St Neots"/>
    <tag k="addr:housenumber" v="20"/>
    <tag k="addr:postcode" v="PE19 1AG"/>
    <tag k="addr:street" v="Moores Walk"/>
    <tag k="amenity" v="cafe"/>
    <tag k="fhrs:id" v="869897"/>
    <tag k="internet_access" v="wlan"/>
    <tag k="name" v="Moore's Walk Cafe"/>
    <tag k="smoking" v="outside"/>
  </node>
  <node id="3300532957" lat="52.2280183" lon="-0.2691775" version="6" timestamp="2023-10-19T14:25:34Z" changeset="142818835" uid="4345757" user="JassKurn">
    <tag k="addr:city" v="St Neots"/>
    <tag k="addr:housenumber" v="1"/>
    <tag k="addr:postcode" v="PE19 1BU"/>
    <tag k="addr:street" v="High Street"/>
    <tag k="amenity" v="bank"/>
    <tag k="atm" v="no"/>
    <tag k="brand" v="Yorkshire Building Society"/>
    <tag k="brand:wikidata" v="Q12073381"/>
    <tag k="brand:wikipedia" v="en:Yorkshire Building Society"/>
    <tag k="name" v="Yorkshire Building Society"/>
  </node>
  <node id="3300542018" lat="52.2275847" lon="-0.2691617" version="1" timestamp="2015-01-20T14:48:43Z" changeset="28282729" uid="2486930" user="gpbenton">
    <tag k="addr:city" v="St Neots"/>
    <tag k="addr:housenumber" v="3"/>
    <tag k="addr:postcode" v="PE19 2BW"/>
    <tag k="addr:street" v="South Street"/>
    <tag k="amenity" v="restaurant"/>
    <tag k="cuisine" v="indian"/>
    <tag k="name" v="Nawab Lounge"/>
    <tag k="website" v="http://nawablounge.co.uk"/>
  </node>
  <node id="3300542019" lat="52.2297621" lon="-0.2651600" version="2" timestamp="2018-08-01T19:50:45Z" changeset="61274628" uid="8631290" user="jbsmith1969">
    <tag k="addr:city" v="St Neots"/>
    <tag k="addr:housenumber" v="30"/>
    <tag k="addr:postcode" v="PE19 1BB"/>
    <tag k="addr:street" v="Huntingdon Street"/>
    <tag k="amenity" v="restaurant"/>
    <tag k="cuisine" v="burger"/>
    <tag k="name" v="Blazin Burgers"/>
    <tag k="website" v="http://www.amyspizzabaronline.co.uk/"/>
  </node>
  <node id="3300695700" lat="52.2280774" lon="-0.2689393" version="3" timestamp="2022-11-07T21:30:56Z" changeset="128614664" uid="38538" user="jkbr">
    <tag k="addr:city" v="St Neots"/>
    <tag k="addr:housenumber" v="3"/>
    <tag k="addr:postcode" v="PE19 1BU"/>
    <tag k="addr:street" v="High Street"/>
    <tag k="amenity" v="cafe"/>
    <tag k="brand:wikipedia" v="en:Edinburgh Woollen Mill"/>
    <tag k="cuisine" v="coffee_shop"/>
    <tag k="internet_access" v="wlan"/>
    <tag k="name" v="Esquires"/>
    <tag k="opening_hours" v="Mo-Sa 08:00-17:00, Su 09:00-17:00"/>
    <tag k="outdoor_seating" v="no"/>
    <tag k="website" v="https://esquirescoffee.co.uk/store/esquires-st-neots/"/>
  </node>
  <node id="3300695701" lat="52.2281307" lon="-0.2685695" version="5" timestamp="2023-10-19T14:25:34Z" changeset="142818835" uid="4345757" user="JassKurn">
    <tag k="addr:city" v="St Neots"/>
    <tag k="addr:housenumber" v="9"/>
    <tag k="addr:postcode" v="PE19 1BU"/>
    <tag k="addr:street" v="High Street"/>
    <tag k="amenity" v="cafe"/>
    <tag k="brand" v="Costa"/>
    <tag k="brand:wikidata" v="Q608845"/>
    <tag k="brand:wikipedia" v="en:Costa Coffee"/>
    <tag k="cuisine" v="coffee_shop"/>
    <tag k="fhrs:id" v="341089"/>
    <tag k="internet_access" v="yes"/>
    <tag k="name" v="Costa"/>
    <tag k="smoking" v="no"/>
    <tag k="source:addr" v="FHRS Open Data"/>
    <tag k="takeaway" v="yes"/>
  </node>
  <node id="3300695707" lat="52.2282681" lon="-0.2678937" version="5" timestamp="2023-10-19T14:25:34Z" changeset="142818835" uid="4345757" user="JassKurn">
    <tag k="addr:city" v="St Neots"/>
    <tag k="addr:housenumber" v="25"/>
    <tag k="addr:postcode" v="PE19 1BU"/>
    <tag k="addr:street" v="High Street"/>
    <tag k="amenity" v="pharmacy"/>
    <tag k="brand" v="Superdrug"/>
    <tag k="brand:wikidata" v="Q7643261"/>
    <tag k="brand:wikipedia" v="en:Superdrug"/>
    <tag k="fhrs:id" v="449036"/>
    <tag k="healthcare" v="pharmacy"/>
    <tag k="name" v="Superdrug"/>
    <tag k="operator" v="Superdrug"/>
    <tag k="source:addr" v="FHRS Open Data"/>
  </node>
  <node id="3300735208" lat="52.2282575" lon="-0.2669763" version="3" timestamp="2018-03-17T18:03:48Z" changeset="57272632" uid="84263" user="Robert Whittaker">
    <tag k="addr:city" v="St Neots"/>
    <tag k="addr:housenumber" v="48"/>
    <tag k="addr:postcode" v="PE19 1JG"/>
    <tag k="addr:street" v="High Street"/>
    <tag k="amenity" v="fast_food"/>
    <tag k="cuisine" v="american"/>
    <tag k="fhrs:id" v="564267"/>
    <tag k="name" v="Shakie Jakes"/>
    <tag k="source:addr" v="FHRS Open Data"/>
  </node>
  <node id="3300735210" lat="52.2281824" lon="-0.2671622" version="2" timestamp="2018-03-17T18:03:48Z" changeset="57272632" uid="84263" user="Robert Whittaker">
    <tag k="addr:city" v="St Neots"/>
    <tag k="addr:housenumber" v="44"/>
    <tag k="addr:postcode" v="PE19 1JG"/>
    <tag k="addr:street" v="High Street"/>
    <tag k="amenity" v="cafe"/>
    <tag k="fhrs:id" v="341278"/>
    <tag k="name" v="Platters"/>
    <tag k="source:addr" v="FHRS Open Data"/>
  </node>
  <node id="3300735211" lat="52.2282417" lon="-0.2670930" version="2" timestamp="2018-03-17T18:03:48Z" changeset="57272632" uid="84263" user="Robert Whittaker">
    <tag k="addr:city" v="St Neots"/>
    <tag k="addr:housenumber" v="46"/>
    <tag k="addr:postcode" v="PE19 1JG"/>
    <tag k="addr:street" v="High Street"/>
    <tag k="amenity" v="fast_food"/>
    <tag k="cuisine" v="fish_and_chips"/>
    <tag k="fhrs:id" v="341208"/>
    <tag k="name" v="Sea Shell"/>
    <tag k="source:addr" v="FHRS Open Data"/>
  </node>
  <node id="3328752235" lat="52.2280641" lon="-0.2679753" version="6" timestamp="2023-10-19T14:25:34Z" changeset="142818835" uid="4345757" user="JassKurn">
    <tag k="addr:city" v="St Neots"/>
    <tag k="addr:housenumber" v="32"/>
    <tag k="addr:postcode" v="PE19 1JA"/>
    <tag k="addr:street" v="High Street"/>
    <tag k="amenity" v="fast_food"/>
    <tag k="brand" v="Subway"/>
    <tag k="brand:wikidata" v="Q244457"/>
    <tag k="brand:wikipedia" v="en:Subway (restaurant)"/>
    <tag k="contact:website" v="https://restaurants.subway.com/united-kingdom/en/st-neots/32-high-street"/>
    <tag k="cuisine" v="sandwich"/>
    <tag k="fhrs:id" v="896429"/>
    <tag k="name" v="Subway"/>
    <tag k="smoking" v="no"/>
    <tag k="source:addr" v="FHRS Open Data"/>
    <tag k="takeaway" v="yes"/>
  </node>
  <node id="3361363282" lat="52.2272374" lon="-0.2712045" version="5" timestamp="2021-09-05T17:29:11Z" changeset="110759156" uid="5589" user="user_5589">
    <tag k="addr:city" v="St Neots"/>
    <tag k="addr:housenumber" v="18"/>
    <tag k="addr:postcode" v="PE19 2AF"/>
    <tag k="addr:street" v="Market Place"/>
    <tag k="branch" v="Lettings"/>
    <tag k="brand" v="Taylors"/>
    <tag k="brand:wikidata" v="Q94579182"/>
    <tag k="building" v="yes"/>
    <tag k="name" v="Taylors"/>
    <tag k="office" v="estate_agent"/>
    <tag k="phone" v="+44 1480 367643"/>
    <tag k="website" v="https://www.taylorsestateagents.co.uk/toletoffice/st-neots/1907/"/>
  </node>
  <node id="3536075715" lat="52.2273491" lon="-0.2698487" version="3" timestamp="2015-05-22T16:45:40Z" changeset="31377021" uid="2486930" user="gpbenton">
    <tag k="addr:city" v="St Neots"/>
    <tag k="addr:housenumber" v="40"/>
    <tag k="addr:postcode" v="PE19 2AF"/>
    <tag k="addr:street" v="Market Square"/>
    <tag k="name" v="Barbers"/>
    <tag k="shop" v="hairdresser"/>
    <tag k="website" v="http://www.barbersshop.co.uk/"/>
  </node>
  <node id="3536232659" lat="52.2274098" lon="-0.2694398" version="6" timestamp="2023-10-24T14:48:08Z" changeset="143069356" uid="9451067" user="b-jazz-bot">
    <tag k="addr:city" v="St Neots"/>
    <tag k="addr:housenumber" v="46"/>
    <tag k="addr:postcode" v="PE19 2AF"/>
    <tag k="addr:street" v="Market Square"/>
    <tag k="amenity" v="restaurant"/>
    <tag k="cuisine" v="turkish"/>
    <tag k="fhrs:id" v="615372"/>
    <tag k="name" v="Bosphorus"/>
    <tag k="source:addr" v="FHRS Open Data"/>
    <tag k="website" v="https://bosphorusrestaurant.co.uk/"/>
  </node>
  <node id="3536232660" lat="52.2272093" lon="-0.2691858" version="5" timestamp="2024-07-11T21:44:29Z" changeset="153830769" uid="9451067" user="b-jazz-bot">
    <tag k="addr:city" v="St Neots"/>
    <tag k="addr:housenumber" v="13"/>
    <tag k="addr:postcode" v="PE19 2BW"/>
    <tag k="addr:street" v="South Street"/>
    <tag k="amenity" v="restaurant"/>
    <tag k="cuisine" v="italian"/>
    <tag k="fhrs:id" v="748562"/>
    <tag k="name" v="Il Girasole"/>
    <tag k="source:addr" v="FHRS Open Data"/>
    <tag k="takeaway" v="yes"/>
    <tag k="website" v="https://www.il-girasole.co.uk/"/>
  </node>
  <node id="3536235793" lat="52.2273770" lon="-0.2697387" version="6" timestamp="2019-03-07T00:00:02Z" changeset="67863262" uid="9451067" user="b-jazz-bot">
    <tag k="addr:city" v="St Neots"/>
    <tag k="addr:housenumber" v="42"/>
    <tag k="addr:postcode" v="PE19 2AF"/>
    <tag k="addr:street" v="Market Square"/>
    <tag k="amenity" v="restaurant"/>
    <tag k="cuisine" v="italian"/>
    <tag k="fhrs:id" v="434754"/>
    <tag k="name" v="La Cucina"/>
    <tag k="phone" v="+44 1480 474799"/>
    <tag k="website" v="https://www.lacucinastneots.co.uk/"/>
  </node>
  <node id="3750707596" lat="52.2314172" lon="-0.2646670" version="2" timestamp="2024-04-04T11:28:41Z" changeset="149565653" uid="95856" user="john paul jones &amp; gringo">
    <tag k="addr:city" v="St Neots"/>
    <tag k="addr:country" v="GB"/>
    <tag k="addr:housenumber" v="77"/>
    <tag k="addr:postcode" v="PE19 1DU"/>
    <tag k="addr:street" v="Huntingdon Street"/>
    <tag k="amenity" v="restaurant"/>
    <tag k="name" v="Victor Chan"/>
  </node>
  <node id="4229268790" lat="52.2279421" lon="-0.2712579" version="1" timestamp="2016-06-07T02:48:12Z" changeset="39852313" uid="4076828" user="Alexander Stephens">
    <tag k="addr:street" v="Priory Yard"/>
    <tag k="name" v="Carousel"/>
    <tag k="shop" v="clothes"/>
  </node>
  <node id="4229268791" lat="52.2289780" lon="-0.2674904" version="5" timestamp="2023-10-19T14:25:41Z" changeset="142818835" uid="4345757" user="JassKurn">
    <tag k="addr:street" v="Moores Walk"/>
    <tag k="brand" v="Argos"/>
    <tag k="brand:wikidata" v="Q4789707"/>
    <tag k="brand:wikipedia" v="en:Argos (retailer)"/>
    <tag k="contact:website" v="https://www.argos.co.uk/stores/314-st.-neots-argos"/>
    <tag k="name" v="Argos"/>
    <tag k="shop" v="catalogue"/>
  </node>
  <node id="4229271989" lat="52.2274998" lon="-0.2698630" version="3" timestamp="2019-09-25T13:26:06Z" changeset="74910608" uid="584325" user="bhousel">
    <tag k="addr:city" v="St Neots"/>
    <tag k="addr:housenumber" v="48"/>
    <tag k="addr:postcode" v="PE19 2AA"/>
    <tag k="addr:street" v="Market Place"/>
    <tag k="amenity" v="cafe"/>
    <tag k="cuisine" v="breakfast;burger;coffee_shop;hot_dog;sandwich;sausage;tea"/>
    <tag k="fhrs:id" v="615362"/>
    <tag k="name" v="Market Cafe"/>
    <tag k="source:addr" v="FHRS Open Data"/>
  </node>
  <node id="4366123389" lat="52.2125822" lon="-0.2958349" version="4" timestamp="2021-06-14T21:01:13Z" changeset="106357947" uid="11022773" user="GeoFens">
    <tag k="addr:city" v="St Neots"/>
    <tag k="addr:housenumber" v="7"/>
    <tag k="addr:postcode" v="PE19 8TT"/>
    <tag k="addr:street" v="Steel Close"/>
    <tag k="description" v="Haberdashery, fabric and sewing supplies."/>
    <tag k="name" v="Habbydays"/>
    <tag k="phone" v="+44 1480 583822"/>
    <tag k="shop" v="sewing"/>
    <tag k="website" v="https://habbydays.co.uk/"/>
  </node>
  <node id="4511102494" lat="52.2284177" lon="-0.2670827" version="2" timestamp="2019-11-12T17:30:37Z" changeset="76974301" uid="4948143" user="doublah">
    <tag k="addr:city" v="St Neots"/>
    <tag k="addr:housenumber" v="41"/>
    <tag k="addr:postcode" v="PE19 1AS"/>
    <tag k="addr:street" v="High Street"/>
    <tag k="entrance" v="yes"/>
    <tag k="name" v="Barclays"/>
  </node>
  <node id="4511155549" lat="52.2285283" lon="-0.2664552" version="3" timestamp="2022-07-16T16:09:28Z" changeset="123694679" uid="242345" user="confusedbuffalo">
    <tag k="addr:city" v="St Neots"/>
    <tag k="addr:housenumber" v="47-51"/>
    <tag k="addr:postcode" v="PE19 1BN"/>
    <tag k="addr:street" v="High Street"/>
    <tag k="entrance" v="yes"/>
    <tag k="name" v="M&amp;S Foodhall"/>
  </node>
  <node id="4844398803" lat="52.2316585" lon="-0.2459225" version="4" timestamp="2021-06-14T21:25:33Z" changeset="106358601" uid="11022773" user="GeoFens">
    <tag k="addr:city" v="St Neots"/>
    <tag k="addr:housenumber" v="5"/>
    <tag k="addr:postcode" v="PE19 6SL"/>
    <tag k="addr:street" v="Kester Way"/>
    <tag k="amenity" v="pharmacy"/>
    <tag k="drive_through" v="no"/>
    <tag k="healthcare" v="pharmacy"/>
    <tag k="name" v="Loves Farm Pharmacy"/>
    <tag k="opening_hours" v="Mo-Fr_08:00-13:00; Mo-Fr_14:00-18:00; Sa_09:00-13:00"/>
    <tag k="phone" v="+44 1480 215665"/>
    <tag k="website" v="https://www.nhs.uk/Services/pharmacies/Overview/DefaultView.aspx?id=106537"/>
  </node>
  <node id="5223836221" lat="52.2246106" lon="-0.2681291" version="5" timestamp="2023-03-20T15:42:47Z" changeset="133902566" uid="8519196" user="Adam Stepek">
    <tag k="addr:city" v="St Neots"/>
    <tag k="addr:housenumber" v="29-39"/>
    <tag k="addr:postcode" v="PE19 2TA"/>
    <tag k="addr:street" v="St Mary's Street"/>
    <tag k="name" v="St Neots Motorcycles"/>
    <tag k="opening_hours" v="Mo-Fr 08:30-18:00; Sa 08:30-17:00; Su off"/>
    <tag k="shop" v="motorcycle"/>
    <tag k="website" v="https://www.stneotsmotorcycles.com/"/>
  </node>
  <node id="5451005823" lat="52.2292335" lon="-0.2679449" version="3" timestamp="2022-07-16T16:09:28Z" changeset="123694679" uid="242345" user="confusedbuffalo">
    <tag k="addr:city" v="St Neots"/>
    <tag k="addr:postcode" v="PE19 1AW"/>
    <tag k="addr:street" v="Tebbutts Road"/>
    <tag k="email" v="office@t3ec.co.uk"/>
    <tag k="name" v="Tellett Engineering Consultants"/>
    <tag k="office" v="company"/>
    <tag k="phone" v="+44 1480570067"/>
    <tag k="website" v="http://www.t3ec.co.uk"/>
  </node>
  <node id="5770037083" lat="52.2125167" lon="-0.2959890" version="6" timestamp="2021-06-14T21:01:13Z" changeset="106357947" uid="11022773" user="GeoFens">
    <tag k="addr:city" v="St Neots"/>
    <tag k="addr:housenumber" v="8"/>
    <tag k="addr:postcode" v="PE19 8TT"/>
    <tag k="addr:street" v="Steel Close"/>
    <tag k="name" v="The Mortgage Broker Ltd"/>
    <tag k="office" v="financial_advisor"/>
    <tag k="opening_hours" v="Mo-Fr 08:00-20:00; Sa 09:00-16:00"/>
    <tag k="phone" v="+44 800 0320316"/>
    <tag k="state" v="Cambridgeshire"/>
    <tag k="website" v="https://themortgagebroker.co.uk/"/>
  </node>
  <node id="6299458514" lat="52.2128529" lon="-0.2929321" version="3" timestamp="2023-10-24T14:47:48Z" changeset="143069333" uid="9451067" user="b-jazz-bot">
    <tag k="addr:city" v="St Neots"/>
    <tag k="addr:housenumber" v="9"/>
    <tag k="addr:postcode" v="PE19 8JH"/>
    <tag k="addr:street" v="Little End Road"/>
    <tag k="addr:suburb" v="Eaton Socon"/>
    <tag k="leisure" v="trampoline_park"/>
    <tag k="name" v="Xtreme360 Trampoline Park"/>
    <tag k="phone" v="+441480587296"/>
    <tag k="sport" v="trampoline"/>
    <tag k="website" v="https://www.xtreme360trampolinepark.uk/"/>
  </node>
  <node id="8637862853" lat="52.2281600" lon="-0.2675189" version="3" timestamp="2024-06-16T19:43:57Z" changeset="152775134" uid="607093" user="Rich Bartlett">
    <tag k="addr:city" v="St Neots"/>
    <tag k="addr:housenumber" v="40"/>
    <tag k="addr:street" v="High Street"/>
    <tag k="amenity" v="cafe"/>
    <tag k="cuisine" v="Toasted_Sandwiches;coffee_shop"/>
    <tag k="description" v="020 4531 5268"/>
    <tag k="name" v="Oscar's"/>
    <tag k="outdoor_seating" v="no"/>
  </node>
  <node id="10090547740" lat="52.2307571" lon="-0.2542397" version="2" timestamp="2024-08-28T13:04:31Z" changeset="155879632" uid="21425661" user="CjMalone">
    <tag k="addr:city" v="St Neots"/>
    <tag k="addr:housenumber" v="4-5"/>
    <tag k="addr:postcode" v="PE19 1SU"/>
    <tag k="addr:street" v="Longsands Parade"/>
    <tag k="amenity" v="post_office"/>
    <tag k="brand" v="Post Office"/>
    <tag k="brand:wikidata" v="Q1783168"/>
    <tag k="name" v="Longsands Parade Post Office"/>
    <tag k="operator" v="Nisa Local"/>
    <tag k="ref:pol_id" v="177026"/>
    <tag k="source:ref:pol_id" v="pol_branch_list_2022‑05‑27"/>
    <tag k="website" v="https://www.postoffice.co.uk/branch-finder/0202304/longsands-parade"/>
  </node>
  <node id="10090547741" lat="52.2307216" lon="-0.2543083" version="1" timestamp="2022-10-10T20:58:42Z" changeset="127323891" uid="617138" user="caranteth">
    <tag k="addr:city" v="St Neots"/>
    <tag k="addr:housenumber" v="4-5"/>
    <tag k="addr:postcode" v="PE19 1SU"/>
    <tag k="addr:street" v="Longsands Parade"/>
    <tag k="brand" v="Nisa Local"/>
    <tag k="brand:wikidata" v="Q16999069"/>
    <tag k="name" v="Nisa Local"/>
    <tag k="operator" v="Nisa Local"/>
    <tag k="shop" v="convenience"/>
  </node>
  <node id="10090547743" lat="52.2223798" lon="-0.2658088" version="4" timestamp="2023-03-22T15:20:56Z" changeset="133983388" uid="8519196" user="Adam Stepek">
    <tag k="addr:city" v="St Neots"/>
    <tag k="addr:housenumber" v="44"/>
    <tag k="addr:postcode" v="PE19 2ND"/>
    <tag k="addr:street" v="Berkley Street"/>
    <tag k="amenity" v="post_office"/>
    <tag k="brand" v="Post Office"/>
    <tag k="brand:wikidata" v="Q1783168"/>
    <tag k="check_date" v="2023-03-22"/>
    <tag k="internet_access" v="no"/>
    <tag k="name" v="Eynesbury Post Office"/>
    <tag k="opening_hours" v="Mo-Su 07:00-22:00"/>
    <tag k="operator" v="OneStop"/>
    <tag k="ref:pol_id" v="11350"/>
    <tag k="source:ref:pol_id" v="pol_branch_list_2022‑05‑27"/>
    <tag k="website" v="https://www.postoffice.co.uk/branch-finder/2832305/eynesbury"/>
    <tag k="wheelchair" v="yes"/>
  </node>
  <node id="10090547747" lat="52.2283898" lon="-0.2675021" version="2" timestamp="2024-08-28T13:04:31Z" changeset="155879632" uid="21425661" user="CjMalone">
    <tag k="addr:city" v="St Neots"/>
    <tag k="addr:housenumber" v="35"/>
    <tag k="addr:postcode" v="PE19 1NL"/>
    <tag k="addr:street" v="High Street"/>
    <tag k="amenity" v="post_office"/>
    <tag k="brand" v="Post Office"/>
    <tag k="brand:wikidata" v="Q1783168"/>
    <tag k="name" v="St Neots Post Office"/>
    <tag k="operator" v="McColls"/>
    <tag k="ref:pol_id" v="89474"/>
    <tag k="website" v="https://www.postoffice.co.uk/branch-finder/2062305/st-neots"/>
  </node>
  <node id="10167542874" lat="52.2279789" lon="-0.2694993" version="1" timestamp="2022-11-07T21:56:06Z" changeset="128615323" uid="38538" user="jkbr">
    <tag k="addr:city" v="St Neots"/>
    <tag k="addr:housenumber" v="45"/>
    <tag k="addr:postcode" v="PE19 2AR"/>
    <tag k="addr:street" v="Market Square"/>
    <tag k="brand" v="Fat Face"/>
    <tag k="brand:wikidata" v="Q5437186"/>
    <tag k="name" v="Fat Face"/>
    <tag k="shop" v="clothes"/>
  </node>
  <node id="10167542875" lat="52.2279915" lon="-0.2693925" version="2" timestamp="2023-05-05T14:25:57Z" changeset="135744628" uid="6816132" user="CjMalone">
    <tag k="addr:city" v="St Neots"/>
    <tag k="addr:housenumber" v="1-3"/>
    <tag k="addr:postcode" v="PE19 1AE"/>
    <tag k="addr:street" v="New Street"/>
    <tag k="brand" v="Waterstones"/>
    <tag k="brand:wikidata" v="Q151779"/>
    <tag k="contact:website" v="https://www.waterstones.com/bookshops/st-neots"/>
    <tag k="name" v="Waterstones"/>
    <tag k="shop" v="books"/>
  </node>
  <node id="10167627642" lat="52.2281920" lon="-0.2694208" version="1" timestamp="2022-11-07T22:14:35Z" changeset="128615732" uid="38538" user="jkbr">
    <tag k="addr:city" v="St Neots"/>
    <tag k="addr:housenumber" v="5"/>
    <tag k="addr:postcode" v="PE19 1AE"/>
    <tag k="addr:street" v="New Street"/>
    <tag k="name" v="button knit"/>
    <tag k="shop" v="sewing"/>
    <tag k="website" v="https://buttonknitstneots.co.uk/"/>
  </node>
  <node id="10167627644" lat="52.2282754" lon="-0.2694029" version="1" timestamp="2022-11-07T22:14:35Z" changeset="128615732" uid="38538" user="jkbr">
    <tag k="addr:city" v="St Neots"/>
    <tag k="addr:housenumber" v="7"/>
    <tag k="addr:postcode" v="PE19 1AE"/>
    <tag k="addr:street" v="New Street"/>
    <tag k="name" v="Art &amp; Soul"/>
    <tag k="tourism" v="gallery"/>
    <tag k="website" v="https://www.artandsoul.cafe/"/>
  </node>
  <node id="10167627645" lat="52.2282989" lon="-0.2694005" version="1" timestamp="2022-11-07T22:14:35Z" changeset="128615732" uid="38538" user="jkbr">
    <tag k="addr:city" v="St Neots"/>
    <tag k="addr:housenumber" v="7"/>
    <tag k="addr:postcode" v="PE19 1AE"/>
    <tag k="addr:street" v="New Street"/>
    <tag k="amenity" v="cafe"/>
    <tag k="name" v="Art &amp; Soul"/>
    <tag k="website" v="https://www.artandsoul.cafe/"/>
  </node>
  <node id="11263416345" lat="52.2098823" lon="-0.2887950" version="2" timestamp="2023-10-14T22:40:59Z" changeset="142594414" uid="10420541" user="Thingummy">
    <tag k="addr:housename" v="Colmworth Trade Centre"/>
    <tag k="addr:housenumber" v="1"/>
    <tag k="addr:street" v="Chester Road"/>
    <tag k="brand" v="Topps Tiles"/>
    <tag k="brand:wikidata" v="Q17026595"/>
    <tag k="name" v="Topps Tiles"/>
    <tag k="shop" v="tiles"/>
  </node>
  <node id="11263416347" lat="52.2098116" lon="-0.2876817" version="2" timestamp="2023-10-14T22:40:59Z" changeset="142594414" uid="10420541" user="Thingummy">
    <tag k="addr:housename" v="Colmworth Trade Centre"/>
    <tag k="addr:street" v="Chester Road"/>
    <tag k="name" v="Just Tyres"/>
    <tag k="shop" v="tyres"/>
  </node>
  <node id="12237754801" lat="52.2244570" lon="-0.2684134" version="2" timestamp="2024-10-17T00:19:48Z" changeset="157987295" uid="95856" user="john paul jones &amp; gringo">
    <tag k="addr:city" v="St Neots"/>
    <tag k="addr:housenumber" v="40"/>
    <tag k="addr:postcode" v="PE19 2TA"/>
    <tag k="addr:street" v="St Mary's Street"/>
    <tag k="addr:suburb" v="Eynesbury"/>
    <tag k="contact:facebook" v="refillshopstneots"/>
    <tag k="email" v="refillshopstneots@gmail.com"/>
    <tag k="internet_access" v="wlan"/>
    <tag k="name" v="The Refill Shop"/>
    <tag k="opening_hours" v="Tu, Fr-Sa 09:15-17:00; We-Th 09:15-18:00"/>
    <tag k="shop" v="grocery"/>
    <tag k="website" v="https://refillshopstneots.com"/>
  </node>
  <way id="38500596" version="11" timestamp="2024-04-23T19:49:26Z" changeset="150413369" uid="6816132" user="CjMalone">
    <nd ref="455482841"/>
    <nd ref="1343825335"/>
    <nd ref="1343825338"/>
    <nd ref="1343825365"/>
    <nd ref="455482843"/>
    <nd ref="455482845"/>
    <nd ref="455482847"/>
    <nd ref="1343825377"/>
    <nd ref="1343825378"/>
    <nd ref="1343825368"/>
    <nd ref="455482841"/>
    <tag k="addr:city" v="St Neots"/>
    <tag k="addr:postcode" v="PE19 2SA"/>
    <tag k="addr:street" v="Barford Road"/>
    <tag k="brand" v="Tesco Extra"/>
    <tag k="brand:wikidata" v="Q25172225"/>
    <tag k="brand:wikipedia" v="en:Tesco Extra"/>
    <tag k="building" v="yes"/>
    <tag k="contact:website" v="https://www.tesco.com/store-locator/st.-neots/barford-road"/>
    <tag k="designation" v="3145"/>
    <tag k="fhrs:id" v="341353"/>
    <tag k="name" v="Tesco Extra"/>
    <tag k="operator" v="Tesco Stores Ltd"/>
    <tag k="shop" v="supermarket"/>
    <tag k="toilets:wheelchair" v="yes"/>
    <tag k="wheelchair" v="yes"/>
  </way>
  <way id="50823977" version="8" timestamp="2024-09-27T02:30:05Z" changeset="157151712" uid="21226027" user="DorneyLake123">
    <nd ref="648183667"/>
    <nd ref="648183671"/>
    <nd ref="648183673"/>
    <nd ref="2005578884"/>
    <nd ref="648183676"/>
    <nd ref="648183678"/>
    <nd ref="648183681"/>
    <nd ref="648183683"/>
    <nd ref="648183684"/>
    <nd ref="648183686"/>
    <nd ref="648183688"/>
    <nd ref="648183690"/>
    <nd ref="648183695"/>
    <nd ref="648183696"/>
    <nd ref="648183697"/>
    <nd ref="2005578858"/>
    <nd ref="2005578863"/>
    <nd ref="2005578867"/>
    <nd ref="5885290028"/>
    <nd ref="2005578865"/>
    <nd ref="648183698"/>
    <nd ref="2005578873"/>
    <nd ref="648183667"/>
    <tag k="addr:city" v="St Neots"/>
    <tag k="addr:postcode" v="PE19 6AW"/>
    <tag k="addr:street" v="School Drive"/>
    <tag k="amenity" v="school"/>
    <tag k="isced:level" v="1"/>
    <tag k="name" v="The Round House Community Primary School"/>
    <tag k="ref:edubase" v="139634"/>
  </way>
  <way id="118721663" version="20" timestamp="2021-11-04T09:18:09Z" changeset="113361838" uid="5173844" user="ndrw6">
    <nd ref="1334638501"/>
    <nd ref="4006514381"/>
    <nd ref="4006514379"/>
    <nd ref="4006467115"/>
    <nd ref="4006514382"/>
    <nd ref="4006514380"/>
    <nd ref="4004857872"/>
    <nd ref="1334638467"/>
    <nd ref="1334638463"/>
    <nd ref="7400018553"/>
    <nd ref="8041085295"/>
    <nd ref="4004842810"/>
    <nd ref="4004842824"/>
    <nd ref="4004842811"/>
    <nd ref="4004837853"/>
    <nd ref="1334638491"/>
    <nd ref="1334638494"/>
    <nd ref="4004831921"/>
    <nd ref="4004831922"/>
    <nd ref="1334638496"/>
    <nd ref="4004831546"/>
    <nd ref="1334638490"/>
    <nd ref="4005355036"/>
    <nd ref="1334638485"/>
    <nd ref="4005355033"/>
    <nd ref="4005355034"/>
    <nd ref="1334638483"/>
    <nd ref="1334638497"/>
    <nd ref="4004905741"/>
    <nd ref="1334638498"/>
    <nd ref="1334638499"/>
    <nd ref="4005349669"/>
    <nd ref="4005349636"/>
    <nd ref="1334638500"/>
    <nd ref="4005349661"/>
    <nd ref="4005349641"/>
    <nd ref="4006260796"/>
    <nd ref="4006260797"/>
    <nd ref="4004831581"/>
    <nd ref="4006260799"/>
    <nd ref="4006273149"/>
    <nd ref="4006273142"/>
    <nd ref="4006273148"/>
    <nd ref="4006273141"/>
    <nd ref="4006273153"/>
    <nd ref="4006273147"/>
    <nd ref="1334638506"/>
    <nd ref="1334638507"/>
    <nd ref="4004905706"/>
    <nd ref="1334638511"/>
    <nd ref="4004905717"/>
    <nd ref="1334638513"/>
    <nd ref="1334638521"/>
    <nd ref="1334638523"/>
    <nd ref="4004905718"/>
    <nd ref="1334638515"/>
    <nd ref="1334638508"/>
    <nd ref="1334638520"/>
    <nd ref="1334638522"/>
    <nd ref="1334638524"/>
    <nd ref="1334638526"/>
    <nd ref="4004905710"/>
    <nd ref="4004905744"/>
    <nd ref="4004905721"/>
    <nd ref="4004905702"/>
    <nd ref="4004905737"/>
    <nd ref="1334638534"/>
    <nd ref="1334638545"/>
    <nd ref="4004905728"/>
    <nd ref="4004905708"/>
    <nd ref="4004905742"/>
    <nd ref="1334638532"/>
    <nd ref="4004905699"/>
    <nd ref="4004905734"/>
    <nd ref="4004905712"/>
    <nd ref="1334638536"/>
    <nd ref="4004905726"/>
    <nd ref="4004905705"/>
    <nd ref="1334638540"/>
    <nd ref="4004905716"/>
    <nd ref="1334638541"/>
    <nd ref="4004905732"/>
    <nd ref="1334638538"/>
    <nd ref="4004905694"/>
    <nd ref="4004905724"/>
    <nd ref="1334638529"/>
    <nd ref="4004905738"/>
    <nd ref="4004905715"/>
    <nd ref="4004905696"/>
    <nd ref="4004905731"/>
    <nd ref="4004905698"/>
    <nd ref="1334638527"/>
    <nd ref="8599534968"/>
    <nd ref="1291040737"/>
    <nd ref="1291040782"/>
    <nd ref="8599534970"/>
    <nd ref="8599534965"/>
    <nd ref="8599534966"/>
    <nd ref="8599534964"/>
    <nd ref="1334638546"/>
    <nd ref="1334638551"/>
    <nd ref="1334638552"/>
    <nd ref="1334638550"/>
    <nd ref="1334638549"/>
    <nd ref="1334638548"/>
    <nd ref="1334638547"/>
    <nd ref="1334638525"/>
    <nd ref="4006467085"/>
    <nd ref="1334638505"/>
    <nd ref="4006467142"/>
    <nd ref="1334638501"/>
    <tag k="addr:city" v="St Neots"/>
    <tag k="addr:postcode" v="PE19 7GE"/>
    <tag k="addr:street" v="Crosshall Road"/>
    <tag k="description" v="18 hole Par 70"/>
    <tag k="email" v="office@stneotsgolfclub.co.uk"/>
    <tag k="golf:course" v="18_hole"/>
    <tag k="golf:par" v="70"/>
    <tag k="leisure" v="golf_course"/>
    <tag k="name" v="St Neots Golf Club"/>
    <tag k="phone" v="+44 1480 472363;+44 1480 476513"/>
    <tag k="website" v="http://www.stneotsgolfclub.co.uk/"/>
  </way>
  <way id="118723476" version="8" timestamp="2024-10-21T17:31:37Z" changeset="158180668" uid="21226027" user="DorneyLake123">
    <nd ref="1334653414"/>
    <nd ref="1334653412"/>
    <nd ref="1334653410"/>
    <nd ref="1334653434"/>
    <nd ref="1334653436"/>
    <nd ref="1334653437"/>
    <nd ref="1334653433"/>
    <nd ref="3936727296"/>
    <nd ref="1334653435"/>
    <nd ref="1334653431"/>
    <nd ref="12277033615"/>
    <nd ref="1334653418"/>
    <nd ref="1334653414"/>
    <tag k="addr:city" v="St Neots"/>
    <tag k="addr:postcode" v="PE19 7GG"/>
    <tag k="addr:street" v="Great North Road"/>
    <tag k="amenity" v="school"/>
    <tag k="isced:level" v="1"/>
    <tag k="name" v="The Crosshall Schools Academy Trusts"/>
    <tag k="note" v="Crosshall Nursery, Infant &amp; Junior Schools mapped individually within site."/>
  </way>
  <way id="118723477" version="13" timestamp="2022-07-16T16:09:28Z" changeset="123694679" uid="242345" user="confusedbuffalo">
    <nd ref="4050542100"/>
    <nd ref="9034116532"/>
    <nd ref="9034116533"/>
    <nd ref="1334653404"/>
    <nd ref="1334653402"/>
    <nd ref="1334653400"/>
    <nd ref="1334653397"/>
    <nd ref="1334653403"/>
    <nd ref="4100243624"/>
    <nd ref="1334653416"/>
    <nd ref="1334653420"/>
    <nd ref="1334653449"/>
    <nd ref="2005612022"/>
    <nd ref="1334653441"/>
    <nd ref="6185350940"/>
    <nd ref="1334653439"/>
    <nd ref="1334653450"/>
    <nd ref="1334653451"/>
    <nd ref="2005612057"/>
    <nd ref="1334653422"/>
    <nd ref="1334653429"/>
    <nd ref="5891191543"/>
    <nd ref="7392549494"/>
    <nd ref="1334653419"/>
    <nd ref="4050542096"/>
    <nd ref="4050542100"/>
    <tag k="addr:city" v="St Neots"/>
    <tag k="addr:postcode" v="PE19 1LQ"/>
    <tag k="addr:street" v="Longsands Road"/>
    <tag k="amenity" v="school"/>
    <tag k="capacity" v="1838"/>
    <tag k="isced:level" v="2;3"/>
    <tag k="max_age" v="18"/>
    <tag k="min_age" v="11"/>
    <tag k="name" v="Longsands Academy"/>
    <tag k="phone" v="+44 1480 353535"/>
    <tag k="ref:GB:uprn" v="100091522632"/>
    <tag k="ref:edubase" v="136992"/>
    <tag k="ref:edubase:group" v="16104"/>
    <tag k="religion" v="none"/>
    <tag k="school:boarding" v="no"/>
    <tag k="school:gender" v="mixed"/>
    <tag k="school:selective" v="no"/>
    <tag k="school:trust" v="yes"/>
    <tag k="school:trust:name" v="Astrea Academy Trust"/>
    <tag k="school:trust:type" v="multi_academy"/>
    <tag k="school:type" v="academy"/>
    <tag k="website" v="https://www.astrea-longsands.org/"/>
    <tag k="wikidata" v="Q6674271"/>
    <tag k="wikipedia" v="en:Longsands Academy"/>
  </way>
  <way id="118726453" version="12" timestamp="2023-11-05T14:29:36Z" changeset="143652552" uid="5008136" user="JayTurnr">
    <nd ref="1334672644"/>
    <nd ref="4062345680"/>
    <nd ref="4062345679"/>
    <nd ref="4062345677"/>
    <nd ref="4062345681"/>
    <nd ref="4062345678"/>
    <nd ref="4062345676"/>
    <nd ref="4062345682"/>
    <nd ref="1334672645"/>
    <nd ref="10781602187"/>
    <nd ref="1334672641"/>
    <nd ref="1334672640"/>
    <nd ref="1334672639"/>
    <nd ref="10781602189"/>
    <nd ref="10781602188"/>
    <nd ref="10781602185"/>
    <nd ref="1334672644"/>
    <tag k="addr:city" v="St Neots"/>
    <tag k="addr:postcode" v="PE19 8BT"/>
    <tag k="addr:street" v="Bushmead Road"/>
    <tag k="amenity" v="school"/>
    <tag k="capacity" v="420"/>
    <tag k="contact:facebook" v="https://www.facebook.com/bushmeadschool"/>
    <tag k="isced:level" v="1"/>
    <tag k="max_age" v="11"/>
    <tag k="min_age" v="4"/>
    <tag k="name" v="Bushmead Primary School"/>
    <tag k="phone" v="+44 1480 375375"/>
    <tag k="ref:GB:uprn" v="200001061383"/>
    <tag k="ref:edubase" v="132031"/>
    <tag k="school:trust" v="no"/>
    <tag k="school:type" v="community"/>
    <tag k="website" v="https://www.bushmead.cambs.sch.uk/"/>
    <tag k="wikidata" v="Q66228287"/>
  </way>
  <way id="118730686" version="8" timestamp="2024-09-16T23:57:21Z" changeset="156709091" uid="21226027" user="DorneyLake123">
    <nd ref="1334703407"/>
    <nd ref="1334703397"/>
    <nd ref="1334703386"/>
    <nd ref="7425849341"/>
    <nd ref="1334703353"/>
    <nd ref="8127490197"/>
    <nd ref="8127490199"/>
    <nd ref="1334703352"/>
    <nd ref="8127490195"/>
    <nd ref="1334703347"/>
    <nd ref="1334703412"/>
    <nd ref="1334703439"/>
    <nd ref="1334703407"/>
    <tag k="addr:city" v="St Neots"/>
    <tag k="addr:postcode" v="PE19 2EZ"/>
    <tag k="addr:street" v="Cromwell Road"/>
    <tag k="amenity" v="school"/>
    <tag k="capacity" v="120"/>
    <tag k="max_age" v="19"/>
    <tag k="min_age" v="3"/>
    <tag k="name" v="Samuel Pepys School"/>
    <tag k="ref:edubase" v="110951"/>
    <tag k="wikidata" v="Q66223676"/>
  </way>
  <way id="119636185" version="10" timestamp="2024-09-17T00:01:12Z" changeset="156709144" uid="21226027" user="DorneyLake123">
    <nd ref="1343560899"/>
    <nd ref="1343560866"/>
    <nd ref="4124191781"/>
    <nd ref="4124191780"/>
    <nd ref="1343560846"/>
    <nd ref="4100243616"/>
    <nd ref="1343560852"/>
    <nd ref="1343560873"/>
    <nd ref="1343560879"/>
    <nd ref="1343560886"/>
    <nd ref="4109179850"/>
    <nd ref="4109179888"/>
    <nd ref="4109179796"/>
    <nd ref="4109179834"/>
    <nd ref="1343560890"/>
    <nd ref="4109179801"/>
    <nd ref="1343560892"/>
    <nd ref="1343560893"/>
    <nd ref="4109179887"/>
    <nd ref="1343560899"/>
    <tag k="addr:city" v="St Neots"/>
    <tag k="addr:postcode" v="PE19 1TF"/>
    <tag k="addr:street" v="Longsands Road"/>
    <tag k="amenity" v="school"/>
    <tag k="capacity" v="360"/>
    <tag k="isced:level" v="1"/>
    <tag k="max_age" v="11"/>
    <tag k="min_age" v="7"/>
    <tag k="name" v="Priory Junior School"/>
    <tag k="ref:edubase" v="110702"/>
    <tag k="wikidata" v="Q67148341"/>
  </way>
  <way id="125327475" version="13" timestamp="2024-04-26T13:51:39Z" changeset="150540371" uid="64091" user="jong">
    <nd ref="339129114"/>
    <nd ref="4511126619"/>
    <nd ref="4511125747"/>
    <nd ref="1343549961"/>
    <nd ref="7930760988"/>
    <nd ref="9041141610"/>
    <nd ref="4511148395"/>
    <nd ref="5272059"/>
    <nd ref="7930734676"/>
    <nd ref="301859331"/>
    <nd ref="6969739295"/>
    <nd ref="4100217110"/>
    <nd ref="1266346515"/>
    <nd ref="339087719"/>
    <tag k="addr:city" v="St Neots"/>
    <tag k="addr:postcode" v="PE19 1AA"/>
    <tag k="addr:street" v="Huntingdon Road"/>
    <tag k="highway" v="secondary"/>
    <tag k="lcn" v="cambs_cc_stneots_proposed"/>
    <tag k="name" v="Huntingdon Street"/>
    <tag k="ref" v="B1043"/>
    <tag k="source" v="dictaphone"/>
  </way>
  <way id="131421228" version="6" timestamp="2023-04-13T09:34:21Z" changeset="134853975" uid="2969887" user="eastender">
    <nd ref="1446374814"/>
    <nd ref="1446374610"/>
    <nd ref="1446374707"/>
    <nd ref="1446374606"/>
    <nd ref="1446374777"/>
    <nd ref="3375087275"/>
    <nd ref="1446374759"/>
    <nd ref="1446374887"/>
    <nd ref="4399072474"/>
    <nd ref="1446374814"/>
    <tag k="addr:city" v="St Neots"/>
    <tag k="addr:housenumber" v="2"/>
    <tag k="addr:postcode" v="PE19 8YP"/>
    <tag k="addr:street" v="Marlborough Road"/>
    <tag k="amenity" v="pub"/>
    <tag k="brand" v="Brewers Fayre"/>
    <tag k="brand:wikidata" v="Q4962678"/>
    <tag k="building" v="yes"/>
    <tag k="cuisine" v="british"/>
    <tag k="fhrs:id" v="341476"/>
    <tag k="name" v="The Highwayman"/>
    <tag k="operator" v="Brewer's Fayre"/>
  </way>
  <way id="131421231" version="5" timestamp="2023-10-14T22:40:59Z" changeset="142594414" uid="10420541" user="Thingummy">
    <nd ref="1446374873"/>
    <nd ref="1446374850"/>
    <nd ref="1446374669"/>
    <nd ref="1446374856"/>
    <nd ref="1446374873"/>
    <tag k="addr:city" v="St Neots"/>
    <tag k="addr:housename" v="Colmworth Trade Centre"/>
    <tag k="addr:postcode" v="PE19 8YW"/>
    <tag k="addr:street" v="Chester Road"/>
    <tag k="building" v="retail"/>
    <tag k="name" v="Colmworth Trade Centre"/>
    <tag k="source" v="bing"/>
  </way>
  <way id="189956216" version="8" timestamp="2024-04-03T22:43:33Z" changeset="149546189" uid="6816132" user="CjMalone">
    <nd ref="2005619929"/>
    <nd ref="2005619937"/>
    <nd ref="2005619935"/>
    <nd ref="2005619931"/>
    <nd ref="2005619933"/>
    <nd ref="2005619943"/>
    <nd ref="2005619941"/>
    <nd ref="2005619939"/>
    <nd ref="2005619929"/>
    <tag k="addr:city" v="St Neots"/>
    <tag k="addr:postcode" v="PE19 1AW"/>
    <tag k="addr:street" v="Tebbutts Road"/>
    <tag k="brand" v="Poundstretcher"/>
    <tag k="brand:wikidata" v="Q7235675"/>
    <tag k="brand:wikipedia" v="en:Poundstretcher"/>
    <tag k="building" v="commercial"/>
    <tag k="name" v="Poundstretcher"/>
    <tag k="shop" v="variety_store"/>
    <tag k="website" v="https://www.poundstretcher.co.uk/stneots-144"/>
    <tag k="wheelchair" v="yes"/>
  </way>
  <way id="189956249" version="12" timestamp="2024-03-20T09:58:09Z" changeset="148902637" uid="6816132" user="CjMalone">
    <nd ref="2005623771"/>
    <nd ref="4115022693"/>
    <nd ref="2005623780"/>
    <nd ref="2005623782"/>
    <nd ref="2005623769"/>
    <nd ref="2005623772"/>
    <nd ref="5368155896"/>
    <nd ref="2005623778"/>
    <nd ref="2005623774"/>
    <nd ref="2005623776"/>
    <nd ref="2005623766"/>
    <nd ref="2005623770"/>
    <nd ref="2005623768"/>
    <nd ref="2005623767"/>
    <nd ref="2005623771"/>
    <tag k="addr:city" v="St Neots"/>
    <tag k="addr:postcode" v="PE19 2BH"/>
    <tag k="addr:street" v="Priory Lane"/>
    <tag k="brand" v="Waitrose"/>
    <tag k="brand:wikidata" v="Q771734"/>
    <tag k="brand:wikipedia" v="en:Waitrose"/>
    <tag k="building" v="yes"/>
    <tag k="fhrs:id" v="341541"/>
    <tag k="name" v="Waitrose"/>
    <tag k="official_name" v="Waitrose &amp; Partners"/>
    <tag k="operator" v="Waitrose &amp; Partners"/>
    <tag k="shop" v="supermarket"/>
    <tag k="source:addr" v="FHRS Open Data"/>
    <tag k="toilets:wheelchair" v="no"/>
    <tag k="website" v="https://www.waitrose.com/find-a-store/st.-neots"/>
    <tag k="wheelchair" v="yes"/>
  </way>
  <way id="189956391" version="9" timestamp="2023-11-26T09:41:36Z" changeset="144464555" uid="6816132" user="CjMalone">
    <nd ref="2005630551"/>
    <nd ref="2005630552"/>
    <nd ref="2005630550"/>
    <nd ref="2005630557"/>
    <nd ref="2005630553"/>
    <nd ref="2005630554"/>
    <nd ref="2005630559"/>
    <nd ref="2005630556"/>
    <nd ref="2005630555"/>
    <nd ref="2005630558"/>
    <nd ref="2005630551"/>
    <tag k="addr:city" v="St Neots"/>
    <tag k="addr:country" v="GB"/>
    <tag k="addr:housenumber" v="45"/>
    <tag k="addr:postcode" v="PE19 1JL"/>
    <tag k="addr:street" v="Cambridge Street"/>
    <tag k="brand" v="Lidl"/>
    <tag k="brand:wikidata" v="Q151954"/>
    <tag k="brand:wikipedia" v="en:Lidl"/>
    <tag k="building" v="yes"/>
    <tag k="fhrs:id" v="740039"/>
    <tag k="name" v="Lidl"/>
    <tag k="shop" v="supermarket"/>
    <tag k="toilets:wheelchair" v="no"/>
    <tag k="website" v="https://www.lidl.co.uk/s/en-GB/store-finder/st-neots/cambrigeshire/cedar-house-cambridge-street/"/>
    <tag k="wheelchair" v="yes"/>
  </way>
  <way id="189956549" version="9" timestamp="2024-07-22T20:44:47Z" changeset="154280304" uid="21425661" user="CjMalone">
    <nd ref="2005643169"/>
    <nd ref="4511152846"/>
    <nd ref="2005643173"/>
    <nd ref="4511155549"/>
    <nd ref="2005643178"/>
    <nd ref="2005643175"/>
    <nd ref="2005643166"/>
    <nd ref="2005643164"/>
    <nd ref="2005643169"/>
    <tag k="addr:city" v="St Neots"/>
    <tag k="addr:housenumber" v="47-51"/>
    <tag k="addr:postcode" v="PE19 1BN"/>
    <tag k="addr:street" v="High Street"/>
    <tag k="brand" v="M&amp;S Foodhall"/>
    <tag k="brand:wikidata" v="Q714491"/>
    <tag k="brand:wikipedia" v="en:Marks &amp; Spencer"/>
    <tag k="building" v="yes"/>
    <tag k="check_date" v="2024-07-21"/>
    <tag k="check_date:opening_hours" v="2024-07-21"/>
    <tag k="contact:website" v="https://www.marksandspencer.com/stores/st-neots-simply-food-6295"/>
    <tag k="name" v="M&amp;S Foodhall"/>
    <tag k="opening_hours" v="Mo-Sa 08:00-19:00; Su 10:00-16:00"/>
    <tag k="shop" v="supermarket"/>
    <tag k="toilets:wheelchair" v="no"/>
    <tag k="wheelchair" v="yes"/>
  </way>
  <way id="189956998" version="8" timestamp="2024-04-21T06:55:43Z" changeset="150288831" uid="6816132" user="CjMalone">
    <nd ref="2005644310"/>
    <nd ref="2005644303"/>
    <nd ref="2005644308"/>
    <nd ref="2005644307"/>
    <nd ref="2005644304"/>
    <nd ref="2005644309"/>
    <nd ref="2005644305"/>
    <nd ref="2005644306"/>
    <nd ref="2005644310"/>
    <tag k="addr:city" v="St Neots"/>
    <tag k="addr:postcode" v="PE19 1QB"/>
    <tag k="addr:street" v="Cambridge Street"/>
    <tag k="brand" v="Spar"/>
    <tag k="brand:wikidata" v="Q610492"/>
    <tag k="brand:wikipedia" v="en:SPAR (retailer)"/>
    <tag k="building" v="yes"/>
    <tag k="name" v="Spar"/>
    <tag k="shop" v="supermarket"/>
    <tag k="website" v="https://www.spar.co.uk/store-locator/afb10957-spar-st-neots/"/>
    <tag k="wheelchair" v="yes"/>
  </way>
  <way id="206640094" version="6" timestamp="2023-08-06T08:36:11Z" changeset="139506133" uid="6816132" user="CjMalone">
    <nd ref="2166766411"/>
    <nd ref="2166766413"/>
    <nd ref="2166766423"/>
    <nd ref="2166766419"/>
    <nd ref="2166766411"/>
    <tag k="addr:city" v="St Neots"/>
    <tag k="addr:country" v="GB"/>
    <tag k="addr:housenumber" v="37"/>
    <tag k="addr:postcode" v="PE19 8EN"/>
    <tag k="addr:street" v="Great North Road"/>
    <tag k="alt_name" v="Kentucky Fried Chicken"/>
    <tag k="amenity" v="fast_food"/>
    <tag k="brand" v="KFC"/>
    <tag k="brand:wikidata" v="Q524757"/>
    <tag k="brand:wikipedia" v="en:KFC"/>
    <tag k="building" v="yes"/>
    <tag k="contact:website" v="https://www.kfc.co.uk/kfc-near-me/st-neots-great-north-road"/>
    <tag k="cuisine" v="chicken"/>
    <tag k="delivery" v="no"/>
    <tag k="drive_through" v="yes"/>
    <tag k="fhrs:id" v="341134"/>
    <tag k="name" v="KFC"/>
    <tag k="outdoor_seating" v="yes"/>
    <tag k="smoking" v="outside"/>
    <tag k="source" v="Bing"/>
    <tag k="takeaway" v="yes"/>
    <tag k="wheelchair" v="yes"/>
  </way>
  <way id="233382901" version="2" timestamp="2022-07-16T16:09:28Z" changeset="123694679" uid="242345" user="confusedbuffalo">
    <nd ref="2417778124"/>
    <nd ref="2417778158"/>
    <nd ref="2417778113"/>
    <nd ref="2417778111"/>
    <nd ref="2417778126"/>
    <nd ref="2417778115"/>
    <nd ref="2417778059"/>
    <nd ref="2417778132"/>
    <nd ref="2417778082"/>
    <nd ref="2417778159"/>
    <nd ref="2417778067"/>
    <nd ref="2417778075"/>
    <nd ref="2417778128"/>
    <nd ref="2417778124"/>
    <tag k="addr:city" v="St Neots"/>
    <tag k="addr:housenumber" v="10"/>
    <tag k="addr:postcode" v="PE19 2NB"/>
    <tag k="addr:street" v="Berkley Street"/>
    <tag k="building" v="church"/>
    <tag k="denomination" v="methodist"/>
    <tag k="name" v="Berkley Street Methodist Church"/>
    <tag k="religion" v="christian"/>
  </way>
  <way id="362847273" version="11" timestamp="2024-09-03T19:47:48Z" changeset="156157798" uid="21425661" user="CjMalone">
    <nd ref="3670935408"/>
    <nd ref="3670935410"/>
    <nd ref="3670935406"/>
    <nd ref="3670935400"/>
    <nd ref="3670935397"/>
    <nd ref="3670935409"/>
    <nd ref="3670935402"/>
    <nd ref="3670935408"/>
    <tag k="addr:city" v="St Neots"/>
    <tag k="addr:country" v="GB"/>
    <tag k="addr:housenumber" v="5"/>
    <tag k="addr:postcode" v="PE19 2AR"/>
    <tag k="addr:street" v="Market Square"/>
    <tag k="amenity" v="bank"/>
    <tag k="atm" v="yes"/>
    <tag k="brand" v="Nationwide"/>
    <tag k="brand:wikidata" v="Q846735"/>
    <tag k="brand:wikipedia" v="en:Nationwide Building Society"/>
    <tag k="building" v="commercial"/>
    <tag k="check_date" v="2024-09-02"/>
    <tag k="check_date:opening_hours" v="2024-09-02"/>
    <tag k="name" v="Nationwide"/>
    <tag k="opening_hours" v="Mo-Tu 09:00-16:30; We 10:00-16:30; Th-Fr 09:00-16:30; Sa-Su closed"/>
    <tag k="phone" v="+44 800 5541160"/>
    <tag k="website" v="https://www.nationwide.co.uk/branches/st-neots/5-market-square"/>
  </way>
  <way id="362847275" version="3" timestamp="2018-09-17T16:37:30Z" changeset="62670884" uid="8834271" user="hurley96">
    <nd ref="3670935403"/>
    <nd ref="3670935399"/>
    <nd ref="3670935409"/>
    <nd ref="3670935402"/>
    <nd ref="3670935398"/>
    <nd ref="3670935401"/>
    <nd ref="3670935407"/>
    <nd ref="3670935411"/>
    <nd ref="3670935403"/>
    <tag k="addr:city" v="St Neots"/>
    <tag k="addr:housenumber" v="7-9"/>
    <tag k="addr:postcode" v="PE19 2AR"/>
    <tag k="addr:street" v="Market Square"/>
    <tag k="amenity" v="restaurant"/>
    <tag k="brewery" v="Marston's"/>
    <tag k="building" v="commercial"/>
    <tag k="fhrs:id" v="748586"/>
    <tag k="name" v="Brook &amp; Barter"/>
    <tag k="operator" v="Marston's"/>
    <tag k="smoking" v="outside"/>
    <tag k="website" v="http://www.priorypubstneots.co.uk/"/>
  </way>
  <way id="362848238" version="5" timestamp="2021-03-26T18:42:45Z" changeset="101811855" uid="659911" user="mikey-b">
    <nd ref="3670943690"/>
    <nd ref="3670943683"/>
    <nd ref="3670943689"/>
    <nd ref="3670943680"/>
    <nd ref="3670943678"/>
    <nd ref="3690352932"/>
    <nd ref="3670943690"/>
    <tag k="addr:city" v="St Neots"/>
    <tag k="addr:housenumber" v="1"/>
    <tag k="addr:postcode" v="PE19 2AP"/>
    <tag k="addr:street" v="Market Square"/>
    <tag k="amenity" v="pub"/>
    <tag k="building" v="commercial"/>
    <tag k="fhrs:id" v="341108"/>
    <tag k="food" v="yes"/>
    <tag k="name" v="The Bridge House"/>
    <tag k="source:addr" v="FHRS Open Data"/>
    <tag k="website" v="http://www.thebridgehousestneots.co.uk/"/>
    <tag k="wikidata" v="Q26422994"/>
  </way>
  <way id="362848392" version="3" timestamp="2021-03-26T18:42:45Z" changeset="101811855" uid="659911" user="mikey-b">
    <nd ref="3670945987"/>
    <nd ref="3670935403"/>
    <nd ref="3670935411"/>
    <nd ref="3670945991"/>
    <nd ref="3670945994"/>
    <nd ref="3670945987"/>
    <tag k="addr:street" v="Market Square"/>
    <tag k="building" v="commercial"/>
    <tag k="name" v="Sharman Quinney"/>
    <tag k="office" v="estate_agent"/>
    <tag k="website" v="https://www.sharmanquinney.co.uk/"/>
  </way>
  <way id="362848393" version="3" timestamp="2021-03-26T18:42:45Z" changeset="101811855" uid="659911" user="mikey-b">
    <nd ref="3670945990"/>
    <nd ref="3670945986"/>
    <nd ref="3670945989"/>
    <nd ref="3670945993"/>
    <nd ref="3670945996"/>
    <nd ref="3670945988"/>
    <nd ref="3670947291"/>
    <nd ref="3670945992"/>
    <nd ref="3670945995"/>
    <nd ref="3670945990"/>
    <tag k="addr:street" v="Market Square"/>
    <tag k="building" v="commercial"/>
    <tag k="name" v="Stephens"/>
    <tag k="shop" v="butcher"/>
  </way>
  <way id="362848638" version="9" timestamp="2022-12-11T22:48:32Z" changeset="129978585" uid="6816132" user="CjMalone">
    <nd ref="3670947292"/>
    <nd ref="3670945988"/>
    <nd ref="3670947291"/>
    <nd ref="3670947293"/>
    <nd ref="3670947289"/>
    <nd ref="3670947288"/>
    <nd ref="3670947294"/>
    <nd ref="3670947290"/>
    <nd ref="3670947295"/>
    <nd ref="3670950560"/>
    <nd ref="3670947292"/>
    <tag k="addr:city" v="St Neots"/>
    <tag k="addr:housenumber" v="15"/>
    <tag k="addr:postcode" v="PE19 2AR"/>
    <tag k="addr:street" v="Market Square"/>
    <tag k="amenity" v="fast_food"/>
    <tag k="brand" v="Greggs"/>
    <tag k="brand:wikidata" v="Q3403981"/>
    <tag k="brand:wikipedia" v="en:Greggs"/>
    <tag k="building" v="commercial"/>
    <tag k="contact:website" v="https://www.greggs.co.uk/shop-finder?shop-code=0834"/>
    <tag k="cuisine" v="sandwich;bakery"/>
    <tag k="fhrs:id" v="893299"/>
    <tag k="name" v="Greggs"/>
    <tag k="smoking" v="no"/>
    <tag k="takeaway" v="yes"/>
    <tag k="wikidata" v="Q26422989"/>
  </way>
  <way id="362848960" version="3" timestamp="2021-03-26T18:42:45Z" changeset="101811855" uid="659911" user="mikey-b">
    <nd ref="3670950561"/>
    <nd ref="3670950549"/>
    <nd ref="3670950558"/>
    <nd ref="3670950539"/>
    <nd ref="3670950546"/>
    <nd ref="3670950555"/>
    <nd ref="3670950536"/>
    <nd ref="3670950545"/>
    <nd ref="3670950553"/>
    <nd ref="3670950565"/>
    <nd ref="3670950561"/>
    <tag k="addr:street" v="Market Square"/>
    <tag k="brand" v="M&amp;Co"/>
    <tag k="brand:wikidata" v="Q6711808"/>
    <tag k="brand:wikipedia" v="en:M&amp;Co."/>
    <tag k="building" v="commercial"/>
    <tag k="name" v="M&amp;Co"/>
    <tag k="operator" v="M&amp;Co."/>
    <tag k="shop" v="clothes"/>
  </way>
  <way id="362849256" version="5" timestamp="2024-12-18T18:34:14Z" changeset="160363911" uid="20475686" user="Dan200">
    <nd ref="3670955633"/>
    <nd ref="3670955631"/>
    <nd ref="8733886802"/>
    <nd ref="3670955632"/>
    <nd ref="3670955634"/>
    <nd ref="3686232317"/>
    <nd ref="3670955630"/>
    <nd ref="3670945994"/>
    <nd ref="3670945987"/>
    <nd ref="12431468451"/>
    <nd ref="3670955633"/>
    <tag k="addr:street" v="Market Square"/>
    <tag k="building" v="commercial"/>
    <tag k="name" v="Priory Blinds &amp; Curtains"/>
    <tag k="shop" v="window_blind"/>
  </way>
  <way id="362849418" version="4" timestamp="2021-03-26T18:42:45Z" changeset="101811855" uid="659911" user="mikey-b">
    <nd ref="3670945990"/>
    <nd ref="3670950933"/>
    <nd ref="3670950935"/>
    <nd ref="3670950938"/>
    <nd ref="3670955633"/>
    <nd ref="3670955631"/>
    <nd ref="3670950937"/>
    <nd ref="3670950939"/>
    <nd ref="3670950934"/>
    <nd ref="3686235164"/>
    <nd ref="3670950936"/>
    <nd ref="3670945995"/>
    <nd ref="3670945990"/>
    <tag k="addr:street" v="Market Square"/>
    <tag k="amenity" v="cafe"/>
    <tag k="building" v="commercial"/>
    <tag k="name" v="Bohemia"/>
    <tag k="operator" v="Kodak Express"/>
  </way>
  <way id="362850862" version="5" timestamp="2021-03-26T18:42:45Z" changeset="101811855" uid="659911" user="mikey-b">
    <nd ref="3670964572"/>
    <nd ref="3670950565"/>
    <nd ref="3670950553"/>
    <nd ref="3670964576"/>
    <nd ref="3670964581"/>
    <nd ref="3670964586"/>
    <nd ref="3670964575"/>
    <nd ref="3670964572"/>
    <tag k="addr:street" v="Market Square"/>
    <tag k="brand" v="Scope"/>
    <tag k="brand:wikidata" v="Q7434435"/>
    <tag k="brand:wikipedia" v="en:Scope (charity)"/>
    <tag k="building" v="commercial"/>
    <tag k="name" v="Scope"/>
    <tag k="shop" v="charity"/>
  </way>
  <way id="362850863" version="6" timestamp="2022-04-24T19:21:50Z" changeset="120136359" uid="6816132" user="CjMalone">
    <nd ref="3670964585"/>
    <nd ref="3686245352"/>
    <nd ref="3670964580"/>
    <nd ref="3686245358"/>
    <nd ref="3686245350"/>
    <nd ref="3670964574"/>
    <nd ref="3686245353"/>
    <nd ref="3670964579"/>
    <nd ref="3670964583"/>
    <nd ref="3670964573"/>
    <nd ref="3670964578"/>
    <nd ref="3670964582"/>
    <nd ref="3670964587"/>
    <nd ref="3670964577"/>
    <nd ref="3670964586"/>
    <nd ref="3670964575"/>
    <nd ref="3670964572"/>
    <nd ref="3670964585"/>
    <tag k="addr:street" v="Market Square"/>
    <tag k="brand" v="Iceland"/>
    <tag k="brand:wikidata" v="Q721810"/>
    <tag k="brand:wikipedia" v="en:Iceland (supermarket)"/>
    <tag k="building" v="commercial"/>
    <tag k="contact:website" v="https://www.iceland.co.uk/store-finder/store?StoreID=1243&amp;StoreName=ST%20NEOTS"/>
    <tag k="name" v="Iceland"/>
    <tag k="operator" v="Iceland"/>
    <tag k="shop" v="frozen_food"/>
  </way>
  <way id="364587101" version="6" timestamp="2021-03-26T18:42:45Z" changeset="101811855" uid="659911" user="mikey-b">
    <nd ref="3686236686"/>
    <nd ref="3686236706"/>
    <nd ref="3686236714"/>
    <nd ref="3686236694"/>
    <nd ref="3686236703"/>
    <nd ref="3686242351"/>
    <nd ref="3686236712"/>
    <nd ref="3686236691"/>
    <nd ref="3686236701"/>
    <nd ref="3889405532"/>
    <nd ref="3686236710"/>
    <nd ref="3686236690"/>
    <nd ref="3686236686"/>
    <tag k="addr:street" v="Market Square"/>
    <tag k="brand" v="Mountain Warehouse"/>
    <tag k="brand:wikidata" v="Q6925414"/>
    <tag k="brand:wikipedia" v="en:Mountain Warehouse"/>
    <tag k="building" v="commercial"/>
    <tag k="name" v="Mountain Warehouse"/>
    <tag k="shop" v="outdoor"/>
  </way>
  <way id="364587103" version="3" timestamp="2021-03-26T18:42:45Z" changeset="101811855" uid="659911" user="mikey-b">
    <nd ref="3686236707"/>
    <nd ref="3686236695"/>
    <nd ref="3686236704"/>
    <nd ref="3686236713"/>
    <nd ref="3686236692"/>
    <nd ref="3686236702"/>
    <nd ref="3686236711"/>
    <nd ref="3686236707"/>
    <tag k="addr:street" v="Market Square"/>
    <tag k="brand" v="Clarks"/>
    <tag k="brand:wikidata" v="Q1095857"/>
    <tag k="brand:wikipedia" v="en:C. &amp; J. Clark"/>
    <tag k="building" v="commercial"/>
    <tag k="name" v="Clarks"/>
    <tag k="shop" v="shoes"/>
  </way>
  <way id="364587330" version="3" timestamp="2021-03-26T18:42:45Z" changeset="101811855" uid="659911" user="mikey-b">
    <nd ref="3686242348"/>
    <nd ref="3686236706"/>
    <nd ref="3686236714"/>
    <nd ref="3686236694"/>
    <nd ref="3686242351"/>
    <nd ref="3686242352"/>
    <nd ref="3686242349"/>
    <nd ref="3686242350"/>
    <nd ref="3686242348"/>
    <tag k="addr:street" v="Market Square"/>
    <tag k="brand" v="Carphone Warehouse"/>
    <tag k="brand:wikidata" v="Q118046"/>
    <tag k="brand:wikipedia" v="en:Carphone Warehouse"/>
    <tag k="building" v="yes"/>
    <tag k="name" v="Carphone Warehouse"/>
    <tag k="operator" v="Carphone Warehouse"/>
    <tag k="shop" v="mobile_phone"/>
  </way>
  <way id="364587437" version="4" timestamp="2021-03-26T18:42:45Z" changeset="101811855" uid="659911" user="mikey-b">
    <nd ref="3686243574"/>
    <nd ref="3686242348"/>
    <nd ref="3686242350"/>
    <nd ref="3686242349"/>
    <nd ref="3686243577"/>
    <nd ref="3686243574"/>
    <tag k="addr:street" v="Market Square"/>
    <tag k="building" v="yes"/>
    <tag k="name" v="Entertainment Base"/>
    <tag k="shop" v="video_games"/>
  </way>
  <way id="364587438" version="4" timestamp="2021-06-14T21:25:33Z" changeset="106358601" uid="11022773" user="GeoFens">
    <nd ref="3686243574"/>
    <nd ref="3670964585"/>
    <nd ref="3686243575"/>
    <nd ref="3686245355"/>
    <nd ref="3686243576"/>
    <nd ref="3686243574"/>
    <tag k="addr:street" v="Market Square"/>
    <tag k="brand" v="Haart"/>
    <tag k="brand:wikidata" v="Q75006731"/>
    <tag k="brand:wikipedia" v="en: Spicerhaart"/>
    <tag k="building" v="commercial"/>
    <tag k="name" v="Haart"/>
    <tag k="office" v="estate_agent"/>
  </way>
  <way id="364650724" version="3" timestamp="2024-04-04T11:28:41Z" changeset="149565653" uid="95856" user="john paul jones &amp; gringo">
    <nd ref="3686939059"/>
    <nd ref="3686939065"/>
    <nd ref="3686939066"/>
    <nd ref="3686939062"/>
    <nd ref="3688360102"/>
    <nd ref="3686939063"/>
    <nd ref="3686939064"/>
    <nd ref="3686939060"/>
    <nd ref="3686939061"/>
    <nd ref="3686939059"/>
    <tag k="addr:city" v="St Neots"/>
    <tag k="addr:country" v="GB"/>
    <tag k="addr:housename" v="North Laurels"/>
    <tag k="addr:housenumber" v="204-206"/>
    <tag k="addr:postcode" v="PE19 8EF"/>
    <tag k="addr:street" v="Great North Road"/>
    <tag k="name" v="North Laurels"/>
    <tag k="tourism" v="guest_house"/>
  </way>
  <way id="375219096" version="8" timestamp="2022-07-16T16:09:28Z" changeset="123694679" uid="242345" user="confusedbuffalo">
    <nd ref="3786046647"/>
    <nd ref="1292212539"/>
    <nd ref="3782383835"/>
    <nd ref="3782364503"/>
    <nd ref="3782364502"/>
    <nd ref="3782364501"/>
    <nd ref="9751295833"/>
    <nd ref="3782364500"/>
    <nd ref="3782364499"/>
    <nd ref="3782364498"/>
    <nd ref="3782364497"/>
    <nd ref="3782364505"/>
    <nd ref="3782364504"/>
    <nd ref="3783238428"/>
    <nd ref="3783238437"/>
    <nd ref="3786046640"/>
    <nd ref="1292213621"/>
    <nd ref="1292213057"/>
    <nd ref="3786046641"/>
    <nd ref="3786046648"/>
    <nd ref="3786046642"/>
    <nd ref="3786046645"/>
    <nd ref="3786046649"/>
    <nd ref="3786046643"/>
    <nd ref="3786046646"/>
    <nd ref="3786046650"/>
    <nd ref="4006372905"/>
    <nd ref="1292212485"/>
    <nd ref="1292212495"/>
    <nd ref="1292213396"/>
    <nd ref="4006372903"/>
    <nd ref="3786046651"/>
    <nd ref="3786046644"/>
    <nd ref="3786046647"/>
    <tag k="addr:city" v="St Neots"/>
    <tag k="addr:postcode" v="PE19 2BW"/>
    <tag k="addr:street" v="Brook Street, St.Neots, Cambs."/>
    <tag k="boatyard:type" v="motorboat"/>
    <tag k="harbour:electricity" v="yes"/>
    <tag k="harbour:fuel_station" v="no"/>
    <tag k="harbour:pump-out" v="yes"/>
    <tag k="harbour:slipway" v="yes"/>
    <tag k="harbour:water_tap" v="yes"/>
    <tag k="leisure" v="marina"/>
    <tag k="name" v="St. Neots Marina"/>
    <tag k="phone" v="+44 1480 472411"/>
    <tag k="seamark:harbour:category" v="marina"/>
    <tag k="seamark:type" v="harbour"/>
    <tag k="waterway" v="boatyard"/>
    <tag k="website" v="http://www.st-neotsmarina.co.uk"/>
  </way>
  <way id="375980711" version="3" timestamp="2022-04-29T10:26:56Z" changeset="120341974" uid="1287673" user="sloerunner">
    <nd ref="3783238432"/>
    <nd ref="3783238413"/>
    <nd ref="3783238423"/>
    <nd ref="3783238433"/>
    <nd ref="1292213426"/>
    <nd ref="1292213285"/>
    <nd ref="3783238439"/>
    <nd ref="3782401601"/>
    <nd ref="3782401609"/>
    <nd ref="3782352549"/>
    <nd ref="9702649614"/>
    <nd ref="3782352553"/>
    <nd ref="3783238422"/>
    <nd ref="3783238432"/>
    <tag k="access" v="private"/>
    <tag k="addr:city" v="St Neots"/>
    <tag k="addr:housename" v="Willow Bank"/>
    <tag k="addr:postcode" v="PE19 2TF"/>
    <tag k="addr:street" v="Washbank Road"/>
    <tag k="area" v="yes"/>
    <tag k="name" v="Willow Bank"/>
  </way>
  <way id="390516810" version="3" timestamp="2024-04-04T11:28:41Z" changeset="149565653" uid="95856" user="john paul jones &amp; gringo">
    <nd ref="3936675391"/>
    <nd ref="3936675394"/>
    <nd ref="3936675389"/>
    <nd ref="3936675397"/>
    <nd ref="3936675392"/>
    <nd ref="3936675387"/>
    <nd ref="3936675395"/>
    <nd ref="3936675390"/>
    <nd ref="3936675386"/>
    <nd ref="3936675393"/>
    <nd ref="3936675388"/>
    <nd ref="3936675396"/>
    <nd ref="3936675391"/>
    <tag k="addr:city" v="St Neots"/>
    <tag k="addr:country" v="GB"/>
    <tag k="addr:housename" v="Eaton Socon Health Center"/>
    <tag k="addr:housenumber" v="274"/>
    <tag k="addr:postcode" v="PE19 8BB"/>
    <tag k="addr:street" v="Great North Road"/>
    <tag k="addr:suburb" v="Eaton Socon"/>
    <tag k="building" v="yes"/>
    <tag k="name" v="Eaton Socon Health Center"/>
  </way>
  <way id="396088614" version="4" timestamp="2024-04-04T11:28:41Z" changeset="149565653" uid="95856" user="john paul jones &amp; gringo">
    <nd ref="3988640912"/>
    <nd ref="3988640913"/>
    <nd ref="3988640914"/>
    <nd ref="3988640915"/>
    <nd ref="3988640890"/>
    <nd ref="3988640891"/>
    <nd ref="3988640892"/>
    <nd ref="3988640893"/>
    <nd ref="3988870465"/>
    <nd ref="3988640894"/>
    <nd ref="3988640895"/>
    <nd ref="3988702701"/>
    <nd ref="3988702710"/>
    <nd ref="3988640910"/>
    <nd ref="3988640911"/>
    <nd ref="3988640912"/>
    <tag k="addr:city" v="St Neots"/>
    <tag k="addr:country" v="GB"/>
    <tag k="addr:housename" v="The Scout Hut"/>
    <tag k="addr:postcode" v="PE19 7AG"/>
    <tag k="addr:street" v="Mill Hill Road"/>
    <tag k="building" v="yes"/>
    <tag k="name" v="The Scout Hut"/>
    <tag k="polling_station" v="yes"/>
  </way>
  <way id="409254560" version="8" timestamp="2024-04-04T11:28:41Z" changeset="149565653" uid="95856" user="john paul jones &amp; gringo">
    <nd ref="4111553498"/>
    <nd ref="4111553496"/>
    <nd ref="9034116827"/>
    <nd ref="9034116826"/>
    <nd ref="4111553495"/>
    <nd ref="4111553493"/>
    <nd ref="4111553498"/>
    <tag k="addr:city" v="St Neots"/>
    <tag k="addr:country" v="GB"/>
    <tag k="addr:postcode" v="PE19 1BG"/>
    <tag k="addr:street" v="Huntingdon Street"/>
    <tag k="amenity" v="restaurant"/>
    <tag k="brand" v="Frankie &amp; Benny's"/>
    <tag k="brand:wikidata" v="Q5490892"/>
    <tag k="brand:wikipedia" v="en:Frankie &amp; Benny's"/>
    <tag k="building" v="yes"/>
    <tag k="building:levels" v="1"/>
    <tag k="cuisine" v="american"/>
    <tag k="name" v="Frankie &amp; Benny's"/>
    <tag k="smoking" v="outside"/>
  </way>
  <way id="442350072" version="11" timestamp="2023-11-26T09:41:36Z" changeset="144464555" uid="6816132" user="CjMalone">
    <nd ref="4400430792"/>
    <nd ref="4400430793"/>
    <nd ref="4400430794"/>
    <nd ref="6188320084"/>
    <nd ref="4400430795"/>
    <nd ref="4400430792"/>
    <tag k="addr:city" v="St Neots"/>
    <tag k="addr:country" v="GB"/>
    <tag k="addr:housenumber" v="29"/>
    <tag k="addr:postcode" v="PE19 8EN"/>
    <tag k="addr:street" v="Great North Road"/>
    <tag k="brand" v="Lidl"/>
    <tag k="brand:wikidata" v="Q151954"/>
    <tag k="brand:wikipedia" v="en:Lidl"/>
    <tag k="building" v="retail"/>
    <tag k="fhrs:id" v="974859"/>
    <tag k="name" v="Lidl"/>
    <tag k="shop" v="supermarket"/>
    <tag k="toilets:wheelchair" v="yes"/>
    <tag k="website" v="https://www.lidl.co.uk/s/en-GB/store-finder/st-neots/great-north-road-29/"/>
    <tag k="wheelchair" v="yes"/>
  </way>
  <way id="445221346" version="4" timestamp="2024-04-04T11:28:41Z" changeset="149565653" uid="95856" user="john paul jones &amp; gringo">
    <nd ref="4426766421"/>
    <nd ref="4426766418"/>
    <nd ref="4426766416"/>
    <nd ref="4426766417"/>
    <nd ref="4426766419"/>
    <nd ref="4426766415"/>
    <nd ref="4426766421"/>
    <tag k="addr:city" v="St Neots"/>
    <tag k="addr:country" v="GB"/>
    <tag k="addr:housenumber" v="25"/>
    <tag k="addr:postcode" v="PE19 1BA"/>
    <tag k="addr:street" v="Russell Street"/>
    <tag k="amenity" v="pub"/>
    <tag k="building" v="commercial"/>
    <tag k="name" v="The Ale Taster"/>
    <tag k="old_name" v="Hog &amp; Partridge, Lord John Russell"/>
    <tag k="phone" v="+44 1480 581368"/>
    <tag k="website" v="https://whatpub.com/pubs/STN/189/ale-taster-st-neots"/>
  </way>
  <way id="454562528" version="7" timestamp="2024-01-11T23:39:38Z" changeset="146161523" uid="6816132" user="CjMalone">
    <nd ref="4511102288"/>
    <nd ref="4511102501"/>
    <nd ref="4511102506"/>
    <nd ref="4511112544"/>
    <nd ref="4511102491"/>
    <nd ref="4511102499"/>
    <nd ref="4511102503"/>
    <nd ref="4511102495"/>
    <nd ref="4511102288"/>
    <tag k="addr:city" v="St Neots"/>
    <tag k="addr:housenumber" v="35"/>
    <tag k="addr:postcode" v="PE19 1NL"/>
    <tag k="addr:street" v="High Street"/>
    <tag k="brand" v="Morrisons Daily"/>
    <tag k="brand:wikidata" v="Q99752411"/>
    <tag k="building" v="commercial"/>
    <tag k="name" v="Morrisons Daily"/>
    <tag k="shop" v="convenience"/>
    <tag k="source:addr" v="pol_branch_list_2018-02"/>
    <tag k="source:opening_hours:post_office" v="pol_branch_list_2018-02"/>
    <tag k="website" v="https://my.morrisons.com/storefinder/60405/morrisons-daily-st-neots-high-street"/>
  </way>
  <way id="454562531" version="5" timestamp="2023-10-24T14:47:02Z" changeset="143069282" uid="9451067" user="b-jazz-bot">
    <nd ref="4511102496"/>
    <nd ref="4511102494"/>
    <nd ref="4511102509"/>
    <nd ref="4511152847"/>
    <nd ref="4511102500"/>
    <nd ref="4511102505"/>
    <nd ref="4511102490"/>
    <nd ref="5368156005"/>
    <nd ref="4511102498"/>
    <nd ref="4511102502"/>
    <nd ref="4511102496"/>
    <tag k="addr:city" v="St Neots"/>
    <tag k="addr:housenumber" v="41"/>
    <tag k="addr:postcode" v="PE19 1AS"/>
    <tag k="addr:street" v="High Street"/>
    <tag k="amenity" v="bank"/>
    <tag k="atm" v="yes"/>
    <tag k="brand" v="Barclays"/>
    <tag k="brand:wikidata" v="Q245343"/>
    <tag k="brand:wikipedia" v="en:Barclays"/>
    <tag k="building" v="commercial"/>
    <tag k="name" v="Barclays"/>
    <tag k="operator" v="Barclays"/>
    <tag k="website" v="https://www.barclays.com/"/>
  </way>
  <way id="454563565" version="5" timestamp="2024-04-21T08:28:40Z" changeset="150291514" uid="6816132" user="CjMalone">
    <nd ref="4511112538"/>
    <nd ref="4511112544"/>
    <nd ref="4511102491"/>
    <nd ref="4511102499"/>
    <nd ref="4511102503"/>
    <nd ref="4511112536"/>
    <nd ref="4511112535"/>
    <nd ref="4511112543"/>
    <nd ref="4511112546"/>
    <nd ref="4511112540"/>
    <nd ref="4511102497"/>
    <nd ref="4511112545"/>
    <nd ref="4511112541"/>
    <nd ref="4511112539"/>
    <nd ref="4511112538"/>
    <tag k="addr:city" v="St Neots"/>
    <tag k="addr:housenumber" v="33"/>
    <tag k="addr:postcode" v="PE19 1BU"/>
    <tag k="addr:street" v="High Street"/>
    <tag k="amenity" v="pharmacy"/>
    <tag k="brand" v="Boots"/>
    <tag k="brand:wikidata" v="Q6123139"/>
    <tag k="brand:wikipedia" v="en:Boots (company)"/>
    <tag k="building" v="commercial"/>
    <tag k="fhrs:id" v="748542"/>
    <tag k="healthcare" v="pharmacy"/>
    <tag k="name" v="Boots"/>
    <tag k="operator" v="Boots"/>
    <tag k="source:addr" v="FHRS Open Data"/>
    <tag k="website" v="https://www.boots.com/stores/156-st-neots-high-street-pe19-1bw"/>
  </way>
  <way id="454565197" version="4" timestamp="2024-04-04T11:28:41Z" changeset="149565653" uid="95856" user="john paul jones &amp; gringo">
    <nd ref="4511126613"/>
    <nd ref="4511126618"/>
    <nd ref="4511126611"/>
    <nd ref="4511126614"/>
    <nd ref="4511126617"/>
    <nd ref="4511126620"/>
    <nd ref="4511126613"/>
    <tag k="addr:city" v="St Neots"/>
    <tag k="addr:country" v="GB"/>
    <tag k="addr:housenumber" v="66"/>
    <tag k="addr:postcode" v="PE19 1DU"/>
    <tag k="addr:street" v="Huntingdon Street"/>
    <tag k="building" v="commercial"/>
    <tag k="name" v="The Codfather"/>
    <tag k="note" v="Serves Gluten free every day upon request, ring first"/>
    <tag k="phone" v="+44 1480 471469"/>
  </way>
  <way id="454575831" version="4" timestamp="2023-09-07T20:26:46Z" changeset="140957277" uid="6816132" user="CjMalone">
    <nd ref="4511226607"/>
    <nd ref="4511154202"/>
    <nd ref="4511226608"/>
    <nd ref="4511226606"/>
    <nd ref="4511226607"/>
    <tag k="addr:city" v="St. Neots"/>
    <tag k="addr:street" v="Huntingdon Street"/>
    <tag k="brand" v="The Co-operative Funeralcare"/>
    <tag k="brand:wikidata" v="Q7726521"/>
    <tag k="brand:wikipedia" v="en:Co-op Funeralcare"/>
    <tag k="building" v="commercial"/>
    <tag k="name" v="The Co-operative Funeralcare"/>
    <tag k="operator" v="Central England Co-operative"/>
    <tag k="operator:wikidata" v="Q16986583"/>
    <tag k="shop" v="funeral_directors"/>
    <tag k="website" v="https://stores.centralengland.coop/cambridgeshire/st-neots/1-huntingdon-street"/>
  </way>
  <way id="454576505" version="2" timestamp="2018-03-17T18:03:50Z" changeset="57272632" uid="84263" user="Robert Whittaker">
    <nd ref="4511234922"/>
    <nd ref="4511234935"/>
    <nd ref="4511234940"/>
    <nd ref="4511234924"/>
    <nd ref="4511234932"/>
    <nd ref="4511234942"/>
    <nd ref="4511234926"/>
    <nd ref="4511234922"/>
    <tag k="addr:city" v="St Neots"/>
    <tag k="addr:housenumber" v="11"/>
    <tag k="addr:postcode" v="PE19 1BL"/>
    <tag k="addr:street" v="Huntingdon Street"/>
    <tag k="amenity" v="pub"/>
    <tag k="building" v="commercial"/>
    <tag k="fhrs:id" v="341274"/>
    <tag k="name" v="Ye Olde Sun"/>
    <tag k="source:addr" v="FHRS Open Data"/>
  </way>
  <way id="454577586" version="5" timestamp="2021-05-15T09:12:10Z" changeset="104722529" uid="6816132" user="CjMalone">
    <nd ref="4511247465"/>
    <nd ref="4511234940"/>
    <nd ref="4511234924"/>
    <nd ref="4511247468"/>
    <nd ref="4511247464"/>
    <nd ref="4511247469"/>
    <nd ref="4511247465"/>
    <tag k="addr:city" v="St Neots"/>
    <tag k="addr:country" v="GB"/>
    <tag k="addr:housenumber" v="13"/>
    <tag k="addr:postcode" v="PE19 1BL"/>
    <tag k="addr:street" v="Huntingdon Street"/>
    <tag k="amenity" v="fast_food"/>
    <tag k="brand" v="Domino's"/>
    <tag k="brand:wikidata" v="Q839466"/>
    <tag k="brand:wikipedia" v="en:Domino's Pizza"/>
    <tag k="building" v="commercial"/>
    <tag k="contact:website" v="https://www.dominos.co.uk/pizza-near-me/st-neots/13-huntingdon-street"/>
    <tag k="cuisine" v="pizza"/>
    <tag k="fhrs:id" v="341087"/>
    <tag k="name" v="Domino's"/>
    <tag k="source:addr" v="FHRS Open Data"/>
    <tag k="takeaway" v="yes"/>
  </way>
  <way id="454578355" version="3" timestamp="2018-03-17T18:03:51Z" changeset="57272632" uid="84263" user="Robert Whittaker">
    <nd ref="4511253680"/>
    <nd ref="4511249327"/>
    <nd ref="4511253686"/>
    <nd ref="4511253685"/>
    <nd ref="4511253680"/>
    <tag k="addr:city" v="St Neots"/>
    <tag k="addr:housenumber" v="19"/>
    <tag k="addr:postcode" v="PE19 1BL"/>
    <tag k="addr:street" v="Huntingdon Street"/>
    <tag k="amenity" v="fast_food"/>
    <tag k="building" v="commercial"/>
    <tag k="fhrs:id" v="984026"/>
    <tag k="name" v="Simply Rumbles"/>
    <tag k="source:addr" v="FHRS Open Data"/>
  </way>
  <way id="454578356" version="4" timestamp="2024-09-20T11:30:20Z" changeset="156863179" uid="21425661" user="CjMalone">
    <nd ref="4511253682"/>
    <nd ref="4511253686"/>
    <nd ref="4511249327"/>
    <nd ref="4511249330"/>
    <nd ref="4110205461"/>
    <nd ref="464681807"/>
    <nd ref="4511253682"/>
    <tag k="addr:city" v="St Neots"/>
    <tag k="addr:housenumber" v="21"/>
    <tag k="addr:postcode" v="PE19 1BL"/>
    <tag k="addr:street" v="Huntingdon Street"/>
    <tag k="amenity" v="fast_food"/>
    <tag k="brand" v="Pizza Hut Delivery"/>
    <tag k="brand:wikidata" v="Q107293079"/>
    <tag k="brand:wikipedia" v="en:Pizza Hut"/>
    <tag k="building" v="yes"/>
    <tag k="check_date" v="2024-09-19"/>
    <tag k="check_date:opening_hours" v="2024-09-19"/>
    <tag k="cuisine" v="pizza"/>
    <tag k="delivery" v="yes"/>
    <tag k="fhrs:id" v="893311"/>
    <tag k="name" v="Pizza Hut Delivery"/>
    <tag k="opening_hours" v="Mo-Su 11:30-23:00"/>
    <tag k="phone" v="+44 1480 211486"/>
    <tag k="source:addr" v="FHRS Open Data"/>
    <tag k="takeaway" v="only"/>
    <tag k="website" v="https://www.pizzahut.co.uk/huts/uk-1/8188-st-neots/"/>
  </way>
  <way id="556484664" version="5" timestamp="2023-12-13T18:13:53Z" changeset="145084855" uid="20615063" user="DinosaursDrinkTea">
    <nd ref="5368155474"/>
    <nd ref="5368155475"/>
    <nd ref="11415365387"/>
    <nd ref="5368155476"/>
    <nd ref="5368155477"/>
    <nd ref="5368155474"/>
    <tag k="addr:city" v="St Neots"/>
    <tag k="addr:housenumber" v="2-6"/>
    <tag k="addr:postcode" v="PE19 1JJ"/>
    <tag k="addr:street" v="Cambridge Street"/>
    <tag k="amenity" v="cafe"/>
    <tag k="building" v="yes"/>
    <tag k="cuisine" v="indian"/>
    <tag k="diet:vegan" v="yes"/>
    <tag k="diet:vegetarian" v="yes"/>
    <tag k="name" v="The Chaii Hub"/>
    <tag k="outdoor_seating" v="yes"/>
    <tag k="phone" v="01480731010"/>
    <tag k="takeaway" v="yes"/>
    <tag k="toilets" v="yes"/>
  </way>
  <way id="556484710" version="2" timestamp="2018-09-17T16:37:31Z" changeset="62670884" uid="8834271" user="hurley96">
    <nd ref="5368155896"/>
    <nd ref="5368155897"/>
    <nd ref="5368155898"/>
    <nd ref="5368155899"/>
    <nd ref="5368155900"/>
    <nd ref="5368155902"/>
    <nd ref="5368155907"/>
    <nd ref="5368155901"/>
    <nd ref="2005623772"/>
    <nd ref="5368155896"/>
    <tag k="addr:city" v="St Neots"/>
    <tag k="addr:housenumber" v="11-13"/>
    <tag k="addr:postcode" v="PE19 1AE"/>
    <tag k="addr:street" v="New Street"/>
    <tag k="building" v="retail"/>
    <tag k="name" v="T.L. Cobbold"/>
  </way>
  <way id="556484712" version="3" timestamp="2021-09-05T17:29:11Z" changeset="110759156" uid="5589" user="user_5589">
    <nd ref="5368155902"/>
    <nd ref="5368155903"/>
    <nd ref="5368155904"/>
    <nd ref="5368155905"/>
    <nd ref="5368155906"/>
    <nd ref="5368155907"/>
    <nd ref="5368155902"/>
    <tag k="addr:city" v="St Neots"/>
    <tag k="addr:housenumber" v="9"/>
    <tag k="addr:postcode" v="PE19 1AE"/>
    <tag k="addr:street" v="New Street"/>
    <tag k="amenity" v="pub"/>
    <tag k="brand" v="Greene King"/>
    <tag k="brand:wikidata" v="Q5564162"/>
    <tag k="brand:wikipedia" v="en:Greene King"/>
    <tag k="building" v="commercial"/>
    <tag k="name" v="Pig and Falcon"/>
    <tag k="operator" v="Greene King"/>
    <tag k="outdoor_seating" v="yes"/>
    <tag k="smoking" v="outside"/>
  </way>
  <way id="556484714" version="6" timestamp="2024-07-19T15:59:11Z" changeset="154149213" uid="13666626" user="RedAuburn">
    <nd ref="5368155908"/>
    <nd ref="11415365416"/>
    <nd ref="5368155909"/>
    <nd ref="5368155910"/>
    <nd ref="5368155911"/>
    <nd ref="5368155912"/>
    <nd ref="5368155913"/>
    <nd ref="5368155921"/>
    <nd ref="5368155920"/>
    <nd ref="5368155908"/>
    <tag k="addr:city" v="St Neots"/>
    <tag k="addr:country" v="GB"/>
    <tag k="addr:housenumber" v="15"/>
    <tag k="addr:postcode" v="PE19 1AE"/>
    <tag k="addr:street" v="New Street"/>
    <tag k="amenity" v="pub"/>
    <tag k="brand" v="Wetherspoon"/>
    <tag k="brand:wikidata" v="Q6109362"/>
    <tag k="brand:wikipedia" v="en:Wetherspoons"/>
    <tag k="building" v="commercial"/>
    <tag k="contact:website" v="https://www.jdwetherspoon.com/pubs/all-pubs/england/cambridgeshire/the-weeping-ash-st-neots"/>
    <tag k="name" v="The Weeping Ash"/>
    <tag k="outdoor_seating" v="yes"/>
    <tag k="smoking" v="outside"/>
    <tag k="wikidata" v="Q125117374"/>
  </way>
  <way id="556484760" version="6" timestamp="2022-10-28T19:15:42Z" changeset="128188221" uid="13666626" user="RedAuburn">
    <nd ref="5368156058"/>
    <nd ref="5368156059"/>
    <nd ref="5368156060"/>
    <nd ref="5368156061"/>
    <nd ref="5368156062"/>
    <nd ref="5368156063"/>
    <nd ref="5368156064"/>
    <nd ref="5368156065"/>
    <nd ref="5368156066"/>
    <nd ref="5368156067"/>
    <nd ref="5368156068"/>
    <nd ref="5368156069"/>
    <nd ref="5368156058"/>
    <tag k="addr:city" v="St Neots"/>
    <tag k="addr:housenumber" v="14"/>
    <tag k="addr:postcode" v="PE19 1BL"/>
    <tag k="addr:street" v="Huntingdon Street"/>
    <tag k="amenity" v="clinic"/>
    <tag k="building" v="yes"/>
    <tag k="emergency" v="no"/>
    <tag k="healthcare" v="clinic"/>
    <tag k="name" v="Cedar House Surgery"/>
    <tag k="operator" v="NHS"/>
    <tag k="operator:wikidata" v="Q918396"/>
  </way>
  <way id="556541143" version="2" timestamp="2024-04-26T13:51:39Z" changeset="150540371" uid="64091" user="jong">
    <nd ref="5368694610"/>
    <nd ref="5368694611"/>
    <nd ref="5368694612"/>
    <nd ref="5368694613"/>
    <nd ref="5368694614"/>
    <nd ref="5368694615"/>
    <nd ref="5368694616"/>
    <nd ref="5368694617"/>
    <nd ref="5368694610"/>
    <tag k="addr:city" v="St Neots"/>
    <tag k="addr:postcode" v="PE19 1AA"/>
    <tag k="addr:street" v="Huntingdon Road"/>
    <tag k="building" v="yes"/>
    <tag k="leisure" v="bowling_alley"/>
    <tag k="name" v="Eat'N'Bowl"/>
    <tag k="phone" v="01480 471 611"/>
  </way>
  <way id="556541196" version="3" timestamp="2021-07-03T14:00:11Z" changeset="107354983" uid="2032231" user="narboy">
    <nd ref="5368694781"/>
    <nd ref="5368694782"/>
    <nd ref="8890261052"/>
    <nd ref="5368694783"/>
    <nd ref="5368694784"/>
    <nd ref="5368694781"/>
    <tag k="addr:housenumber" v="18"/>
    <tag k="addr:street" v="The Maltings"/>
    <tag k="amenity" v="community_centre"/>
    <tag k="building" v="yes"/>
    <tag k="name" v="The Eatons Community Centre"/>
  </way>
  <way id="624161166" version="4" timestamp="2024-09-10T06:56:09Z" changeset="156424681" uid="90142" user="andy mackey">
    <nd ref="5893902891"/>
    <nd ref="5893902888"/>
    <nd ref="5893902889"/>
    <nd ref="5893902890"/>
    <nd ref="5893902891"/>
    <tag k="addr:city" v="St Neots"/>
    <tag k="addr:postcode" v="PE19 2BX"/>
    <tag k="addr:street" v="Cemetery Road"/>
    <tag k="building" v="yes"/>
    <tag k="name" v="Kerkhove Building"/>
  </way>
  <way id="626238885" version="4" timestamp="2022-04-16T14:04:08Z" changeset="119785701" uid="6816132" user="CjMalone">
    <nd ref="5912184513"/>
    <nd ref="5912184514"/>
    <nd ref="5912184515"/>
    <nd ref="8833568118"/>
    <nd ref="5912184516"/>
    <nd ref="5912184513"/>
    <tag k="addr:city" v="St Neots"/>
    <tag k="addr:postcode" v="PE19 8EN"/>
    <tag k="addr:street" v="Great North Road"/>
    <tag k="amenity" v="fast_food"/>
    <tag k="brand" v="Burger King"/>
    <tag k="brand:wikidata" v="Q177054"/>
    <tag k="brand:wikipedia" v="en:Burger King"/>
    <tag k="building" v="yes"/>
    <tag k="contact:website" v="https://locations.burgerking.co.uk/saint-neots/37-great-n-road-eaton-socon"/>
    <tag k="cuisine" v="burger"/>
    <tag k="name" v="Burger King"/>
    <tag k="takeaway" v="yes"/>
  </way>
  <way id="734838327" version="2" timestamp="2021-06-14T21:01:13Z" changeset="106357947" uid="11022773" user="GeoFens">
    <nd ref="6882049528"/>
    <nd ref="6882049527"/>
    <nd ref="6882049526"/>
    <nd ref="6882049525"/>
    <nd ref="6882049528"/>
    <tag k="addr:city" v="St Neots"/>
    <tag k="addr:postcode" v="PE19 8EN"/>
    <tag k="addr:street" v="Great North Road"/>
    <tag k="amenity" v="cafe"/>
    <tag k="brand" v="Costa"/>
    <tag k="brand:wikidata" v="Q608845"/>
    <tag k="brand:wikipedia" v="en:Costa Coffee"/>
    <tag k="building" v="yes"/>
    <tag k="cuisine" v="coffee_shop"/>
    <tag k="name" v="Costa"/>
    <tag k="outdoor_seating" v="no"/>
    <tag k="smoking" v="outside"/>
    <tag k="takeaway" v="yes"/>
    <tag k="wheelchair" v="yes"/>
  </way>
  <way id="1067229429" version="2" timestamp="2022-07-16T16:09:31Z" changeset="123694679" uid="242345" user="confusedbuffalo">
    <nd ref="9799062849"/>
    <nd ref="9799062843"/>
    <nd ref="9799062847"/>
    <nd ref="9799062845"/>
    <nd ref="9799062848"/>
    <nd ref="9799062850"/>
    <nd ref="9799062849"/>
    <tag k="addr:city" v="St Neots"/>
    <tag k="addr:housename" v="St Neots Pod"/>
    <tag k="addr:postcode" v="PE19 2SA"/>
    <tag k="addr:street" v="Barford Road"/>
    <tag k="building" v="yes"/>
    <tag k="name" v="Tesco St Neots Pod"/>
    <tag k="operator" v="Tesco Stores Ltd"/>
  </way>
  <way id="1067231152" version="2" timestamp="2022-07-16T16:09:31Z" changeset="123694679" uid="242345" user="confusedbuffalo">
    <nd ref="9799164724"/>
    <nd ref="9799164728"/>
    <nd ref="9799164723"/>
    <nd ref="9799164725"/>
    <nd ref="9799164722"/>
    <nd ref="9799164724"/>
    <tag k="addr:city" v="St Neots"/>
    <tag k="addr:housename" v="self-service Click+Collect"/>
    <tag k="addr:postcode" v="PE19 2SA"/>
    <tag k="addr:street" v="Barford Road"/>
    <tag k="building" v="yes"/>
    <tag k="name" v="Tesco St Neots self-service Click+Collect"/>
    <tag k="operator" v="Tesco Stores Ltd"/>
  </way>
  <way id="1276447169" version="1" timestamp="2024-04-26T13:51:39Z" changeset="150540371" uid="64091" user="jong">
    <nd ref="470476702"/>
    <nd ref="470476694"/>
    <nd ref="339130149"/>
    <nd ref="4110275910"/>
    <nd ref="5368694588"/>
    <nd ref="9031216885"/>
    <nd ref="5272058"/>
    <nd ref="9034116448"/>
    <nd ref="339129114"/>
    <tag k="addr:city" v="St Neots"/>
    <tag k="addr:postcode" v="PE19 1AA"/>
    <tag k="addr:street" v="Huntingdon Road"/>
    <tag k="highway" v="secondary"/>
    <tag k="lcn" v="cambs_cc_stneots_proposed"/>
    <tag k="name" v="Huntingdon Road"/>
    <tag k="ref" v="B1043"/>
    <tag k="source" v="dictaphone"/>
  </way>
  <way id="1349586254" version="2" timestamp="2025-01-08T18:56:02Z" changeset="161144643" uid="322785" user="BCNorwich">
    <nd ref="12484725539"/>
    <nd ref="12484725540"/>
    <nd ref="1446374893"/>
    <nd ref="1446374829"/>
    <nd ref="1446374770"/>
    <nd ref="1446374772"/>
    <nd ref="1446374852"/>
    <nd ref="1446374603"/>
    <nd ref="12484725539"/>
    <tag k="addr:city" v="St Neots"/>
    <tag k="addr:housename" v="Cambridge Support LTD"/>
    <tag k="addr:postcode" v="PE19 8ER"/>
    <tag k="addr:street" v="Eaton Court Road"/>
    <tag k="addr:unit" v="6"/>
    <tag k="building" v="commercial"/>
    <tag k="building:levels" v="12"/>
    <tag k="layer" v="-1"/>
    <tag k="name" v="Cambridge Support LTD"/>
  </way>

</osm>
