<?xml version="1.0" encoding="UTF-8"?>
<osm version="0.6" generator="Overpass API 0.7.62.4 2390de5a">
<note>The data included in this document is from www.openstreetmap.org. The data is made available under ODbL.</note>
<meta osm_base="2025-01-23T15:22:54Z" areas="2024-12-31T00:49:33Z"/>

  <node id="534369211" lat="52.5120152" lon="-0.2605811" version="5" timestamp="2024-08-30T07:28:56Z" changeset="155959477" uid="95856" user="john paul jones &amp; gringo">
    <tag k="addr:city" v="Peterborough"/>
    <tag k="addr:country" v="GB"/>
    <tag k="addr:county" v="Cambridgeshire"/>
    <tag k="addr:housenumber" v="179"/>
    <tag k="addr:postcode" v="PE7 3LD"/>
    <tag k="addr:street" v="Main Street"/>
    <tag k="addr:suburb" v="Yaxley"/>
    <tag k="addr:village" v="Yaxley"/>
    <tag k="amenity" v="pub"/>
    <tag k="fhrs:id" v="1615749"/>
    <tag k="name" v="Three Horseshoes"/>
    <tag k="source:addr" v="FHRS Open Data"/>
    <tag k="wikidata" v="Q26531055"/>
  </node>
  <node id="1429749886" lat="52.5118819" lon="-0.2607159" version="4" timestamp="2024-08-30T07:28:56Z" changeset="155959477" uid="95856" user="john paul jones &amp; gringo">
    <tag k="addr:city" v="Peterborough"/>
    <tag k="addr:country" v="GB"/>
    <tag k="addr:housenumber" v="183"/>
    <tag k="addr:postcode" v="PE7 3LD"/>
    <tag k="addr:street" v="Main Street"/>
    <tag k="addr:suburb" v="Yaxley"/>
    <tag k="amenity" v="cafe"/>
    <tag k="cuisine" v="coffee_shop"/>
    <tag k="name" v="Sophie T's Vintage Teashop"/>
    <tag k="website" v="http://www.sophiets.co.uk/"/>
  </node>
  <node id="7016848491" lat="52.5236527" lon="-0.2392607" version="6" timestamp="2023-09-19T10:42:06Z" changeset="141462856" uid="2274390" user="dzidek23">
    <tag k="addr:city" v="Peterborough"/>
    <tag k="addr:housenumber" v="6"/>
    <tag k="addr:postcode" v="PE7 7BY"/>
    <tag k="addr:street" v="Eden Way"/>
    <tag k="leisure" v="sports_hall"/>
    <tag k="name" v="Meridian Gymnastics"/>
    <tag k="sport" v="gymnastics"/>
    <tag k="website" v="https://meridiangymnasticsclub.co.uk"/>
  </node>
  <node id="7288506868" lat="52.5263497" lon="-0.2388638" version="3" timestamp="2024-01-27T17:51:39Z" changeset="146753489" uid="11022773" user="GeoFens">
    <tag k="addr:city" v="Peterborough"/>
    <tag k="addr:country" v="GB"/>
    <tag k="addr:postcode" v="PE7 3GX"/>
    <tag k="addr:street" v="Broadway"/>
    <tag k="addr:unit" v="Unit 2"/>
    <tag k="name" v="Urban Marque Ltd"/>
    <tag k="office" v="company"/>
    <tag k="website" v="https://urbanmarque.com/"/>
  </node>
  <node id="8098118279" lat="52.5171069" lon="-0.2602943" version="3" timestamp="2024-08-30T07:28:56Z" changeset="155959477" uid="95856" user="john paul jones &amp; gringo">
    <tag k="addr:city" v="Peterborough"/>
    <tag k="addr:country" v="GB"/>
    <tag k="addr:county" v="Cambridgeshire"/>
    <tag k="addr:housenumber" v="189"/>
    <tag k="addr:postcode" v="PE7 3NT"/>
    <tag k="addr:street" v="Broadway"/>
    <tag k="addr:suburb" v="Yaxley"/>
    <tag k="addr:village" v="Yaxley"/>
    <tag k="amenity" v="fast_food"/>
    <tag k="cuisine" v="fish_and_chips"/>
    <tag k="fhrs:id" v="818567"/>
    <tag k="name" v="Friar Tuck's"/>
    <tag k="source:addr" v="FHRS Open Data"/>
  </node>
  <node id="8098118280" lat="52.5166173" lon="-0.2634217" version="3" timestamp="2024-08-30T07:45:07Z" changeset="155960094" uid="95856" user="john paul jones &amp; gringo">
    <tag k="addr:city" v="Peterborough"/>
    <tag k="addr:country" v="GB"/>
    <tag k="addr:county" v="Cambridgeshire"/>
    <tag k="addr:housenumber" v="208B"/>
    <tag k="addr:postcode" v="PE7 3NT"/>
    <tag k="addr:street" v="Broadway"/>
    <tag k="addr:suburb" v="Yaxley"/>
    <tag k="addr:village" v="Yaxley"/>
    <tag k="amenity" v="childcare"/>
    <tag k="fhrs:id" v="341149"/>
    <tag k="name" v="Little Acorns"/>
    <tag k="source:addr" v="FHRS Open Data"/>
  </node>
  <node id="11557196078" lat="52.5244269" lon="-0.2361014" version="1" timestamp="2024-01-27T17:51:39Z" changeset="146753489" uid="11022773" user="GeoFens">
    <tag k="addr:housenumber" v="10"/>
    <tag k="addr:street" v="Slater Court"/>
    <tag k="name" v="AF Golf Store"/>
    <tag k="shop" v="sports"/>
    <tag k="sport" v="golf"/>
    <tag k="website" v="https://www.afgolfstore.co.uk"/>
  </node>
  <node id="11821753441" lat="52.5230404" lon="-0.2410397" version="1" timestamp="2024-04-16T10:45:25Z" changeset="150078484" uid="2274390" user="dzidek23">
    <tag k="addr:housenumber" v="11"/>
    <tag k="addr:street" v="Eden Way"/>
    <tag k="addr:unit" v="11"/>
    <tag k="amenity" v="fixme"/>
    <tag k="check_date" v="2024-04-16"/>
    <tag k="fixme" v="type"/>
    <tag k="fixme:type" v="bama"/>
    <tag k="name" v="BAMA Fabrication"/>
  </node>
  <node id="11821753442" lat="52.5235157" lon="-0.2411001" version="1" timestamp="2024-04-16T10:45:25Z" changeset="150078484" uid="2274390" user="dzidek23">
    <tag k="addr:housenumber" v="15"/>
    <tag k="addr:street" v="Eden Way"/>
    <tag k="amenity" v="fixme"/>
    <tag k="check_date" v="2024-04-16"/>
    <tag k="fixme" v="type"/>
    <tag k="fixme:type" v="APG"/>
    <tag k="name" v="APG Bathrooms"/>
  </node>
  <way id="28728314" version="12" timestamp="2024-08-30T07:35:11Z" changeset="155959717" uid="95856" user="john paul jones &amp; gringo">
    <nd ref="315865574"/>
    <nd ref="315865578"/>
    <nd ref="315865582"/>
    <nd ref="315865585"/>
    <nd ref="1020573676"/>
    <nd ref="1020573112"/>
    <nd ref="1020574531"/>
    <nd ref="1020574990"/>
    <nd ref="315865574"/>
    <tag k="addr:city" v="Peterborough"/>
    <tag k="addr:postcode" v="PE7 3NT"/>
    <tag k="addr:street" v="Bentley Avenue"/>
    <tag k="addr:suburb" v="Yaxley"/>
    <tag k="brand" v="The Co-operative Food"/>
    <tag k="brand:wikidata" v="Q107617274"/>
    <tag k="building" v="yes"/>
    <tag k="check_date" v="2024-07-15"/>
    <tag k="check_date:opening_hours" v="2024-07-15"/>
    <tag k="fhrs:id" v="341467"/>
    <tag k="name" v="The Co-operative Food"/>
    <tag k="opening_hours" v="Mo-Sa 07:00-22:00; Su 10:00-16:00"/>
    <tag k="operator" v="Central England Co-operative"/>
    <tag k="operator:wikidata" v="Q16986583"/>
    <tag k="shop" v="supermarket"/>
    <tag k="website" v="https://stores.centralengland.coop/cambridgeshire/peterborough/bentley-avenue"/>
  </way>
  <way id="154720540" version="2" timestamp="2024-08-30T07:35:11Z" changeset="155959717" uid="95856" user="john paul jones &amp; gringo">
    <nd ref="1672138507"/>
    <nd ref="1672138516"/>
    <nd ref="1672138513"/>
    <nd ref="1672138512"/>
    <nd ref="1672138507"/>
    <tag k="addr:city" v="Peterborough"/>
    <tag k="addr:housenumber" v="47"/>
    <tag k="addr:postcode" v="PE7 3ZS"/>
    <tag k="addr:street" v="Bentley Avenue"/>
    <tag k="addr:suburb" v="Yaxley"/>
    <tag k="building" v="house"/>
  </way>
  <way id="154720541" version="2" timestamp="2012-03-12T15:54:56Z" changeset="10956506" uid="623089" user="Hsifida">
    <nd ref="1672138491"/>
    <nd ref="1672138503"/>
    <nd ref="1672138499"/>
    <nd ref="1672138501"/>
    <nd ref="1672138478"/>
    <nd ref="1672138508"/>
    <nd ref="1672138502"/>
    <nd ref="1672138491"/>
    <tag k="addr:housenumber" v="43"/>
    <tag k="addr:street" v="Bentely Avenue"/>
    <tag k="building" v="house"/>
  </way>
  <way id="154720544" version="1" timestamp="2012-03-12T15:52:45Z" changeset="10956468" uid="623089" user="Hsifida">
    <nd ref="1672138476"/>
    <nd ref="1672138483"/>
    <nd ref="1672138492"/>
    <nd ref="1672138490"/>
    <nd ref="1672138515"/>
    <nd ref="1672138473"/>
    <nd ref="1672138476"/>
    <tag k="addr:housenumber" v="45"/>
    <tag k="addr:street" v="Bentley Avenue"/>
    <tag k="building" v="house"/>
  </way>
  <way id="154823395" version="1" timestamp="2012-03-13T03:14:41Z" changeset="10962737" uid="623089" user="Hsifida">
    <nd ref="1672906555"/>
    <nd ref="1672906627"/>
    <nd ref="1672906687"/>
    <nd ref="1672906565"/>
    <nd ref="1672906680"/>
    <nd ref="1672906663"/>
    <nd ref="1672906605"/>
    <nd ref="1672906555"/>
    <tag k="addr:housenumber" v="1"/>
    <tag k="addr:street" v="Alvis Drive"/>
    <tag k="building" v="house"/>
  </way>
  <way id="154823399" version="3" timestamp="2024-08-30T07:35:11Z" changeset="155959717" uid="95856" user="john paul jones &amp; gringo">
    <nd ref="1672906664"/>
    <nd ref="1672906696"/>
    <nd ref="1672906633"/>
    <nd ref="1672906563"/>
    <nd ref="1672906630"/>
    <nd ref="1672906658"/>
    <nd ref="1672906661"/>
    <nd ref="1672906692"/>
    <nd ref="1672906664"/>
    <tag k="addr:city" v="Peterborough"/>
    <tag k="addr:housenumber" v="49"/>
    <tag k="addr:postcode" v="PE7 3ZS"/>
    <tag k="addr:street" v="Bentley Avenue"/>
    <tag k="addr:suburb" v="Yaxley"/>
    <tag k="building" v="house"/>
    <tag k="building:levels" v="2"/>
    <tag k="house" v="detached"/>
  </way>
  <way id="154823406" version="2" timestamp="2024-08-30T07:35:11Z" changeset="155959717" uid="95856" user="john paul jones &amp; gringo">
    <nd ref="1672906632"/>
    <nd ref="1672906589"/>
    <nd ref="1672906582"/>
    <nd ref="1672906564"/>
    <nd ref="1672906632"/>
    <tag k="addr:city" v="Peterborough"/>
    <tag k="addr:housenumber" v="51"/>
    <tag k="addr:postcode" v="PE7 3ZS"/>
    <tag k="addr:street" v="Bentley Avenue"/>
    <tag k="addr:suburb" v="Yaxley"/>
    <tag k="building" v="house"/>
  </way>
  <way id="154823408" version="1" timestamp="2012-03-13T03:14:43Z" changeset="10962737" uid="623089" user="Hsifida">
    <nd ref="1672906686"/>
    <nd ref="1672906676"/>
    <nd ref="1672906656"/>
    <nd ref="1672906616"/>
    <nd ref="1672906651"/>
    <nd ref="1672906611"/>
    <nd ref="1672906686"/>
    <tag k="addr:housenumber" v="2"/>
    <tag k="addr:street" v="Alvis Drive"/>
    <tag k="building" v="house"/>
  </way>
  <way id="154823812" version="2" timestamp="2012-03-15T15:43:07Z" changeset="10989689" uid="623089" user="Hsifida">
    <nd ref="1672910039"/>
    <nd ref="1672910023"/>
    <nd ref="1672910050"/>
    <nd ref="1672910026"/>
    <nd ref="1672910036"/>
    <nd ref="1672910015"/>
    <nd ref="1672910028"/>
    <nd ref="1672910037"/>
    <nd ref="1672910039"/>
    <tag k="addr:housenumber" v="36"/>
    <tag k="addr:street" v="Bentley Avenue"/>
    <tag k="building" v="house"/>
  </way>
  <way id="154823815" version="2" timestamp="2012-03-15T15:43:07Z" changeset="10989689" uid="623089" user="Hsifida">
    <nd ref="1672910009"/>
    <nd ref="1672910007"/>
    <nd ref="1672910017"/>
    <nd ref="1672910040"/>
    <nd ref="1672910009"/>
    <tag k="addr:housenumber" v="32"/>
    <tag k="addr:street" v="Bentley Avenue"/>
    <tag k="building" v="house"/>
  </way>
  <way id="154823818" version="2" timestamp="2012-03-15T15:43:07Z" changeset="10989689" uid="623089" user="Hsifida">
    <nd ref="1672909997"/>
    <nd ref="1672910000"/>
    <nd ref="1672909996"/>
    <nd ref="1672910018"/>
    <nd ref="1672910013"/>
    <nd ref="1672910010"/>
    <nd ref="1672909997"/>
    <tag k="addr:housenumber" v="38"/>
    <tag k="addr:street" v="Bentley Avenue"/>
    <tag k="building" v="house"/>
  </way>
  <way id="154823819" version="2" timestamp="2012-03-15T15:43:08Z" changeset="10989689" uid="623089" user="Hsifida">
    <nd ref="1672910002"/>
    <nd ref="1672910031"/>
    <nd ref="1672910029"/>
    <nd ref="1672910048"/>
    <nd ref="1672910002"/>
    <tag k="addr:housenumber" v="34"/>
    <tag k="addr:street" v="Bentley Avenue"/>
    <tag k="building" v="house"/>
  </way>
  <way id="155167176" version="1" timestamp="2012-03-15T15:53:41Z" changeset="10989806" uid="623089" user="Hsifida">
    <nd ref="1675890823"/>
    <nd ref="1675890873"/>
    <nd ref="1675890874"/>
    <nd ref="1675890852"/>
    <nd ref="1675890823"/>
    <tag k="addr:housenumber" v="2"/>
    <tag k="addr:street" v="Wolseley Close"/>
    <tag k="building" v="house"/>
  </way>
  <way id="168506925" version="4" timestamp="2023-10-21T18:01:09Z" changeset="142935271" uid="9451067" user="b-jazz-bot">
    <nd ref="1797621059"/>
    <nd ref="1797621047"/>
    <nd ref="1797621036"/>
    <nd ref="1797621042"/>
    <nd ref="6236268358"/>
    <nd ref="1797621049"/>
    <nd ref="1797621057"/>
    <nd ref="1797621041"/>
    <nd ref="1797621045"/>
    <nd ref="1797621037"/>
    <nd ref="1797621060"/>
    <nd ref="1797621064"/>
    <nd ref="1797621056"/>
    <nd ref="1797621055"/>
    <nd ref="1797621062"/>
    <nd ref="1797621043"/>
    <nd ref="1797621054"/>
    <nd ref="1797621046"/>
    <nd ref="1797621053"/>
    <nd ref="1797621051"/>
    <nd ref="1797621038"/>
    <nd ref="1797621065"/>
    <nd ref="1797621061"/>
    <nd ref="1797621059"/>
    <tag k="addr:city" v="Peterborough"/>
    <tag k="addr:housename" v="Stanley’s Farm"/>
    <tag k="addr:postcode" v="PE7 3TW"/>
    <tag k="addr:street" v="Great Drove"/>
    <tag k="building" v="yes"/>
    <tag k="name" v="RBOrganic &amp; Burgess Farm HQ"/>
    <tag k="website" v="https://burgessfarms.co.uk/"/>
    <tag k="wheelchair" v="limited"/>
  </way>
  <way id="176821895" version="4" timestamp="2024-08-30T07:43:39Z" changeset="155960036" uid="95856" user="john paul jones &amp; gringo">
    <nd ref="1873086337"/>
    <nd ref="1873086340"/>
    <nd ref="1873086332"/>
    <nd ref="1873086342"/>
    <nd ref="1873086337"/>
    <tag k="addr:city" v="Peterborough"/>
    <tag k="addr:country" v="GB"/>
    <tag k="addr:housename" v="Willow Road Garage"/>
    <tag k="addr:housenumber" v="20"/>
    <tag k="addr:postcode" v="PE7 3HT"/>
    <tag k="addr:street" v="Willow Road"/>
    <tag k="addr:suburb" v="Yaxley"/>
    <tag k="building" v="yes"/>
    <tag k="name" v="Willow Road Garage"/>
    <tag k="shop" v="car_repair"/>
  </way>
  <way id="263351386" version="6" timestamp="2024-07-31T02:25:13Z" changeset="154628581" uid="623089" user="Hsifida">
    <nd ref="1020574995"/>
    <nd ref="1020574260"/>
    <nd ref="1020573486"/>
    <nd ref="1020574200"/>
    <nd ref="12084212554"/>
    <nd ref="1020574995"/>
    <tag k="addr:city" v="Peterborough"/>
    <tag k="addr:country" v="GB"/>
    <tag k="addr:housename" v="Broadway Shopping Centre"/>
    <tag k="addr:postcode" v="PE7 3JJ"/>
    <tag k="addr:street" v="Malting Square"/>
    <tag k="brand" v="Spar"/>
    <tag k="brand:wikidata" v="Q610492"/>
    <tag k="brand:wikipedia" v="en:Spar (retailer)"/>
    <tag k="building" v="yes"/>
    <tag k="fhrs:id" v="853087"/>
    <tag k="name" v="Spar"/>
    <tag k="shop" v="convenience"/>
    <tag k="website" v="https://www.spar.co.uk/store-locator/afb18886-spar-yaxley/"/>
  </way>
  <way id="709605949" version="4" timestamp="2024-08-30T07:48:09Z" changeset="155960229" uid="95856" user="john paul jones &amp; gringo">
    <nd ref="6669712273"/>
    <nd ref="6669712270"/>
    <nd ref="6669712271"/>
    <nd ref="6669712272"/>
    <nd ref="6669712273"/>
    <tag k="addr:city" v="Peterborough"/>
    <tag k="addr:country" v="GB"/>
    <tag k="addr:postcode" v="PE7 3ZE"/>
    <tag k="addr:street" v="Harrier Way"/>
    <tag k="addr:suburb" v="Yaxley"/>
    <tag k="branch" v="Yaxley"/>
    <tag k="brand" v="Howdens Joinery"/>
    <tag k="brand:wikidata" v="Q5921438"/>
    <tag k="building" v="yes"/>
    <tag k="internet_access" v="wlan"/>
    <tag k="name" v="Howdens Joinery"/>
    <tag k="opening_hours" v="Mo-Fr 08:00-17:00; Sa 08:00-12:00"/>
    <tag k="phone" v="+44 1733 480200"/>
    <tag k="shop" v="kitchen"/>
    <tag k="website" v="https://www.howdens.com/find-a-depot/yaxley"/>
  </way>

</osm>
