<?xml version="1.0" encoding="UTF-8"?>
<osm version="0.6" generator="Overpass API 0.7.62.5 1bd436f1">
<note>The data included in this document is from www.openstreetmap.org. The data is made available under ODbL.</note>
<meta osm_base="2025-02-19T00:58:02Z" areas="2025-02-06T02:17:44Z"/>

  <node id="705529678" lat="52.4489776" lon="-0.1070382" version="10" timestamp="2024-12-14T17:02:55Z" changeset="160286022" uid="11022773" user="GeoFens">
    <tag k="addr:city" v="Huntingdon"/>
    <tag k="addr:country" v="GB"/>
    <tag k="addr:housenumber" v="20"/>
    <tag k="addr:postcode" v="PE26 1HA"/>
    <tag k="addr:street" v="Great Whyte"/>
    <tag k="addr:suburb" v="Ramsey"/>
    <tag k="amenity" v="pharmacy"/>
    <tag k="dispensing" v="yes"/>
    <tag k="drive_through" v="no"/>
    <tag k="email" v="greatwhyte@ramseypharmacy.co.uk"/>
    <tag k="healthcare" v="pharmacy"/>
    <tag k="name" v="Ramsey Pharmacy"/>
    <tag k="opening_hours" v="Mo-Fr 09:00-17:30"/>
    <tag k="phone" v="+44 1487 814886"/>
    <tag k="website" v="https://www.ramseypharmacy.co.uk"/>
  </node>
  <node id="706271966" lat="52.4484381" lon="-0.1061030" version="7" timestamp="2024-11-10T19:33:40Z" changeset="158982748" uid="11022773" user="GeoFens">
    <tag k="addr:housenumber" v="72"/>
    <tag k="addr:street" v="High Street"/>
    <tag k="amenity" v="restaurant"/>
    <tag k="name" v="The Bengal"/>
  </node>
  <node id="2403644385" lat="52.4497083" lon="-0.1076078" version="9" timestamp="2024-12-14T17:02:55Z" changeset="160286022" uid="11022773" user="GeoFens">
    <tag k="addr:city" v="Ramsey"/>
    <tag k="addr:housenumber" v="34"/>
    <tag k="addr:street" v="Great Whyte"/>
    <tag k="amenity" v="restaurant"/>
    <tag k="cuisine" v="turkish"/>
    <tag k="name" v="Konak Cafe and Grill"/>
    <tag k="old_name" v="Windmill Bakery"/>
  </node>
  <node id="2403644417" lat="52.4496560" lon="-0.1070673" version="6" timestamp="2024-05-29T13:36:03Z" changeset="151990147" uid="95856" user="john paul jones &amp; gringo">
    <tag k="addr:city" v="Huntingdon"/>
    <tag k="addr:country" v="GB"/>
    <tag k="addr:housenumber" v="33"/>
    <tag k="addr:postcode" v="PE26 1HH"/>
    <tag k="addr:street" v="Great Whyte"/>
    <tag k="addr:suburb" v="Ramsey"/>
    <tag k="name" v="Ramsey Traditional Butchers"/>
    <tag k="old_name" v="M. Collins Butchers"/>
    <tag k="phone" v="+44 1487 812764"/>
    <tag k="shop" v="butcher"/>
  </node>
  <node id="5235188621" lat="52.4565716" lon="-0.1094620" version="4" timestamp="2024-08-17T16:23:58Z" changeset="155379286" uid="11022773" user="GeoFens">
    <tag k="addr:city" v="Huntingdon"/>
    <tag k="addr:country" v="GB"/>
    <tag k="addr:postcode" v="PE26 2RB"/>
    <tag k="addr:street" v="Stocking Fen Road"/>
    <tag k="addr:suburb" v="Ramsey"/>
    <tag k="name" v="Stevelin Motorcycles"/>
    <tag k="shop" v="motorcycle"/>
    <tag k="website" v="https://www.stevelinmotorcycles.co.uk/"/>
  </node>
  <node id="6457281174" lat="52.4485142" lon="-0.1066426" version="4" timestamp="2023-04-27T19:38:07Z" changeset="135441543" uid="11022773" user="GeoFens">
    <tag k="addr:city" v="Ramsey"/>
    <tag k="addr:housenumber" v="4"/>
    <tag k="addr:street" v="Great Whyte"/>
    <tag k="amenity" v="cafe"/>
    <tag k="name" v="Leo's Cafe &amp; Bistro"/>
  </node>
  <node id="6506880843" lat="52.4488838" lon="-0.1069876" version="7" timestamp="2024-12-14T17:02:55Z" changeset="160286022" uid="11022773" user="GeoFens">
    <tag k="addr:city" v="Ramsey"/>
    <tag k="addr:street" v="Great Whyte"/>
    <tag k="amenity" v="cafe"/>
    <tag k="name" v="Farmers Coffee Shop"/>
    <tag k="old_name" v="Wild Frost"/>
  </node>
  <node id="7406402042" lat="52.4481876" lon="-0.1071158" version="9" timestamp="2024-12-07T16:10:11Z" changeset="160032223" uid="11022773" user="GeoFens">
    <tag k="addr:city" v="Ramsey"/>
    <tag k="addr:housenumber" v="56"/>
    <tag k="addr:street" v="High Street"/>
    <tag k="amenity" v="cafe"/>
    <tag k="name" v="Bake Me 1"/>
    <tag k="old_name" v="Wake n Bake"/>
  </node>
  <node id="7406402045" lat="52.4481046" lon="-0.1082785" version="3" timestamp="2024-05-29T13:45:05Z" changeset="151990631" uid="95856" user="john paul jones &amp; gringo">
    <tag k="addr:city" v="Huntingdon"/>
    <tag k="addr:country" v="GB"/>
    <tag k="addr:housenumber" v="38"/>
    <tag k="addr:postcode" v="PE26 1AA"/>
    <tag k="addr:street" v="High Street"/>
    <tag k="addr:suburb" v="Ramsey"/>
    <tag k="amenity" v="fast_food"/>
    <tag k="cuisine" v="pizza"/>
    <tag k="drive_through" v="no"/>
    <tag k="name" v="The Golden Pizza Company"/>
    <tag k="old_name" v="Chilli Express"/>
    <tag k="website" v="https://www.goldenpizzaramsey.co.uk"/>
  </node>
  <node id="7406421383" lat="52.4490674" lon="-0.1039856" version="3" timestamp="2024-05-29T13:45:05Z" changeset="151990631" uid="95856" user="john paul jones &amp; gringo">
    <tag k="addr:city" v="Huntingdon"/>
    <tag k="addr:country" v="GB"/>
    <tag k="addr:housenumber" v="108a"/>
    <tag k="addr:postcode" v="PE26 1BS"/>
    <tag k="addr:street" v="High Street"/>
    <tag k="addr:suburb" v="Ramsey"/>
    <tag k="name" v="Lasting Impressions"/>
    <tag k="shop" v="beauty"/>
  </node>
  <node id="7414369433" lat="52.4845714" lon="-0.0404155" version="3" timestamp="2024-05-29T14:01:49Z" changeset="151991349" uid="95856" user="john paul jones &amp; gringo">
    <tag k="addr:city" v="Huntingdon"/>
    <tag k="addr:country" v="GB"/>
    <tag k="addr:housename" v="White House Farm"/>
    <tag k="addr:postcode" v="PE26 2XU"/>
    <tag k="addr:street" v="Benwick Road"/>
    <tag k="addr:suburb" v="Ramsey"/>
    <tag k="name" v="Down2Earth"/>
    <tag k="payment:cash" v="yes"/>
    <tag k="shop" v="farm"/>
  </node>
  <node id="7629802356" lat="52.4568600" lon="-0.1092164" version="6" timestamp="2025-01-12T17:01:52Z" changeset="161280529" uid="11022773" user="GeoFens">
    <tag k="addr:city" v="Ramsey"/>
    <tag k="addr:housenumber" v="Unit 5"/>
    <tag k="addr:street" v="Highlode Industrial Estate"/>
    <tag k="name" v="Country Roads Tyres"/>
    <tag k="old_name" v="KBS Tyre &amp; Battery"/>
    <tag k="shop" v="tyres"/>
  </node>
  <node id="7635220366" lat="52.4485165" lon="-0.1050953" version="2" timestamp="2023-02-19T16:53:27Z" changeset="132756623" uid="11022773" user="GeoFens">
    <tag k="addr:city" v="Ramsey"/>
    <tag k="addr:housenumber" v="83"/>
    <tag k="addr:street" v="High Street"/>
    <tag k="clothes" v="wedding"/>
    <tag k="name" v="Harvey's"/>
    <tag k="operator" v="Harvey's of Ramsey"/>
    <tag k="shop" v="clothes"/>
  </node>
  <node id="7824547066" lat="52.4499173" lon="-0.1189184" version="1" timestamp="2020-08-18T23:54:33Z" changeset="89599341" uid="5173844" user="ndrw6">
    <tag k="addr:city" v="Huntingdon"/>
    <tag k="addr:housenumber" v="44"/>
    <tag k="addr:postcode" v="PE26 1LB"/>
    <tag k="addr:street" v="Wagstaffe Close"/>
    <tag k="addr:town" v="Ramsey"/>
  </node>
  <node id="7824547067" lat="52.4499590" lon="-0.1187521" version="1" timestamp="2020-08-18T23:54:33Z" changeset="89599341" uid="5173844" user="ndrw6">
    <tag k="addr:city" v="Huntingdon"/>
    <tag k="addr:housenumber" v="28"/>
    <tag k="addr:postcode" v="PE26 1LB"/>
    <tag k="addr:street" v="Wagstaffe Close"/>
    <tag k="addr:town" v="Ramsey"/>
  </node>
  <node id="8739793705" lat="52.4670234" lon="-0.1022385" version="3" timestamp="2024-05-29T13:50:47Z" changeset="151990898" uid="95856" user="john paul jones &amp; gringo">
    <tag k="addr:city" v="Huntingdon"/>
    <tag k="addr:country" v="GB"/>
    <tag k="addr:postcode" v="PE26 2XQ"/>
    <tag k="addr:street" v="Muchwood Lane"/>
    <tag k="addr:suburb" v="Ramsey"/>
    <tag k="healthcare" v="physiotherapist"/>
    <tag k="name" v="Ramsey Physiotherapy Clinic"/>
    <tag k="phone" v="+441487 253101"/>
    <tag k="website" v="https://www.ramseyphysiotherapy.co.uk"/>
  </node>
  <node id="8827716676" lat="52.4692386" lon="-0.0945886" version="4" timestamp="2024-05-29T13:50:47Z" changeset="151990898" uid="95856" user="john paul jones &amp; gringo">
    <tag k="addr:city" v="Huntingdon"/>
    <tag k="addr:country" v="GB"/>
    <tag k="addr:housenumber" v="Unit 2"/>
    <tag k="addr:postcode" v="PE26 2RB"/>
    <tag k="addr:street" v="Bodsey Toll Road"/>
    <tag k="addr:suburb" v="Ramsey"/>
    <tag k="email" v="kaylock51@gmail.com"/>
    <tag k="name" v="Harlequin Balloons &amp; Party Store"/>
    <tag k="phone" v="+44 1487 814177"/>
    <tag k="shop" v="party"/>
    <tag k="website" v="https://www.harlequin.shop"/>
  </node>
  <node id="8910519188" lat="52.4482529" lon="-0.1068406" version="3" timestamp="2024-11-10T19:33:40Z" changeset="158982748" uid="11022773" user="GeoFens">
    <tag k="addr:city" v="Ramsey"/>
    <tag k="addr:housenumber" v="62"/>
    <tag k="addr:street" v="High Street"/>
    <tag k="name" v="The Ramsey Initiative"/>
    <tag k="shop" v="yes"/>
  </node>
  <node id="9022774496" lat="52.4570865" lon="-0.1090069" version="4" timestamp="2025-01-12T17:01:52Z" changeset="161280529" uid="11022773" user="GeoFens">
    <tag k="addr:city" v="Ramsey"/>
    <tag k="addr:housenumber" v="Unit 8"/>
    <tag k="addr:street" v="Highlode Industrial Estate"/>
    <tag k="name" v="Key Performance Parts"/>
    <tag k="phone" v="+44 1487 813359"/>
    <tag k="shop" v="car_parts"/>
    <tag k="website" v="https://keysperformanceparts.co.uk"/>
  </node>
  <node id="9403106117" lat="52.4484580" lon="-0.1060180" version="4" timestamp="2024-11-10T19:33:40Z" changeset="158982748" uid="11022773" user="GeoFens">
    <tag k="addr:housenumber" v="72a"/>
    <tag k="addr:street" v="High Street"/>
    <tag k="name" v="Fallen Moon"/>
    <tag k="shop" v="tattoo"/>
  </node>
  <node id="9693007722" lat="52.4478203" lon="-0.1062879" version="2" timestamp="2024-05-29T13:45:05Z" changeset="151990631" uid="95856" user="john paul jones &amp; gringo">
    <tag k="addr:city" v="Huntingdon"/>
    <tag k="addr:country" v="GB"/>
    <tag k="addr:housenumber" v="65"/>
    <tag k="addr:postcode" v="PE26 1AB"/>
    <tag k="addr:street" v="High Street"/>
    <tag k="addr:suburb" v="Ramsey"/>
    <tag k="email" v="bookings@ramseyrooms.co.uk"/>
    <tag k="name" v="Ramsey Rooms"/>
    <tag k="phone" v="+441487 829237"/>
    <tag k="rooms" v="10"/>
    <tag k="tourism" v="hotel"/>
    <tag k="website" v="https://www.ramseyrooms.co.uk"/>
  </node>
  <node id="10678695651" lat="52.4485010" lon="-0.1051763" version="1" timestamp="2023-02-19T16:53:27Z" changeset="132756623" uid="11022773" user="GeoFens">
    <tag k="addr:city" v="Ramsey"/>
    <tag k="addr:housenumber" v="83"/>
    <tag k="addr:street" v="High Street"/>
    <tag k="name" v="Willow &amp; Wreath Florist"/>
    <tag k="shop" v="florist"/>
    <tag k="website" v="https://willowandwreathflorist.com"/>
  </node>
  <node id="10847019253" lat="52.4495418" lon="-0.1074692" version="5" timestamp="2024-12-14T17:02:55Z" changeset="160286022" uid="11022773" user="GeoFens">
    <tag k="addr:city" v="Huntingdon"/>
    <tag k="addr:country" v="GB"/>
    <tag k="addr:housenumber" v="28a"/>
    <tag k="addr:postcode" v="PE26 1HA"/>
    <tag k="addr:street" v="Great Whyte"/>
    <tag k="addr:suburb" v="Ramsey"/>
    <tag k="name" v="The Little Fenland Eco Shop"/>
    <tag k="opening_hours" v="Tue-Sat 8:45 - 17:45"/>
    <tag k="shop" v="houseware"/>
    <tag k="website" v="https://www.littlefenlandeco.com"/>
  </node>
  <node id="11194603328" lat="52.4694358" lon="-0.0943709" version="3" timestamp="2024-05-29T13:50:47Z" changeset="151990898" uid="95856" user="john paul jones &amp; gringo">
    <tag k="addr:city" v="Huntingdon"/>
    <tag k="addr:country" v="GB"/>
    <tag k="addr:postcode" v="PE26 2XH"/>
    <tag k="addr:street" v="Bodsey Toll Road"/>
    <tag k="addr:suburb" v="Ramsey"/>
    <tag k="name" v="Ruby Ruth’s Country Barn"/>
    <tag k="shop" v="gift"/>
  </node>
  <node id="11494872188" lat="52.4694246" lon="-0.0946101" version="2" timestamp="2024-05-29T13:50:47Z" changeset="151990898" uid="95856" user="john paul jones &amp; gringo">
    <tag k="addr:city" v="Huntingdon"/>
    <tag k="addr:country" v="GB"/>
    <tag k="addr:postcode" v="PE26 2XH"/>
    <tag k="addr:street" v="Bodsey Toll Road"/>
    <tag k="addr:suburb" v="Ramsey"/>
    <tag k="amenity" v="cafe"/>
    <tag k="name" v="Ruby Cooper's Cafe"/>
  </node>
  <node id="11494896101" lat="52.4803593" lon="-0.1091329" version="1" timestamp="2024-01-06T17:40:43Z" changeset="145965670" uid="11022773" user="GeoFens">
    <tag k="addr:street" v="Lodes End Drove"/>
    <tag k="name" v="Spadger Bird Seed"/>
    <tag k="shop" v="pet"/>
  </node>
  <node id="11709458286" lat="52.4484996" lon="-0.1068284" version="6" timestamp="2024-11-10T19:33:40Z" changeset="158982748" uid="11022773" user="GeoFens">
    <tag k="addr:city" v="Huntingdon"/>
    <tag k="addr:country" v="GB"/>
    <tag k="addr:housenumber" v="Unit 1"/>
    <tag k="addr:postcode" v="PE26 1HB"/>
    <tag k="addr:street" v="Spring Court"/>
    <tag k="addr:suburb" v="Ramsey"/>
    <tag k="name" v="Pet Havens"/>
    <tag k="shop" v="pet"/>
  </node>
  <node id="11709458288" lat="52.4484595" lon="-0.1069223" version="5" timestamp="2024-11-10T19:33:40Z" changeset="158982748" uid="11022773" user="GeoFens">
    <tag k="addr:city" v="Huntingdon"/>
    <tag k="addr:country" v="GB"/>
    <tag k="addr:housenumber" v="Unit 2"/>
    <tag k="addr:postcode" v="PE26 1HB"/>
    <tag k="addr:street" v="Spring Court"/>
    <tag k="addr:suburb" v="Ramsey"/>
    <tag k="leisure" v="indoor_play"/>
    <tag k="name" v="Ramsey Bouncers"/>
  </node>
  <way id="56222934" version="11" timestamp="2024-09-09T15:54:13Z" changeset="156401613" uid="21425661" user="CjMalone">
    <nd ref="705529375"/>
    <nd ref="11608146769"/>
    <nd ref="705529319"/>
    <nd ref="705529853"/>
    <nd ref="705529392"/>
    <nd ref="705529375"/>
    <tag k="addr:city" v="Huntingdon"/>
    <tag k="addr:country" v="GB"/>
    <tag k="addr:postcode" v="PE26 1EJ"/>
    <tag k="addr:street" v="Newtown Road"/>
    <tag k="addr:suburb" v="Ramsey"/>
    <tag k="brand" v="B&amp;M"/>
    <tag k="brand:wikidata" v="Q4836931"/>
    <tag k="brand:wikipedia" v="en:B&amp;M"/>
    <tag k="building" v="retail"/>
    <tag k="check_date" v="2024-09-09"/>
    <tag k="check_date:opening_hours" v="2024-09-09"/>
    <tag k="contact:website" v="https://www.bmstores.co.uk/stores/ramsey-757"/>
    <tag k="name" v="B&amp;M"/>
    <tag k="opening_hours" v="Mo-Sa 08:00-19:00; Su 10:00-16:00"/>
    <tag k="phone" v="+44 330 838 9757"/>
    <tag k="shop" v="variety_store"/>
  </way>
  <way id="143310487" version="3" timestamp="2024-12-21T23:54:39Z" changeset="160487127" uid="5173844" user="ndrw6">
    <nd ref="1568281896"/>
    <nd ref="1568281868"/>
    <nd ref="1568281928"/>
    <nd ref="1568281965"/>
    <nd ref="1568281896"/>
    <tag k="addr:city" v="Ramsey"/>
    <tag k="addr:housenumber" v="12"/>
    <tag k="addr:street" v="Church Green"/>
    <tag k="building" v="house"/>
  </way>
  <way id="231915993" version="13" timestamp="2023-10-21T18:00:35Z" changeset="142935242" uid="9451067" user="b-jazz-bot">
    <nd ref="1736653207"/>
    <nd ref="2402410530"/>
    <nd ref="2402410514"/>
    <nd ref="2402410610"/>
    <nd ref="2402410618"/>
    <nd ref="2402410564"/>
    <nd ref="2402410534"/>
    <nd ref="2402410601"/>
    <nd ref="7932567711"/>
    <nd ref="2402410589"/>
    <nd ref="7797368458"/>
    <nd ref="7797368457"/>
    <nd ref="7797368459"/>
    <nd ref="2402410612"/>
    <nd ref="7797368462"/>
    <nd ref="2402410533"/>
    <nd ref="2402410590"/>
    <nd ref="7797368465"/>
    <nd ref="7797368463"/>
    <nd ref="2402410599"/>
    <nd ref="2402410604"/>
    <nd ref="2402410622"/>
    <nd ref="9022805251"/>
    <nd ref="9022805252"/>
    <nd ref="9022805250"/>
    <nd ref="9022805249"/>
    <nd ref="2402410558"/>
    <nd ref="9022805248"/>
    <nd ref="9022805247"/>
    <nd ref="9022805246"/>
    <nd ref="2402410508"/>
    <nd ref="2402410571"/>
    <nd ref="2402410563"/>
    <nd ref="7408900590"/>
    <nd ref="7626529741"/>
    <nd ref="1736653156"/>
    <nd ref="7487687913"/>
    <nd ref="692256299"/>
    <nd ref="692256324"/>
    <nd ref="2402410505"/>
    <nd ref="1736653170"/>
    <nd ref="1736653171"/>
    <nd ref="2402410543"/>
    <nd ref="9721610171"/>
    <nd ref="2402410575"/>
    <nd ref="2402410606"/>
    <nd ref="2402410587"/>
    <nd ref="2402410553"/>
    <nd ref="1736653199"/>
    <nd ref="1736653204"/>
    <nd ref="1736653205"/>
    <nd ref="2402410593"/>
    <nd ref="2402410614"/>
    <nd ref="2402410585"/>
    <nd ref="3092744710"/>
    <nd ref="3092744689"/>
    <nd ref="1736653231"/>
    <nd ref="8372467810"/>
    <nd ref="1736653232"/>
    <nd ref="1736653238"/>
    <nd ref="4054229761"/>
    <nd ref="4054233307"/>
    <nd ref="7511421554"/>
    <nd ref="7511421553"/>
    <nd ref="7511421556"/>
    <nd ref="4054229764"/>
    <nd ref="4054229745"/>
    <nd ref="4054233318"/>
    <nd ref="4054233308"/>
    <nd ref="1736653216"/>
    <nd ref="4054229775"/>
    <nd ref="1736653209"/>
    <nd ref="4054229751"/>
    <nd ref="1736653207"/>
    <tag k="addr:city" v="Huntingdon"/>
    <tag k="addr:housenumber" v="4"/>
    <tag k="addr:postcode" v="PE26 1DD"/>
    <tag k="addr:street" v="Abbey Terrace"/>
    <tag k="description" v="18 hole Par 70"/>
    <tag k="email" v="admin@ramseyclub.co.uk"/>
    <tag k="golf:course" v="18_hole"/>
    <tag k="golf:par" v="70"/>
    <tag k="leisure" v="golf_course"/>
    <tag k="name" v="Ramsey Golf &amp; Bowls Club"/>
    <tag k="phone" v="+44 1487 812600"/>
    <tag k="website" v="https://www.ramseyclub.co.uk/"/>
  </way>
  <way id="232018919" version="11" timestamp="2024-09-16T23:59:15Z" changeset="156709110" uid="21226027" user="DorneyLake123">
    <nd ref="2403644420"/>
    <nd ref="2403644651"/>
    <nd ref="2403644391"/>
    <nd ref="2403644438"/>
    <nd ref="2403644419"/>
    <nd ref="2403644502"/>
    <nd ref="7490034307"/>
    <nd ref="7490034314"/>
    <nd ref="2403644389"/>
    <nd ref="2403644503"/>
    <nd ref="7541969033"/>
    <nd ref="2403644379"/>
    <nd ref="7519884411"/>
    <nd ref="7519884405"/>
    <nd ref="2403644420"/>
    <tag k="addr:city" v="Huntingdon"/>
    <tag k="addr:postcode" v="PE26 1AD"/>
    <tag k="addr:street" v="High Street"/>
    <tag k="amenity" v="school"/>
    <tag k="capacity" v="270"/>
    <tag k="isced:level" v="1"/>
    <tag k="max_age" v="7"/>
    <tag k="min_age" v="5"/>
    <tag k="name" v="Ramsey Spinning Infant School"/>
    <tag k="operator" v="The Elliot Foundation"/>
    <tag k="ref:edubase" v="143775"/>
    <tag k="wikidata" v="Q66231716"/>
  </way>
  <way id="276536821" version="1" timestamp="2014-04-23T16:02:31Z" changeset="21889673" uid="1876487" user="Jordan Mann">
    <nd ref="2403644541"/>
    <nd ref="2403644512"/>
    <nd ref="2403644660"/>
    <nd ref="2811331003"/>
    <nd ref="2403644421"/>
    <nd ref="2403644541"/>
    <tag k="addr:city" v="Ramsey"/>
    <tag k="addr:housenumber" v="3-5"/>
    <tag k="addr:street" v="Great Whyte"/>
    <tag k="building" v="yes"/>
  </way>
  <way id="344515039" version="5" timestamp="2024-05-29T13:57:37Z" changeset="151991179" uid="95856" user="john paul jones &amp; gringo">
    <nd ref="3512513225"/>
    <nd ref="3512513228"/>
    <nd ref="3512513219"/>
    <nd ref="3512513233"/>
    <nd ref="3512513211"/>
    <nd ref="3512512992"/>
    <nd ref="3512512990"/>
    <nd ref="3512513222"/>
    <nd ref="3512513225"/>
    <tag k="addr:city" v="Huntingdon"/>
    <tag k="addr:country" v="GB"/>
    <tag k="addr:housename" v="Caravan Storage Centre"/>
    <tag k="addr:postcode" v="PE26 2XN"/>
    <tag k="addr:street" v="Ramsey Road"/>
    <tag k="addr:suburb" v="Ramsey Forty Foot"/>
    <tag k="building" v="commercial"/>
    <tag k="description" v="Caravan &amp; Motorhome Storage Facility"/>
    <tag k="name" v="Caravan Storage Centre"/>
    <tag k="operator" v="Caravan Storage Centre"/>
    <tag k="phone" v="+44 1487 815012"/>
    <tag k="shop" v="storage_rental"/>
    <tag k="website" v="https://csc-fortyfoot.business.site/"/>
  </way>
  <way id="396414301" version="4" timestamp="2021-07-25T13:24:54Z" changeset="108565547" uid="11022773" user="GeoFens">
    <nd ref="3992192609"/>
    <nd ref="7830651341"/>
    <nd ref="3992192610"/>
    <nd ref="3992192611"/>
    <nd ref="3992192612"/>
    <nd ref="3992192613"/>
    <nd ref="7837047768"/>
    <nd ref="7837047767"/>
    <nd ref="7910195830"/>
    <nd ref="3992192614"/>
    <nd ref="3992192615"/>
    <nd ref="3992192609"/>
    <tag k="addr:street" v="Horse Drove"/>
    <tag k="industrial" v="automotive"/>
    <tag k="landuse" v="industrial"/>
    <tag k="name" v="Shelton Motors"/>
    <tag k="website" v="https://www.sheltonmotors.co.uk"/>
  </way>
  <way id="403037976" version="14" timestamp="2024-12-21T20:38:40Z" changeset="160482709" uid="5173844" user="ndrw6">
    <nd ref="4054222657"/>
    <nd ref="4054222653"/>
    <nd ref="4054222659"/>
    <nd ref="4054222647"/>
    <nd ref="4054222645"/>
    <nd ref="4054222651"/>
    <nd ref="4054222646"/>
    <nd ref="7487687163"/>
    <nd ref="7518407593"/>
    <nd ref="2403644655"/>
    <nd ref="7518375875"/>
    <nd ref="7518375871"/>
    <nd ref="2403644568"/>
    <nd ref="12439563792"/>
    <nd ref="7518407626"/>
    <nd ref="7518407594"/>
    <nd ref="2403644599"/>
    <nd ref="9659385820"/>
    <nd ref="4054222654"/>
    <nd ref="4054222652"/>
    <nd ref="4054222648"/>
    <nd ref="4054222656"/>
    <nd ref="4054222649"/>
    <nd ref="4054222650"/>
    <nd ref="4054222655"/>
    <nd ref="4054222658"/>
    <nd ref="4054222657"/>
    <tag k="addr:city" v="Huntingdon"/>
    <tag k="addr:country" v="GB"/>
    <tag k="addr:postcode" v="PE26 1JA"/>
    <tag k="addr:street" v="Station Road"/>
    <tag k="addr:suburb" v="Ramsey"/>
    <tag k="amenity" v="school"/>
    <tag k="capacity" v="355"/>
    <tag k="isced:level" v="1"/>
    <tag k="max_age" v="11"/>
    <tag k="min_age" v="7"/>
    <tag k="name" v="Ramsey Junior School"/>
    <tag k="operator" v="The Elliot Foundation"/>
    <tag k="phone" v="+44 1487 812500"/>
    <tag k="ref:GB:uprn" v="100091518277"/>
    <tag k="ref:edubase" v="143777"/>
    <tag k="ref:edubase:group" v="3025"/>
    <tag k="religion" v="none"/>
    <tag k="school:boarding" v="no"/>
    <tag k="school:gender" v="mixed"/>
    <tag k="school:selective" v="no"/>
    <tag k="school:trust" v="yes"/>
    <tag k="school:trust:name" v="The Elliot Foundation Academies Trust"/>
    <tag k="school:trust:type" v="multi_academy"/>
    <tag k="school:type" v="academy"/>
    <tag k="website" v="https://www.ramspinfederation.co.uk/"/>
    <tag k="wikidata" v="Q66231719"/>
  </way>
  <way id="403039326" version="12" timestamp="2024-05-29T13:36:43Z" changeset="151990185" uid="95856" user="john paul jones &amp; gringo">
    <nd ref="2403683586"/>
    <nd ref="4054229768"/>
    <nd ref="4054229748"/>
    <nd ref="4054229752"/>
    <nd ref="4054229757"/>
    <nd ref="4054229781"/>
    <nd ref="4054233293"/>
    <nd ref="706271987"/>
    <nd ref="4054229767"/>
    <nd ref="705529983"/>
    <nd ref="705529373"/>
    <nd ref="705529989"/>
    <nd ref="705529926"/>
    <nd ref="705529470"/>
    <nd ref="4054233321"/>
    <nd ref="4054229771"/>
    <nd ref="1582700454"/>
    <nd ref="1582700461"/>
    <nd ref="1582700460"/>
    <nd ref="1582700450"/>
    <nd ref="4054229760"/>
    <nd ref="4054233294"/>
    <nd ref="4054233311"/>
    <nd ref="4054233298"/>
    <nd ref="4054229774"/>
    <nd ref="4054229785"/>
    <nd ref="7625773727"/>
    <nd ref="4054229782"/>
    <nd ref="4054229780"/>
    <nd ref="1736653211"/>
    <nd ref="4054233301"/>
    <nd ref="4054233306"/>
    <nd ref="7511418351"/>
    <nd ref="4054229779"/>
    <nd ref="7511421646"/>
    <nd ref="7511421644"/>
    <nd ref="7511418362"/>
    <nd ref="4054229788"/>
    <nd ref="4054233313"/>
    <nd ref="4054229758"/>
    <nd ref="11227912087"/>
    <nd ref="11227912085"/>
    <nd ref="7511418363"/>
    <nd ref="4054233295"/>
    <nd ref="2403683653"/>
    <nd ref="7511418367"/>
    <nd ref="2403683586"/>
    <tag k="addr:city" v="Huntingdon"/>
    <tag k="addr:country" v="GB"/>
    <tag k="addr:postcode" v="PE26 1DG"/>
    <tag k="addr:street" v="Abbey Road"/>
    <tag k="addr:suburb" v="Ramsey"/>
    <tag k="amenity" v="school"/>
    <tag k="capacity" v="1250"/>
    <tag k="isced:level" v="2;3"/>
    <tag k="max_age" v="18"/>
    <tag k="min_age" v="11"/>
    <tag k="name" v="Abbey College"/>
    <tag k="phone" v="+44 1487 812352"/>
    <tag k="ref:GB:uprn" v="10000168252"/>
    <tag k="ref:edubase" v="137377"/>
    <tag k="ref:edubase:group" v="2045"/>
    <tag k="school:trust" v="yes"/>
    <tag k="school:trust:name" v="Abbey College, Ramsey"/>
    <tag k="school:trust:type" v="single_academy"/>
    <tag k="school:type" v="academy"/>
    <tag k="website" v="https://www.abbeycollege.cambs.sch.uk/"/>
    <tag k="wikidata" v="Q4663983"/>
    <tag k="wikipedia" v="en:Abbey College, Ramsey"/>
  </way>
  <way id="412714255" version="6" timestamp="2024-10-24T20:17:12Z" changeset="158312393" uid="11022773" user="GeoFens">
    <nd ref="4140668904"/>
    <nd ref="7398336525"/>
    <nd ref="4140668905"/>
    <nd ref="699224562"/>
    <nd ref="699224555"/>
    <nd ref="12286143593"/>
    <nd ref="12286143596"/>
    <nd ref="12286143595"/>
    <nd ref="12286143592"/>
    <nd ref="12286143591"/>
    <nd ref="4140668907"/>
    <nd ref="4140668908"/>
    <nd ref="4140668904"/>
    <tag k="addr:city" v="Huntingdon"/>
    <tag k="addr:country" v="GB"/>
    <tag k="addr:postcode" v="PE26 2SB"/>
    <tag k="addr:street" v="Neil Way"/>
    <tag k="addr:suburb" v="Ramsey"/>
    <tag k="alt_name" v="Tesco Ramsey Superstore"/>
    <tag k="brand" v="Tesco"/>
    <tag k="brand:wikidata" v="Q487494"/>
    <tag k="brand:wikipedia" v="en:Tesco"/>
    <tag k="building" v="yes"/>
    <tag k="contact:website" v="https://www.tesco.com/store-locator/huntingdon/neil-way"/>
    <tag k="name" v="Tesco"/>
    <tag k="operator" v="Tesco Stores Ltd"/>
    <tag k="shop" v="supermarket"/>
  </way>
  <way id="543031236" version="6" timestamp="2024-05-29T13:47:38Z" changeset="151990742" uid="95856" user="john paul jones &amp; gringo">
    <nd ref="5249826029"/>
    <nd ref="5249826030"/>
    <nd ref="5249826031"/>
    <nd ref="7541997148"/>
    <nd ref="5249826033"/>
    <nd ref="7541997147"/>
    <nd ref="5249826032"/>
    <nd ref="5249826029"/>
    <tag k="addr:city" v="Huntingdon"/>
    <tag k="addr:country" v="GB"/>
    <tag k="addr:housename" v="Ramsey Business Park"/>
    <tag k="addr:housenumber" v="14-18"/>
    <tag k="addr:postcode" v="PE26 2UR"/>
    <tag k="addr:street" v="Stocking Fen Road"/>
    <tag k="addr:suburb" v="Ramsey"/>
    <tag k="building" v="yes"/>
    <tag k="name" v="Anthony Byrne Fine Wines"/>
    <tag k="opening_hours" v="Mo-Fr 09:00-17:30"/>
    <tag k="shop" v="wine"/>
  </way>
  <way id="657095201" version="5" timestamp="2024-12-21T23:54:39Z" changeset="160487127" uid="5173844" user="ndrw6">
    <nd ref="6154555885"/>
    <nd ref="6154555882"/>
    <nd ref="6154555883"/>
    <nd ref="6154555884"/>
    <nd ref="6154555885"/>
    <tag k="addr:city" v="Huntingdon"/>
    <tag k="addr:country" v="GB"/>
    <tag k="addr:housenumber" v="10-11"/>
    <tag k="addr:postcode" v="PE26 1DW"/>
    <tag k="addr:street" v="Church Green"/>
    <tag k="addr:suburb" v="Ramsey"/>
    <tag k="building" v="house"/>
  </way>
  <way id="657095337" version="4" timestamp="2024-12-21T20:38:40Z" changeset="160482709" uid="5173844" user="ndrw6">
    <nd ref="6154556677"/>
    <nd ref="6154556674"/>
    <nd ref="6154556675"/>
    <nd ref="6154556676"/>
    <nd ref="6154556677"/>
    <tag k="addr:city" v="Huntingdon"/>
    <tag k="addr:country" v="GB"/>
    <tag k="addr:housenumber" v="9"/>
    <tag k="addr:postcode" v="PE26 1SG"/>
    <tag k="addr:street" v="Hopbine Court"/>
    <tag k="building" v="house"/>
  </way>
  <way id="800550737" version="5" timestamp="2024-08-17T16:23:58Z" changeset="155379286" uid="11022773" user="GeoFens">
    <nd ref="12117136043"/>
    <nd ref="9659383921"/>
    <nd ref="9659383922"/>
    <nd ref="8930614879"/>
    <nd ref="7487508759"/>
    <nd ref="9659383923"/>
    <nd ref="9659383924"/>
    <nd ref="2403683619"/>
    <nd ref="2403683595"/>
    <nd ref="2403683645"/>
    <nd ref="12117136043"/>
    <tag k="addr:city" v="Huntingdon"/>
    <tag k="addr:country" v="GB"/>
    <tag k="addr:postcode" v="PE26 1BG"/>
    <tag k="addr:street" v="Cricketfield Lane"/>
    <tag k="addr:suburb" v="Ramsey"/>
    <tag k="amenity" v="community_centre"/>
    <tag k="building" v="yes"/>
    <tag k="email" v="office@ramseypavilion.org.uk"/>
    <tag k="name" v="The Pavilion Ramsey"/>
    <tag k="website" v="https://www.ramseypavilion.org.uk"/>
  </way>
  <way id="800788955" version="8" timestamp="2024-05-29T13:30:36Z" changeset="151989901" uid="95856" user="john paul jones &amp; gringo">
    <nd ref="7489985893"/>
    <nd ref="7489985894"/>
    <nd ref="7489985947"/>
    <nd ref="7489985948"/>
    <nd ref="7487687338"/>
    <nd ref="7490042663"/>
    <nd ref="7490042664"/>
    <nd ref="7490042665"/>
    <nd ref="7490042662"/>
    <nd ref="7489985893"/>
    <tag k="addr:city" v="Huntingdon"/>
    <tag k="addr:country" v="GB"/>
    <tag k="addr:postcode" v="PE26 1HS"/>
    <tag k="addr:street" v="Great Whyte"/>
    <tag k="addr:suburb" v="Ramsey"/>
    <tag k="amenity" v="fire_station"/>
    <tag k="name" v="Ramsey Community Fire &amp; Rescue Station"/>
    <tag k="operator" v="Cambridgeshire Fire and Rescue Service"/>
    <tag k="operator:wikidata" v="Q5025656"/>
    <tag k="website" v="https://www.cambsfire.gov.uk/find-a-fire-station/ramsey-fire-station/"/>
  </way>
  <way id="802992244" version="6" timestamp="2024-12-21T23:54:39Z" changeset="160487127" uid="5173844" user="ndrw6">
    <nd ref="7511422292"/>
    <nd ref="7511422288"/>
    <nd ref="7511422287"/>
    <nd ref="7511422289"/>
    <nd ref="7511422290"/>
    <nd ref="7511422291"/>
    <nd ref="7511422292"/>
    <tag k="addr:city" v="Huntingdon"/>
    <tag k="addr:country" v="GB"/>
    <tag k="addr:housenumber" v="9"/>
    <tag k="addr:postcode" v="PE26 1DW"/>
    <tag k="addr:street" v="Church Green"/>
    <tag k="addr:suburb" v="Ramsey"/>
    <tag k="building" v="house"/>
    <tag k="old_name" v="Ramsey Town Council"/>
  </way>
  <way id="802992245" version="3" timestamp="2024-12-21T23:54:39Z" changeset="160487127" uid="5173844" user="ndrw6">
    <nd ref="7511422296"/>
    <nd ref="7511422293"/>
    <nd ref="7511422294"/>
    <nd ref="7511422295"/>
    <nd ref="7511422296"/>
    <tag k="addr:city" v="Ramsey"/>
    <tag k="addr:housenumber" v="8"/>
    <tag k="addr:street" v="Church Green"/>
    <tag k="building" v="house"/>
  </way>
  <way id="802992246" version="3" timestamp="2024-12-21T23:54:39Z" changeset="160487127" uid="5173844" user="ndrw6">
    <nd ref="7511422302"/>
    <nd ref="7511422299"/>
    <nd ref="7511422298"/>
    <nd ref="7511422297"/>
    <nd ref="7511422300"/>
    <nd ref="7511422301"/>
    <nd ref="7511422302"/>
    <tag k="addr:city" v="Ramsey"/>
    <tag k="addr:housename" v="Ramsey Abbey Estate Offices"/>
    <tag k="addr:housenumber" v="7"/>
    <tag k="addr:street" v="Church Green"/>
    <tag k="building" v="house"/>
    <tag k="old_name" v="Ramsey Town Council"/>
  </way>
  <way id="802992247" version="3" timestamp="2024-12-21T23:54:39Z" changeset="160487127" uid="5173844" user="ndrw6">
    <nd ref="7511422309"/>
    <nd ref="7511422306"/>
    <nd ref="7511422304"/>
    <nd ref="7511422303"/>
    <nd ref="7511422305"/>
    <nd ref="7511422307"/>
    <nd ref="7511422308"/>
    <nd ref="7511422309"/>
    <tag k="addr:city" v="Ramsey"/>
    <tag k="addr:housename" v="Abbey House"/>
    <tag k="addr:housenumber" v="6"/>
    <tag k="addr:street" v="Church Green"/>
    <tag k="building" v="house"/>
  </way>
  <way id="802992248" version="3" timestamp="2024-12-21T23:54:39Z" changeset="160487127" uid="5173844" user="ndrw6">
    <nd ref="7511422313"/>
    <nd ref="7511422310"/>
    <nd ref="7511422311"/>
    <nd ref="7511422312"/>
    <nd ref="7511422313"/>
    <tag k="addr:city" v="Ramsey"/>
    <tag k="addr:housenumber" v="5"/>
    <tag k="addr:street" v="Church Green"/>
    <tag k="building" v="house"/>
  </way>
  <way id="802992249" version="3" timestamp="2024-12-21T23:54:39Z" changeset="160487127" uid="5173844" user="ndrw6">
    <nd ref="7511422317"/>
    <nd ref="7511422314"/>
    <nd ref="7511422315"/>
    <nd ref="7511422316"/>
    <nd ref="7511422317"/>
    <tag k="addr:city" v="Ramsey"/>
    <tag k="addr:housenumber" v="4"/>
    <tag k="addr:street" v="Church Green"/>
    <tag k="building" v="house"/>
  </way>
  <way id="802992302" version="3" timestamp="2024-12-21T23:54:39Z" changeset="160487127" uid="5173844" user="ndrw6">
    <nd ref="7511422538"/>
    <nd ref="7511422537"/>
    <nd ref="7511422536"/>
    <nd ref="7511422535"/>
    <nd ref="7511422538"/>
    <tag k="addr:city" v="Ramsey"/>
    <tag k="addr:housenumber" v="1-3"/>
    <tag k="addr:street" v="Church Green"/>
    <tag k="building" v="house"/>
  </way>
  <way id="803362959" version="2" timestamp="2020-08-18T23:54:33Z" changeset="89599341" uid="5173844" user="ndrw6">
    <nd ref="7514865755"/>
    <nd ref="7824550344"/>
    <nd ref="7824550343"/>
    <nd ref="7514865754"/>
    <nd ref="7514865755"/>
    <tag k="addr:city" v="Huntingdon"/>
    <tag k="addr:housenumber" v="9"/>
    <tag k="addr:postcode" v="PE26 1LB"/>
    <tag k="addr:street" v="Wagstaffe Close"/>
    <tag k="addr:town" v="Ramsey"/>
    <tag k="building" v="house"/>
  </way>
  <way id="803362960" version="2" timestamp="2020-08-18T23:54:33Z" changeset="89599341" uid="5173844" user="ndrw6">
    <nd ref="7514865759"/>
    <nd ref="7824550346"/>
    <nd ref="7824550345"/>
    <nd ref="7514865758"/>
    <nd ref="7514865759"/>
    <tag k="addr:city" v="Huntingdon"/>
    <tag k="addr:housenumber" v="5"/>
    <tag k="addr:postcode" v="PE26 1LB"/>
    <tag k="addr:street" v="Wagstaffe Close"/>
    <tag k="addr:town" v="Ramsey"/>
    <tag k="building" v="house"/>
  </way>
  <way id="803362961" version="2" timestamp="2020-08-18T23:54:33Z" changeset="89599341" uid="5173844" user="ndrw6">
    <nd ref="7514865764"/>
    <nd ref="7514865761"/>
    <nd ref="7514865762"/>
    <nd ref="7514865763"/>
    <nd ref="7514865764"/>
    <tag k="addr:city" v="Huntingdon"/>
    <tag k="addr:housenumber" v="1"/>
    <tag k="addr:postcode" v="PE26 1LB"/>
    <tag k="addr:street" v="Wagstaffe Close"/>
    <tag k="addr:town" v="Ramsey"/>
    <tag k="building" v="house"/>
  </way>
  <way id="803362962" version="2" timestamp="2020-08-18T23:54:33Z" changeset="89599341" uid="5173844" user="ndrw6">
    <nd ref="7514865768"/>
    <nd ref="7514865765"/>
    <nd ref="7514865766"/>
    <nd ref="7514865767"/>
    <nd ref="7514865768"/>
    <tag k="addr:city" v="Huntingdon"/>
    <tag k="addr:housenumber" v="20"/>
    <tag k="addr:postcode" v="PE26 1LH"/>
    <tag k="addr:street" v="Carver Way"/>
    <tag k="addr:town" v="Ramsey"/>
    <tag k="building" v="house"/>
  </way>
  <way id="803362963" version="2" timestamp="2020-08-18T23:54:33Z" changeset="89599341" uid="5173844" user="ndrw6">
    <nd ref="7514865770"/>
    <nd ref="7514865772"/>
    <nd ref="7514865773"/>
    <nd ref="7514865769"/>
    <nd ref="7514865770"/>
    <tag k="addr:city" v="Huntingdon"/>
    <tag k="addr:housenumber" v="22"/>
    <tag k="addr:postcode" v="PE26 1LH"/>
    <tag k="addr:street" v="Carver Way"/>
    <tag k="addr:town" v="Ramsey"/>
    <tag k="building" v="house"/>
  </way>
  <way id="803362964" version="2" timestamp="2020-08-18T23:54:33Z" changeset="89599341" uid="5173844" user="ndrw6">
    <nd ref="7514865769"/>
    <nd ref="7514865774"/>
    <nd ref="7514865771"/>
    <nd ref="7514865770"/>
    <nd ref="7514865769"/>
    <tag k="addr:city" v="Huntingdon"/>
    <tag k="addr:housenumber" v="24"/>
    <tag k="addr:postcode" v="PE26 1LH"/>
    <tag k="addr:street" v="Carver Way"/>
    <tag k="addr:town" v="Ramsey"/>
    <tag k="building" v="house"/>
  </way>
  <way id="803362965" version="2" timestamp="2020-08-18T23:54:33Z" changeset="89599341" uid="5173844" user="ndrw6">
    <nd ref="7514865778"/>
    <nd ref="7514865777"/>
    <nd ref="7514865776"/>
    <nd ref="7514865775"/>
    <nd ref="7514865778"/>
    <tag k="addr:city" v="Huntingdon"/>
    <tag k="addr:housenumber" v="26"/>
    <tag k="addr:postcode" v="PE26 1LH"/>
    <tag k="addr:street" v="Carver Way"/>
    <tag k="addr:town" v="Ramsey"/>
    <tag k="building" v="house"/>
  </way>
  <way id="803362966" version="2" timestamp="2020-08-18T23:54:33Z" changeset="89599341" uid="5173844" user="ndrw6">
    <nd ref="7514865782"/>
    <nd ref="7514865781"/>
    <nd ref="7514865780"/>
    <nd ref="7514865779"/>
    <nd ref="7514865782"/>
    <tag k="addr:city" v="Huntingdon"/>
    <tag k="addr:housenumber" v="28"/>
    <tag k="addr:postcode" v="PE26 1LH"/>
    <tag k="addr:street" v="Carver Way"/>
    <tag k="addr:town" v="Ramsey"/>
    <tag k="building" v="house"/>
  </way>
  <way id="803362967" version="2" timestamp="2020-08-18T23:54:33Z" changeset="89599341" uid="5173844" user="ndrw6">
    <nd ref="7514865788"/>
    <nd ref="7514865785"/>
    <nd ref="7514865783"/>
    <nd ref="7514865784"/>
    <nd ref="7514865786"/>
    <nd ref="7514865787"/>
    <nd ref="7514865788"/>
    <tag k="addr:city" v="Huntingdon"/>
    <tag k="addr:housenumber" v="30"/>
    <tag k="addr:postcode" v="PE26 1LH"/>
    <tag k="addr:street" v="Carver Way"/>
    <tag k="addr:town" v="Ramsey"/>
    <tag k="building" v="house"/>
  </way>
  <way id="803362968" version="2" timestamp="2020-08-18T23:54:33Z" changeset="89599341" uid="5173844" user="ndrw6">
    <nd ref="7514865790"/>
    <nd ref="7514865789"/>
    <nd ref="7514865793"/>
    <nd ref="7514865792"/>
    <nd ref="7514865790"/>
    <tag k="addr:city" v="Huntingdon"/>
    <tag k="addr:housenumber" v="68"/>
    <tag k="addr:postcode" v="PE26 1LB"/>
    <tag k="addr:street" v="Wagstaffe Close"/>
    <tag k="addr:town" v="Ramsey"/>
    <tag k="building" v="house"/>
  </way>
  <way id="803362970" version="2" timestamp="2020-08-18T23:54:33Z" changeset="89599341" uid="5173844" user="ndrw6">
    <nd ref="7514821383"/>
    <nd ref="7514821380"/>
    <nd ref="7514821381"/>
    <nd ref="7514821382"/>
    <nd ref="7514821383"/>
    <tag k="addr:city" v="Huntingdon"/>
    <tag k="addr:housenumber" v="66"/>
    <tag k="addr:postcode" v="PE26 1LB"/>
    <tag k="addr:street" v="Wagstaffe Close"/>
    <tag k="addr:town" v="Ramsey"/>
    <tag k="building" v="house"/>
  </way>
  <way id="803362972" version="2" timestamp="2020-08-18T23:54:33Z" changeset="89599341" uid="5173844" user="ndrw6">
    <nd ref="7514865888"/>
    <nd ref="7824550338"/>
    <nd ref="7824550337"/>
    <nd ref="7514865889"/>
    <nd ref="7514865888"/>
    <tag k="addr:city" v="Huntingdon"/>
    <tag k="addr:housenumber" v="11"/>
    <tag k="addr:postcode" v="PE26 1LE"/>
    <tag k="addr:street" v="Jackson Drive"/>
    <tag k="addr:town" v="Ramsey"/>
    <tag k="building" v="house"/>
  </way>
  <way id="803362973" version="2" timestamp="2020-08-18T23:54:33Z" changeset="89599341" uid="5173844" user="ndrw6">
    <nd ref="7514865895"/>
    <nd ref="7514865894"/>
    <nd ref="7514865893"/>
    <nd ref="7514865892"/>
    <nd ref="7514865895"/>
    <tag k="addr:city" v="Huntingdon"/>
    <tag k="addr:housenumber" v="15"/>
    <tag k="addr:postcode" v="PE26 1LE"/>
    <tag k="addr:street" v="Jackson Drive"/>
    <tag k="addr:town" v="Ramsey"/>
    <tag k="building" v="house"/>
  </way>
  <way id="803362974" version="2" timestamp="2020-08-18T23:54:33Z" changeset="89599341" uid="5173844" user="ndrw6">
    <nd ref="7514865899"/>
    <nd ref="7514865898"/>
    <nd ref="7514865897"/>
    <nd ref="7514865896"/>
    <nd ref="7514865899"/>
    <tag k="addr:city" v="Huntingdon"/>
    <tag k="addr:housenumber" v="17"/>
    <tag k="addr:postcode" v="PE26 1LE"/>
    <tag k="addr:street" v="Jackson Drive"/>
    <tag k="addr:town" v="Ramsey"/>
    <tag k="building" v="house"/>
  </way>
  <way id="803362975" version="2" timestamp="2020-08-18T23:54:33Z" changeset="89599341" uid="5173844" user="ndrw6">
    <nd ref="7514865903"/>
    <nd ref="7514865902"/>
    <nd ref="7514865901"/>
    <nd ref="7514865900"/>
    <nd ref="7514865903"/>
    <tag k="addr:city" v="Huntingdon"/>
    <tag k="addr:housenumber" v="19"/>
    <tag k="addr:postcode" v="PE26 1LE"/>
    <tag k="addr:street" v="Jackson Drive"/>
    <tag k="addr:town" v="Ramsey"/>
    <tag k="building" v="house"/>
  </way>
  <way id="803362976" version="2" timestamp="2020-08-18T23:54:33Z" changeset="89599341" uid="5173844" user="ndrw6">
    <nd ref="7514865909"/>
    <nd ref="7514865908"/>
    <nd ref="7514865907"/>
    <nd ref="7514865904"/>
    <nd ref="7514865905"/>
    <nd ref="7514865906"/>
    <nd ref="7514865909"/>
    <tag k="addr:city" v="Huntingdon"/>
    <tag k="addr:housenumber" v="18"/>
    <tag k="addr:postcode" v="PE26 1LH"/>
    <tag k="addr:street" v="Carver Way"/>
    <tag k="addr:town" v="Ramsey"/>
    <tag k="building" v="house"/>
  </way>
  <way id="803362977" version="2" timestamp="2020-08-18T23:54:33Z" changeset="89599341" uid="5173844" user="ndrw6">
    <nd ref="7514865912"/>
    <nd ref="7514865911"/>
    <nd ref="7514865910"/>
    <nd ref="7514865915"/>
    <nd ref="7514865912"/>
    <tag k="addr:city" v="Huntingdon"/>
    <tag k="addr:housenumber" v="16"/>
    <tag k="addr:postcode" v="PE26 1LH"/>
    <tag k="addr:street" v="Carver Way"/>
    <tag k="addr:town" v="Ramsey"/>
    <tag k="building" v="house"/>
  </way>
  <way id="803362978" version="2" timestamp="2020-08-18T23:54:33Z" changeset="89599341" uid="5173844" user="ndrw6">
    <nd ref="7514865915"/>
    <nd ref="7514865914"/>
    <nd ref="7514865913"/>
    <nd ref="7514865912"/>
    <nd ref="7514865915"/>
    <tag k="addr:city" v="Huntingdon"/>
    <tag k="addr:housenumber" v="14"/>
    <tag k="addr:postcode" v="PE26 1LH"/>
    <tag k="addr:street" v="Carver Way"/>
    <tag k="addr:town" v="Ramsey"/>
    <tag k="building" v="house"/>
  </way>
  <way id="803362979" version="2" timestamp="2020-08-18T23:54:33Z" changeset="89599341" uid="5173844" user="ndrw6">
    <nd ref="7514865918"/>
    <nd ref="7514865917"/>
    <nd ref="7514865916"/>
    <nd ref="7514865921"/>
    <nd ref="7514865918"/>
    <tag k="addr:city" v="Huntingdon"/>
    <tag k="addr:housenumber" v="12"/>
    <tag k="addr:postcode" v="PE26 1LH"/>
    <tag k="addr:street" v="Carver Way"/>
    <tag k="addr:town" v="Ramsey"/>
    <tag k="building" v="house"/>
  </way>
  <way id="803362980" version="2" timestamp="2020-08-18T23:54:33Z" changeset="89599341" uid="5173844" user="ndrw6">
    <nd ref="7514865921"/>
    <nd ref="7514865920"/>
    <nd ref="7514865919"/>
    <nd ref="7514865918"/>
    <nd ref="7514865921"/>
    <tag k="addr:city" v="Huntingdon"/>
    <tag k="addr:housenumber" v="10"/>
    <tag k="addr:postcode" v="PE26 1LH"/>
    <tag k="addr:street" v="Carver Way"/>
    <tag k="addr:town" v="Ramsey"/>
    <tag k="building" v="house"/>
  </way>
  <way id="803362981" version="2" timestamp="2020-08-18T23:54:33Z" changeset="89599341" uid="5173844" user="ndrw6">
    <nd ref="7514865923"/>
    <nd ref="7514865926"/>
    <nd ref="7514865925"/>
    <nd ref="7514865922"/>
    <nd ref="7514865923"/>
    <tag k="addr:city" v="Huntingdon"/>
    <tag k="addr:housenumber" v="8"/>
    <tag k="addr:postcode" v="PE26 1LH"/>
    <tag k="addr:street" v="Carver Way"/>
    <tag k="addr:town" v="Ramsey"/>
    <tag k="building" v="house"/>
  </way>
  <way id="803362982" version="2" timestamp="2020-08-18T23:54:33Z" changeset="89599341" uid="5173844" user="ndrw6">
    <nd ref="7514865922"/>
    <nd ref="7514865924"/>
    <nd ref="7514865927"/>
    <nd ref="7514865923"/>
    <nd ref="7514865922"/>
    <tag k="addr:city" v="Huntingdon"/>
    <tag k="addr:housenumber" v="6"/>
    <tag k="addr:postcode" v="PE26 1LH"/>
    <tag k="addr:street" v="Carver Way"/>
    <tag k="addr:town" v="Ramsey"/>
    <tag k="building" v="house"/>
  </way>
  <way id="803362983" version="2" timestamp="2020-08-18T23:54:33Z" changeset="89599341" uid="5173844" user="ndrw6">
    <nd ref="7514865931"/>
    <nd ref="7824550340"/>
    <nd ref="7824550339"/>
    <nd ref="7514865928"/>
    <nd ref="7514865931"/>
    <tag k="addr:city" v="Huntingdon"/>
    <tag k="addr:housenumber" v="2"/>
    <tag k="addr:postcode" v="PE26 1LH"/>
    <tag k="addr:street" v="Carver Way"/>
    <tag k="addr:town" v="Ramsey"/>
    <tag k="building" v="house"/>
  </way>
  <way id="803362985" version="2" timestamp="2020-08-18T23:54:33Z" changeset="89599341" uid="5173844" user="ndrw6">
    <nd ref="7514865939"/>
    <nd ref="7514865936"/>
    <nd ref="7514865937"/>
    <nd ref="7514865938"/>
    <nd ref="7514865939"/>
    <tag k="addr:city" v="Huntingdon"/>
    <tag k="addr:housenumber" v="7"/>
    <tag k="addr:postcode" v="PE26 1LE"/>
    <tag k="addr:street" v="Jackson Drive"/>
    <tag k="addr:town" v="Ramsey"/>
    <tag k="building" v="house"/>
  </way>
  <way id="803362986" version="2" timestamp="2020-08-18T23:54:33Z" changeset="89599341" uid="5173844" user="ndrw6">
    <nd ref="7514865940"/>
    <nd ref="7514865942"/>
    <nd ref="7514865943"/>
    <nd ref="7514865941"/>
    <nd ref="7514865940"/>
    <tag k="addr:city" v="Huntingdon"/>
    <tag k="addr:housenumber" v="5"/>
    <tag k="addr:postcode" v="PE26 1LE"/>
    <tag k="addr:street" v="Jackson Drive"/>
    <tag k="addr:town" v="Ramsey"/>
    <tag k="building" v="house"/>
  </way>
  <way id="803362987" version="2" timestamp="2020-08-18T23:54:33Z" changeset="89599341" uid="5173844" user="ndrw6">
    <nd ref="7514865941"/>
    <nd ref="7514865944"/>
    <nd ref="7514865945"/>
    <nd ref="7514865940"/>
    <nd ref="7514865941"/>
    <tag k="addr:city" v="Huntingdon"/>
    <tag k="addr:housenumber" v="3"/>
    <tag k="addr:postcode" v="PE26 1LE"/>
    <tag k="addr:street" v="Jackson Drive"/>
    <tag k="addr:town" v="Ramsey"/>
    <tag k="building" v="house"/>
  </way>
  <way id="803362988" version="2" timestamp="2020-08-18T23:54:33Z" changeset="89599341" uid="5173844" user="ndrw6">
    <nd ref="7514865949"/>
    <nd ref="7514865946"/>
    <nd ref="7514865947"/>
    <nd ref="7514865948"/>
    <nd ref="7514865949"/>
    <tag k="addr:city" v="Huntingdon"/>
    <tag k="addr:housenumber" v="1"/>
    <tag k="addr:postcode" v="PE26 1LE"/>
    <tag k="addr:street" v="Jackson Drive"/>
    <tag k="addr:town" v="Ramsey"/>
    <tag k="building" v="house"/>
  </way>
  <way id="803362990" version="2" timestamp="2020-08-18T23:54:33Z" changeset="89599341" uid="5173844" user="ndrw6">
    <nd ref="7514865957"/>
    <nd ref="7514865956"/>
    <nd ref="7514865955"/>
    <nd ref="7514865954"/>
    <nd ref="7514865957"/>
    <tag k="addr:city" v="Huntingdon"/>
    <tag k="addr:housenumber" v="58"/>
    <tag k="addr:postcode" v="PE26 1LB"/>
    <tag k="addr:street" v="Wagstaffe Close"/>
    <tag k="addr:town" v="Ramsey"/>
    <tag k="building" v="house"/>
  </way>
  <way id="803362991" version="2" timestamp="2020-08-18T23:54:33Z" changeset="89599341" uid="5173844" user="ndrw6">
    <nd ref="7514865961"/>
    <nd ref="7514865960"/>
    <nd ref="7514865959"/>
    <nd ref="7514865958"/>
    <nd ref="7514865961"/>
    <tag k="addr:city" v="Huntingdon"/>
    <tag k="addr:housenumber" v="60"/>
    <tag k="addr:postcode" v="PE26 1LB"/>
    <tag k="addr:street" v="Wagstaffe Close"/>
    <tag k="addr:town" v="Ramsey"/>
    <tag k="building" v="house"/>
  </way>
  <way id="803362992" version="2" timestamp="2020-08-18T23:54:33Z" changeset="89599341" uid="5173844" user="ndrw6">
    <nd ref="7514865965"/>
    <nd ref="7514865964"/>
    <nd ref="7514865963"/>
    <nd ref="7514865962"/>
    <nd ref="7514865965"/>
    <tag k="addr:city" v="Huntingdon"/>
    <tag k="addr:housenumber" v="62"/>
    <tag k="addr:postcode" v="PE26 1LB"/>
    <tag k="addr:street" v="Wagstaffe Close"/>
    <tag k="addr:town" v="Ramsey"/>
    <tag k="building" v="house"/>
  </way>
  <way id="803362993" version="2" timestamp="2020-08-18T23:54:33Z" changeset="89599341" uid="5173844" user="ndrw6">
    <nd ref="7514865967"/>
    <nd ref="7514865966"/>
    <nd ref="7514865970"/>
    <nd ref="7514865969"/>
    <nd ref="7514865967"/>
    <tag k="addr:city" v="Huntingdon"/>
    <tag k="addr:housenumber" v="64"/>
    <tag k="addr:postcode" v="PE26 1LB"/>
    <tag k="addr:street" v="Wagstaffe Close"/>
    <tag k="addr:town" v="Ramsey"/>
    <tag k="building" v="house"/>
  </way>
  <way id="803362995" version="2" timestamp="2020-08-18T23:54:33Z" changeset="89599341" uid="5173844" user="ndrw6">
    <nd ref="7514865974"/>
    <nd ref="7514865973"/>
    <nd ref="7514865972"/>
    <nd ref="7514865977"/>
    <nd ref="7514865974"/>
    <tag k="addr:city" v="Huntingdon"/>
    <tag k="addr:housenumber" v="56"/>
    <tag k="addr:postcode" v="PE26 1LB"/>
    <tag k="addr:street" v="Wagstaffe Close"/>
    <tag k="addr:town" v="Ramsey"/>
    <tag k="building" v="house"/>
  </way>
  <way id="803362996" version="2" timestamp="2020-08-18T23:54:33Z" changeset="89599341" uid="5173844" user="ndrw6">
    <nd ref="7514865977"/>
    <nd ref="7514865976"/>
    <nd ref="7514865975"/>
    <nd ref="7514865974"/>
    <nd ref="7514865977"/>
    <tag k="addr:city" v="Huntingdon"/>
    <tag k="addr:housenumber" v="54"/>
    <tag k="addr:postcode" v="PE26 1LB"/>
    <tag k="addr:street" v="Wagstaffe Close"/>
    <tag k="addr:town" v="Ramsey"/>
    <tag k="building" v="house"/>
  </way>
  <way id="803362997" version="2" timestamp="2020-08-18T23:54:33Z" changeset="89599341" uid="5173844" user="ndrw6">
    <nd ref="7514865980"/>
    <nd ref="7514865979"/>
    <nd ref="7514865978"/>
    <nd ref="7514865983"/>
    <nd ref="7514865980"/>
    <tag k="addr:city" v="Huntingdon"/>
    <tag k="addr:housenumber" v="50"/>
    <tag k="addr:postcode" v="PE26 1LB"/>
    <tag k="addr:street" v="Wagstaffe Close"/>
    <tag k="addr:town" v="Ramsey"/>
    <tag k="building" v="house"/>
  </way>
  <way id="803362998" version="2" timestamp="2020-08-18T23:54:33Z" changeset="89599341" uid="5173844" user="ndrw6">
    <nd ref="7514865983"/>
    <nd ref="7514865982"/>
    <nd ref="7514865981"/>
    <nd ref="7514865980"/>
    <nd ref="7514865983"/>
    <tag k="addr:city" v="Huntingdon"/>
    <tag k="addr:housenumber" v="52"/>
    <tag k="addr:postcode" v="PE26 1LB"/>
    <tag k="addr:street" v="Wagstaffe Close"/>
    <tag k="addr:town" v="Ramsey"/>
    <tag k="building" v="house"/>
  </way>
  <way id="803362999" version="2" timestamp="2020-08-18T23:54:33Z" changeset="89599341" uid="5173844" user="ndrw6">
    <nd ref="7514865985"/>
    <nd ref="7514865987"/>
    <nd ref="7514865988"/>
    <nd ref="7514865984"/>
    <nd ref="7514865985"/>
    <tag k="addr:city" v="Huntingdon"/>
    <tag k="addr:housenumber" v="46"/>
    <tag k="addr:postcode" v="PE26 1LB"/>
    <tag k="addr:street" v="Wagstaffe Close"/>
    <tag k="addr:town" v="Ramsey"/>
    <tag k="building" v="house"/>
  </way>
  <way id="803363000" version="2" timestamp="2020-08-18T23:54:33Z" changeset="89599341" uid="5173844" user="ndrw6">
    <nd ref="7514865984"/>
    <nd ref="7514865989"/>
    <nd ref="7514865986"/>
    <nd ref="7514865985"/>
    <nd ref="7514865984"/>
    <tag k="addr:city" v="Huntingdon"/>
    <tag k="addr:housenumber" v="48"/>
    <tag k="addr:postcode" v="PE26 1LB"/>
    <tag k="addr:street" v="Wagstaffe Close"/>
    <tag k="addr:town" v="Ramsey"/>
    <tag k="building" v="house"/>
  </way>
  <way id="803363002" version="2" timestamp="2020-08-18T23:54:33Z" changeset="89599341" uid="5173844" user="ndrw6">
    <nd ref="7514866001"/>
    <nd ref="7514865998"/>
    <nd ref="7514865999"/>
    <nd ref="7514866000"/>
    <nd ref="7514866001"/>
    <tag k="addr:city" v="Huntingdon"/>
    <tag k="addr:housenumber" v="26"/>
    <tag k="addr:postcode" v="PE26 1LB"/>
    <tag k="addr:street" v="Wagstaffe Close"/>
    <tag k="addr:town" v="Ramsey"/>
    <tag k="building" v="house"/>
  </way>
  <way id="803363003" version="2" timestamp="2020-08-18T23:54:33Z" changeset="89599341" uid="5173844" user="ndrw6">
    <nd ref="7514866003"/>
    <nd ref="7514866005"/>
    <nd ref="7514866006"/>
    <nd ref="7514866002"/>
    <nd ref="7514866003"/>
    <tag k="addr:city" v="Huntingdon"/>
    <tag k="addr:housenumber" v="24"/>
    <tag k="addr:postcode" v="PE26 1LB"/>
    <tag k="addr:street" v="Wagstaffe Close"/>
    <tag k="addr:town" v="Ramsey"/>
    <tag k="building" v="house"/>
  </way>
  <way id="803363004" version="2" timestamp="2020-08-18T23:54:33Z" changeset="89599341" uid="5173844" user="ndrw6">
    <nd ref="7514866002"/>
    <nd ref="7514866007"/>
    <nd ref="7514866004"/>
    <nd ref="7514866003"/>
    <nd ref="7514866002"/>
    <tag k="addr:city" v="Huntingdon"/>
    <tag k="addr:housenumber" v="22"/>
    <tag k="addr:postcode" v="PE26 1LB"/>
    <tag k="addr:street" v="Wagstaffe Close"/>
    <tag k="addr:town" v="Ramsey"/>
    <tag k="building" v="house"/>
  </way>
  <way id="803363005" version="2" timestamp="2020-08-18T23:54:33Z" changeset="89599341" uid="5173844" user="ndrw6">
    <nd ref="7514866009"/>
    <nd ref="7514866012"/>
    <nd ref="7514866011"/>
    <nd ref="7514866008"/>
    <nd ref="7514866009"/>
    <tag k="addr:city" v="Huntingdon"/>
    <tag k="addr:housenumber" v="20"/>
    <tag k="addr:postcode" v="PE26 1LB"/>
    <tag k="addr:street" v="Wagstaffe Close"/>
    <tag k="addr:town" v="Ramsey"/>
    <tag k="building" v="house"/>
  </way>
  <way id="803363006" version="2" timestamp="2020-08-18T23:54:33Z" changeset="89599341" uid="5173844" user="ndrw6">
    <nd ref="7514866008"/>
    <nd ref="7514866010"/>
    <nd ref="7514866013"/>
    <nd ref="7514866009"/>
    <nd ref="7514866008"/>
    <tag k="addr:city" v="Huntingdon"/>
    <tag k="addr:housenumber" v="18"/>
    <tag k="addr:postcode" v="PE26 1LB"/>
    <tag k="addr:street" v="Wagstaffe Close"/>
    <tag k="addr:town" v="Ramsey"/>
    <tag k="building" v="house"/>
  </way>
  <way id="803363007" version="2" timestamp="2020-08-18T23:54:33Z" changeset="89599341" uid="5173844" user="ndrw6">
    <nd ref="7514866017"/>
    <nd ref="7514866014"/>
    <nd ref="7514866015"/>
    <nd ref="7514866016"/>
    <nd ref="7514866017"/>
    <tag k="addr:city" v="Huntingdon"/>
    <tag k="addr:housenumber" v="16"/>
    <tag k="addr:postcode" v="PE26 1LB"/>
    <tag k="addr:street" v="Wagstaffe Close"/>
    <tag k="addr:town" v="Ramsey"/>
    <tag k="building" v="house"/>
  </way>
  <way id="803363008" version="2" timestamp="2020-08-18T23:54:33Z" changeset="89599341" uid="5173844" user="ndrw6">
    <nd ref="7514866021"/>
    <nd ref="7514866018"/>
    <nd ref="7514866019"/>
    <nd ref="7514866020"/>
    <nd ref="7514866021"/>
    <tag k="addr:city" v="Huntingdon"/>
    <tag k="addr:housenumber" v="14"/>
    <tag k="addr:postcode" v="PE26 1LB"/>
    <tag k="addr:street" v="Wagstaffe Close"/>
    <tag k="addr:town" v="Ramsey"/>
    <tag k="building" v="house"/>
  </way>
  <way id="803363009" version="2" timestamp="2020-08-18T23:54:33Z" changeset="89599341" uid="5173844" user="ndrw6">
    <nd ref="7514866025"/>
    <nd ref="7514866024"/>
    <nd ref="7514866023"/>
    <nd ref="7514866022"/>
    <nd ref="7514866025"/>
    <tag k="addr:city" v="Huntingdon"/>
    <tag k="addr:housenumber" v="12"/>
    <tag k="addr:postcode" v="PE26 1LB"/>
    <tag k="addr:street" v="Wagstaffe Close"/>
    <tag k="addr:town" v="Ramsey"/>
    <tag k="building" v="house"/>
  </way>
  <way id="803363010" version="2" timestamp="2020-08-18T23:54:33Z" changeset="89599341" uid="5173844" user="ndrw6">
    <nd ref="7514866029"/>
    <nd ref="7514866026"/>
    <nd ref="7514866027"/>
    <nd ref="7514866028"/>
    <nd ref="7514866029"/>
    <tag k="addr:city" v="Huntingdon"/>
    <tag k="addr:housenumber" v="10"/>
    <tag k="addr:postcode" v="PE26 1LB"/>
    <tag k="addr:street" v="Wagstaffe Close"/>
    <tag k="addr:town" v="Ramsey"/>
    <tag k="building" v="house"/>
  </way>
  <way id="803363011" version="2" timestamp="2020-08-18T23:54:33Z" changeset="89599341" uid="5173844" user="ndrw6">
    <nd ref="7514866033"/>
    <nd ref="7514866032"/>
    <nd ref="7514866031"/>
    <nd ref="7514866030"/>
    <nd ref="7514866033"/>
    <tag k="addr:city" v="Huntingdon"/>
    <tag k="addr:housenumber" v="8"/>
    <tag k="addr:postcode" v="PE26 1LB"/>
    <tag k="addr:street" v="Wagstaffe Close"/>
    <tag k="addr:town" v="Ramsey"/>
    <tag k="building" v="house"/>
  </way>
  <way id="803363012" version="2" timestamp="2020-08-18T23:54:33Z" changeset="89599341" uid="5173844" user="ndrw6">
    <nd ref="7824550347"/>
    <nd ref="7514866035"/>
    <nd ref="7514866034"/>
    <nd ref="7824550348"/>
    <nd ref="7824550347"/>
    <tag k="addr:city" v="Huntingdon"/>
    <tag k="addr:housenumber" v="4"/>
    <tag k="addr:postcode" v="PE26 1LB"/>
    <tag k="addr:street" v="Wagstaffe Close"/>
    <tag k="addr:town" v="Ramsey"/>
    <tag k="building" v="house"/>
  </way>
  <way id="803363013" version="2" timestamp="2020-08-18T23:54:33Z" changeset="89599341" uid="5173844" user="ndrw6">
    <nd ref="7514866035"/>
    <nd ref="7514866039"/>
    <nd ref="7514866036"/>
    <nd ref="7514866034"/>
    <nd ref="7514866035"/>
    <tag k="addr:city" v="Huntingdon"/>
    <tag k="addr:housenumber" v="6"/>
    <tag k="addr:postcode" v="PE26 1LB"/>
    <tag k="addr:street" v="Wagstaffe Close"/>
    <tag k="addr:town" v="Ramsey"/>
    <tag k="building" v="house"/>
  </way>
  <way id="803363014" version="2" timestamp="2020-08-18T23:54:33Z" changeset="89599341" uid="5173844" user="ndrw6">
    <nd ref="7514866043"/>
    <nd ref="7514866040"/>
    <nd ref="7514866041"/>
    <nd ref="7514866042"/>
    <nd ref="7514866043"/>
    <tag k="addr:city" v="Huntingdon"/>
    <tag k="addr:housenumber" v="9"/>
    <tag k="addr:postcode" v="PE26 1LD"/>
    <tag k="addr:street" v="Muir Grove"/>
    <tag k="addr:town" v="Ramsey"/>
    <tag k="building" v="house"/>
  </way>
  <way id="803363015" version="2" timestamp="2020-08-18T23:54:33Z" changeset="89599341" uid="5173844" user="ndrw6">
    <nd ref="7514866045"/>
    <nd ref="7514866069"/>
    <nd ref="7514866070"/>
    <nd ref="7514866044"/>
    <nd ref="7514866045"/>
    <tag k="addr:city" v="Huntingdon"/>
    <tag k="addr:housenumber" v="7"/>
    <tag k="addr:postcode" v="PE26 1LD"/>
    <tag k="addr:street" v="Muir Grove"/>
    <tag k="addr:town" v="Ramsey"/>
    <tag k="building" v="house"/>
  </way>
  <way id="803363016" version="2" timestamp="2020-08-18T23:54:33Z" changeset="89599341" uid="5173844" user="ndrw6">
    <nd ref="7514866047"/>
    <nd ref="7514866061"/>
    <nd ref="7514866060"/>
    <nd ref="7514866046"/>
    <nd ref="7514866047"/>
    <tag k="addr:city" v="Huntingdon"/>
    <tag k="addr:housenumber" v="3"/>
    <tag k="addr:postcode" v="PE26 1LD"/>
    <tag k="addr:street" v="Muir Grove"/>
    <tag k="addr:town" v="Ramsey"/>
    <tag k="building" v="house"/>
  </way>
  <way id="803363017" version="2" timestamp="2020-08-18T23:54:33Z" changeset="89599341" uid="5173844" user="ndrw6">
    <nd ref="7514866049"/>
    <nd ref="7514866065"/>
    <nd ref="7514866064"/>
    <nd ref="7514866048"/>
    <nd ref="7514866049"/>
    <tag k="addr:city" v="Huntingdon"/>
    <tag k="addr:housenumber" v="5"/>
    <tag k="addr:postcode" v="PE26 1LD"/>
    <tag k="addr:street" v="Muir Grove"/>
    <tag k="addr:town" v="Ramsey"/>
    <tag k="building" v="house"/>
  </way>
  <way id="803363018" version="2" timestamp="2020-08-18T23:54:33Z" changeset="89599341" uid="5173844" user="ndrw6">
    <nd ref="7514866050"/>
    <nd ref="7514866055"/>
    <nd ref="7514866052"/>
    <nd ref="7514866051"/>
    <nd ref="7514866050"/>
    <tag k="addr:city" v="Huntingdon"/>
    <tag k="addr:housenumber" v="2"/>
    <tag k="addr:postcode" v="PE26 1LD"/>
    <tag k="addr:street" v="Muir Grove"/>
    <tag k="addr:town" v="Ramsey"/>
    <tag k="building" v="house"/>
  </way>
  <way id="803363019" version="2" timestamp="2020-08-18T23:54:33Z" changeset="89599341" uid="5173844" user="ndrw6">
    <nd ref="7514866051"/>
    <nd ref="7514866053"/>
    <nd ref="7514866054"/>
    <nd ref="7514866050"/>
    <nd ref="7514866051"/>
    <tag k="addr:city" v="Huntingdon"/>
    <tag k="addr:housenumber" v="1"/>
    <tag k="addr:postcode" v="PE26 1LD"/>
    <tag k="addr:street" v="Muir Grove"/>
    <tag k="addr:town" v="Ramsey"/>
    <tag k="building" v="house"/>
  </way>
  <way id="803363020" version="2" timestamp="2020-08-18T23:54:33Z" changeset="89599341" uid="5173844" user="ndrw6">
    <nd ref="7514866059"/>
    <nd ref="7514866056"/>
    <nd ref="7514866057"/>
    <nd ref="7514866058"/>
    <nd ref="7514866059"/>
    <tag k="addr:city" v="Huntingdon"/>
    <tag k="addr:housenumber" v="10"/>
    <tag k="addr:postcode" v="PE26 1LD"/>
    <tag k="addr:street" v="Muir Grove"/>
    <tag k="addr:town" v="Ramsey"/>
    <tag k="building" v="house"/>
  </way>
  <way id="803363021" version="2" timestamp="2020-08-18T23:54:33Z" changeset="89599341" uid="5173844" user="ndrw6">
    <nd ref="7514866046"/>
    <nd ref="7514866063"/>
    <nd ref="7514866062"/>
    <nd ref="7514866047"/>
    <nd ref="7514866046"/>
    <tag k="addr:city" v="Huntingdon"/>
    <tag k="addr:housenumber" v="4"/>
    <tag k="addr:postcode" v="PE26 1LD"/>
    <tag k="addr:street" v="Muir Grove"/>
    <tag k="addr:town" v="Ramsey"/>
    <tag k="building" v="house"/>
  </way>
  <way id="803363022" version="2" timestamp="2020-08-18T23:54:33Z" changeset="89599341" uid="5173844" user="ndrw6">
    <nd ref="7514866048"/>
    <nd ref="7514866067"/>
    <nd ref="7514866066"/>
    <nd ref="7514866049"/>
    <nd ref="7514866048"/>
    <tag k="addr:city" v="Huntingdon"/>
    <tag k="addr:housenumber" v="6"/>
    <tag k="addr:postcode" v="PE26 1LD"/>
    <tag k="addr:street" v="Muir Grove"/>
    <tag k="addr:town" v="Ramsey"/>
    <tag k="building" v="house"/>
  </way>
  <way id="803363023" version="2" timestamp="2020-08-18T23:54:33Z" changeset="89599341" uid="5173844" user="ndrw6">
    <nd ref="7514866044"/>
    <nd ref="7514866071"/>
    <nd ref="7514866068"/>
    <nd ref="7514866045"/>
    <nd ref="7514866044"/>
    <tag k="addr:city" v="Huntingdon"/>
    <tag k="addr:housenumber" v="8"/>
    <tag k="addr:postcode" v="PE26 1LD"/>
    <tag k="addr:street" v="Muir Grove"/>
    <tag k="addr:town" v="Ramsey"/>
    <tag k="building" v="house"/>
  </way>
  <way id="803919224" version="3" timestamp="2024-12-12T00:12:48Z" changeset="160189086" uid="95856" user="john paul jones &amp; gringo">
    <nd ref="7519884356"/>
    <nd ref="7519884353"/>
    <nd ref="7519884354"/>
    <nd ref="7519884355"/>
    <nd ref="7519884356"/>
    <tag k="addr:city" v="Huntingdon"/>
    <tag k="addr:housenumber" v="2"/>
    <tag k="addr:postcode" v="PE26 1AE"/>
    <tag k="addr:street" v="High Street"/>
    <tag k="addr:suburb" v="Ramsey"/>
    <tag k="amenity" v="dentist"/>
    <tag k="building" v="yes"/>
    <tag k="healthcare" v="dentist"/>
    <tag k="name" v="Ramsey Dental Surgery"/>
    <tag k="website" v="https://www.ramseydentalsurgery.co.uk"/>
  </way>
  <way id="804458088" version="2" timestamp="2022-03-19T18:19:27Z" changeset="118675134" uid="11022773" user="GeoFens">
    <nd ref="7524516933"/>
    <nd ref="7524516932"/>
    <nd ref="7524516931"/>
    <nd ref="7524516930"/>
    <nd ref="7524516933"/>
    <tag k="addr:city" v="Ramsey"/>
    <tag k="addr:housenumber" v="1"/>
    <tag k="addr:street" v="Hopbine Court"/>
    <tag k="building" v="house"/>
  </way>
  <way id="804458089" version="3" timestamp="2024-12-21T20:38:40Z" changeset="160482709" uid="5173844" user="ndrw6">
    <nd ref="7524516937"/>
    <nd ref="7524516934"/>
    <nd ref="7524516935"/>
    <nd ref="7524516936"/>
    <nd ref="7524516937"/>
    <tag k="addr:city" v="Ramsey"/>
    <tag k="addr:housenumber" v="3"/>
    <tag k="addr:street" v="Hopbine Court"/>
    <tag k="building" v="house"/>
  </way>
  <way id="804458090" version="3" timestamp="2024-12-21T20:38:40Z" changeset="160482709" uid="5173844" user="ndrw6">
    <nd ref="7524516941"/>
    <nd ref="7524516940"/>
    <nd ref="7524516939"/>
    <nd ref="7524516938"/>
    <nd ref="7524516941"/>
    <tag k="addr:city" v="Ramsey"/>
    <tag k="addr:housenumber" v="5"/>
    <tag k="addr:street" v="Hopbine Court"/>
    <tag k="building" v="house"/>
  </way>
  <way id="804458091" version="3" timestamp="2024-12-21T20:38:40Z" changeset="160482709" uid="5173844" user="ndrw6">
    <nd ref="7524516945"/>
    <nd ref="7524516942"/>
    <nd ref="7524516943"/>
    <nd ref="7524516944"/>
    <nd ref="7524516945"/>
    <tag k="addr:city" v="Ramsey"/>
    <tag k="addr:housenumber" v="7"/>
    <tag k="addr:street" v="Hopbine Court"/>
    <tag k="building" v="house"/>
  </way>
  <way id="804458092" version="3" timestamp="2024-12-21T20:38:40Z" changeset="160482709" uid="5173844" user="ndrw6">
    <nd ref="7524516949"/>
    <nd ref="7524516948"/>
    <nd ref="7524516947"/>
    <nd ref="7524516946"/>
    <nd ref="7524516949"/>
    <tag k="addr:city" v="Ramsey"/>
    <tag k="addr:housenumber" v="11"/>
    <tag k="addr:street" v="Hopbine Court"/>
    <tag k="building" v="house"/>
  </way>
  <way id="804458095" version="3" timestamp="2022-12-30T15:57:59Z" changeset="130693172" uid="11022773" user="GeoFens">
    <nd ref="7524516961"/>
    <nd ref="7524516958"/>
    <nd ref="7524516959"/>
    <nd ref="7524516960"/>
    <nd ref="7524516961"/>
    <tag k="addr:housenumber" v="11"/>
    <tag k="addr:street" v="Malthouse Lane"/>
    <tag k="building" v="house"/>
  </way>
  <way id="804458097" version="3" timestamp="2023-03-04T15:50:26Z" changeset="133295621" uid="11022773" user="GeoFens">
    <nd ref="7524516969"/>
    <nd ref="7524516968"/>
    <nd ref="7524516967"/>
    <nd ref="7524516966"/>
    <nd ref="7524516969"/>
    <tag k="addr:city" v="Ramsey"/>
    <tag k="addr:housenumber" v="6"/>
    <tag k="addr:street" v="Hopbine Court"/>
    <tag k="building" v="house"/>
  </way>
  <way id="804458098" version="3" timestamp="2023-03-04T15:50:26Z" changeset="133295621" uid="11022773" user="GeoFens">
    <nd ref="7524516973"/>
    <nd ref="7524516972"/>
    <nd ref="7524516971"/>
    <nd ref="7524516970"/>
    <nd ref="7524516973"/>
    <tag k="addr:city" v="Ramsey"/>
    <tag k="addr:housenumber" v="4"/>
    <tag k="addr:street" v="Hopbine Court"/>
    <tag k="building" v="house"/>
  </way>
  <way id="804458099" version="3" timestamp="2023-03-04T15:50:26Z" changeset="133295621" uid="11022773" user="GeoFens">
    <nd ref="7524516977"/>
    <nd ref="7524516974"/>
    <nd ref="7524516975"/>
    <nd ref="7524516976"/>
    <nd ref="7524516977"/>
    <tag k="addr:city" v="Ramsey"/>
    <tag k="addr:housenumber" v="2"/>
    <tag k="addr:street" v="Hopbine Court"/>
    <tag k="building" v="house"/>
  </way>
  <way id="804458100" version="3" timestamp="2022-12-30T15:57:59Z" changeset="130693172" uid="11022773" user="GeoFens">
    <nd ref="7524516981"/>
    <nd ref="7524516980"/>
    <nd ref="7524516979"/>
    <nd ref="7524516978"/>
    <nd ref="7524516981"/>
    <tag k="addr:housenumber" v="9"/>
    <tag k="addr:street" v="Malthouse Lane"/>
    <tag k="building" v="house"/>
  </way>
  <way id="804458101" version="3" timestamp="2022-03-19T18:19:27Z" changeset="118675134" uid="11022773" user="GeoFens">
    <nd ref="7524516985"/>
    <nd ref="7524516984"/>
    <nd ref="7524516983"/>
    <nd ref="7524516982"/>
    <nd ref="7524516985"/>
    <tag k="addr:city" v="Ramsey"/>
    <tag k="addr:housenumber" v="1"/>
    <tag k="addr:street" v="Malthouse Lane"/>
    <tag k="building" v="house"/>
    <tag k="name" v="Norfolk House"/>
  </way>
  <way id="804458102" version="2" timestamp="2022-03-19T18:19:27Z" changeset="118675134" uid="11022773" user="GeoFens">
    <nd ref="7524516989"/>
    <nd ref="7524516988"/>
    <nd ref="7524516987"/>
    <nd ref="7524516986"/>
    <nd ref="7524516989"/>
    <tag k="addr:city" v="Ramsey"/>
    <tag k="addr:housenumber" v="3"/>
    <tag k="addr:street" v="Malthouse Lane"/>
    <tag k="building" v="house"/>
  </way>
  <way id="804458103" version="2" timestamp="2022-03-19T18:19:27Z" changeset="118675134" uid="11022773" user="GeoFens">
    <nd ref="7524516993"/>
    <nd ref="7524516992"/>
    <nd ref="7524516991"/>
    <nd ref="7524516990"/>
    <nd ref="7524516993"/>
    <tag k="addr:city" v="Ramsey"/>
    <tag k="addr:housenumber" v="5"/>
    <tag k="addr:street" v="Malthouse Lane"/>
    <tag k="building" v="house"/>
  </way>
  <way id="804458104" version="2" timestamp="2022-03-19T18:19:27Z" changeset="118675134" uid="11022773" user="GeoFens">
    <nd ref="7524516997"/>
    <nd ref="7524516994"/>
    <nd ref="7524516995"/>
    <nd ref="7524516996"/>
    <nd ref="7524516997"/>
    <tag k="addr:city" v="Ramsey"/>
    <tag k="addr:housenumber" v="7"/>
    <tag k="addr:street" v="Malthouse Lane"/>
    <tag k="building" v="house"/>
  </way>
  <way id="823384495" version="3" timestamp="2024-12-31T05:36:18Z" changeset="160819845" uid="493595" user="Yorvik Prestigitator">
    <nd ref="7687209456"/>
    <nd ref="8930614881"/>
    <nd ref="7687209457"/>
    <nd ref="7687209458"/>
    <nd ref="7687209459"/>
    <nd ref="7687209456"/>
    <tag k="addr:city" v="Ramsey Mereside"/>
    <tag k="addr:street" v="Drovers Close"/>
    <tag k="amenity" v="community_centre"/>
    <tag k="building" v="public"/>
    <tag k="community_centre" v="village_hall"/>
    <tag k="name" v="Ramsey Mereside Village Hall"/>
    <tag k="website" v="http://mereside1999.wix.com/mva"/>
    <tag k="wheelchair" v="yes"/>
  </way>
  <way id="838384891" version="1" timestamp="2020-08-18T23:54:33Z" changeset="89599341" uid="5173844" user="ndrw6">
    <nd ref="7824547075"/>
    <nd ref="7514865952"/>
    <nd ref="7514865951"/>
    <nd ref="7824547074"/>
    <nd ref="7824547075"/>
    <tag k="addr:city" v="Huntingdon"/>
    <tag k="addr:housenumber" v="21"/>
    <tag k="addr:postcode" v="PE26 1LB"/>
    <tag k="addr:street" v="Wagstaffe Close"/>
    <tag k="addr:town" v="Ramsey"/>
    <tag k="building" v="house"/>
  </way>
  <way id="838384892" version="1" timestamp="2020-08-18T23:54:33Z" changeset="89599341" uid="5173844" user="ndrw6">
    <nd ref="7824547079"/>
    <nd ref="7824547078"/>
    <nd ref="7824547077"/>
    <nd ref="7824547076"/>
    <nd ref="7824547079"/>
    <tag k="addr:city" v="Huntingdon"/>
    <tag k="addr:housenumber" v="70"/>
    <tag k="addr:postcode" v="PE26 1LB"/>
    <tag k="addr:street" v="Wagstaffe Close"/>
    <tag k="addr:town" v="Ramsey"/>
    <tag k="building" v="house"/>
  </way>
  <way id="838384893" version="1" timestamp="2020-08-18T23:54:33Z" changeset="89599341" uid="5173844" user="ndrw6">
    <nd ref="7824547083"/>
    <nd ref="7824547082"/>
    <nd ref="7824547081"/>
    <nd ref="7824547080"/>
    <nd ref="7824547083"/>
    <tag k="addr:city" v="Huntingdon"/>
    <tag k="addr:housenumber" v="72"/>
    <tag k="addr:postcode" v="PE26 1LB"/>
    <tag k="addr:street" v="Wagstaffe Close"/>
    <tag k="addr:town" v="Ramsey"/>
    <tag k="building" v="house"/>
  </way>
  <way id="838384899" version="1" timestamp="2020-08-18T23:54:33Z" changeset="89599341" uid="5173844" user="ndrw6">
    <nd ref="7824550305"/>
    <nd ref="7824550309"/>
    <nd ref="7824550306"/>
    <nd ref="7824550304"/>
    <nd ref="7824550305"/>
    <tag k="addr:city" v="Huntingdon"/>
    <tag k="addr:housenumber" v="2"/>
    <tag k="addr:postcode" v="PE26 1LE"/>
    <tag k="addr:street" v="Jackson Drive"/>
    <tag k="addr:town" v="Ramsey"/>
    <tag k="building" v="house"/>
  </way>
  <way id="838384900" version="1" timestamp="2020-08-18T23:54:33Z" changeset="89599341" uid="5173844" user="ndrw6">
    <nd ref="7824550308"/>
    <nd ref="7824550305"/>
    <nd ref="7824550304"/>
    <nd ref="7824550307"/>
    <nd ref="7824550308"/>
    <tag k="addr:city" v="Huntingdon"/>
    <tag k="addr:housenumber" v="4"/>
    <tag k="addr:postcode" v="PE26 1LE"/>
    <tag k="addr:street" v="Jackson Drive"/>
    <tag k="addr:town" v="Ramsey"/>
    <tag k="building" v="house"/>
  </way>
  <way id="838384910" version="1" timestamp="2020-08-18T23:54:33Z" changeset="89599341" uid="5173844" user="ndrw6">
    <nd ref="7824550338"/>
    <nd ref="7514865891"/>
    <nd ref="7514865890"/>
    <nd ref="7824550337"/>
    <nd ref="7824550338"/>
    <tag k="addr:city" v="Huntingdon"/>
    <tag k="addr:housenumber" v="9"/>
    <tag k="addr:postcode" v="PE26 1LE"/>
    <tag k="addr:street" v="Jackson Drive"/>
    <tag k="addr:town" v="Ramsey"/>
    <tag k="building" v="house"/>
  </way>
  <way id="838384911" version="1" timestamp="2020-08-18T23:54:33Z" changeset="89599341" uid="5173844" user="ndrw6">
    <nd ref="7824550340"/>
    <nd ref="7514865930"/>
    <nd ref="7514865929"/>
    <nd ref="7824550339"/>
    <nd ref="7824550340"/>
    <tag k="addr:city" v="Huntingdon"/>
    <tag k="addr:housenumber" v="4"/>
    <tag k="addr:postcode" v="PE26 1LH"/>
    <tag k="addr:street" v="Carver Way"/>
    <tag k="addr:town" v="Ramsey"/>
    <tag k="building" v="house"/>
  </way>
  <way id="838384912" version="1" timestamp="2020-08-18T23:54:33Z" changeset="89599341" uid="5173844" user="ndrw6">
    <nd ref="7824550344"/>
    <nd ref="7514865756"/>
    <nd ref="7514865753"/>
    <nd ref="7824550343"/>
    <nd ref="7824550344"/>
    <tag k="addr:city" v="Huntingdon"/>
    <tag k="addr:housenumber" v="11"/>
    <tag k="addr:postcode" v="PE26 1LB"/>
    <tag k="addr:street" v="Wagstaffe Close"/>
    <tag k="addr:town" v="Ramsey"/>
    <tag k="building" v="house"/>
  </way>
  <way id="838384913" version="1" timestamp="2020-08-18T23:54:33Z" changeset="89599341" uid="5173844" user="ndrw6">
    <nd ref="7824550346"/>
    <nd ref="7514865760"/>
    <nd ref="7514865757"/>
    <nd ref="7824550345"/>
    <nd ref="7824550346"/>
    <tag k="addr:city" v="Huntingdon"/>
    <tag k="addr:housenumber" v="7"/>
    <tag k="addr:postcode" v="PE26 1LB"/>
    <tag k="addr:street" v="Wagstaffe Close"/>
    <tag k="addr:town" v="Ramsey"/>
    <tag k="building" v="house"/>
  </way>
  <way id="838384914" version="1" timestamp="2020-08-18T23:54:33Z" changeset="89599341" uid="5173844" user="ndrw6">
    <nd ref="7824550348"/>
    <nd ref="7514866037"/>
    <nd ref="7514866038"/>
    <nd ref="7824550347"/>
    <nd ref="7824550348"/>
    <tag k="addr:city" v="Huntingdon"/>
    <tag k="addr:housenumber" v="2"/>
    <tag k="addr:postcode" v="PE26 1LB"/>
    <tag k="addr:street" v="Wagstaffe Close"/>
    <tag k="addr:town" v="Ramsey"/>
    <tag k="building" v="house"/>
  </way>
  <way id="839148129" version="4" timestamp="2024-05-29T13:50:47Z" changeset="151990898" uid="95856" user="john paul jones &amp; gringo">
    <nd ref="7830651340"/>
    <nd ref="3992192609"/>
    <nd ref="7830651341"/>
    <nd ref="7830651342"/>
    <nd ref="3992197973"/>
    <nd ref="7830651344"/>
    <nd ref="7837047754"/>
    <nd ref="7837047755"/>
    <nd ref="7837047756"/>
    <nd ref="7837047757"/>
    <nd ref="7837047758"/>
    <nd ref="7837047759"/>
    <nd ref="7837047760"/>
    <nd ref="7830651350"/>
    <nd ref="7830651340"/>
    <tag k="access" v="customers"/>
    <tag k="addr:city" v="Huntingdon"/>
    <tag k="addr:country" v="GB"/>
    <tag k="addr:postcode" v="PE26 2SB"/>
    <tag k="addr:street" v="Mill Drove"/>
    <tag k="addr:suburb" v="Ramsey"/>
    <tag k="bbq" v="no"/>
    <tag k="cabins" v="yes"/>
    <tag k="caravans" v="yes"/>
    <tag k="dog" v="yes"/>
    <tag k="drinking_water" v="yes"/>
    <tag k="fee" v="yes"/>
    <tag k="hot_water" v="shower"/>
    <tag k="kitchen" v="no"/>
    <tag k="motor_vehicle" v="yes"/>
    <tag k="name" v="Rivermill Touring Caravan and Camping Park"/>
    <tag k="permanent_camping" v="no"/>
    <tag k="picnic_table" v="yes"/>
    <tag k="power_supply" v="yes"/>
    <tag k="shower" v="hot"/>
    <tag k="static_caravans" v="no"/>
    <tag k="tents" v="yes"/>
    <tag k="toilets" v="yes"/>
    <tag k="tourism" v="camp_site"/>
    <tag k="washing_machine" v="no"/>
    <tag k="waste_disposal" v="yes"/>
    <tag k="website" v="https://www.facebook.com/rivermillramsey/"/>
  </way>
  <way id="863367709" version="2" timestamp="2024-12-30T02:46:39Z" changeset="160774459" uid="493595" user="Yorvik Prestigitator">
    <nd ref="8042802630"/>
    <nd ref="8042802637"/>
    <nd ref="8042802638"/>
    <nd ref="8042802639"/>
    <nd ref="8042802640"/>
    <nd ref="8042802641"/>
    <nd ref="8042802642"/>
    <nd ref="8042802634"/>
    <nd ref="8042802633"/>
    <nd ref="12462037711"/>
    <nd ref="8042802632"/>
    <nd ref="12462037712"/>
    <nd ref="8042802631"/>
    <nd ref="8042802630"/>
    <tag k="addr:street" v="Oilmills Road"/>
    <tag k="amenity" v="community_centre"/>
    <tag k="building" v="public"/>
    <tag k="community_centre" v="village_hall"/>
    <tag k="name" v="Pondersbridge Village Hall"/>
  </way>
  <way id="878949927" version="2" timestamp="2021-04-09T16:02:37Z" changeset="102656366" uid="11022773" user="GeoFens">
    <nd ref="8176801756"/>
    <nd ref="8176801757"/>
    <nd ref="8176801758"/>
    <nd ref="8176801759"/>
    <nd ref="8176801760"/>
    <nd ref="8176801761"/>
    <nd ref="8176801756"/>
    <tag k="addr:city" v="Ramsey"/>
    <tag k="addr:housenumber" v="34"/>
    <tag k="addr:street" v="Park Road"/>
    <tag k="building" v="house"/>
  </way>
  <way id="915844738" version="2" timestamp="2025-01-07T20:07:44Z" changeset="161109472" uid="493595" user="Yorvik Prestigitator">
    <nd ref="8507033367"/>
    <nd ref="8507033364"/>
    <nd ref="8507033365"/>
    <nd ref="8507033366"/>
    <nd ref="8507033367"/>
    <tag k="addr:street" v="Ramsey Road"/>
    <tag k="amenity" v="community_centre"/>
    <tag k="building" v="public"/>
    <tag k="community_centre" v="village_hall"/>
    <tag k="name" v="Ramsey Forty Foot Village Hall"/>
  </way>
  <way id="969324834" version="2" timestamp="2024-05-29T14:01:00Z" changeset="151991321" uid="95856" user="john paul jones &amp; gringo">
    <nd ref="8969278732"/>
    <nd ref="8969278733"/>
    <nd ref="8969278734"/>
    <nd ref="8969278735"/>
    <nd ref="8969278736"/>
    <nd ref="4663307536"/>
    <nd ref="8969278732"/>
    <tag k="addr:city" v="Huntingdon"/>
    <tag k="addr:country" v="GB"/>
    <tag k="addr:postcode" v="PE26 2UE"/>
    <tag k="addr:street" v="Mereside Drove"/>
    <tag k="addr:suburb" v="Ramsey Mereside"/>
    <tag k="area" v="yes"/>
    <tag k="email" v="info@fenlendlightrailway.co.uk"/>
    <tag k="name" v="Fenland Light Railway"/>
    <tag k="tourism" v="attraction"/>
    <tag k="website" v="https://www.fenlandlightrailway.co.uk"/>
  </way>
  <way id="971023124" version="1" timestamp="2021-08-06T22:06:59Z" changeset="109286214" uid="11022773" user="GeoFens">
    <nd ref="8986773868"/>
    <nd ref="8986773869"/>
    <nd ref="8986783587"/>
    <nd ref="8986783591"/>
    <nd ref="8986773870"/>
    <nd ref="8986773868"/>
    <tag k="addr:city" v="Ramsey St Mary's"/>
    <tag k="addr:street" v="Holme Road"/>
    <tag k="building" v="yes"/>
    <tag k="name" v="Auto Attentive"/>
    <tag k="shop" v="car_repair"/>
  </way>
  <way id="997974167" version="3" timestamp="2023-08-14T22:53:40Z" changeset="139891799" uid="5173844" user="ndrw6">
    <nd ref="9214623697"/>
    <nd ref="11115213343"/>
    <nd ref="11115213342"/>
    <nd ref="9214623698"/>
    <nd ref="9214623699"/>
    <nd ref="9214623700"/>
    <nd ref="9214623697"/>
    <tag k="addr:city" v="Ramsey"/>
    <tag k="addr:housenumber" v="5"/>
    <tag k="addr:street" v="Dispersal Way"/>
    <tag k="building" v="house"/>
  </way>
  <way id="997974168" version="2" timestamp="2023-03-04T15:50:26Z" changeset="133295621" uid="11022773" user="GeoFens">
    <nd ref="9214623701"/>
    <nd ref="9214623702"/>
    <nd ref="9214623703"/>
    <nd ref="9214623704"/>
    <nd ref="9214623701"/>
    <tag k="addr:city" v="Ramsey"/>
    <tag k="addr:housenumber" v="3"/>
    <tag k="addr:street" v="Dispersal Way"/>
    <tag k="building" v="house"/>
  </way>
  <way id="997974169" version="3" timestamp="2023-08-14T22:53:40Z" changeset="139891799" uid="5173844" user="ndrw6">
    <nd ref="9214623705"/>
    <nd ref="11115213340"/>
    <nd ref="11115213341"/>
    <nd ref="9214623706"/>
    <nd ref="9214623707"/>
    <nd ref="9214623708"/>
    <nd ref="9214623705"/>
    <tag k="addr:city" v="Ramsey"/>
    <tag k="addr:housenumber" v="1"/>
    <tag k="addr:street" v="Dispersal Way"/>
    <tag k="building" v="house"/>
  </way>
  <way id="997974171" version="2" timestamp="2023-03-04T15:50:26Z" changeset="133295621" uid="11022773" user="GeoFens">
    <nd ref="9214623714"/>
    <nd ref="9214623715"/>
    <nd ref="9214623716"/>
    <nd ref="9214647417"/>
    <nd ref="9214623714"/>
    <tag k="addr:city" v="Ramsey"/>
    <tag k="addr:housenumber" v="9"/>
    <tag k="addr:street" v="Dispersal Way"/>
    <tag k="building" v="house"/>
  </way>
  <way id="997974172" version="2" timestamp="2023-03-04T15:50:26Z" changeset="133295621" uid="11022773" user="GeoFens">
    <nd ref="9214647418"/>
    <nd ref="9214647419"/>
    <nd ref="9214647420"/>
    <nd ref="9214647421"/>
    <nd ref="9214647418"/>
    <tag k="addr:city" v="Ramsey"/>
    <tag k="addr:housenumber" v="7"/>
    <tag k="addr:street" v="Dispersal Way"/>
    <tag k="building" v="house"/>
  </way>
  <way id="997974175" version="3" timestamp="2023-08-14T22:53:40Z" changeset="139891799" uid="5173844" user="ndrw6">
    <nd ref="9214647430"/>
    <nd ref="9214647431"/>
    <nd ref="9214647432"/>
    <nd ref="11115213347"/>
    <nd ref="11115213346"/>
    <nd ref="9214647433"/>
    <nd ref="9214647430"/>
    <tag k="addr:city" v="Ramsey"/>
    <tag k="addr:housenumber" v="75"/>
    <tag k="addr:street" v="Dispersal Way"/>
    <tag k="building" v="house"/>
  </way>
  <way id="997974176" version="3" timestamp="2023-08-14T22:53:40Z" changeset="139891799" uid="5173844" user="ndrw6">
    <nd ref="9214647434"/>
    <nd ref="9214647435"/>
    <nd ref="9214647436"/>
    <nd ref="11115213344"/>
    <nd ref="11115213345"/>
    <nd ref="9214647437"/>
    <nd ref="9214647434"/>
    <tag k="addr:city" v="Ramsey"/>
    <tag k="addr:housenumber" v="77"/>
    <tag k="addr:street" v="Dispersal Way"/>
    <tag k="building" v="house"/>
  </way>
  <way id="1003270301" version="2" timestamp="2023-01-29T17:01:47Z" changeset="131847751" uid="11022773" user="GeoFens">
    <nd ref="9258449973"/>
    <nd ref="9258449974"/>
    <nd ref="9258449975"/>
    <nd ref="9258449976"/>
    <nd ref="9258449973"/>
    <tag k="addr:city" v="Ramsey"/>
    <tag k="addr:housenumber" v="73"/>
    <tag k="addr:street" v="Dispersal Way"/>
    <tag k="building" v="house"/>
  </way>
  <way id="1003270302" version="2" timestamp="2023-01-29T17:01:47Z" changeset="131847751" uid="11022773" user="GeoFens">
    <nd ref="9258449977"/>
    <nd ref="9258449978"/>
    <nd ref="9258449979"/>
    <nd ref="9258449980"/>
    <nd ref="9258449977"/>
    <tag k="addr:city" v="Ramsey"/>
    <tag k="addr:housenumber" v="69"/>
    <tag k="addr:street" v="Dispersal Way"/>
    <tag k="building" v="house"/>
  </way>
  <way id="1003270305" version="2" timestamp="2023-07-21T18:56:49Z" changeset="138827200" uid="11022773" user="GeoFens">
    <nd ref="9258449989"/>
    <nd ref="9258449990"/>
    <nd ref="9258449991"/>
    <nd ref="9258449992"/>
    <nd ref="9258449989"/>
    <tag k="addr:city" v="Ramsey"/>
    <tag k="addr:housenumber" v="39"/>
    <tag k="addr:street" v="Dispersal Way"/>
    <tag k="building" v="house"/>
  </way>
  <way id="1003270307" version="3" timestamp="2023-08-14T22:53:40Z" changeset="139891799" uid="5173844" user="ndrw6">
    <nd ref="9258449997"/>
    <nd ref="11115213329"/>
    <nd ref="11115213328"/>
    <nd ref="9258450000"/>
    <nd ref="9258449997"/>
    <tag k="addr:city" v="Ramsey"/>
    <tag k="addr:housenumber" v="65"/>
    <tag k="addr:street" v="Dispersal Way"/>
    <tag k="building" v="terrace"/>
  </way>
  <way id="1003270308" version="3" timestamp="2023-08-14T22:53:40Z" changeset="139891799" uid="5173844" user="ndrw6">
    <nd ref="9258450001"/>
    <nd ref="9258450002"/>
    <nd ref="9258450003"/>
    <nd ref="11115213330"/>
    <nd ref="11115213331"/>
    <nd ref="9258450004"/>
    <nd ref="9258450001"/>
    <tag k="addr:city" v="Ramsey"/>
    <tag k="addr:housenumber" v="63"/>
    <tag k="addr:street" v="Dispersal Way"/>
    <tag k="building" v="house"/>
  </way>
  <way id="1025801382" version="2" timestamp="2023-01-29T17:01:47Z" changeset="131847751" uid="11022773" user="GeoFens">
    <nd ref="9457808670"/>
    <nd ref="9457808671"/>
    <nd ref="9457808672"/>
    <nd ref="9457808673"/>
    <nd ref="9457808670"/>
    <tag k="addr:city" v="Ramsey"/>
    <tag k="addr:housenumber" v="71"/>
    <tag k="addr:street" v="Dispersal Way"/>
    <tag k="building" v="house"/>
  </way>
  <way id="1025801383" version="2" timestamp="2023-07-21T18:56:49Z" changeset="138827200" uid="11022773" user="GeoFens">
    <nd ref="9457808674"/>
    <nd ref="9457808675"/>
    <nd ref="9457808676"/>
    <nd ref="9457808677"/>
    <nd ref="9457808674"/>
    <tag k="addr:city" v="Ramsey"/>
    <tag k="addr:housenumber" v="61"/>
    <tag k="addr:street" v="Dispersal Way"/>
    <tag k="building" v="house"/>
  </way>
  <way id="1066914624" version="2" timestamp="2023-07-21T18:56:49Z" changeset="138827200" uid="11022773" user="GeoFens">
    <nd ref="9796638316"/>
    <nd ref="9796647417"/>
    <nd ref="9796647418"/>
    <nd ref="9796647419"/>
    <nd ref="9796647420"/>
    <nd ref="9796647421"/>
    <nd ref="9796638316"/>
    <tag k="addr:city" v="Ramsey"/>
    <tag k="addr:housenumber" v="51"/>
    <tag k="addr:street" v="Dispersal Way"/>
    <tag k="building" v="house"/>
  </way>
  <way id="1066914625" version="2" timestamp="2023-07-21T18:56:49Z" changeset="138827200" uid="11022773" user="GeoFens">
    <nd ref="9796647422"/>
    <nd ref="9796647423"/>
    <nd ref="9796647424"/>
    <nd ref="9796647425"/>
    <nd ref="9796647422"/>
    <tag k="addr:city" v="Ramsey"/>
    <tag k="addr:housenumber" v="53"/>
    <tag k="addr:street" v="Dispersal Way"/>
    <tag k="building" v="house"/>
  </way>
  <way id="1066914626" version="2" timestamp="2023-07-21T18:56:49Z" changeset="138827200" uid="11022773" user="GeoFens">
    <nd ref="9796647426"/>
    <nd ref="9796647427"/>
    <nd ref="9796647428"/>
    <nd ref="9796647429"/>
    <nd ref="9796647426"/>
    <tag k="addr:city" v="Ramsey"/>
    <tag k="addr:housenumber" v="55"/>
    <tag k="addr:street" v="Dispersal Way"/>
    <tag k="building" v="house"/>
  </way>
  <way id="1066914627" version="3" timestamp="2023-08-14T22:53:40Z" changeset="139891799" uid="5173844" user="ndrw6">
    <nd ref="9796647430"/>
    <nd ref="11115213339"/>
    <nd ref="11115213338"/>
    <nd ref="9796647433"/>
    <nd ref="9796647430"/>
    <tag k="addr:city" v="Ramsey"/>
    <tag k="addr:housenumber" v="21"/>
    <tag k="addr:street" v="Dispersal Way"/>
    <tag k="building" v="terrace"/>
  </way>
  <way id="1066914629" version="2" timestamp="2023-07-21T18:56:49Z" changeset="138827200" uid="11022773" user="GeoFens">
    <nd ref="9796647438"/>
    <nd ref="9796647439"/>
    <nd ref="9796647440"/>
    <nd ref="9796647441"/>
    <nd ref="9796647438"/>
    <tag k="addr:city" v="Ramsey"/>
    <tag k="addr:housenumber" v="49"/>
    <tag k="addr:street" v="Dispersal Way"/>
    <tag k="building" v="house"/>
  </way>
  <way id="1096132682" version="2" timestamp="2023-07-21T18:56:49Z" changeset="138827200" uid="11022773" user="GeoFens">
    <nd ref="10038065989"/>
    <nd ref="10038065990"/>
    <nd ref="10038065991"/>
    <nd ref="10038065992"/>
    <nd ref="10038065989"/>
    <tag k="addr:city" v="Ramsey"/>
    <tag k="addr:housenumber" v="33"/>
    <tag k="addr:street" v="Dispersal Way"/>
    <tag k="building" v="house"/>
  </way>
  <way id="1096132683" version="2" timestamp="2023-07-21T18:56:49Z" changeset="138827200" uid="11022773" user="GeoFens">
    <nd ref="10038065993"/>
    <nd ref="10038065994"/>
    <nd ref="10038065995"/>
    <nd ref="10038065996"/>
    <nd ref="10038065993"/>
    <tag k="addr:city" v="Ramsey"/>
    <tag k="addr:housenumber" v="35"/>
    <tag k="addr:street" v="Dispersal Way"/>
    <tag k="building" v="house"/>
  </way>
  <way id="1096132684" version="2" timestamp="2023-07-21T18:56:49Z" changeset="138827200" uid="11022773" user="GeoFens">
    <nd ref="10038065997"/>
    <nd ref="10038065998"/>
    <nd ref="10038065999"/>
    <nd ref="10038066000"/>
    <nd ref="10038065997"/>
    <tag k="addr:city" v="Ramsey"/>
    <tag k="addr:housenumber" v="37"/>
    <tag k="addr:street" v="Dispersal Way"/>
    <tag k="building" v="house"/>
  </way>
  <way id="1096132685" version="4" timestamp="2023-12-07T19:49:08Z" changeset="144878649" uid="242345" user="confusedbuffalo">
    <nd ref="10038066001"/>
    <nd ref="11115213337"/>
    <nd ref="11115213336"/>
    <nd ref="10038066004"/>
    <nd ref="10038066001"/>
    <tag k="addr:city" v="Ramsey"/>
    <tag k="addr:housenumber" v="29"/>
    <tag k="addr:street" v="Dispersal Way"/>
    <tag k="building" v="house"/>
    <tag k="house" v="terraced"/>
  </way>
  <way id="1096132686" version="2" timestamp="2023-07-21T18:56:49Z" changeset="138827200" uid="11022773" user="GeoFens">
    <nd ref="10038066005"/>
    <nd ref="10038066006"/>
    <nd ref="10038066007"/>
    <nd ref="10038066008"/>
    <nd ref="10038066005"/>
    <tag k="addr:city" v="Ramsey"/>
    <tag k="addr:housenumber" v="31"/>
    <tag k="addr:street" v="Dispersal Way"/>
    <tag k="building" v="house"/>
  </way>
  <way id="1096133646" version="2" timestamp="2023-07-21T18:56:49Z" changeset="138827200" uid="11022773" user="GeoFens">
    <nd ref="10038092824"/>
    <nd ref="10038092825"/>
    <nd ref="10038092826"/>
    <nd ref="10038092827"/>
    <nd ref="10038092824"/>
    <tag k="addr:city" v="Ramsey"/>
    <tag k="addr:housenumber" v="8-14"/>
    <tag k="addr:street" v="Dispersal Way"/>
    <tag k="building" v="terrace"/>
  </way>
  <way id="1096133647" version="2" timestamp="2023-07-21T18:56:49Z" changeset="138827200" uid="11022773" user="GeoFens">
    <nd ref="10038092828"/>
    <nd ref="10038092829"/>
    <nd ref="10038092830"/>
    <nd ref="10038092831"/>
    <nd ref="10038092828"/>
    <tag k="addr:city" v="Ramsey"/>
    <tag k="addr:housenumber" v="60"/>
    <tag k="addr:street" v="Dispersal Way"/>
    <tag k="building" v="house"/>
  </way>
  <way id="1096133648" version="4" timestamp="2023-12-07T19:49:08Z" changeset="144878649" uid="242345" user="confusedbuffalo">
    <nd ref="10038092832"/>
    <nd ref="11115213393"/>
    <nd ref="11115213392"/>
    <nd ref="10038092835"/>
    <nd ref="10038092832"/>
    <tag k="addr:city" v="Ramsey"/>
    <tag k="addr:housenumber" v="62"/>
    <tag k="addr:street" v="Dispersal Way"/>
    <tag k="building" v="house"/>
    <tag k="house" v="semi-detached"/>
  </way>
  <way id="1096133649" version="2" timestamp="2023-07-21T18:56:49Z" changeset="138827200" uid="11022773" user="GeoFens">
    <nd ref="10038092836"/>
    <nd ref="10038092837"/>
    <nd ref="10038092838"/>
    <nd ref="10038092839"/>
    <nd ref="10038092836"/>
    <tag k="addr:city" v="Ramsey"/>
    <tag k="addr:housenumber" v="2-6"/>
    <tag k="addr:street" v="Dispersal Way"/>
    <tag k="building" v="terrace"/>
  </way>
  <way id="1096133650" version="2" timestamp="2023-07-21T18:56:49Z" changeset="138827200" uid="11022773" user="GeoFens">
    <nd ref="10038092840"/>
    <nd ref="10038092841"/>
    <nd ref="10038092842"/>
    <nd ref="10038092843"/>
    <nd ref="10038092840"/>
    <tag k="addr:city" v="Ramsey"/>
    <tag k="addr:housenumber" v="66"/>
    <tag k="addr:street" v="Dispersal Way"/>
    <tag k="building" v="house"/>
  </way>
  <way id="1096133653" version="2" timestamp="2023-07-21T18:56:49Z" changeset="138827200" uid="11022773" user="GeoFens">
    <nd ref="10038092852"/>
    <nd ref="10038092853"/>
    <nd ref="10038092854"/>
    <nd ref="10038092855"/>
    <nd ref="10038092856"/>
    <nd ref="10038092857"/>
    <nd ref="10038092852"/>
    <tag k="addr:city" v="Ramsey"/>
    <tag k="addr:housenumber" v="57"/>
    <tag k="addr:street" v="Dispersal Way"/>
    <tag k="building" v="house"/>
  </way>
  <way id="1096133654" version="2" timestamp="2023-07-21T18:56:49Z" changeset="138827200" uid="11022773" user="GeoFens">
    <nd ref="10038092858"/>
    <nd ref="10038092859"/>
    <nd ref="10038092860"/>
    <nd ref="10038092861"/>
    <nd ref="10038092858"/>
    <tag k="addr:city" v="Ramsey"/>
    <tag k="addr:housenumber" v="59"/>
    <tag k="addr:street" v="Dispersal Way"/>
    <tag k="building" v="house"/>
  </way>
  <way id="1096142083" version="2" timestamp="2024-05-29T14:01:00Z" changeset="151991321" uid="95856" user="john paul jones &amp; gringo">
    <nd ref="10038152105"/>
    <nd ref="10038152106"/>
    <nd ref="10038152107"/>
    <nd ref="10038152108"/>
    <nd ref="10038152109"/>
    <nd ref="10038152110"/>
    <nd ref="10038152111"/>
    <nd ref="1623971186"/>
    <nd ref="1623971086"/>
    <nd ref="10038152112"/>
    <nd ref="10038152113"/>
    <nd ref="10038152114"/>
    <nd ref="10038152105"/>
    <tag k="addr:city" v="Huntingdon"/>
    <tag k="addr:country" v="GB"/>
    <tag k="addr:postcode" v="PE26 2UE"/>
    <tag k="addr:street" v="Mereside Drove"/>
    <tag k="addr:suburb" v="Ramsey Mereside"/>
    <tag k="email" v="info@riversidelakeandleisure.co.uk"/>
    <tag k="name" v="Riverside Lake and Leisure"/>
    <tag k="phone" v="+447788817580"/>
    <tag k="tourism" v="camp_site"/>
    <tag k="website" v="https://riversidelakeandleisure.co.uk"/>
  </way>
  <way id="1136237116" version="3" timestamp="2023-08-14T22:53:40Z" changeset="139891799" uid="5173844" user="ndrw6">
    <nd ref="10592089075"/>
    <nd ref="10592089076"/>
    <nd ref="11115171248"/>
    <nd ref="11115171247"/>
    <nd ref="11115171249"/>
    <nd ref="10592089077"/>
    <nd ref="10592089078"/>
    <nd ref="10592089075"/>
    <tag k="addr:city" v="Ramsey"/>
    <tag k="addr:housenumber" v="3"/>
    <tag k="addr:street" v="Stoneman Way"/>
    <tag k="building" v="house"/>
  </way>
  <way id="1136237117" version="2" timestamp="2023-03-04T15:50:26Z" changeset="133295621" uid="11022773" user="GeoFens">
    <nd ref="10592089079"/>
    <nd ref="10592089080"/>
    <nd ref="10592089081"/>
    <nd ref="10592089082"/>
    <nd ref="10592089079"/>
    <tag k="addr:city" v="Ramsey"/>
    <tag k="addr:housenumber" v="1"/>
    <tag k="addr:street" v="Stoneman Way"/>
    <tag k="building" v="house"/>
  </way>
  <way id="1136237120" version="2" timestamp="2023-07-21T18:56:49Z" changeset="138827200" uid="11022773" user="GeoFens">
    <nd ref="10592089089"/>
    <nd ref="10592089090"/>
    <nd ref="10592089091"/>
    <nd ref="10592089092"/>
    <nd ref="10592089089"/>
    <tag k="addr:city" v="Ramsey"/>
    <tag k="addr:housenumber" v="43"/>
    <tag k="addr:street" v="Dispersal Way"/>
    <tag k="building" v="house"/>
  </way>
  <way id="1136237121" version="2" timestamp="2023-07-21T18:56:49Z" changeset="138827200" uid="11022773" user="GeoFens">
    <nd ref="10592089093"/>
    <nd ref="10592089094"/>
    <nd ref="10592089095"/>
    <nd ref="10592089096"/>
    <nd ref="10592089093"/>
    <tag k="addr:city" v="Ramsey"/>
    <tag k="addr:housenumber" v="45"/>
    <tag k="addr:street" v="Dispersal Way"/>
    <tag k="building" v="house"/>
  </way>
  <way id="1136237122" version="2" timestamp="2023-07-21T18:56:49Z" changeset="138827200" uid="11022773" user="GeoFens">
    <nd ref="10592089097"/>
    <nd ref="10592089098"/>
    <nd ref="10592089099"/>
    <nd ref="10592089100"/>
    <nd ref="10592089097"/>
    <tag k="addr:city" v="Ramsey"/>
    <tag k="addr:housenumber" v="47"/>
    <tag k="addr:street" v="Dispersal Way"/>
    <tag k="building" v="house"/>
  </way>
  <way id="1136237123" version="2" timestamp="2023-07-21T18:56:49Z" changeset="138827200" uid="11022773" user="GeoFens">
    <nd ref="10592089101"/>
    <nd ref="10592089102"/>
    <nd ref="10592089103"/>
    <nd ref="10592089104"/>
    <nd ref="10592089101"/>
    <tag k="addr:city" v="Ramsey"/>
    <tag k="addr:housenumber" v="41"/>
    <tag k="addr:street" v="Dispersal Way"/>
    <tag k="building" v="house"/>
  </way>
  <way id="1136237124" version="2" timestamp="2023-07-21T18:56:49Z" changeset="138827200" uid="11022773" user="GeoFens">
    <nd ref="10592104305"/>
    <nd ref="10592104306"/>
    <nd ref="10592104307"/>
    <nd ref="10592104308"/>
    <nd ref="10592104305"/>
    <tag k="addr:city" v="Ramsey"/>
    <tag k="addr:housenumber" v="16"/>
    <tag k="addr:street" v="Dispersal Way"/>
    <tag k="building" v="house"/>
  </way>
  <way id="1136237125" version="2" timestamp="2023-07-21T18:56:49Z" changeset="138827200" uid="11022773" user="GeoFens">
    <nd ref="10592104309"/>
    <nd ref="10592104310"/>
    <nd ref="10592104311"/>
    <nd ref="10592104312"/>
    <nd ref="10592104309"/>
    <tag k="addr:city" v="Ramsey"/>
    <tag k="addr:housenumber" v="18"/>
    <tag k="addr:street" v="Dispersal Way"/>
    <tag k="building" v="house"/>
  </way>
  <way id="1136237126" version="2" timestamp="2023-07-21T18:56:49Z" changeset="138827200" uid="11022773" user="GeoFens">
    <nd ref="10592104313"/>
    <nd ref="10592104314"/>
    <nd ref="10592104315"/>
    <nd ref="10592104316"/>
    <nd ref="10592104313"/>
    <tag k="addr:city" v="Ramsey"/>
    <tag k="addr:housenumber" v="20"/>
    <tag k="addr:street" v="Dispersal Way"/>
    <tag k="building" v="house"/>
  </way>
  <way id="1136237127" version="2" timestamp="2023-07-21T18:56:49Z" changeset="138827200" uid="11022773" user="GeoFens">
    <nd ref="10592104317"/>
    <nd ref="10592104318"/>
    <nd ref="10592104319"/>
    <nd ref="10592104320"/>
    <nd ref="10592104317"/>
    <tag k="addr:city" v="Ramsey"/>
    <tag k="addr:housenumber" v="22"/>
    <tag k="addr:street" v="Dispersal Way"/>
    <tag k="building" v="house"/>
  </way>
  <way id="1136237128" version="2" timestamp="2023-07-21T18:56:49Z" changeset="138827200" uid="11022773" user="GeoFens">
    <nd ref="10592104321"/>
    <nd ref="10592104322"/>
    <nd ref="10592104323"/>
    <nd ref="10592104324"/>
    <nd ref="10592104321"/>
    <tag k="addr:city" v="Ramsey"/>
    <tag k="addr:housenumber" v="24"/>
    <tag k="addr:street" v="Dispersal Way"/>
    <tag k="building" v="house"/>
  </way>
  <way id="1136237129" version="2" timestamp="2023-07-21T18:56:49Z" changeset="138827200" uid="11022773" user="GeoFens">
    <nd ref="10592104325"/>
    <nd ref="10592104326"/>
    <nd ref="10592104327"/>
    <nd ref="10592104328"/>
    <nd ref="10592104325"/>
    <tag k="addr:city" v="Ramsey"/>
    <tag k="addr:housenumber" v="44"/>
    <tag k="addr:street" v="Dispersal Way"/>
    <tag k="building" v="house"/>
  </way>
  <way id="1160489722" version="4" timestamp="2023-08-14T22:53:40Z" changeset="139891799" uid="5173844" user="ndrw6">
    <nd ref="10793212471"/>
    <nd ref="10793212472"/>
    <nd ref="11115171254"/>
    <nd ref="11115171253"/>
    <nd ref="11115171252"/>
    <nd ref="10793212473"/>
    <nd ref="10793212474"/>
    <nd ref="10793212471"/>
    <tag k="addr:city" v="Ramsey"/>
    <tag k="addr:housenumber" v="9"/>
    <tag k="addr:street" v="Stoneman Way"/>
    <tag k="building" v="house"/>
  </way>
  <way id="1160489723" version="4" timestamp="2023-08-14T22:53:40Z" changeset="139891799" uid="5173844" user="ndrw6">
    <nd ref="10793212475"/>
    <nd ref="10793212476"/>
    <nd ref="11115171256"/>
    <nd ref="11115171255"/>
    <nd ref="11115171257"/>
    <nd ref="10793212477"/>
    <nd ref="10793212478"/>
    <nd ref="10793212475"/>
    <tag k="addr:city" v="Ramsey"/>
    <tag k="addr:housenumber" v="5"/>
    <tag k="addr:street" v="Stoneman Way"/>
    <tag k="building" v="house"/>
  </way>
  <way id="1160489725" version="3" timestamp="2023-07-21T18:56:49Z" changeset="138827200" uid="11022773" user="GeoFens">
    <nd ref="10793212483"/>
    <nd ref="10793212484"/>
    <nd ref="10793212485"/>
    <nd ref="10793212486"/>
    <nd ref="10793212483"/>
    <tag k="addr:city" v="Ramsey"/>
    <tag k="addr:housenumber" v="11"/>
    <tag k="addr:street" v="Stoneman Way"/>
    <tag k="building" v="house"/>
  </way>
  <way id="1191288707" version="1" timestamp="2023-07-21T18:56:49Z" changeset="138827200" uid="11022773" user="GeoFens">
    <nd ref="11060187359"/>
    <nd ref="11060187360"/>
    <nd ref="11060187361"/>
    <nd ref="11060187362"/>
    <nd ref="11060187359"/>
    <tag k="addr:city" v="Ramsey"/>
    <tag k="addr:housenumber" v="26"/>
    <tag k="addr:street" v="Dispersal Way"/>
    <tag k="building" v="house"/>
  </way>
  <way id="1191288708" version="1" timestamp="2023-07-21T18:56:49Z" changeset="138827200" uid="11022773" user="GeoFens">
    <nd ref="11060187363"/>
    <nd ref="11060187364"/>
    <nd ref="11060187365"/>
    <nd ref="11060187366"/>
    <nd ref="11060187363"/>
    <tag k="addr:city" v="Ramsey"/>
    <tag k="addr:housenumber" v="28-36"/>
    <tag k="addr:street" v="Dispersal Way"/>
    <tag k="building" v="terrace"/>
  </way>
  <way id="1191288709" version="1" timestamp="2023-07-21T18:56:49Z" changeset="138827200" uid="11022773" user="GeoFens">
    <nd ref="11060187367"/>
    <nd ref="11060187368"/>
    <nd ref="11060187369"/>
    <nd ref="11060187370"/>
    <nd ref="11060187367"/>
    <tag k="addr:city" v="Ramsey"/>
    <tag k="addr:housenumber" v="38-42"/>
    <tag k="addr:street" v="Dispersal Way"/>
    <tag k="building" v="terrace"/>
  </way>
  <way id="1191288710" version="3" timestamp="2023-12-07T19:49:08Z" changeset="144878649" uid="242345" user="confusedbuffalo">
    <nd ref="11060187371"/>
    <nd ref="11115213389"/>
    <nd ref="11115213388"/>
    <nd ref="11060187374"/>
    <nd ref="11060187371"/>
    <tag k="addr:city" v="Ramsey"/>
    <tag k="addr:housenumber" v="48"/>
    <tag k="addr:street" v="Dispersal Way"/>
    <tag k="building" v="house"/>
    <tag k="house" v="semi-detached"/>
  </way>
  <way id="1191288711" version="3" timestamp="2023-12-07T19:49:08Z" changeset="144878649" uid="242345" user="confusedbuffalo">
    <nd ref="11060187375"/>
    <nd ref="11115213391"/>
    <nd ref="11115213390"/>
    <nd ref="11060187378"/>
    <nd ref="11060187375"/>
    <tag k="addr:city" v="Ramsey"/>
    <tag k="addr:housenumber" v="52"/>
    <tag k="addr:street" v="Dispersal Way"/>
    <tag k="building" v="house"/>
    <tag k="house" v="semi-detached"/>
  </way>
  <way id="1191288712" version="1" timestamp="2023-07-21T18:56:49Z" changeset="138827200" uid="11022773" user="GeoFens">
    <nd ref="11060187379"/>
    <nd ref="11060187380"/>
    <nd ref="11060187381"/>
    <nd ref="11060187382"/>
    <nd ref="11060187379"/>
    <tag k="addr:city" v="Ramsey"/>
    <tag k="addr:housenumber" v="58"/>
    <tag k="addr:street" v="Dispersal Way"/>
    <tag k="building" v="house"/>
  </way>
  <way id="1191288713" version="1" timestamp="2023-07-21T18:56:49Z" changeset="138827200" uid="11022773" user="GeoFens">
    <nd ref="11060187383"/>
    <nd ref="11060187384"/>
    <nd ref="11060187385"/>
    <nd ref="11060187386"/>
    <nd ref="11060187383"/>
    <tag k="addr:city" v="Ramsey"/>
    <tag k="addr:housenumber" v="56"/>
    <tag k="addr:street" v="Dispersal Way"/>
    <tag k="building" v="house"/>
  </way>
  <way id="1191288714" version="1" timestamp="2023-07-21T18:56:49Z" changeset="138827200" uid="11022773" user="GeoFens">
    <nd ref="11060187387"/>
    <nd ref="11060187388"/>
    <nd ref="11060187389"/>
    <nd ref="11060187390"/>
    <nd ref="11060187387"/>
    <tag k="addr:city" v="Ramsey"/>
    <tag k="addr:housenumber" v="54"/>
    <tag k="addr:street" v="Dispersal Way"/>
    <tag k="building" v="house"/>
  </way>
  <way id="1198144955" version="1" timestamp="2023-08-14T22:53:40Z" changeset="139891799" uid="5173844" user="ndrw6">
    <nd ref="11115213329"/>
    <nd ref="9258449998"/>
    <nd ref="9258449999"/>
    <nd ref="11115213328"/>
    <nd ref="11115213329"/>
    <tag k="addr:city" v="Ramsey"/>
    <tag k="addr:housenumber" v="67"/>
    <tag k="addr:street" v="Dispersal Way"/>
    <tag k="building" v="terrace"/>
  </way>
  <way id="1198144956" version="2" timestamp="2023-12-07T19:49:08Z" changeset="144878649" uid="242345" user="confusedbuffalo">
    <nd ref="11115213333"/>
    <nd ref="10038066002"/>
    <nd ref="10038066003"/>
    <nd ref="11115213332"/>
    <nd ref="11115213333"/>
    <tag k="addr:city" v="Ramsey"/>
    <tag k="addr:housenumber" v="23"/>
    <tag k="addr:street" v="Dispersal Way"/>
    <tag k="building" v="house"/>
    <tag k="house" v="terraced"/>
  </way>
  <way id="1198144957" version="2" timestamp="2023-12-07T19:49:08Z" changeset="144878649" uid="242345" user="confusedbuffalo">
    <nd ref="11115213335"/>
    <nd ref="11115213333"/>
    <nd ref="11115213332"/>
    <nd ref="11115213334"/>
    <nd ref="11115213335"/>
    <tag k="addr:city" v="Ramsey"/>
    <tag k="addr:housenumber" v="25"/>
    <tag k="addr:street" v="Dispersal Way"/>
    <tag k="building" v="house"/>
    <tag k="house" v="terraced"/>
  </way>
  <way id="1198144958" version="2" timestamp="2023-12-07T19:49:08Z" changeset="144878649" uid="242345" user="confusedbuffalo">
    <nd ref="11115213337"/>
    <nd ref="11115213335"/>
    <nd ref="11115213334"/>
    <nd ref="11115213336"/>
    <nd ref="11115213337"/>
    <tag k="addr:city" v="Ramsey"/>
    <tag k="addr:housenumber" v="27"/>
    <tag k="addr:street" v="Dispersal Way"/>
    <tag k="building" v="house"/>
    <tag k="house" v="terraced"/>
  </way>
  <way id="1198144959" version="1" timestamp="2023-08-14T22:53:40Z" changeset="139891799" uid="5173844" user="ndrw6">
    <nd ref="11115213339"/>
    <nd ref="9796647431"/>
    <nd ref="9796647432"/>
    <nd ref="11115213338"/>
    <nd ref="11115213339"/>
    <tag k="addr:city" v="Ramsey"/>
    <tag k="addr:housenumber" v="19"/>
    <tag k="addr:street" v="Dispersal Way"/>
    <tag k="building" v="terrace"/>
  </way>
  <way id="1198144960" version="1" timestamp="2023-08-14T22:53:40Z" changeset="139891799" uid="5173844" user="ndrw6">
    <nd ref="11115213352"/>
    <nd ref="9214647423"/>
    <nd ref="9214647424"/>
    <nd ref="11115213351"/>
    <nd ref="11115213352"/>
    <tag k="addr:city" v="Ramsey"/>
    <tag k="addr:housenumber" v="11"/>
    <tag k="addr:street" v="Dispersal Way"/>
    <tag k="building" v="house"/>
  </way>
  <way id="1198144966" version="2" timestamp="2023-12-07T19:49:08Z" changeset="144878649" uid="242345" user="confusedbuffalo">
    <nd ref="11115213389"/>
    <nd ref="11060187372"/>
    <nd ref="11060187373"/>
    <nd ref="11115213388"/>
    <nd ref="11115213389"/>
    <tag k="addr:city" v="Ramsey"/>
    <tag k="addr:housenumber" v="46"/>
    <tag k="addr:street" v="Dispersal Way"/>
    <tag k="building" v="house"/>
    <tag k="house" v="semi-detached"/>
  </way>
  <way id="1198144967" version="2" timestamp="2023-12-07T19:49:08Z" changeset="144878649" uid="242345" user="confusedbuffalo">
    <nd ref="11115213391"/>
    <nd ref="11060187376"/>
    <nd ref="11060187377"/>
    <nd ref="11115213390"/>
    <nd ref="11115213391"/>
    <tag k="addr:city" v="Ramsey"/>
    <tag k="addr:housenumber" v="50"/>
    <tag k="addr:street" v="Dispersal Way"/>
    <tag k="building" v="house"/>
    <tag k="house" v="semi-detached"/>
  </way>
  <way id="1198144968" version="2" timestamp="2023-12-07T19:49:08Z" changeset="144878649" uid="242345" user="confusedbuffalo">
    <nd ref="11115213393"/>
    <nd ref="10038092833"/>
    <nd ref="10038092834"/>
    <nd ref="11115213392"/>
    <nd ref="11115213393"/>
    <tag k="addr:city" v="Ramsey"/>
    <tag k="addr:housenumber" v="64"/>
    <tag k="addr:street" v="Dispersal Way"/>
    <tag k="building" v="house"/>
    <tag k="house" v="semi-detached"/>
  </way>
  <way id="1198144981" version="1" timestamp="2023-08-14T22:53:40Z" changeset="139891799" uid="5173844" user="ndrw6">
    <nd ref="11115213449"/>
    <nd ref="11115213448"/>
    <nd ref="11115213447"/>
    <nd ref="11115213446"/>
    <nd ref="11115171250"/>
    <nd ref="11115171251"/>
    <nd ref="11115213449"/>
    <tag k="addr:city" v="Ramsey"/>
    <tag k="addr:housenumber" v="7"/>
    <tag k="addr:street" v="Stoneman Way"/>
    <tag k="building" v="house"/>
  </way>
  <way id="1256679363" version="1" timestamp="2024-03-01T20:04:03Z" changeset="148110389" uid="11022773" user="GeoFens">
    <nd ref="11682500754"/>
    <nd ref="11682500755"/>
    <nd ref="11682500756"/>
    <nd ref="11682500757"/>
    <nd ref="11682500754"/>
    <tag k="addr:city" v="Ramsey"/>
    <tag k="addr:housename" v="The Old Fire Station"/>
    <tag k="addr:street" v="Little Whyte"/>
    <tag k="building" v="yes"/>
    <tag k="club" v="scout"/>
    <tag k="name" v="1st Ramsey Scout Group"/>
  </way>
  <way id="1359349393" version="1" timestamp="2025-02-12T16:03:01Z" changeset="162435921" uid="14305316" user="SAS1000">
    <nd ref="12582355714"/>
    <nd ref="12582355715"/>
    <nd ref="12582355719"/>
    <nd ref="12582355720"/>
    <nd ref="12582355721"/>
    <nd ref="12582355723"/>
    <nd ref="12582355722"/>
    <nd ref="12582355716"/>
    <nd ref="12582355717"/>
    <nd ref="12582355718"/>
    <nd ref="12582355714"/>
    <tag k="addr:city" v="Ramsey St Mary's"/>
    <tag k="addr:housename" v="New Fen Farm"/>
    <tag k="addr:housenumber" v="1"/>
    <tag k="addr:postcode" v="PE26 2SN"/>
    <tag k="addr:street" v="St Marys Road"/>
    <tag k="building" v="yes"/>
    <tag k="building:levels" v="1"/>
  </way>
  <way id="1359349394" version="1" timestamp="2025-02-12T16:03:01Z" changeset="162435921" uid="14305316" user="SAS1000">
    <nd ref="12582355717"/>
    <nd ref="12582355714"/>
    <nd ref="12582355715"/>
    <nd ref="12582355719"/>
    <nd ref="12582355720"/>
    <nd ref="12582355721"/>
    <nd ref="12582355723"/>
    <nd ref="12582355724"/>
    <nd ref="12582355725"/>
    <nd ref="12582355726"/>
    <nd ref="12582355727"/>
    <nd ref="12582355728"/>
    <nd ref="12582355717"/>
    <tag k="addr:city" v="Ramsey St Mary's"/>
    <tag k="addr:housename" v="New Fen Farm"/>
    <tag k="addr:housenumber" v="2"/>
    <tag k="addr:postcode" v="PE26 2SN"/>
    <tag k="addr:street" v="St Marys Road"/>
    <tag k="building" v="yes"/>
    <tag k="building:levels" v="1"/>
  </way>

</osm>
