<?xml version="1.0" encoding="UTF-8"?>
<osm version="0.6" generator="Overpass API 0.7.62.4 2390de5a">
<note>The data included in this document is from www.openstreetmap.org. The data is made available under ODbL.</note>
<meta osm_base="2025-01-20T15:45:40Z" areas="2024-12-31T00:49:33Z"/>

  <way id="44978242" version="6" timestamp="2022-01-08T00:06:03Z" changeset="115896027" uid="2400834" user="Gyrwa">
    <nd ref="4062669166"/>
    <nd ref="1488976251"/>
    <nd ref="1488976250"/>
    <nd ref="570217454"/>
    <nd ref="1488976253"/>
    <nd ref="1488976252"/>
    <nd ref="601609183"/>
    <nd ref="570217451"/>
    <nd ref="1488976248"/>
    <nd ref="1488976249"/>
    <nd ref="4062669165"/>
    <nd ref="4062669166"/>
    <tag k="addr:city" v="Wisbech"/>
    <tag k="addr:housenumber" v="28"/>
    <tag k="addr:postcode" v="PE13 1AR"/>
    <tag k="addr:street" v="Horsefair"/>
    <tag k="building" v="retail"/>
    <tag k="name" v="REMO Eco-Superstore"/>
    <tag k="shop" v="second_hand"/>
    <tag k="website" v="https://www.ccorrn.org.uk/"/>
  </way>
  <way id="47366412" version="12" timestamp="2024-08-18T20:41:25Z" changeset="155433745" uid="21425661" user="CjMalone">
    <nd ref="9361080473"/>
    <nd ref="9361080470"/>
    <nd ref="9361080487"/>
    <nd ref="9361080486"/>
    <nd ref="9361080485"/>
    <nd ref="9361080484"/>
    <nd ref="9361080489"/>
    <nd ref="9361080479"/>
    <nd ref="9361080478"/>
    <nd ref="9361080477"/>
    <nd ref="9361080476"/>
    <nd ref="9361080483"/>
    <nd ref="9361080482"/>
    <nd ref="9361080481"/>
    <nd ref="9361080480"/>
    <nd ref="9361080472"/>
    <nd ref="9361080432"/>
    <nd ref="9361072604"/>
    <nd ref="1488995083"/>
    <nd ref="9361072607"/>
    <nd ref="1488995068"/>
    <nd ref="9361072605"/>
    <nd ref="9361080475"/>
    <nd ref="9361080474"/>
    <nd ref="9361080473"/>
    <tag k="addr:city" v="Wisbech"/>
    <tag k="addr:country" v="GB"/>
    <tag k="addr:postcode" v="PE13 1PE"/>
    <tag k="addr:street" v="North End"/>
    <tag k="alt_name" v="ASDA Wisbech Supercentre"/>
    <tag k="brand" v="Asda"/>
    <tag k="brand:wikidata" v="Q297410"/>
    <tag k="brand:wikipedia" v="en:Asda"/>
    <tag k="building" v="supermarket"/>
    <tag k="check_date" v="2024-08-18"/>
    <tag k="check_date:opening_hours" v="2024-08-18"/>
    <tag k="contact:facebook" v="https://www.facebook.com/asdawisbech/"/>
    <tag k="contact:twitter" v="asda"/>
    <tag k="contact:website" v="https://storelocator.asda.com/east-of-england/wisbech/northend-leverington-road"/>
    <tag k="fhrs:id" v="774315"/>
    <tag k="name" v="Asda"/>
    <tag k="opening_hours" v="Mo-Fr 07:00-23:00; Sa 07:00-22:00; Su 10:00-16:00"/>
    <tag k="operator" v="Asda Stores Ltd"/>
    <tag k="shop" v="supermarket"/>
  </way>
  <way id="50996351" version="11" timestamp="2023-06-17T19:39:48Z" changeset="137459219" uid="12507004" user="Linfindel">
    <nd ref="650213593"/>
    <nd ref="1488977696"/>
    <nd ref="1488977698"/>
    <nd ref="1488977697"/>
    <nd ref="650213583"/>
    <nd ref="1488977694"/>
    <nd ref="1488977699"/>
    <nd ref="650213586"/>
    <nd ref="1488977693"/>
    <nd ref="1488977692"/>
    <nd ref="650213591"/>
    <nd ref="650213593"/>
    <tag k="addr:city" v="Wisbech"/>
    <tag k="addr:postcode" v="PE13 1NX"/>
    <tag k="addr:street" v="Sandyland"/>
    <tag k="brand" v="ALDI"/>
    <tag k="brand:wikidata" v="Q41171672"/>
    <tag k="brand:wikipedia" v="en:Aldi"/>
    <tag k="building" v="retail"/>
    <tag k="contact:website" v="https://stores.aldi.co.uk/wisbech/sandyland-street"/>
    <tag k="name" v="ALDI"/>
    <tag k="shop" v="supermarket"/>
  </way>
  <way id="363350934" version="4" timestamp="2018-12-03T17:55:50Z" changeset="65133697" uid="242345" user="confusedbuffalo">
    <nd ref="3675226105"/>
    <nd ref="4102531776"/>
    <nd ref="3675226106"/>
    <nd ref="3675226107"/>
    <nd ref="3675226108"/>
    <nd ref="3675226109"/>
    <nd ref="4102531772"/>
    <nd ref="3675226110"/>
    <nd ref="3675226105"/>
    <tag k="addr:city" v="Wisbech"/>
    <tag k="addr:housenumber" v="18"/>
    <tag k="addr:postcode" v="PE13 2LF"/>
    <tag k="addr:street" v="Norfolk Street"/>
    <tag k="building" v="retail"/>
    <tag k="building:levels" v="2"/>
    <tag k="name" v="Wisbech Music Centre"/>
    <tag k="phone" v="+44 1945 461496"/>
    <tag k="shop" v="music"/>
  </way>
  <way id="392696881" version="8" timestamp="2023-11-26T09:41:36Z" changeset="144464555" uid="6816132" user="CjMalone">
    <nd ref="5181066646"/>
    <nd ref="3958850349"/>
    <nd ref="3958850350"/>
    <nd ref="3130214702"/>
    <nd ref="5181066643"/>
    <nd ref="5181066645"/>
    <nd ref="5181066646"/>
    <tag k="addr:city" v="Wisbech"/>
    <tag k="addr:country" v="GB"/>
    <tag k="addr:postcode" v="PE14 0RG"/>
    <tag k="addr:street" v="Cromwell Road"/>
    <tag k="alt_name" v="LIDL Wisbech"/>
    <tag k="brand" v="Lidl"/>
    <tag k="brand:wikidata" v="Q151954"/>
    <tag k="brand:wikipedia" v="en:Lidl"/>
    <tag k="building" v="retail"/>
    <tag k="fhrs:id" v="774935"/>
    <tag k="name" v="Lidl"/>
    <tag k="shop" v="supermarket"/>
    <tag k="website" v="https://www.lidl.co.uk/s/en-GB/store-finder/wisbech/cromwell-road/"/>
  </way>
  <way id="392773524" version="4" timestamp="2023-06-17T19:39:48Z" changeset="137459219" uid="12507004" user="Linfindel">
    <nd ref="3959653578"/>
    <nd ref="3959653579"/>
    <nd ref="3959653580"/>
    <nd ref="3959653581"/>
    <nd ref="4112408461"/>
    <nd ref="4112408475"/>
    <nd ref="4112408464"/>
    <nd ref="4112408457"/>
    <nd ref="3959653578"/>
    <tag k="addr:city" v="Wisbech"/>
    <tag k="addr:housenumber" v="4"/>
    <tag k="addr:street" v="Sandown Road"/>
    <tag k="alt_name" v="Farmfoods Wisbech"/>
    <tag k="brand" v="Farmfoods"/>
    <tag k="brand:wikidata" v="Q5435841"/>
    <tag k="brand:wikipedia" v="en:Farmfoods"/>
    <tag k="building" v="retail"/>
    <tag k="contact:website" v="https://www.farmfoods.co.uk/store-finder.php?branch_code=688"/>
    <tag k="name" v="Farmfoods"/>
    <tag k="opening_hours:url" v="https://www.farmfoods.co.uk/store-finder.php?branch_code=688"/>
    <tag k="shop" v="frozen_food"/>
  </way>
  <way id="399141335" version="9" timestamp="2018-12-18T20:02:16Z" changeset="65592148" uid="364" user="Edward">
    <nd ref="4018847547"/>
    <nd ref="4018847549"/>
    <nd ref="4018847556"/>
    <nd ref="4018847552"/>
    <nd ref="4018847547"/>
    <tag k="addr:city" v="Wisbech"/>
    <tag k="addr:housenumber" v="23"/>
    <tag k="addr:street" v="High Street"/>
    <tag k="building" v="retail"/>
    <tag k="building:levels" v="4"/>
    <tag k="name" v="Simply Sweet Bakery and Coffee Shop"/>
    <tag k="shop" v="bakery"/>
    <tag k="wikidata" v="Q26419614"/>
  </way>
  <way id="399141338" version="4" timestamp="2022-01-09T00:40:47Z" changeset="115928221" uid="2400834" user="Gyrwa">
    <nd ref="4018847572"/>
    <nd ref="9403887971"/>
    <nd ref="4018847565"/>
    <nd ref="4018847564"/>
    <nd ref="4018847571"/>
    <nd ref="4018847575"/>
    <nd ref="9403887997"/>
    <nd ref="4018847572"/>
    <tag k="addr:city" v="Wisbech"/>
    <tag k="addr:housenumber" v="31"/>
    <tag k="addr:postcode" v="PE13 1DE"/>
    <tag k="addr:street" v="High Street"/>
    <tag k="building" v="yes"/>
    <tag k="building:levels" v="4"/>
    <tag k="name" v="Clearer Hearing"/>
    <tag k="shop" v="hearing_aids"/>
    <tag k="website" v="https://www.clearerhearing.co.uk"/>
  </way>
  <way id="399141339" version="8" timestamp="2024-08-28T17:17:59Z" changeset="155891697" uid="21425661" user="CjMalone">
    <nd ref="4018848590"/>
    <nd ref="4018847588"/>
    <nd ref="4018847585"/>
    <nd ref="4018847587"/>
    <nd ref="4018848592"/>
    <nd ref="9403847702"/>
    <nd ref="9403887920"/>
    <nd ref="9403887951"/>
    <nd ref="9403887990"/>
    <nd ref="9403887961"/>
    <nd ref="9403887936"/>
    <nd ref="4018848590"/>
    <tag k="addr:city" v="Wisbech"/>
    <tag k="addr:housenumber" v="27"/>
    <tag k="addr:postcode" v="PE13 1DQ"/>
    <tag k="addr:street" v="Market Place"/>
    <tag k="brand" v="Savers"/>
    <tag k="brand:wikidata" v="Q7428189"/>
    <tag k="brand:wikipedia" v="en:Savers (UK retailer)"/>
    <tag k="building" v="yes"/>
    <tag k="check_date" v="2024-08-28"/>
    <tag k="check_date:opening_hours" v="2024-08-28"/>
    <tag k="fhrs:id" v="774582"/>
    <tag k="name" v="Savers"/>
    <tag k="official_name" v="Savers Health &amp; Beauty"/>
    <tag k="opening_hours" v="Mo-Th 08:30-17:30; Fr-Sa 08:30-18:00; Su 10:00-16:00"/>
    <tag k="phone" v="+44 1945 584651"/>
    <tag k="shop" v="chemist"/>
    <tag k="source:addr" v="FHRS Open Data"/>
  </way>
  <way id="399141343" version="6" timestamp="2022-01-09T00:40:47Z" changeset="115928221" uid="2400834" user="Gyrwa">
    <nd ref="9401108827"/>
    <nd ref="9403887964"/>
    <nd ref="9403887922"/>
    <nd ref="4018848608"/>
    <nd ref="4084092880"/>
    <nd ref="4018848612"/>
    <nd ref="9401108827"/>
    <tag k="addr:city" v="Wisbech"/>
    <tag k="addr:housenumber" v="23a"/>
    <tag k="addr:postcode" v="PE13 1BA"/>
    <tag k="addr:street" v="Hill Street"/>
    <tag k="amenity" v="fast_food"/>
    <tag k="building" v="yes"/>
    <tag k="building:levels" v="3"/>
    <tag k="cuisine" v="sandwich"/>
    <tag k="name" v="Evie's Sandwich Bar"/>
    <tag k="takeaway" v="yes"/>
  </way>
  <way id="399142666" version="8" timestamp="2023-06-17T19:39:48Z" changeset="137459219" uid="12507004" user="Linfindel">
    <nd ref="4018863173"/>
    <nd ref="4018863179"/>
    <nd ref="9402588828"/>
    <nd ref="9402588826"/>
    <nd ref="9402586307"/>
    <nd ref="4018863174"/>
    <nd ref="4018863171"/>
    <nd ref="4018863167"/>
    <nd ref="4018863170"/>
    <nd ref="4018863159"/>
    <nd ref="9402588830"/>
    <nd ref="4018863173"/>
    <tag k="addr:city" v="Wisbech"/>
    <tag k="addr:housenumber" v="7-8"/>
    <tag k="addr:postcode" v="PE13 1HD"/>
    <tag k="addr:street" v="High Street"/>
    <tag k="brand" v="Mencap"/>
    <tag k="brand:wikidata" v="Q6816514"/>
    <tag k="building" v="retail"/>
    <tag k="name" v="Mencap"/>
    <tag k="official_name" v="Royal Mencap Society"/>
    <tag k="shop" v="charity"/>
  </way>
  <way id="400450878" version="5" timestamp="2022-01-21T12:37:47Z" changeset="116430091" uid="84263" user="Robert Whittaker">
    <nd ref="4030036543"/>
    <nd ref="9402602593"/>
    <nd ref="4030036534"/>
    <nd ref="4030036536"/>
    <nd ref="9402602592"/>
    <nd ref="9402602591"/>
    <nd ref="4030036543"/>
    <tag k="addr:city" v="Wisbech"/>
    <tag k="addr:housenumber" v="44"/>
    <tag k="addr:postcode" v="PE13 1DP"/>
    <tag k="addr:street" v="Market Place"/>
    <tag k="building" v="retail"/>
    <tag k="building:levels" v="3"/>
    <tag k="fhrs:id" v="1108933"/>
    <tag k="name" v="Royal Blue Meat Company"/>
    <tag k="shop" v="butcher"/>
    <tag k="source:addr" v="FHRS Open Data"/>
  </way>
  <way id="400450885" version="4" timestamp="2022-01-21T12:37:47Z" changeset="116430091" uid="84263" user="Robert Whittaker">
    <nd ref="4030036554"/>
    <nd ref="9402756380"/>
    <nd ref="9402756399"/>
    <nd ref="4030036560"/>
    <nd ref="4030036562"/>
    <nd ref="9402756385"/>
    <nd ref="9402756384"/>
    <nd ref="9402756401"/>
    <nd ref="4030036554"/>
    <tag k="addr:city" v="Wisbech"/>
    <tag k="addr:housenumber" v="34"/>
    <tag k="addr:postcode" v="PE13 1DP"/>
    <tag k="addr:street" v="Market Place"/>
    <tag k="amenity" v="cafe"/>
    <tag k="building" v="yes"/>
    <tag k="fhrs:id" v="774878"/>
    <tag k="name" v="Loafers"/>
    <tag k="source:addr" v="FHRS Open Data"/>
  </way>
  <way id="400450891" version="7" timestamp="2022-01-21T12:37:47Z" changeset="116430091" uid="84263" user="Robert Whittaker">
    <nd ref="4030036542"/>
    <nd ref="4030036549"/>
    <nd ref="4790791572"/>
    <nd ref="4030036546"/>
    <nd ref="4030036540"/>
    <nd ref="4030036538"/>
    <nd ref="4030036542"/>
    <tag k="addr:city" v="Wisbech"/>
    <tag k="addr:housename" v="Horsefair"/>
    <tag k="addr:housenumber" v="2"/>
    <tag k="addr:postcode" v="PE13 1AR"/>
    <tag k="addr:street" v="Horsefair"/>
    <tag k="amenity" v="cafe"/>
    <tag k="brand" v="Costa"/>
    <tag k="brand:wikidata" v="Q608845"/>
    <tag k="brand:wikipedia" v="en:Costa Coffee"/>
    <tag k="building" v="yes"/>
    <tag k="building:levels" v="3"/>
    <tag k="cuisine" v="coffee_shop"/>
    <tag k="fhrs:id" v="936842"/>
    <tag k="name" v="Costa"/>
    <tag k="source:addr" v="FHRS Open Data"/>
    <tag k="takeaway" v="yes"/>
  </way>
  <way id="402231351" version="7" timestamp="2023-11-05T12:29:39Z" changeset="143647656" uid="242345" user="confusedbuffalo">
    <nd ref="4089095939"/>
    <nd ref="4046489354"/>
    <nd ref="4046489353"/>
    <nd ref="4089095943"/>
    <nd ref="4089095936"/>
    <nd ref="4089095938"/>
    <nd ref="4089095939"/>
    <tag k="addr:city" v="Wisbech"/>
    <tag k="addr:country" v="GB"/>
    <tag k="addr:housenumber" v="32"/>
    <tag k="addr:postcode" v="PE13 1JF"/>
    <tag k="addr:street" v="Somers Road"/>
    <tag k="amenity" v="school"/>
    <tag k="building" v="school"/>
    <tag k="building:levels" v="1"/>
    <tag k="capacity" v="44"/>
    <tag k="height" v="7"/>
    <tag k="max_age" v="17"/>
    <tag k="min_age" v="7"/>
    <tag k="name" v="Cambian Wisbech School"/>
    <tag k="phone" v="+44 1945 427276"/>
    <tag k="ref:GB:uprn" v="200002980881"/>
    <tag k="ref:edubase" v="134179"/>
    <tag k="religion" v="none"/>
    <tag k="school:boarding" v="no"/>
    <tag k="school:gender" v="mixed"/>
    <tag k="school:selective" v="no"/>
    <tag k="school:trust" v="no"/>
    <tag k="school:type" v="special"/>
    <tag k="website" v="https://www.cambiangroup.com/specialist-education/our-schools/semh-schools/cambian-wisbech-school/"/>
  </way>
  <way id="402328080" version="6" timestamp="2023-08-11T13:03:18Z" changeset="139750115" uid="242345" user="confusedbuffalo">
    <nd ref="4047419626"/>
    <nd ref="4047419624"/>
    <nd ref="4047419621"/>
    <nd ref="4047419623"/>
    <nd ref="4047419626"/>
    <tag k="addr:city" v="Wisbech"/>
    <tag k="addr:country" v="GB"/>
    <tag k="addr:housename" v="Enterprise House"/>
    <tag k="addr:housenumber" v="21"/>
    <tag k="addr:postcode" v="PE13 2RJ"/>
    <tag k="addr:street" v="Oldfield Lane"/>
    <tag k="amenity" v="school"/>
    <tag k="building" v="school"/>
    <tag k="capacity" v="24"/>
    <tag k="isced:level" v="2"/>
    <tag k="max_age" v="16"/>
    <tag k="min_age" v="11"/>
    <tag k="name" v="On Track Education Wisbech"/>
    <tag k="phone" v="+44 1945 580898"/>
    <tag k="ref:GB:uprn" v="10012123682"/>
    <tag k="ref:edubase" v="133570"/>
    <tag k="religion" v="none"/>
    <tag k="school:boarding" v="no"/>
    <tag k="school:gender" v="mixed"/>
    <tag k="school:selective" v="no"/>
    <tag k="school:trust" v="no"/>
    <tag k="school:type" v="special"/>
    <tag k="website" v="https://www.ontrackeducation.com/wisbech"/>
  </way>
  <way id="403978191" version="5" timestamp="2023-04-27T18:58:50Z" changeset="135440347" uid="11022773" user="GeoFens">
    <nd ref="4072521522"/>
    <nd ref="4062669150"/>
    <nd ref="4062669151"/>
    <nd ref="4062669153"/>
    <nd ref="4072521523"/>
    <nd ref="4072521522"/>
    <tag k="addr:city" v="Wisbech"/>
    <tag k="addr:housenumber" v="2b"/>
    <tag k="addr:street" v="Horsefair"/>
    <tag k="amenity" v="fast_food"/>
    <tag k="brand" v="Wendy's"/>
    <tag k="brand:wikidata" v="Q550258"/>
    <tag k="building" v="yes"/>
    <tag k="building:levels" v="1"/>
    <tag k="cuisine" v="burger"/>
    <tag k="drive_through" v="no"/>
    <tag k="name" v="Wendy's"/>
    <tag k="takeaway" v="yes"/>
  </way>
  <way id="403978192" version="8" timestamp="2024-09-10T12:54:48Z" changeset="156439198" uid="21425661" user="CjMalone">
    <nd ref="4062668187"/>
    <nd ref="4062669089"/>
    <nd ref="4062669101"/>
    <nd ref="4062669100"/>
    <nd ref="4062669094"/>
    <nd ref="4062668188"/>
    <nd ref="4062668187"/>
    <tag k="addr:city" v="Wisbech"/>
    <tag k="addr:housename" v="Units"/>
    <tag k="addr:housenumber" v="9-10"/>
    <tag k="addr:street" v="Horsefair"/>
    <tag k="brand" v="Heron Foods"/>
    <tag k="brand:wikidata" v="Q5743472"/>
    <tag k="brand:wikipedia" v="en:Heron Foods"/>
    <tag k="building" v="retail"/>
    <tag k="building:levels" v="2"/>
    <tag k="check_date" v="2024-09-10"/>
    <tag k="check_date:opening_hours" v="2024-09-10"/>
    <tag k="contact:website" v="https://heronfoods.com/store/wisbech/"/>
    <tag k="fhrs:id" v="1096173"/>
    <tag k="name" v="Heron Foods"/>
    <tag k="opening_hours" v="Mo-Sa 08:00-18:00; Su 10:00-16:00"/>
    <tag k="shop" v="supermarket"/>
    <tag k="source:addr" v="FHRS Open Data"/>
  </way>
  <way id="404799224" version="6" timestamp="2024-06-30T12:41:27Z" changeset="153367596" uid="95856" user="john paul jones &amp; gringo">
    <nd ref="8972078980"/>
    <nd ref="4070559426"/>
    <nd ref="9402588819"/>
    <nd ref="4070559423"/>
    <nd ref="9402588836"/>
    <nd ref="8972078980"/>
    <tag k="addr:city" v="Wisbech"/>
    <tag k="addr:country" v="GB"/>
    <tag k="addr:housenumber" v="6"/>
    <tag k="addr:postcode" v="PE13 1HB"/>
    <tag k="addr:street" v="Union Place"/>
    <tag k="building" v="house"/>
    <tag k="building:levels" v="3"/>
    <tag k="name" v="Cedar Tree Counselling"/>
    <tag k="wikidata" v="Q26419547"/>
  </way>
  <way id="404799232" version="3" timestamp="2022-01-08T02:36:30Z" changeset="115897705" uid="2400834" user="Gyrwa">
    <nd ref="4070559450"/>
    <nd ref="4070559439"/>
    <nd ref="4070559442"/>
    <nd ref="4070559452"/>
    <nd ref="4070559450"/>
    <tag k="addr:city" v="Wisbech"/>
    <tag k="addr:housenumber" v="9"/>
    <tag k="addr:postcode" v="PE13 1EX"/>
    <tag k="addr:street" v="Market Street"/>
    <tag k="building" v="house"/>
    <tag k="building:levels" v="3"/>
    <tag k="name" v="Dream House"/>
    <tag k="office" v="estate_agent"/>
  </way>
  <way id="404799238" version="4" timestamp="2022-01-08T14:57:34Z" changeset="115912995" uid="2400834" user="Gyrwa">
    <nd ref="4070559452"/>
    <nd ref="4070559454"/>
    <nd ref="4070559453"/>
    <nd ref="4070559450"/>
    <nd ref="4070559452"/>
    <tag k="addr:city" v="Wisbech"/>
    <tag k="addr:housenumber" v="10"/>
    <tag k="addr:postcode" v="PE13 1EX"/>
    <tag k="addr:street" v="Market Street"/>
    <tag k="building" v="retail"/>
    <tag k="building:levels" v="3"/>
    <tag k="name" v="The Beauty House"/>
    <tag k="shop" v="beauty"/>
  </way>
  <way id="405019450" version="5" timestamp="2022-01-21T12:37:47Z" changeset="116430091" uid="84263" user="Robert Whittaker">
    <nd ref="4072521505"/>
    <nd ref="4072521504"/>
    <nd ref="4072521502"/>
    <nd ref="9402756398"/>
    <nd ref="9402756379"/>
    <nd ref="4072521497"/>
    <nd ref="4072521498"/>
    <nd ref="4072521499"/>
    <nd ref="4072521500"/>
    <nd ref="4084092867"/>
    <nd ref="4072521505"/>
    <tag k="addr:city" v="Wisbech"/>
    <tag k="addr:postcode" v="PE13 1BD"/>
    <tag k="addr:street" v="Hill Street"/>
    <tag k="amenity" v="place_of_worship"/>
    <tag k="building" v="church"/>
    <tag k="denomination" v="baptist"/>
    <tag k="fhrs:id" v="774318"/>
    <tag k="name" v="Baptist Church"/>
    <tag k="religion" v="christian"/>
    <tag k="source:addr" v="FHRS Open Data"/>
  </way>
  <way id="405019468" version="3" timestamp="2022-01-04T13:20:41Z" changeset="115754933" uid="2400834" user="Gyrwa">
    <nd ref="4072521513"/>
    <nd ref="4072521509"/>
    <nd ref="4072521510"/>
    <nd ref="4072601462"/>
    <nd ref="4072521519"/>
    <nd ref="4072521513"/>
    <tag k="addr:city" v="Wisbech"/>
    <tag k="addr:housenumber" v="31"/>
    <tag k="addr:postcode" v="PE13 1BD"/>
    <tag k="addr:street" v="Hill Street"/>
    <tag k="building" v="yes"/>
    <tag k="disused:amenity" v="pub"/>
    <tag k="name" v="Horsefair Tavern"/>
  </way>
  <way id="406324592" version="2" timestamp="2022-01-08T00:06:03Z" changeset="115896027" uid="2400834" user="Gyrwa">
    <nd ref="4018848612"/>
    <nd ref="4084092880"/>
    <nd ref="4084093691"/>
    <nd ref="4084093694"/>
    <nd ref="4084093697"/>
    <nd ref="4018848612"/>
    <tag k="addr:city" v="Wisbech"/>
    <tag k="addr:postcode" v="PE13 1BA"/>
    <tag k="addr:street" v="Hill Street"/>
    <tag k="building" v="yes"/>
    <tag k="building:levels" v="2"/>
    <tag k="disused:shop" v="toys"/>
    <tag k="name" v="Prams &amp; Toys"/>
  </way>
  <way id="406324595" version="4" timestamp="2022-01-09T00:40:47Z" changeset="115928221" uid="2400834" user="Gyrwa">
    <nd ref="4084093707"/>
    <nd ref="4084093697"/>
    <nd ref="4084093694"/>
    <nd ref="9403887921"/>
    <nd ref="9403847695"/>
    <nd ref="4084093698"/>
    <nd ref="4084093707"/>
    <tag k="addr:city" v="Wisbech"/>
    <tag k="addr:postcode" v="PE13 1BA"/>
    <tag k="addr:street" v="Hill Street"/>
    <tag k="building" v="yes"/>
    <tag k="building:levels" v="2"/>
    <tag k="name" v="Picturesque Framing &amp; Gallery"/>
    <tag k="shop" v="art;frame"/>
  </way>
  <way id="406324599" version="3" timestamp="2022-01-09T00:40:47Z" changeset="115928221" uid="2400834" user="Gyrwa">
    <nd ref="4084093718"/>
    <nd ref="4084093721"/>
    <nd ref="4084093725"/>
    <nd ref="4084093724"/>
    <nd ref="4084093718"/>
    <tag k="addr:city" v="Wisbech"/>
    <tag k="addr:postcode" v="PE13 1BA"/>
    <tag k="addr:street" v="Hill Street"/>
    <tag k="building" v="yes"/>
    <tag k="building:levels" v="2"/>
    <tag k="name" v="Addiction Tattoo Parlour"/>
    <tag k="shop" v="tattoo"/>
  </way>
  <way id="406324604" version="4" timestamp="2022-01-09T00:40:47Z" changeset="115928221" uid="2400834" user="Gyrwa">
    <nd ref="4084093714"/>
    <nd ref="4084093718"/>
    <nd ref="4084093724"/>
    <nd ref="4084093720"/>
    <nd ref="4084093714"/>
    <tag k="addr:city" v="Wisbech"/>
    <tag k="addr:postcode" v="PE13 1BA"/>
    <tag k="addr:street" v="Hill Street"/>
    <tag k="building" v="yes"/>
    <tag k="building:levels" v="2"/>
    <tag k="name" v="A Touch of Class"/>
    <tag k="shop" v="beauty"/>
  </way>
  <way id="406324606" version="3" timestamp="2022-01-09T00:40:47Z" changeset="115928221" uid="2400834" user="Gyrwa">
    <nd ref="4084093717"/>
    <nd ref="4084093713"/>
    <nd ref="4084093705"/>
    <nd ref="4084093708"/>
    <nd ref="9403847710"/>
    <nd ref="4084093710"/>
    <nd ref="4084093717"/>
    <tag k="addr:city" v="Wisbech"/>
    <tag k="addr:postcode" v="PE13 1BA"/>
    <tag k="addr:street" v="Hill Street"/>
    <tag k="building" v="yes"/>
    <tag k="building:levels" v="2"/>
    <tag k="name" v="The Cutting &amp; Beauty Rooms"/>
    <tag k="shop" v="beauty"/>
  </way>
  <way id="406324607" version="3" timestamp="2022-01-08T16:18:56Z" changeset="115915794" uid="2400834" user="Gyrwa">
    <nd ref="9402756368"/>
    <nd ref="9402756370"/>
    <nd ref="9402756383"/>
    <nd ref="4084092876"/>
    <nd ref="4084092872"/>
    <nd ref="9402756369"/>
    <nd ref="9402756368"/>
    <tag k="addr:city" v="Wisbech"/>
    <tag k="addr:street" v="Union Street"/>
    <tag k="building" v="yes"/>
    <tag k="building:levels" v="3"/>
    <tag k="name" v="No.1 Nail and Beauty Bar"/>
    <tag k="shop" v="beauty"/>
  </way>
  <way id="406324609" version="3" timestamp="2022-01-09T00:40:47Z" changeset="115928221" uid="2400834" user="Gyrwa">
    <nd ref="4084093713"/>
    <nd ref="4084093707"/>
    <nd ref="4084093698"/>
    <nd ref="4084093705"/>
    <nd ref="4084093713"/>
    <tag k="addr:city" v="Wisbech"/>
    <tag k="addr:postcode" v="PE13 1BA"/>
    <tag k="addr:street" v="Hill Street"/>
    <tag k="building" v="yes"/>
    <tag k="building:levels" v="3"/>
    <tag k="clothes" v="men"/>
    <tag k="name" v="Avormen Apparel"/>
    <tag k="shop" v="clothes"/>
  </way>
  <way id="406324611" version="3" timestamp="2022-01-09T00:40:47Z" changeset="115928221" uid="2400834" user="Gyrwa">
    <nd ref="4084093720"/>
    <nd ref="4084093719"/>
    <nd ref="4084093711"/>
    <nd ref="4084093714"/>
    <nd ref="4084093720"/>
    <tag k="addr:city" v="Wisbech"/>
    <tag k="addr:postcode" v="PE13 1BA"/>
    <tag k="addr:street" v="Hill Street"/>
    <tag k="beauty" v="tanning"/>
    <tag k="building" v="yes"/>
    <tag k="building:levels" v="2"/>
    <tag k="name" v="Tan Express"/>
    <tag k="shop" v="beauty"/>
  </way>
  <way id="406340345" version="2" timestamp="2022-01-04T10:53:21Z" changeset="115748671" uid="2400834" user="Gyrwa">
    <nd ref="4084202778"/>
    <nd ref="4084202774"/>
    <nd ref="9391740786"/>
    <nd ref="4084202770"/>
    <nd ref="4084202772"/>
    <nd ref="4084202775"/>
    <nd ref="9391740801"/>
    <nd ref="9391740799"/>
    <nd ref="4084202776"/>
    <nd ref="9391740800"/>
    <nd ref="4084202777"/>
    <nd ref="4084202779"/>
    <nd ref="9391740788"/>
    <nd ref="4084202778"/>
    <tag k="addr:city" v="Wisbech"/>
    <tag k="addr:postcode" v="PE13 1BW"/>
    <tag k="addr:street" v="Church Terrace"/>
    <tag k="building" v="yes"/>
    <tag k="name" v="Inspiration House"/>
  </way>
  <way id="406341473" version="1" timestamp="2016-03-29T01:19:47Z" changeset="38132773" uid="2400834" user="Gyrwa">
    <nd ref="4084210886"/>
    <nd ref="4084210877"/>
    <nd ref="4084210878"/>
    <nd ref="4084210880"/>
    <nd ref="4084210882"/>
    <nd ref="4084210881"/>
    <nd ref="4084210884"/>
    <nd ref="4084210883"/>
    <nd ref="4084210887"/>
    <nd ref="1703262050"/>
    <nd ref="4084211898"/>
    <nd ref="4084211905"/>
    <nd ref="4084211902"/>
    <nd ref="4084211904"/>
    <nd ref="4084211903"/>
    <nd ref="4084211901"/>
    <nd ref="4084211900"/>
    <nd ref="4084211899"/>
    <nd ref="4084211896"/>
    <nd ref="4084211895"/>
    <nd ref="4084211893"/>
    <nd ref="4084211891"/>
    <nd ref="4084210886"/>
    <tag k="addr:city" v="Wisbech"/>
    <tag k="addr:housename" v="The Hudson Centre"/>
    <tag k="addr:postcode" v="PE13 1RL"/>
    <tag k="addr:street" v="Harecroft Road"/>
    <tag k="building" v="yes"/>
    <tag k="leisure" v="sports_centre"/>
    <tag k="name" v="Hudson Leisure Centre"/>
  </way>
  <way id="406475076" version="3" timestamp="2022-01-08T00:06:03Z" changeset="115896027" uid="2400834" user="Gyrwa">
    <nd ref="4085398429"/>
    <nd ref="4085398428"/>
    <nd ref="4085398417"/>
    <nd ref="4085398419"/>
    <nd ref="4085398420"/>
    <nd ref="4085398429"/>
    <tag k="addr:city" v="Wisbech"/>
    <tag k="addr:housenumber" v="5"/>
    <tag k="addr:postcode" v="PE13 1AF"/>
    <tag k="addr:street" v="Bridge Street"/>
    <tag k="building" v="yes"/>
    <tag k="building:levels" v="3"/>
    <tag k="name" v="C. Carters"/>
    <tag k="office" v="estate_agent"/>
    <tag k="website" v="https://www.ccarters.co.uk"/>
  </way>
  <way id="406475078" version="2" timestamp="2016-03-29T18:22:11Z" changeset="38149904" uid="2400834" user="Gyrwa">
    <nd ref="4085398431"/>
    <nd ref="4085398427"/>
    <nd ref="4085398421"/>
    <nd ref="4085398416"/>
    <nd ref="4085398408"/>
    <nd ref="4085398420"/>
    <nd ref="4085398429"/>
    <nd ref="4085398430"/>
    <nd ref="4085398431"/>
    <tag k="addr:city" v="Wisbech"/>
    <tag k="addr:housenumber" v="6-8"/>
    <tag k="addr:postcode" v="PE13 1AF"/>
    <tag k="addr:street" v="Bridge Street"/>
    <tag k="building" v="yes"/>
    <tag k="name" v="Robert Godards"/>
    <tag k="shop" v="clothes"/>
  </way>
  <way id="406475080" version="3" timestamp="2022-01-08T00:06:03Z" changeset="115896027" uid="2400834" user="Gyrwa">
    <nd ref="4085398424"/>
    <nd ref="4085398423"/>
    <nd ref="4085398414"/>
    <nd ref="4085398418"/>
    <nd ref="4085398424"/>
    <tag k="addr:city" v="Wisbech"/>
    <tag k="addr:housenumber" v="1"/>
    <tag k="addr:postcode" v="PE13 1AF"/>
    <tag k="addr:street" v="Bridge Street"/>
    <tag k="building" v="yes"/>
    <tag k="building:levels" v="3"/>
    <tag k="name" v="WMS Recruitment"/>
    <tag k="office" v="employment_agency"/>
    <tag k="website" v="http://wmsfridaybridgecamp.co.uk"/>
  </way>
  <way id="406482170" version="4" timestamp="2023-04-11T17:04:49Z" changeset="134783495" uid="3999" user="BarryMyles">
    <nd ref="4085461287"/>
    <nd ref="4085461282"/>
    <nd ref="4085461288"/>
    <nd ref="4085463101"/>
    <nd ref="4085463094"/>
    <nd ref="4085463095"/>
    <nd ref="4085463091"/>
    <nd ref="4085463090"/>
    <nd ref="4085461287"/>
    <tag k="addr:city" v="Wisbech"/>
    <tag k="addr:postcode" v="PE13 1JF"/>
    <tag k="addr:street" v="Somers Road"/>
    <tag k="building" v="yes"/>
    <tag k="building:levels" v="3"/>
    <tag k="name" v="Wisbech Telephone Exchange"/>
    <tag k="operator" v="Openreach"/>
    <tag k="operator:wikidata" v="Q7096543"/>
    <tag k="ref" v="EMWSBCH"/>
    <tag k="telecom" v="exchange"/>
  </way>
  <way id="406495432" version="3" timestamp="2022-01-21T12:37:47Z" changeset="116430091" uid="84263" user="Robert Whittaker">
    <nd ref="9393159735"/>
    <nd ref="9393159726"/>
    <nd ref="9393159736"/>
    <nd ref="9393159723"/>
    <nd ref="4085566602"/>
    <nd ref="9393159732"/>
    <nd ref="9393159727"/>
    <nd ref="9393159735"/>
    <tag k="addr:city" v="Wisbech"/>
    <tag k="addr:housenumber" v="2"/>
    <tag k="addr:postcode" v="PE13 1AT"/>
    <tag k="addr:street" v="Blackfriars Road"/>
    <tag k="amenity" v="cafe"/>
    <tag k="building" v="yes"/>
    <tag k="building:levels" v="2"/>
    <tag k="fhrs:id" v="1107442"/>
    <tag k="name" v="Britannia Café"/>
    <tag k="source:addr" v="FHRS Open Data"/>
  </way>
  <way id="406779552" version="3" timestamp="2022-01-03T21:20:35Z" changeset="115728969" uid="2400834" user="Gyrwa">
    <nd ref="4088231781"/>
    <nd ref="4088231788"/>
    <nd ref="4088231786"/>
    <nd ref="4088231785"/>
    <nd ref="4088231779"/>
    <nd ref="4088231780"/>
    <nd ref="4088231781"/>
    <tag k="addr:city" v="Wisbech"/>
    <tag k="addr:housenumber" v="18"/>
    <tag k="addr:postcode" v="PE13 1NB"/>
    <tag k="addr:street" v="Old Market"/>
    <tag k="building" v="yes"/>
    <tag k="name" v="All For Paws"/>
    <tag k="shop" v="pet_grooming"/>
  </way>
  <way id="406779553" version="4" timestamp="2022-01-03T21:20:35Z" changeset="115728969" uid="2400834" user="Gyrwa">
    <nd ref="4088231773"/>
    <nd ref="4088231772"/>
    <nd ref="4088231771"/>
    <nd ref="4088231779"/>
    <nd ref="4088231780"/>
    <nd ref="4088231781"/>
    <nd ref="4088231773"/>
    <tag k="addr:city" v="Wisbech"/>
    <tag k="addr:housenumber" v="17"/>
    <tag k="addr:postcode" v="PE13 1NB"/>
    <tag k="addr:street" v="Old Market"/>
    <tag k="building" v="yes"/>
    <tag k="name" v="Wisbech Funeral Service"/>
    <tag k="shop" v="funeral_directors"/>
    <tag k="website" v="https://wisbechfuneralservice.co.uk/"/>
  </way>
  <way id="406779556" version="5" timestamp="2022-03-20T11:07:32Z" changeset="118691966" uid="6816132" user="CjMalone">
    <nd ref="4088231744"/>
    <nd ref="4088231762"/>
    <nd ref="4088231764"/>
    <nd ref="4088231767"/>
    <nd ref="4088231768"/>
    <nd ref="4088231759"/>
    <nd ref="4088231754"/>
    <nd ref="4088231744"/>
    <tag k="addr:city" v="Wisbech"/>
    <tag k="addr:housenumber" v="1"/>
    <tag k="addr:postcode" v="PE13 1NA"/>
    <tag k="addr:street" v="Cornhill"/>
    <tag k="amenity" v="bank"/>
    <tag k="atm" v="yes"/>
    <tag k="brand" v="HSBC UK"/>
    <tag k="brand:wikidata" v="Q64767453"/>
    <tag k="building" v="yes"/>
    <tag k="building:levels" v="1"/>
    <tag k="contact:website" v="https://www.hsbc.co.uk/branch-list/wisbech/"/>
    <tag k="height" v="7"/>
    <tag k="name" v="HSBC UK"/>
  </way>
  <way id="406779557" version="3" timestamp="2016-04-17T18:15:08Z" changeset="38648908" uid="2400834" user="Gyrwa">
    <nd ref="4088231728"/>
    <nd ref="4088231731"/>
    <nd ref="4088231747"/>
    <nd ref="4088231751"/>
    <nd ref="4088231740"/>
    <nd ref="4088231730"/>
    <nd ref="4088231728"/>
    <tag k="addr:city" v="Wisbech"/>
    <tag k="addr:housenumber" v="4"/>
    <tag k="addr:postcode" v="PE13 1JR"/>
    <tag k="addr:street" v="North Brink"/>
    <tag k="amenity" v="pub"/>
    <tag k="building" v="yes"/>
    <tag k="building:levels" v="3"/>
    <tag k="height" v="8"/>
    <tag k="name" v="Hare &amp; Hounds Hotel"/>
    <tag k="operator" v="Elgood's"/>
  </way>
  <way id="406779558" version="7" timestamp="2021-05-18T09:43:41Z" changeset="104879649" uid="6816132" user="CjMalone">
    <nd ref="4128461703"/>
    <nd ref="4128461694"/>
    <nd ref="4128461693"/>
    <nd ref="4128461692"/>
    <nd ref="4088231745"/>
    <nd ref="4088231732"/>
    <nd ref="4088231730"/>
    <nd ref="4088231740"/>
    <nd ref="4088231751"/>
    <nd ref="4128461698"/>
    <nd ref="4128461703"/>
    <tag k="addr:city" v="Wisbech"/>
    <tag k="addr:country" v="GB"/>
    <tag k="addr:housenumber" v="3"/>
    <tag k="addr:postcode" v="PE13 1JR"/>
    <tag k="addr:street" v="North Brink"/>
    <tag k="amenity" v="bank"/>
    <tag k="brand" v="Lloyds Bank"/>
    <tag k="brand:wikidata" v="Q1152847"/>
    <tag k="brand:wikipedia" v="en:Lloyds Bank"/>
    <tag k="building" v="yes"/>
    <tag k="building:levels" v="2"/>
    <tag k="contact:website" v="https://branches.lloydsbank.com/wisbech/3-north-brink"/>
    <tag k="name" v="Lloyds Bank"/>
    <tag k="wikidata" v="Q26419575"/>
  </way>
  <way id="406779559" version="2" timestamp="2018-02-16T01:20:29Z" changeset="56400967" uid="2400834" user="Gyrwa">
    <nd ref="4088235008"/>
    <nd ref="4088235015"/>
    <nd ref="4088235017"/>
    <nd ref="4088235019"/>
    <nd ref="4088235013"/>
    <nd ref="4088235003"/>
    <nd ref="4088235004"/>
    <nd ref="4088235006"/>
    <nd ref="4088235007"/>
    <nd ref="4088235002"/>
    <nd ref="4088235005"/>
    <nd ref="4088234997"/>
    <nd ref="4088234995"/>
    <nd ref="4088234990"/>
    <nd ref="4088234998"/>
    <nd ref="4088234996"/>
    <nd ref="4088234989"/>
    <nd ref="4088235000"/>
    <nd ref="4088235008"/>
    <tag k="addr:city" v="Wisbech"/>
    <tag k="addr:housenumber" v="20-22"/>
    <tag k="addr:postcode" v="PE13 1NB"/>
    <tag k="addr:street" v="Old Market"/>
    <tag k="amenity" v="restaurant"/>
    <tag k="building" v="yes"/>
    <tag k="name" v="Mendis"/>
  </way>
  <way id="406779561" version="3" timestamp="2018-12-18T20:02:25Z" changeset="65592148" uid="364" user="Edward">
    <nd ref="4088235046"/>
    <nd ref="4088235049"/>
    <nd ref="4088235047"/>
    <nd ref="4088235044"/>
    <nd ref="4088235046"/>
    <tag k="addr:city" v="Wisbech"/>
    <tag k="addr:housenumber" v="31"/>
    <tag k="addr:postcode" v="PE13 1NB"/>
    <tag k="addr:street" v="Old Market"/>
    <tag k="building" v="office"/>
    <tag k="building:levels" v="3"/>
    <tag k="name" v="Peter Humphreys"/>
    <tag k="office" v="architect"/>
    <tag k="roof:orientation" v="across"/>
    <tag k="roof:shape" v="gabled"/>
    <tag k="wikidata" v="Q26616534"/>
  </way>
  <way id="406779562" version="5" timestamp="2021-03-25T22:18:40Z" changeset="101746091" uid="145231" user="woodpeck_repair">
    <nd ref="4088231728"/>
    <nd ref="4088231727"/>
    <nd ref="4088231729"/>
    <nd ref="4088231731"/>
    <nd ref="4088231728"/>
    <tag k="abandoned:amenity" v="restaurant"/>
    <tag k="addr:city" v="Wisbech"/>
    <tag k="addr:housenumber" v="5"/>
    <tag k="addr:postcode" v="PE13 1JR"/>
    <tag k="addr:street" v="North Brink"/>
    <tag k="building" v="yes"/>
    <tag k="cuisine" v="chinese"/>
    <tag k="height" v="9"/>
    <tag k="name" v="Phoenix Hotel"/>
    <tag k="note" v="destroyed by fire April 2010"/>
  </way>
  <way id="406779563" version="3" timestamp="2023-06-17T19:39:48Z" changeset="137459219" uid="12507004" user="Linfindel">
    <nd ref="4088235002"/>
    <nd ref="4088235005"/>
    <nd ref="4088235018"/>
    <nd ref="4088235014"/>
    <nd ref="4088235012"/>
    <nd ref="4088235006"/>
    <nd ref="4088235007"/>
    <nd ref="4088235002"/>
    <tag k="addr:city" v="Wisbech"/>
    <tag k="addr:housenumber" v="24-26"/>
    <tag k="addr:postcode" v="PE13 1NB"/>
    <tag k="addr:street" v="Old Market"/>
    <tag k="building" v="retail"/>
    <tag k="building:levels" v="3"/>
    <tag k="name" v="Riverside Interiors"/>
    <tag k="roof:shape" v="gabled"/>
    <tag k="shop" v="antiques"/>
  </way>
  <way id="406779564" version="3" timestamp="2022-01-03T21:20:35Z" changeset="115728969" uid="2400834" user="Gyrwa">
    <nd ref="4088231788"/>
    <nd ref="4088231786"/>
    <nd ref="4088231785"/>
    <nd ref="4088234991"/>
    <nd ref="4088234992"/>
    <nd ref="4088234993"/>
    <nd ref="4088231788"/>
    <tag k="addr:city" v="Wisbech"/>
    <tag k="addr:housenumber" v="19"/>
    <tag k="addr:postcode" v="PE13 1NB"/>
    <tag k="addr:street" v="Old Market"/>
    <tag k="building" v="yes"/>
    <tag k="name" v="In Bloom"/>
    <tag k="shop" v="tattoo"/>
  </way>
  <way id="406779565" version="2" timestamp="2018-02-16T01:20:30Z" changeset="56400967" uid="2400834" user="Gyrwa">
    <nd ref="4088235028"/>
    <nd ref="4088235021"/>
    <nd ref="4088235031"/>
    <nd ref="4088235035"/>
    <nd ref="4088235039"/>
    <nd ref="4088235043"/>
    <nd ref="4088235038"/>
    <nd ref="4088235032"/>
    <nd ref="4088235024"/>
    <nd ref="4088235028"/>
    <tag k="addr:city" v="Wisbech"/>
    <tag k="addr:housenumber" v="28;29"/>
    <tag k="addr:postcode" v="PE13 1NB"/>
    <tag k="addr:street" v="Old Market"/>
    <tag k="building" v="office"/>
    <tag k="name" v="Wheelers"/>
    <tag k="office" v="accountant"/>
  </way>
  <way id="406779572" version="6" timestamp="2023-06-17T19:39:48Z" changeset="137459219" uid="12507004" user="Linfindel">
    <nd ref="571596234"/>
    <nd ref="4119756345"/>
    <nd ref="4119756342"/>
    <nd ref="4119756335"/>
    <nd ref="4119756331"/>
    <nd ref="4119756337"/>
    <nd ref="4119756329"/>
    <nd ref="4119756322"/>
    <nd ref="4119756318"/>
    <nd ref="4088231749"/>
    <nd ref="4088231752"/>
    <nd ref="4088231743"/>
    <nd ref="4088231736"/>
    <nd ref="4088231726"/>
    <nd ref="4088231725"/>
    <nd ref="4119756301"/>
    <nd ref="4119756307"/>
    <nd ref="4088231734"/>
    <nd ref="4119756310"/>
    <nd ref="4119756315"/>
    <nd ref="4119756321"/>
    <nd ref="4119756319"/>
    <nd ref="4119756328"/>
    <nd ref="4119756327"/>
    <nd ref="4119756333"/>
    <nd ref="571596234"/>
    <tag k="addr:city" v="Wisbech"/>
    <tag k="addr:housenumber" v="7"/>
    <tag k="addr:postcode" v="PE13 1JR"/>
    <tag k="addr:street" v="North Brink"/>
    <tag k="amenity" v="doctors"/>
    <tag k="building" v="yes"/>
    <tag k="healthcare" v="doctor"/>
    <tag k="name" v="North Brink Surgery"/>
    <tag k="wikidata" v="Q17543694"/>
  </way>
  <way id="408314652" version="4" timestamp="2023-11-01T22:24:00Z" changeset="143499978" uid="1418967" user="RAC_UK">
    <nd ref="4102668615"/>
    <nd ref="4102668616"/>
    <nd ref="4102668614"/>
    <nd ref="4102668613"/>
    <nd ref="4102668612"/>
    <nd ref="4102668631"/>
    <nd ref="4102668633"/>
    <nd ref="4102668641"/>
    <nd ref="4102668622"/>
    <nd ref="4102668615"/>
    <tag k="addr:city" v="Wisbech"/>
    <tag k="addr:country" v="GB"/>
    <tag k="addr:postcode" v="PE13 2NF"/>
    <tag k="addr:street" v="John Thompson Road"/>
    <tag k="amenity" v="place_of_worship"/>
    <tag k="building" v="yes"/>
    <tag k="denomination" v="salvation_army"/>
    <tag k="email" v="wisbech@salvationarmy.org.uk"/>
    <tag k="name" v="Wisbech Salvation Army"/>
    <tag k="phone" v="+44 1945 461 416"/>
    <tag k="religion" v="christian"/>
    <tag k="website" v="https://www.salvationarmy.org.uk/wisbech"/>
  </way>
  <way id="409038074" version="5" timestamp="2020-06-18T16:17:00Z" changeset="86833872" uid="3432400" user="GinaroZ">
    <nd ref="4109306948"/>
    <nd ref="4109306946"/>
    <nd ref="4109306955"/>
    <nd ref="4109306956"/>
    <nd ref="4109306957"/>
    <nd ref="4109306958"/>
    <nd ref="4109306950"/>
    <nd ref="4109306949"/>
    <nd ref="4109306948"/>
    <tag k="addr:city" v="Wisbech"/>
    <tag k="addr:housenumber" v="12"/>
    <tag k="addr:postcode" v="PE13 1NN"/>
    <tag k="addr:street" v="Old Market"/>
    <tag k="amenity" v="bank"/>
    <tag k="atm" v="yes"/>
    <tag k="brand" v="Barclays"/>
    <tag k="brand:wikidata" v="Q245343"/>
    <tag k="brand:wikipedia" v="en:Barclays"/>
    <tag k="building" v="yes"/>
    <tag k="building:levels" v="1"/>
    <tag k="building:part" v="yes"/>
    <tag k="height" v="11"/>
    <tag k="name" v="Barclays"/>
    <tag k="operator" v="Barclays Bank PLC"/>
    <tag k="roof:shape" v="flat"/>
    <tag k="wikidata" v="Q26419532"/>
  </way>
  <way id="409038075" version="2" timestamp="2018-02-16T01:20:30Z" changeset="56400967" uid="2400834" user="Gyrwa">
    <nd ref="4109306944"/>
    <nd ref="4109306942"/>
    <nd ref="4109306943"/>
    <nd ref="4109306945"/>
    <nd ref="4109306944"/>
    <tag k="addr:city" v="Wisbech"/>
    <tag k="addr:housenumber" v="13"/>
    <tag k="addr:postcode" v="PE13 1NJ"/>
    <tag k="addr:street" v="Old Market"/>
    <tag k="amenity" v="pub"/>
    <tag k="building" v="yes"/>
    <tag k="building:levels" v="3"/>
    <tag k="name" v="King's Head"/>
    <tag k="operator" v="Elgood's"/>
    <tag k="roof:shape" v="hipped"/>
  </way>
  <way id="409038077" version="3" timestamp="2019-03-21T02:54:07Z" changeset="68359342" uid="9451067" user="b-jazz-bot">
    <nd ref="4109306982"/>
    <nd ref="4109306981"/>
    <nd ref="4109306984"/>
    <nd ref="4109306985"/>
    <nd ref="4109306982"/>
    <tag k="addr:city" v="Wisbech"/>
    <tag k="addr:housenumber" v="4"/>
    <tag k="addr:postcode" v="PE13 1NJ"/>
    <tag k="addr:street" v="Old Market"/>
    <tag k="building" v="office"/>
    <tag k="building:levels" v="3"/>
    <tag k="name" v="The Mortgage Specialists"/>
    <tag k="office" v="mortgage"/>
    <tag k="website" v="https://www.the-mortgage-specialists.co.uk/"/>
  </way>
  <way id="409038078" version="2" timestamp="2018-02-16T01:20:31Z" changeset="56400967" uid="2400834" user="Gyrwa">
    <nd ref="4109306939"/>
    <nd ref="4109306938"/>
    <nd ref="4109306940"/>
    <nd ref="4109306941"/>
    <nd ref="4109306939"/>
    <tag k="addr:city" v="Wisbech"/>
    <tag k="addr:housenumber" v="15"/>
    <tag k="addr:postcode" v="PE13 1NJ"/>
    <tag k="addr:street" v="Old Market"/>
    <tag k="amenity" v="cafe"/>
    <tag k="building" v="yes"/>
    <tag k="building:levels" v="2"/>
    <tag k="name" v="Café D'licious"/>
    <tag k="roof:levels" v="1"/>
    <tag k="roof:shape" v="mansard"/>
  </way>
  <way id="409038079" version="4" timestamp="2018-12-18T20:02:26Z" changeset="65592148" uid="364" user="Edward">
    <nd ref="4109307001"/>
    <nd ref="4109306999"/>
    <nd ref="4109307002"/>
    <nd ref="4109307000"/>
    <nd ref="5417653720"/>
    <nd ref="5417655724"/>
    <nd ref="5417655723"/>
    <nd ref="5417655722"/>
    <nd ref="5417655721"/>
    <nd ref="4109306997"/>
    <nd ref="4109306998"/>
    <nd ref="4109307001"/>
    <tag k="addr:city" v="Wisbech"/>
    <tag k="addr:housenumber" v="7"/>
    <tag k="addr:postcode" v="PE13 1NP"/>
    <tag k="addr:street" v="North Street"/>
    <tag k="amenity" v="restaurant"/>
    <tag k="building" v="yes"/>
    <tag k="building:levels" v="2"/>
    <tag k="cuisine" v="chinese"/>
    <tag k="name" v="Ho Ho"/>
    <tag k="takeaway" v="only"/>
    <tag k="wikidata" v="Q26616546"/>
  </way>
  <way id="409038080" version="3" timestamp="2023-06-17T19:39:48Z" changeset="137459219" uid="12507004" user="Linfindel">
    <nd ref="4109306964"/>
    <nd ref="4109306963"/>
    <nd ref="4109306962"/>
    <nd ref="4109306960"/>
    <nd ref="4109306961"/>
    <nd ref="4109306964"/>
    <tag k="addr:city" v="Wisbech"/>
    <tag k="addr:housenumber" v="9"/>
    <tag k="addr:postcode" v="PE13 1NJ"/>
    <tag k="addr:street" v="Old Market"/>
    <tag k="building" v="retail"/>
    <tag k="building:levels" v="3"/>
    <tag k="name" v="Dawn Til Dusk"/>
    <tag k="shop" v="games"/>
  </way>
  <way id="409038081" version="4" timestamp="2018-12-18T20:02:15Z" changeset="65592148" uid="364" user="Edward">
    <nd ref="4109306982"/>
    <nd ref="4109306979"/>
    <nd ref="4109306978"/>
    <nd ref="5417655730"/>
    <nd ref="5417653717"/>
    <nd ref="4109306980"/>
    <nd ref="4109306981"/>
    <nd ref="4109306982"/>
    <tag k="addr:city" v="Wisbech"/>
    <tag k="addr:housenumber" v="5"/>
    <tag k="addr:postcode" v="PE13 1NJ"/>
    <tag k="addr:street" v="Old Market"/>
    <tag k="amenity" v="restaurant"/>
    <tag k="building" v="yes"/>
    <tag k="building:levels" v="3"/>
    <tag k="cuisine" v="chinese;fish"/>
    <tag k="name" v="Imperial"/>
    <tag k="takeaway" v="only"/>
    <tag k="wikidata" v="Q26419570"/>
  </way>
  <way id="409038083" version="2" timestamp="2018-02-16T01:20:32Z" changeset="56400967" uid="2400834" user="Gyrwa">
    <nd ref="4109306976"/>
    <nd ref="4109306975"/>
    <nd ref="4109306973"/>
    <nd ref="4109306972"/>
    <nd ref="4109306969"/>
    <nd ref="4109306970"/>
    <nd ref="4109306976"/>
    <tag k="addr:city" v="Wisbech"/>
    <tag k="addr:housenumber" v="7"/>
    <tag k="addr:postcode" v="PE13 1NJ"/>
    <tag k="addr:street" v="Old Market"/>
    <tag k="building" v="office"/>
    <tag k="building:levels" v="4"/>
    <tag k="name" v="Burton Associates"/>
    <tag k="office" v="insurance"/>
    <tag k="website" v="http://www.burtonassociates.co.uk"/>
  </way>
  <way id="409038085" version="3" timestamp="2018-02-17T02:36:34Z" changeset="56430338" uid="2400834" user="Gyrwa">
    <nd ref="4109307001"/>
    <nd ref="601609059"/>
    <nd ref="4109307003"/>
    <nd ref="4109307000"/>
    <nd ref="4109307002"/>
    <nd ref="4109306999"/>
    <nd ref="4109307001"/>
    <tag k="addr:city" v="Wisbech"/>
    <tag k="addr:housenumber" v="6"/>
    <tag k="addr:postcode" v="PE13 1NP"/>
    <tag k="addr:street" v="North Street"/>
    <tag k="building" v="yes"/>
    <tag k="building:levels" v="2"/>
    <tag k="name" v="Wisbech Pet &amp; Aquatics Centre"/>
    <tag k="roof:shape" v="flat"/>
    <tag k="source" v="survey"/>
  </way>
  <way id="409045491" version="3" timestamp="2018-02-16T01:20:33Z" changeset="56400967" uid="2400834" user="Gyrwa">
    <nd ref="4109357908"/>
    <nd ref="5415388113"/>
    <nd ref="4109357911"/>
    <nd ref="4109357916"/>
    <nd ref="4109357914"/>
    <nd ref="4109357915"/>
    <nd ref="4109357912"/>
    <nd ref="4109357907"/>
    <nd ref="4109357905"/>
    <nd ref="4109357910"/>
    <nd ref="4109357909"/>
    <nd ref="4109357908"/>
    <tag k="addr:city" v="Wisbech"/>
    <tag k="addr:housenumber" v="18"/>
    <tag k="addr:postcode" v="PE13 1NP"/>
    <tag k="addr:street" v="North Street"/>
    <tag k="building" v="commercial"/>
    <tag k="leisure" v="fitness_centre"/>
    <tag k="name" v="Shapers Gym"/>
    <tag k="source" v="survey"/>
    <tag k="website" v="http://www.shapersgym.co.uk/"/>
  </way>
  <way id="409752389" version="1" timestamp="2016-04-12T10:15:47Z" changeset="38495971" uid="2400834" user="Gyrwa">
    <nd ref="4116162438"/>
    <nd ref="4116162439"/>
    <nd ref="4116162436"/>
    <nd ref="4116162434"/>
    <nd ref="4116162438"/>
    <tag k="addr:street" v="Victoria Road"/>
    <tag k="building" v="commercial"/>
    <tag k="building:levels" v="2"/>
    <tag k="name" v="shop 4 U"/>
    <tag k="shop" v="newsagent"/>
    <tag k="source:geometry" v="Mapbox"/>
  </way>
  <way id="410962545" version="4" timestamp="2024-06-30T11:39:54Z" changeset="153365057" uid="95856" user="john paul jones &amp; gringo">
    <nd ref="4127092408"/>
    <nd ref="4127092411"/>
    <nd ref="4127092407"/>
    <nd ref="4127092405"/>
    <nd ref="4127092408"/>
    <tag k="addr:city" v="Wisbech"/>
    <tag k="addr:country" v="GB"/>
    <tag k="addr:housenumber" v="79"/>
    <tag k="addr:postcode" v="PE13 2XQ"/>
    <tag k="addr:street" v="Boleness Road"/>
    <tag k="addr:unit" v="1"/>
    <tag k="branch" v="Wisbech"/>
    <tag k="brand" v="Howdens Joinery"/>
    <tag k="brand:wikidata" v="Q5921438"/>
    <tag k="building" v="industrial"/>
    <tag k="internet_access" v="wlan"/>
    <tag k="name" v="Howdens Joinery"/>
    <tag k="opening_hours" v="Mo-Fr 07:30-17:00; Sa 08:00-12:00; PH off"/>
    <tag k="phone" v="+44 1945 581705"/>
    <tag k="shop" v="kitchen"/>
    <tag k="source:geometry" v="Mapbox"/>
    <tag k="website" v="https://www.howdens.com/find-a-depot/wisbech"/>
  </way>
  <way id="410963512" version="3" timestamp="2024-06-30T11:39:54Z" changeset="153365057" uid="95856" user="john paul jones &amp; gringo">
    <nd ref="4127101570"/>
    <nd ref="4127101572"/>
    <nd ref="4127101575"/>
    <nd ref="4127101574"/>
    <nd ref="4127101573"/>
    <nd ref="4127101569"/>
    <nd ref="4127101568"/>
    <nd ref="4127101566"/>
    <nd ref="4127101567"/>
    <nd ref="4127101570"/>
    <tag k="addr:city" v="Wisbech"/>
    <tag k="addr:country" v="GB"/>
    <tag k="addr:housenumber" v="101"/>
    <tag k="addr:postcode" v="PE13 2XQ"/>
    <tag k="addr:street" v="Boleness Road"/>
    <tag k="building" v="warehouse"/>
    <tag k="name" v="Partner Logistics Wisbech"/>
    <tag k="source:geometry" v="Mapbox"/>
    <tag k="source:name" v="local councillor"/>
  </way>
  <way id="411090239" version="3" timestamp="2019-03-25T06:58:43Z" changeset="68495161" uid="9451067" user="b-jazz-bot">
    <nd ref="5620856162"/>
    <nd ref="5620856164"/>
    <nd ref="5620856166"/>
    <nd ref="5620856165"/>
    <nd ref="5620856167"/>
    <nd ref="5620856163"/>
    <nd ref="5620856171"/>
    <nd ref="5620856173"/>
    <nd ref="5620856174"/>
    <nd ref="5620856172"/>
    <nd ref="4128232003"/>
    <nd ref="4128231992"/>
    <nd ref="4128231995"/>
    <nd ref="4128232007"/>
    <nd ref="5620856162"/>
    <tag k="addr:city" v="Wisbech"/>
    <tag k="addr:postcode" v="PE14 0SH"/>
    <tag k="addr:street" v="Salters Way"/>
    <tag k="building" v="industrial"/>
    <tag k="industrial" v="factory"/>
    <tag k="name" v="Fountain Frozen"/>
    <tag k="source:geometry" v="Bing"/>
    <tag k="website" v="https://www.fountainfrozen.co.uk/"/>
  </way>
  <way id="411090242" version="2" timestamp="2018-05-15T23:22:01Z" changeset="59000354" uid="2400834" user="Gyrwa">
    <nd ref="4128232030"/>
    <nd ref="4128232032"/>
    <nd ref="4128232036"/>
    <nd ref="4128232037"/>
    <nd ref="4128232040"/>
    <nd ref="4128232039"/>
    <nd ref="4128232041"/>
    <nd ref="4128232038"/>
    <nd ref="4128232030"/>
    <tag k="addr:city" v="Wisbech"/>
    <tag k="addr:postcode" v="PE14 0SB"/>
    <tag k="addr:street" v="Enterprise Way"/>
    <tag k="building" v="industrial"/>
    <tag k="name" v="SB Components"/>
    <tag k="source:geometry" v="Mapbox"/>
    <tag k="website" v="http://www.sb-components.com"/>
  </way>
  <way id="411103730" version="2" timestamp="2018-12-18T20:02:24Z" changeset="65592148" uid="364" user="Edward">
    <nd ref="4128377251"/>
    <nd ref="4128377252"/>
    <nd ref="4128377257"/>
    <nd ref="4128377260"/>
    <nd ref="4128377263"/>
    <nd ref="4128377259"/>
    <nd ref="4128377261"/>
    <nd ref="4128377258"/>
    <nd ref="4128377256"/>
    <nd ref="4128377251"/>
    <tag k="addr:city" v="Wisbech"/>
    <tag k="addr:housenumber" v="21"/>
    <tag k="addr:postcode" v="PE13 1JR"/>
    <tag k="addr:street" v="North Brink"/>
    <tag k="amenity" v="place_of_worship"/>
    <tag k="building" v="church"/>
    <tag k="building:levels" v="2"/>
    <tag k="denomination" v="quaker"/>
    <tag k="name" v="Friends Meeting House"/>
    <tag k="religion" v="christian"/>
    <tag k="wikidata" v="Q26616520"/>
  </way>
  <way id="411103745" version="3" timestamp="2018-12-18T20:02:20Z" changeset="65592148" uid="364" user="Edward">
    <nd ref="4128377202"/>
    <nd ref="4128377201"/>
    <nd ref="4128377196"/>
    <nd ref="4128377203"/>
    <nd ref="4128377205"/>
    <nd ref="5228861479"/>
    <nd ref="4128377233"/>
    <nd ref="4128377238"/>
    <nd ref="4128377221"/>
    <nd ref="4128377210"/>
    <nd ref="4128377213"/>
    <nd ref="4128377214"/>
    <nd ref="4128377202"/>
    <tag k="addr:city" v="Wisbech"/>
    <tag k="addr:housenumber" v="32"/>
    <tag k="addr:postcode" v="PE13 1JR"/>
    <tag k="addr:street" v="North Brink"/>
    <tag k="amenity" v="pub"/>
    <tag k="building" v="yes"/>
    <tag k="name" v="Red Lion"/>
    <tag k="operator" v="Elgood's"/>
    <tag k="wikidata" v="Q26568330"/>
  </way>
  <way id="411114018" version="2" timestamp="2019-03-24T17:53:12Z" changeset="68479268" uid="84263" user="Robert Whittaker">
    <nd ref="4128461746"/>
    <nd ref="4128461742"/>
    <nd ref="4128461739"/>
    <nd ref="4128461745"/>
    <nd ref="4128461749"/>
    <nd ref="4128461748"/>
    <nd ref="4128461747"/>
    <nd ref="4128461746"/>
    <tag k="addr:city" v="Wisbech"/>
    <tag k="addr:housenumber" v="1"/>
    <tag k="addr:postcode" v="PE13 1RA"/>
    <tag k="addr:street" v="Exchange Square"/>
    <tag k="building" v="commercial"/>
    <tag k="building:levels" v="2"/>
    <tag k="name" v="The Retreat"/>
    <tag k="shop" v="hairdresser"/>
  </way>
  <way id="412246862" version="2" timestamp="2021-12-23T13:43:17Z" changeset="115299342" uid="2400834" user="Gyrwa">
    <nd ref="4137350707"/>
    <nd ref="9360753046"/>
    <nd ref="9360753048"/>
    <nd ref="9360753047"/>
    <nd ref="4137350703"/>
    <nd ref="4137350707"/>
    <tag k="addr:city" v="Wisbech"/>
    <tag k="addr:housenumber" v="53"/>
    <tag k="addr:postcode" v="PE13 1JX"/>
    <tag k="addr:street" v="North Brink"/>
    <tag k="amenity" v="pub"/>
    <tag k="building" v="yes"/>
    <tag k="building:levels" v="2"/>
    <tag k="name" v="Rose Tavern"/>
  </way>
  <way id="413203579" version="2" timestamp="2016-05-05T17:10:35Z" changeset="39125290" uid="2400834" user="Gyrwa">
    <nd ref="4145437301"/>
    <nd ref="4145437299"/>
    <nd ref="4145437298"/>
    <nd ref="4145437297"/>
    <nd ref="4145437302"/>
    <nd ref="4145437303"/>
    <nd ref="4145437307"/>
    <nd ref="4145437308"/>
    <nd ref="4145437312"/>
    <nd ref="4145437311"/>
    <nd ref="4145437317"/>
    <nd ref="4145437313"/>
    <nd ref="4145437296"/>
    <nd ref="4145437295"/>
    <nd ref="4145437294"/>
    <nd ref="4145437300"/>
    <nd ref="4145437309"/>
    <nd ref="4145437305"/>
    <nd ref="4145437306"/>
    <nd ref="4145437304"/>
    <nd ref="4145437301"/>
    <tag k="addr:city" v="Wisbech"/>
    <tag k="addr:flats" v="1-18"/>
    <tag k="addr:housename" v="Boyden Court"/>
    <tag k="addr:postcode" v="PE13 2AF"/>
    <tag k="addr:street" v="Elizabeth Terrace"/>
    <tag k="building" v="residential"/>
    <tag k="building:levels" v="2"/>
    <tag k="name" v="Boyden Court"/>
  </way>
  <way id="414879380" version="2" timestamp="2018-01-30T08:12:14Z" changeset="55884823" uid="364" user="Edward">
    <nd ref="4160199023"/>
    <nd ref="4160199021"/>
    <nd ref="4160199022"/>
    <nd ref="4160199024"/>
    <nd ref="4160199025"/>
    <nd ref="4160199026"/>
    <nd ref="4160199027"/>
    <nd ref="4160199028"/>
    <nd ref="4160199029"/>
    <nd ref="4160199031"/>
    <nd ref="4160199032"/>
    <nd ref="4160199033"/>
    <nd ref="4160199020"/>
    <nd ref="4160199018"/>
    <nd ref="4160199023"/>
    <tag k="addr:city" v="Wisbech"/>
    <tag k="addr:housenumber" v="67"/>
    <tag k="addr:postcode" v="PE13 1LN"/>
    <tag k="addr:street" v="North Brink"/>
    <tag k="building" v="house"/>
    <tag k="name" v="Sibalds Holme"/>
    <tag k="wikidata" v="Q26419555"/>
  </way>
  <way id="414882955" version="1" timestamp="2016-05-02T01:00:56Z" changeset="39028053" uid="2400834" user="Gyrwa">
    <nd ref="4160236174"/>
    <nd ref="4160236173"/>
    <nd ref="4160236169"/>
    <nd ref="4160236167"/>
    <nd ref="4160236164"/>
    <nd ref="4160236166"/>
    <nd ref="4160236171"/>
    <nd ref="4160236172"/>
    <nd ref="4160236174"/>
    <tag k="addr:city" v="Wisbech"/>
    <tag k="addr:housenumber" v="72-74"/>
    <tag k="addr:postcode" v="PE13 2AP"/>
    <tag k="addr:street" v="Norwich Road"/>
    <tag k="building" v="retail"/>
    <tag k="name" v="Seyon Store"/>
    <tag k="shop" v="convenience"/>
  </way>
  <way id="414882956" version="2" timestamp="2018-01-30T08:12:15Z" changeset="55884823" uid="364" user="Edward">
    <nd ref="4160236174"/>
    <nd ref="4160236176"/>
    <nd ref="4160236175"/>
    <nd ref="4160236172"/>
    <nd ref="4160236174"/>
    <tag k="addr:city" v="Wisbech"/>
    <tag k="addr:housenumber" v="76"/>
    <tag k="addr:postcode" v="PE13 2AP"/>
    <tag k="addr:street" v="Norwich Road"/>
    <tag k="amenity" v="pub"/>
    <tag k="building" v="yes"/>
    <tag k="name" v="Three Tuns"/>
    <tag k="wikidata" v="Q26419565"/>
  </way>
  <way id="415835178" version="1" timestamp="2016-05-05T17:10:34Z" changeset="39125290" uid="2400834" user="Gyrwa">
    <nd ref="4167838539"/>
    <nd ref="4167838544"/>
    <nd ref="4167838538"/>
    <nd ref="4167838530"/>
    <nd ref="4167838533"/>
    <nd ref="4167838523"/>
    <nd ref="4167838524"/>
    <nd ref="4167838511"/>
    <nd ref="4167838516"/>
    <nd ref="4167838539"/>
    <tag k="addr:city" v="Wisbech"/>
    <tag k="addr:housenumber" v="58"/>
    <tag k="addr:postcode" v="PE13 2AN"/>
    <tag k="addr:street" v="Elizabeth Terrace"/>
    <tag k="building" v="house"/>
    <tag k="name" v="R M Plater"/>
    <tag k="shop" v="butcher"/>
  </way>
  <way id="417961370" version="2" timestamp="2016-05-13T21:25:55Z" changeset="39301501" uid="2400834" user="Gyrwa">
    <nd ref="4184292572"/>
    <nd ref="4184292575"/>
    <nd ref="4184292573"/>
    <nd ref="4184292577"/>
    <nd ref="4184292580"/>
    <nd ref="4184292576"/>
    <nd ref="4184292568"/>
    <nd ref="4184292562"/>
    <nd ref="4184292572"/>
    <tag k="addr:city" v="Wisbech"/>
    <tag k="addr:housenumber" v="41"/>
    <tag k="addr:postcode" v="PE13 2AD"/>
    <tag k="addr:street" v="Norwich Road"/>
    <tag k="amenity" v="fast_food"/>
    <tag k="building" v="house"/>
    <tag k="cuisine" v="chinese"/>
    <tag k="name" v="China Garden"/>
  </way>
  <way id="417961374" version="1" timestamp="2016-05-13T21:02:02Z" changeset="39301147" uid="2400834" user="Gyrwa">
    <nd ref="4184292556"/>
    <nd ref="4184292545"/>
    <nd ref="4184292542"/>
    <nd ref="4184292549"/>
    <nd ref="4184292552"/>
    <nd ref="4184292566"/>
    <nd ref="4184292569"/>
    <nd ref="4184292559"/>
    <nd ref="4184292556"/>
    <tag k="addr:city" v="Wisbech"/>
    <tag k="addr:housenumber" v="31"/>
    <tag k="addr:postcode" v="PE13 2AD"/>
    <tag k="addr:street" v="Norwich Road"/>
    <tag k="amenity" v="fast_food"/>
    <tag k="building" v="commercial"/>
    <tag k="cuisine" v="chinese"/>
    <tag k="name" v="San San"/>
  </way>
  <way id="425609001" version="7" timestamp="2023-09-17T20:42:46Z" changeset="141397949" uid="290680" user="wheelmap_visitor">
    <nd ref="4248928115"/>
    <nd ref="4248928117"/>
    <nd ref="4248928126"/>
    <nd ref="4248928130"/>
    <nd ref="4248928123"/>
    <nd ref="4248928122"/>
    <nd ref="4248928121"/>
    <nd ref="4248928120"/>
    <nd ref="4238962869"/>
    <nd ref="4248928118"/>
    <nd ref="4238962820"/>
    <nd ref="4248928100"/>
    <nd ref="4248928102"/>
    <nd ref="4238962868"/>
    <nd ref="4248928105"/>
    <nd ref="4248928103"/>
    <nd ref="4248928104"/>
    <nd ref="4248928107"/>
    <nd ref="4248928108"/>
    <nd ref="4248928110"/>
    <nd ref="4248928111"/>
    <nd ref="4248928114"/>
    <nd ref="4248928115"/>
    <tag k="addr:city" v="Wisbech"/>
    <tag k="addr:postcode" v="PE14 0RG"/>
    <tag k="addr:street" v="Cromwell Road"/>
    <tag k="alt_name" v="Tesco Extra Wisbech"/>
    <tag k="brand" v="Tesco Extra"/>
    <tag k="brand:wikidata" v="Q25172225"/>
    <tag k="brand:wikipedia" v="en:Tesco Extra"/>
    <tag k="building" v="retail"/>
    <tag k="contact:website" v="https://www.tesco.com/store-locator/wisbech/cromwell-rd"/>
    <tag k="name" v="Tesco Extra"/>
    <tag k="operator" v="Tesco Stores Ltd"/>
    <tag k="shop" v="supermarket"/>
    <tag k="toilets:wheelchair" v="yes"/>
    <tag k="wheelchair" v="yes"/>
  </way>
  <way id="425652951" version="4" timestamp="2023-06-17T19:39:48Z" changeset="137459219" uid="12507004" user="Linfindel">
    <nd ref="4249425065"/>
    <nd ref="4249425059"/>
    <nd ref="4249425060"/>
    <nd ref="4249425067"/>
    <nd ref="4249425074"/>
    <nd ref="4249425073"/>
    <nd ref="4249425065"/>
    <tag k="addr:city" v="Wisbech"/>
    <tag k="addr:housenumber" v="8"/>
    <tag k="addr:postcode" v="PE13 3AN"/>
    <tag k="addr:street" v="De Havilland Road"/>
    <tag k="amenity" v="pharmacy"/>
    <tag k="brand" v="Boots"/>
    <tag k="brand:wikidata" v="Q6123139"/>
    <tag k="building" v="house"/>
    <tag k="building:levels" v="2"/>
    <tag k="healthcare" v="pharmacy"/>
    <tag k="name" v="Boots"/>
  </way>
  <way id="426110575" version="1" timestamp="2016-06-20T11:57:32Z" changeset="40155683" uid="2400834" user="Gyrwa">
    <nd ref="4254262360"/>
    <nd ref="4254262361"/>
    <nd ref="4254262363"/>
    <nd ref="4254262362"/>
    <nd ref="4254262360"/>
    <tag k="addr:city" v="Wisbech"/>
    <tag k="addr:housenumber" v="1-4"/>
    <tag k="addr:interpolation" v="all"/>
    <tag k="addr:postcode" v="PE13 3AE"/>
    <tag k="addr:street" v="Chase Street"/>
    <tag k="building" v="terrace"/>
    <tag k="building:levels" v="2"/>
    <tag k="name" v="Capstan House"/>
  </way>
  <way id="426110607" version="1" timestamp="2016-06-20T11:57:34Z" changeset="40155683" uid="2400834" user="Gyrwa">
    <nd ref="4254262354"/>
    <nd ref="4254262352"/>
    <nd ref="4254262351"/>
    <nd ref="4254262353"/>
    <nd ref="4254262355"/>
    <nd ref="4254262358"/>
    <nd ref="4254262359"/>
    <nd ref="4254262357"/>
    <nd ref="4254262354"/>
    <tag k="addr:city" v="Wisbech"/>
    <tag k="addr:housenumber" v="1-3"/>
    <tag k="addr:interpolation" v="all"/>
    <tag k="addr:postcode" v="PE13 3AU"/>
    <tag k="addr:street" v="Chase Street"/>
    <tag k="building" v="terrace"/>
    <tag k="name" v="Surprise Cottage"/>
  </way>
  <way id="427501572" version="2" timestamp="2018-02-16T01:20:34Z" changeset="56400967" uid="2400834" user="Gyrwa">
    <nd ref="4267068893"/>
    <nd ref="4267068894"/>
    <nd ref="4267066888"/>
    <nd ref="4267066887"/>
    <nd ref="4267068893"/>
    <tag k="addr:city" v="Wisbech"/>
    <tag k="addr:housenumber" v="18"/>
    <tag k="addr:postcode" v="PE13 1RF"/>
    <tag k="addr:street" v="Chapel Road"/>
    <tag k="building" v="office"/>
    <tag k="name" v="Allied Surveyors and Valuers"/>
    <tag k="office" v="surveyor"/>
    <tag k="source" v="survey"/>
    <tag k="website" v="http://www.allied-surveyors-peterborough.co.uk/"/>
  </way>
  <way id="427501576" version="3" timestamp="2018-02-16T01:20:34Z" changeset="56400967" uid="2400834" user="Gyrwa">
    <nd ref="4267068933"/>
    <nd ref="4267068923"/>
    <nd ref="4267068929"/>
    <nd ref="4267068911"/>
    <nd ref="4267068905"/>
    <nd ref="4267068931"/>
    <nd ref="4267068933"/>
    <tag k="addr:city" v="Wisbech"/>
    <tag k="addr:housenumber" v="33a"/>
    <tag k="addr:postcode" v="PE13 1NF"/>
    <tag k="addr:street" v="Old Market"/>
    <tag k="amenity" v="veterinary"/>
    <tag k="building" v="yes"/>
    <tag k="name" v="Vet Savers"/>
    <tag k="operator" v="Vet Savers"/>
    <tag k="source" v="survey"/>
  </way>
  <way id="427501577" version="4" timestamp="2023-06-17T19:39:48Z" changeset="137459219" uid="12507004" user="Linfindel">
    <nd ref="4267066883"/>
    <nd ref="4267066882"/>
    <nd ref="4267066886"/>
    <nd ref="4267066885"/>
    <nd ref="4267068889"/>
    <nd ref="4267068891"/>
    <nd ref="4267066883"/>
    <tag k="addr:city" v="Wisbech"/>
    <tag k="addr:housenumber" v="15"/>
    <tag k="addr:postcode" v="PE13 1RF"/>
    <tag k="addr:street" v="Chapel Road"/>
    <tag k="building" v="retail"/>
    <tag k="name" v="Banks Barber Shop"/>
    <tag k="shop" v="hairdresser"/>
    <tag k="source" v="survey"/>
  </way>
  <way id="427501578" version="4" timestamp="2023-06-17T19:39:48Z" changeset="137459219" uid="12507004" user="Linfindel">
    <nd ref="4267066887"/>
    <nd ref="4267066883"/>
    <nd ref="4267068891"/>
    <nd ref="4267068895"/>
    <nd ref="4267068890"/>
    <nd ref="4267068893"/>
    <nd ref="4267066887"/>
    <tag k="addr:city" v="Wisbech"/>
    <tag k="addr:housenumber" v="17"/>
    <tag k="addr:postcode" v="PE13 1RF"/>
    <tag k="addr:street" v="Chapel Road"/>
    <tag k="building" v="retail"/>
    <tag k="name" v="Gibbs Carpet Centre"/>
    <tag k="shop" v="carpet"/>
    <tag k="source" v="survey"/>
  </way>
  <way id="427501579" version="6" timestamp="2023-06-17T19:39:48Z" changeset="137459219" uid="12507004" user="Linfindel">
    <nd ref="4267068913"/>
    <nd ref="4267068912"/>
    <nd ref="4267068922"/>
    <nd ref="4267068930"/>
    <nd ref="4267068913"/>
    <tag k="addr:city" v="Wisbech"/>
    <tag k="addr:housenumber" v="34"/>
    <tag k="addr:postcode" v="PE13 1NF"/>
    <tag k="addr:street" v="Old Market"/>
    <tag k="building" v="retail"/>
    <tag k="name" v="Granny's Cupboard"/>
    <tag k="shop" v="antiques"/>
    <tag k="source:name" v="survey"/>
    <tag k="wikidata" v="Q26419536"/>
  </way>
  <way id="430870472" version="4" timestamp="2022-02-20T22:14:52Z" changeset="117656759" uid="242345" user="confusedbuffalo">
    <nd ref="5618149984"/>
    <nd ref="5618149985"/>
    <nd ref="4301316551"/>
    <nd ref="4301316549"/>
    <nd ref="4301316548"/>
    <nd ref="4301316547"/>
    <nd ref="4301316550"/>
    <nd ref="5618149989"/>
    <nd ref="5618149987"/>
    <nd ref="5618149986"/>
    <nd ref="5618149988"/>
    <nd ref="5618149982"/>
    <nd ref="5618149981"/>
    <nd ref="5618149983"/>
    <nd ref="5618149984"/>
    <tag k="addr:city" v="Wisbech"/>
    <tag k="addr:county" v="Cambridgeshire"/>
    <tag k="addr:housenumber" v="32"/>
    <tag k="addr:postcode" v="PE14 0SN"/>
    <tag k="addr:street" v="Cromwell Road"/>
    <tag k="building" v="yes"/>
    <tag k="healthcare" v="optometrist"/>
    <tag k="name" v="Anglia Community Eye Service (ACES) Clinic"/>
    <tag k="source" v="Esri World Imagery"/>
    <tag k="website" v="https://www.aces-eyeclinic.co.uk"/>
  </way>
  <way id="498095787" version="1" timestamp="2017-06-04T19:25:02Z" changeset="49249940" uid="2400834" user="Gyrwa">
    <nd ref="4895850021"/>
    <nd ref="4895844220"/>
    <nd ref="4895844219"/>
    <nd ref="4895844217"/>
    <nd ref="4895844218"/>
    <nd ref="4895844215"/>
    <nd ref="4895844214"/>
    <nd ref="4895844216"/>
    <nd ref="4895850021"/>
    <tag k="addr:city" v="Wisbech"/>
    <tag k="addr:housenumber" v="110"/>
    <tag k="addr:postcode" v="PE13 2JD"/>
    <tag k="addr:street" v="Ramnoth Road"/>
    <tag k="building" v="yes"/>
    <tag k="name" v="Awdry House"/>
    <tag k="operator" v="Cambridgeshire County Council"/>
    <tag k="source" v="survey"/>
  </way>
  <way id="534175671" version="5" timestamp="2024-04-03T22:43:33Z" changeset="149546189" uid="6816132" user="CjMalone">
    <nd ref="5181066552"/>
    <nd ref="5181066553"/>
    <nd ref="5612658677"/>
    <nd ref="5612658680"/>
    <nd ref="5612658679"/>
    <nd ref="5612658678"/>
    <nd ref="5181066549"/>
    <nd ref="5181066568"/>
    <nd ref="5181066552"/>
    <tag k="addr:city" v="Wisbech"/>
    <tag k="addr:housenumber" v="Unit 1a"/>
    <tag k="addr:postcode" v="PE14 0SL"/>
    <tag k="addr:street" v="Cromwell Road"/>
    <tag k="brand" v="Poundstretcher"/>
    <tag k="brand:wikidata" v="Q7235675"/>
    <tag k="brand:wikipedia" v="en:Poundstretcher"/>
    <tag k="building" v="yes"/>
    <tag k="name" v="Poundstretcher"/>
    <tag k="shop" v="variety_store"/>
    <tag k="website" v="https://www.poundstretcher.co.uk/wisbech-741"/>
  </way>
  <way id="534175674" version="4" timestamp="2024-05-20T22:18:33Z" changeset="151602509" uid="84263" user="Robert Whittaker">
    <nd ref="5181066558"/>
    <nd ref="5181066556"/>
    <nd ref="5181066555"/>
    <nd ref="5181066557"/>
    <nd ref="5181066558"/>
    <tag k="addr:city" v="Wisbech"/>
    <tag k="addr:housenumber" v="Unit 3a"/>
    <tag k="addr:postcode" v="PE14 0SL"/>
    <tag k="addr:street" v="Cromwell Road"/>
    <tag k="brand" v="Argos"/>
    <tag k="brand:wikidata" v="Q4789707"/>
    <tag k="building" v="retail"/>
    <tag k="disused:shop" v="yes"/>
    <tag k="name" v="Argos"/>
    <tag k="shop" v="catalogue"/>
    <tag k="website" v="https://www.argos.co.uk/stores/2314-wisbech"/>
  </way>
  <way id="534175677" version="4" timestamp="2023-04-27T19:26:02Z" changeset="135441164" uid="11022773" user="GeoFens">
    <nd ref="5181066564"/>
    <nd ref="5181066562"/>
    <nd ref="5181066561"/>
    <nd ref="5181066563"/>
    <nd ref="5181066564"/>
    <tag k="addr:city" v="Wisbech"/>
    <tag k="addr:housenumber" v="Unit 5"/>
    <tag k="addr:postcode" v="PE14 0SL"/>
    <tag k="addr:street" v="Cromwell Road"/>
    <tag k="brand" v="Shoe Zone"/>
    <tag k="brand:wikidata" v="Q7500016"/>
    <tag k="building" v="retail"/>
    <tag k="name" v="Shoe Zone"/>
    <tag k="opening_hours" v="Mo-Sa 09:00-18:30; Su 10:00-16:00"/>
    <tag k="phone" v="+44 1945583603"/>
    <tag k="shop" v="shoes"/>
  </way>
  <way id="534175678" version="5" timestamp="2024-03-07T19:35:19Z" changeset="148357275" uid="213831" user="Josef73">
    <nd ref="5181066566"/>
    <nd ref="5181066564"/>
    <nd ref="5181066563"/>
    <nd ref="5181066565"/>
    <nd ref="5181066566"/>
    <tag k="addr:city" v="Wisbech"/>
    <tag k="addr:housenumber" v="Unit 6"/>
    <tag k="addr:postcode" v="PE14 0SL"/>
    <tag k="addr:street" v="Cromwell Road"/>
    <tag k="building" v="yes"/>
    <tag k="disused:shop" v="yes"/>
    <tag k="email" v="wisbechshop@norfolkhospice.org.uk"/>
    <tag k="name" v="Tapping House Charity Shop"/>
    <tag k="opening_hours" v="Mo-Sa 09:00-17:30; Su 10:00-16:00"/>
    <tag k="operator" v="The Norfolk Hospice"/>
    <tag k="phone" v="+44 1945 580177"/>
    <tag k="shop" v="charity"/>
    <tag k="website" v="https://www.norfolkhospice.org.uk/faqs/wisbech-cromwell-road"/>
  </way>
  <way id="561641510" version="2" timestamp="2018-02-16T01:20:35Z" changeset="56400967" uid="2400834" user="Gyrwa">
    <nd ref="5415389521"/>
    <nd ref="5415388118"/>
    <nd ref="5415389523"/>
    <nd ref="5415389528"/>
    <nd ref="5415388119"/>
    <nd ref="5415388120"/>
    <nd ref="5415389521"/>
    <tag k="addr:city" v="Wisbech"/>
    <tag k="addr:housenumber" v="13a"/>
    <tag k="addr:postcode" v="PE13 1NP"/>
    <tag k="addr:street" v="North Street"/>
    <tag k="amenity" v="restaurant"/>
    <tag k="building" v="commercial"/>
    <tag k="cuisine" v="indian"/>
    <tag k="name" v="The Moghul"/>
    <tag k="source" v="survey"/>
    <tag k="website" v="http://themoghulwisbech.co.uk"/>
  </way>
  <way id="561641514" version="3" timestamp="2023-06-17T19:39:48Z" changeset="137459219" uid="12507004" user="Linfindel">
    <nd ref="5415389545"/>
    <nd ref="5415389534"/>
    <nd ref="5415389542"/>
    <nd ref="5415389538"/>
    <nd ref="5415389536"/>
    <nd ref="5415389537"/>
    <nd ref="5415389535"/>
    <nd ref="5415389545"/>
    <tag k="addr:city" v="Wisbech"/>
    <tag k="addr:housenumber" v="9"/>
    <tag k="addr:postcode" v="PE13 1NP"/>
    <tag k="addr:street" v="North Street"/>
    <tag k="building" v="retail"/>
    <tag k="name" v="D &amp; S News Wines &amp; Food Store"/>
    <tag k="shop" v="convenience"/>
  </way>
  <way id="566833657" version="5" timestamp="2024-06-30T12:31:27Z" changeset="153367231" uid="95856" user="john paul jones &amp; gringo">
    <nd ref="5457960855"/>
    <nd ref="565568871"/>
    <nd ref="5457960854"/>
    <nd ref="5457960844"/>
    <nd ref="5457960858"/>
    <nd ref="5457960856"/>
    <nd ref="5457960857"/>
    <nd ref="5457960853"/>
    <nd ref="5457960852"/>
    <nd ref="5457960851"/>
    <nd ref="5457960855"/>
    <tag k="addr:city" v="Wisbech"/>
    <tag k="addr:country" v="GB"/>
    <tag k="addr:housenumber" v="5"/>
    <tag k="addr:postcode" v="PE13 3QR"/>
    <tag k="addr:street" v="Kirkgate Street"/>
    <tag k="brand" v="Tesco Express"/>
    <tag k="brand:wikidata" v="Q98456772"/>
    <tag k="building" v="retail"/>
    <tag k="contact:website" v="https://www.tesco.com/store-locator/wisbech/5-kirkgate-street"/>
    <tag k="fhrs:id" v="1216146"/>
    <tag k="name" v="Tesco Express"/>
    <tag k="shop" v="convenience"/>
    <tag k="source" v="DigitalGlobe Standard Imagery"/>
  </way>
  <way id="680174420" version="1" timestamp="2019-03-28T19:15:45Z" changeset="68640139" uid="2400834" user="Gyrwa">
    <nd ref="6368634038"/>
    <nd ref="6368634057"/>
    <nd ref="6368634056"/>
    <nd ref="6368634055"/>
    <nd ref="6368634037"/>
    <nd ref="6368634038"/>
    <tag k="addr:city" v="Wisbech"/>
    <tag k="addr:housenumber" v="7"/>
    <tag k="addr:postcode" v="PE13 3LJ"/>
    <tag k="addr:street" v="Edinburgh Drive"/>
    <tag k="amenity" v="fast_food"/>
    <tag k="building" v="retail"/>
    <tag k="building:levels" v="1"/>
    <tag k="cuisine" v="chinese"/>
    <tag k="name" v="Yummy Yummy"/>
    <tag k="source" v="survey"/>
  </way>
  <way id="680235109" version="3" timestamp="2023-03-25T17:10:13Z" changeset="134111519" uid="84263" user="Robert Whittaker">
    <nd ref="6369183577"/>
    <nd ref="6369183578"/>
    <nd ref="6369183576"/>
    <nd ref="9402586312"/>
    <nd ref="6369183577"/>
    <tag k="addr:housenumber" v="18"/>
    <tag k="addr:street" v="Market Place"/>
    <tag k="brand" v="Timpson"/>
    <tag k="brand:wikidata" v="Q7807658"/>
    <tag k="building" v="retail"/>
    <tag k="building:levels" v="2"/>
    <tag k="name" v="Timpson"/>
    <tag k="roof:shape" v="flat"/>
    <tag k="shop" v="key_cutting;shoe_repair"/>
  </way>
  <way id="1018570456" version="1" timestamp="2022-01-05T17:21:45Z" changeset="115806060" uid="13349295" user="ijw38">
    <nd ref="9394854898"/>
    <nd ref="9394854899"/>
    <nd ref="9394854900"/>
    <nd ref="9394854901"/>
    <nd ref="9394854902"/>
    <nd ref="9394854903"/>
    <nd ref="9394854898"/>
    <tag k="addr:city" v="Wisbech"/>
    <tag k="addr:housenumber" v="35"/>
    <tag k="addr:street" v="Mansell Road"/>
    <tag k="building" v="house"/>
    <tag k="building:levels" v="2"/>
    <tag k="name" v="35 Mansell Road"/>
  </way>
  <way id="1019268649" version="2" timestamp="2022-01-09T00:40:47Z" changeset="115928221" uid="2400834" user="Gyrwa">
    <nd ref="9401108819"/>
    <nd ref="9401067216"/>
    <nd ref="4018848602"/>
    <nd ref="9401108818"/>
    <nd ref="9401108819"/>
    <tag k="addr:city" v="Wisbech"/>
    <tag k="addr:postcode" v="PE13 1DJ"/>
    <tag k="addr:street" v="New Inn Yard"/>
    <tag k="amenity" v="restaurant"/>
    <tag k="building" v="yes"/>
    <tag k="building:levels" v="2"/>
    <tag k="name" v="Coyote Bar &amp; Diner"/>
  </way>
  <way id="1019268650" version="2" timestamp="2022-01-08T16:18:56Z" changeset="115915794" uid="2400834" user="Gyrwa">
    <nd ref="9402756367"/>
    <nd ref="4813435203"/>
    <nd ref="4072521505"/>
    <nd ref="4084092867"/>
    <nd ref="9402756376"/>
    <nd ref="9402756366"/>
    <nd ref="9402756367"/>
    <tag k="addr:city" v="Wisbech"/>
    <tag k="addr:housenumber" v="34"/>
    <tag k="addr:postcode" v="PE13 1BD"/>
    <tag k="addr:street" v="Hill Street"/>
    <tag k="building" v="yes"/>
    <tag k="building:levels" v="2"/>
    <tag k="name" v="The Floral Centre"/>
    <tag k="shop" v="florist"/>
    <tag k="website" v="https://www.floralcentre.co.uk/"/>
  </way>
  <way id="1019268651" version="2" timestamp="2022-01-08T16:18:56Z" changeset="115915794" uid="2400834" user="Gyrwa">
    <nd ref="9402756369"/>
    <nd ref="9402756392"/>
    <nd ref="9402756396"/>
    <nd ref="9402756368"/>
    <nd ref="9402756369"/>
    <tag k="addr:city" v="Wisbech"/>
    <tag k="addr:housenumber" v="32"/>
    <tag k="addr:postcode" v="PE13 1BD"/>
    <tag k="addr:street" v="Hill Street"/>
    <tag k="building" v="yes"/>
    <tag k="building:levels" v="3"/>
    <tag k="male" v="yes"/>
    <tag k="name" v="Clippers"/>
    <tag k="shop" v="hairdresser"/>
  </way>
  <way id="1019268652" version="2" timestamp="2022-01-08T16:18:56Z" changeset="115915794" uid="2400834" user="Gyrwa">
    <nd ref="9402756366"/>
    <nd ref="9402756373"/>
    <nd ref="9402756396"/>
    <nd ref="9402756392"/>
    <nd ref="9402756367"/>
    <nd ref="9402756366"/>
    <tag k="addr:city" v="Wisbech"/>
    <tag k="addr:housenumber" v="33"/>
    <tag k="addr:postcode" v="PE13 1BD"/>
    <tag k="addr:street" v="Hill Street"/>
    <tag k="building" v="yes"/>
    <tag k="building:levels" v="2"/>
    <tag k="name" v="Brewers"/>
    <tag k="shop" v="greengrocer"/>
  </way>
  <way id="1019268653" version="2" timestamp="2022-01-09T00:40:47Z" changeset="115928221" uid="2400834" user="Gyrwa">
    <nd ref="9401108827"/>
    <nd ref="9403887918"/>
    <nd ref="9403887967"/>
    <nd ref="9403887949"/>
    <nd ref="4018848609"/>
    <nd ref="4018848604"/>
    <nd ref="9401108826"/>
    <nd ref="9403887922"/>
    <nd ref="9403887964"/>
    <nd ref="9401108827"/>
    <tag k="addr:city" v="Wisbech"/>
    <tag k="addr:street" v="Union Street"/>
    <tag k="building" v="yes"/>
    <tag k="building:levels" v="3"/>
    <tag k="name" v="The Lash &amp; Beaty Lounge"/>
    <tag k="shop" v="beauty"/>
  </way>

</osm>
