<?xml version="1.0" encoding="UTF-8"?>
<osm version="0.6" generator="Overpass API 0.7.62.4 2390de5a">
<note>The data included in this document is from www.openstreetmap.org. The data is made available under ODbL.</note>
<meta osm_base="2025-01-23T15:17:54Z" areas="2024-12-31T00:49:33Z"/>

  <way id="49977656" version="5" timestamp="2024-06-20T19:48:24Z" changeset="152963881" uid="95856" user="john paul jones &amp; gringo">
    <nd ref="634899111"/>
    <nd ref="4123489577"/>
    <nd ref="634899133"/>
    <nd ref="634899132"/>
    <nd ref="9967859317"/>
    <nd ref="4123489808"/>
    <nd ref="9967835313"/>
    <nd ref="9967835312"/>
    <nd ref="634899117"/>
    <nd ref="9967835311"/>
    <nd ref="4123489562"/>
    <nd ref="4123489565"/>
    <nd ref="634899111"/>
    <tag k="addr:city" v="Wisbech"/>
    <tag k="addr:country" v="GB"/>
    <tag k="addr:postcode" v="PE13 4RY"/>
    <tag k="addr:street" v="Station Road"/>
    <tag k="addr:suburb" v="Wisbech St Mary"/>
    <tag k="description" v="Wholesale of flowers and plants"/>
    <tag k="landuse" v="greenhouse_horticulture"/>
    <tag k="name" v="Delamore Nursery"/>
    <tag k="operator" v="Volmary"/>
    <tag k="phone" v="+44 1945 410411"/>
  </way>
  <way id="411673165" version="3" timestamp="2024-07-11T20:56:21Z" changeset="153829662" uid="493595" user="Yorvik Prestigitator">
    <nd ref="4132957705"/>
    <nd ref="4132957707"/>
    <nd ref="11608619569"/>
    <nd ref="4132957708"/>
    <nd ref="4132957706"/>
    <nd ref="4132957705"/>
    <tag k="addr:street" v="Beechings Close"/>
    <tag k="alt_name" v="Wisbech St Mary Sports &amp; Community Centre"/>
    <tag k="amenity" v="community_centre"/>
    <tag k="building" v="public"/>
    <tag k="community_centre" v="village_hall"/>
    <tag k="name" v="Wisbech St Mary Village Hall"/>
  </way>
  <way id="771070160" version="3" timestamp="2024-06-20T19:43:27Z" changeset="152963704" uid="95856" user="john paul jones &amp; gringo">
    <nd ref="634898226"/>
    <nd ref="5064692909"/>
    <nd ref="5064692908"/>
    <nd ref="7197843599"/>
    <nd ref="7197803483"/>
    <nd ref="7197803482"/>
    <nd ref="634898226"/>
    <tag k="addr:city" v="Wisbech"/>
    <tag k="addr:country" v="GB"/>
    <tag k="addr:postcode" v="PE13 4AA"/>
    <tag k="addr:street" v="Fen Road"/>
    <tag k="addr:suburb" v="Guyhirn"/>
    <tag k="amenity" v="fuel"/>
    <tag k="brand" v="Shell"/>
    <tag k="brand:wikidata" v="Q110716465"/>
    <tag k="brand:wikipedia" v="en:Royal Dutch Shell"/>
    <tag k="landuse" v="commercial"/>
    <tag k="name" v="Shell"/>
    <tag k="opening_hours" v="24/7"/>
    <tag k="phone" v="+44 1945 450222"/>
    <tag k="ref:navads" v="NVDS353_10019755"/>
    <tag k="source" v="Bing"/>
    <tag k="website" v="https://find.shell.com/gb/fuel/10019755-auto-pitstop"/>
  </way>
  <way id="1087920471" version="3" timestamp="2024-07-11T20:56:21Z" changeset="153829662" uid="493595" user="Yorvik Prestigitator">
    <nd ref="9967876113"/>
    <nd ref="9967876527"/>
    <nd ref="9967876526"/>
    <nd ref="9967876114"/>
    <nd ref="9967876115"/>
    <nd ref="9967876116"/>
    <nd ref="12048044726"/>
    <nd ref="9967876517"/>
    <nd ref="9967876518"/>
    <nd ref="9967876519"/>
    <nd ref="9967876113"/>
    <tag k="addr:city" v="Wisbech"/>
    <tag k="addr:country" v="GB"/>
    <tag k="addr:postcode" v="PE13 4RY"/>
    <tag k="addr:street" v="Station Road"/>
    <tag k="addr:suburb" v="Wisbech St Mary"/>
    <tag k="description" v="Fens Falconry is an appointment only bird of prey centre delivering exciting experience days and vitally important education to promote ecology and conservation."/>
    <tag k="email" v="info@fensfalconry.co.uk"/>
    <tag k="landuse" v="commercial"/>
    <tag k="name" v="Fens Falconry"/>
    <tag k="phone" v="+44 1945 419 086"/>
    <tag k="website" v="https://www.fensfalconry.co.uk/"/>
  </way>
  <way id="1297792914" version="1" timestamp="2024-06-30T23:37:11Z" changeset="153388988" uid="493595" user="Yorvik Prestigitator">
    <nd ref="12023825404"/>
    <nd ref="12023825405"/>
    <nd ref="12023825406"/>
    <nd ref="12023825407"/>
    <nd ref="12023825408"/>
    <nd ref="12023825409"/>
    <nd ref="634898176"/>
    <nd ref="12023825404"/>
    <tag k="addr:city" v="Murrow"/>
    <tag k="addr:street" v="Murrow Bank"/>
    <tag k="amenity" v="community_centre"/>
    <tag k="building" v="public"/>
    <tag k="community_centre" v="village_hall"/>
    <tag k="name" v="Murrow Village Hall"/>
  </way>

</osm>
