<?xml version="1.0" encoding="UTF-8"?>
<osm version="0.6" generator="Overpass API 0.7.62.4 2390de5a">
<note>The data included in this document is from www.openstreetmap.org. The data is made available under ODbL.</note>
<meta osm_base="2024-11-27T17:20:09Z" areas="2024-11-27T16:03:35Z"/>

  <way id="137621509" version="4" timestamp="2021-03-08T13:11:18Z" changeset="100640337" uid="5173844" user="ndrw6">
    <nd ref="1509376806"/>
    <nd ref="1509376907"/>
    <nd ref="1509376833"/>
    <nd ref="1509376602"/>
    <nd ref="1509376830"/>
    <nd ref="1509376799"/>
    <nd ref="1509376765"/>
    <nd ref="8496972892"/>
    <nd ref="8496972891"/>
    <nd ref="8496972889"/>
    <nd ref="8496972888"/>
    <nd ref="8496972890"/>
    <nd ref="1509376723"/>
    <nd ref="1509376674"/>
    <nd ref="1509376818"/>
    <nd ref="1509376564"/>
    <nd ref="1509376550"/>
    <nd ref="1509376857"/>
    <nd ref="1509376714"/>
    <nd ref="1509376728"/>
    <nd ref="1509376725"/>
    <nd ref="1509376895"/>
    <nd ref="1509376849"/>
    <nd ref="1509376678"/>
    <nd ref="1509376779"/>
    <nd ref="1509376713"/>
    <nd ref="1509376647"/>
    <nd ref="1509376610"/>
    <nd ref="1509376831"/>
    <nd ref="1509376641"/>
    <nd ref="1509376743"/>
    <nd ref="1509376637"/>
    <nd ref="1509376717"/>
    <nd ref="1509376658"/>
    <nd ref="1509376747"/>
    <nd ref="1509376686"/>
    <nd ref="1509376630"/>
    <nd ref="1509376703"/>
    <nd ref="1509376670"/>
    <nd ref="1509376768"/>
    <nd ref="1509376903"/>
    <nd ref="1509376695"/>
    <nd ref="1509376859"/>
    <nd ref="8496972887"/>
    <nd ref="8496972886"/>
    <nd ref="8496972885"/>
    <nd ref="8496972884"/>
    <nd ref="8496972879"/>
    <nd ref="8496972878"/>
    <nd ref="1509376652"/>
    <nd ref="8496972880"/>
    <nd ref="8496972881"/>
    <nd ref="8496972882"/>
    <nd ref="8496972883"/>
    <nd ref="1509376806"/>
    <tag k="addr:place" v="Swavesey"/>
    <tag k="addr:postcode" v="CB24 4RN"/>
    <tag k="addr:street" v="Middle Watch"/>
    <tag k="building" v="school"/>
    <tag k="fhrs:id" v="915811"/>
    <tag k="name" v="Swavesey Primary School"/>
  </way>
  <way id="210409778" version="7" timestamp="2019-03-31T19:38:41Z" changeset="68733786" uid="669183" user="Andy_W">
    <nd ref="2204806589"/>
    <nd ref="2204806591"/>
    <nd ref="2204806590"/>
    <nd ref="2204807678"/>
    <nd ref="6374525256"/>
    <nd ref="6374525255"/>
    <nd ref="2204806589"/>
    <tag k="addr:housenumber" v="58"/>
    <tag k="addr:postcode" v="CB24 4RA"/>
    <tag k="addr:street" v="Boxworth End"/>
    <tag k="amenity" v="doctors"/>
    <tag k="building" v="yes"/>
    <tag k="dispensing" v="yes"/>
    <tag k="name" v="Swavesey Surgery"/>
    <tag k="website" v="https://www.nhs.uk/ServiceDirectories/Pages/GP.aspx?pid=796AEDE4-6791-44E4-83E0-5F4D035792C2"/>
  </way>
  <way id="417560087" version="2" timestamp="2024-11-03T18:47:34Z" changeset="158712230" uid="4910264" user="Black Tusk">
    <nd ref="4180934102"/>
    <nd ref="4180934101"/>
    <nd ref="4180933771"/>
    <nd ref="4180933787"/>
    <nd ref="4180934102"/>
    <tag k="addr:city" v="Swavesey"/>
    <tag k="addr:housenumber" v="2"/>
    <tag k="addr:postcode" v="CB24 4UG"/>
    <tag k="addr:street" v="Rowles Way"/>
    <tag k="building" v="garage"/>
    <tag k="name" v="Whippet Coaches"/>
  </way>
  <way id="417560130" version="5" timestamp="2021-01-12T12:39:47Z" changeset="97374310" uid="12264982" user="Aleg Surta">
    <nd ref="4180933253"/>
    <nd ref="4180933260"/>
    <nd ref="4180933281"/>
    <nd ref="4180933269"/>
    <nd ref="8314989061"/>
    <nd ref="4180933240"/>
    <nd ref="4180933253"/>
    <tag k="addr:city" v="Cambridge"/>
    <tag k="addr:housename" v="AIXTRON Ltd."/>
    <tag k="addr:postcode" v="CB24 4FQ"/>
    <tag k="addr:street" v="Anderson Road"/>
    <tag k="addr:village" v="Swavesey"/>
    <tag k="building" v="industrial"/>
    <tag k="height" v="9"/>
    <tag k="name" v="AIXTRON Ltd."/>
  </way>
  <way id="417560160" version="4" timestamp="2022-01-07T16:53:16Z" changeset="115884397" uid="2221355" user="the jim">
    <nd ref="4180934092"/>
    <nd ref="4180933788"/>
    <nd ref="4180933778"/>
    <nd ref="4180933785"/>
    <nd ref="4180933774"/>
    <nd ref="4180933779"/>
    <nd ref="4180933783"/>
    <nd ref="4180934092"/>
    <tag k="addr:city" v="Swavesey"/>
    <tag k="addr:housename" v="Progress House,"/>
    <tag k="addr:postcode" v="CB24 4UG"/>
    <tag k="addr:street" v="Rowles Way"/>
    <tag k="building" v="yes"/>
    <tag k="building:levels" v="2"/>
    <tag k="name" v="Cordic Ltd."/>
  </way>
  <way id="477382783" version="9" timestamp="2024-07-03T19:10:58Z" changeset="153516118" uid="116410" user="Leonardozwei">
    <nd ref="4707480353"/>
    <nd ref="4707480378"/>
    <nd ref="8402437252"/>
    <nd ref="5579287488"/>
    <nd ref="4707480356"/>
    <nd ref="4707480338"/>
    <nd ref="5579287487"/>
    <nd ref="8402437251"/>
    <nd ref="5579287486"/>
    <nd ref="4707480439"/>
    <nd ref="4707480427"/>
    <nd ref="4707480392"/>
    <nd ref="4707480353"/>
    <tag k="addr:city" v="Swavesey"/>
    <tag k="addr:housenumber" v="1"/>
    <tag k="addr:postcode" v="CB24 4QG"/>
    <tag k="addr:street" v="Market Street"/>
    <tag k="amenity" v="pub"/>
    <tag k="building" v="yes"/>
    <tag k="fhrs:id" v="596244"/>
    <tag k="name" v="White Horse Inn"/>
    <tag k="opening_hours" v="Mo-Th 12:00-23:00; Fr-Sa 12:00-24:00; Su 12:00-22:00"/>
    <tag k="outdoor_seating" v="no"/>
    <tag k="wikidata" v="Q26616264"/>
  </way>
  <way id="500390206" version="6" timestamp="2021-10-29T16:56:21Z" changeset="113133233" uid="5173844" user="ndrw6">
    <nd ref="9210462154"/>
    <nd ref="4914559254"/>
    <nd ref="4914559267"/>
    <nd ref="4914559284"/>
    <nd ref="4914559270"/>
    <nd ref="4914559277"/>
    <nd ref="4914559269"/>
    <nd ref="4914559283"/>
    <nd ref="4914559280"/>
    <nd ref="4914559265"/>
    <nd ref="4914559282"/>
    <nd ref="4914559276"/>
    <nd ref="4914559262"/>
    <nd ref="4914559258"/>
    <nd ref="4914559279"/>
    <nd ref="4914559285"/>
    <nd ref="4914559257"/>
    <nd ref="4914559256"/>
    <nd ref="4914559273"/>
    <nd ref="4914559266"/>
    <nd ref="4914559274"/>
    <nd ref="4914559275"/>
    <nd ref="4914559268"/>
    <nd ref="4914559281"/>
    <nd ref="4914559255"/>
    <nd ref="4914559253"/>
    <nd ref="4914559260"/>
    <nd ref="4914559271"/>
    <nd ref="4914559259"/>
    <nd ref="4914559249"/>
    <nd ref="4914559252"/>
    <nd ref="4914559272"/>
    <nd ref="9210462159"/>
    <nd ref="9210462153"/>
    <nd ref="9210462155"/>
    <nd ref="9210462156"/>
    <nd ref="9210462158"/>
    <nd ref="9210462157"/>
    <nd ref="9210462154"/>
    <tag k="addr:postcode" v="CB24 4RS"/>
    <tag k="addr:street" v="Gibraltar Lane"/>
    <tag k="building" v="school"/>
    <tag k="fhrs:id" v="96243"/>
    <tag k="name" v="Swavesey Village College"/>
  </way>
  <way id="520288091" version="3" timestamp="2024-07-06T19:29:06Z" changeset="153636914" uid="116410" user="Leonardozwei">
    <nd ref="5071359501"/>
    <nd ref="5071359445"/>
    <nd ref="5071359465"/>
    <nd ref="5071359489"/>
    <nd ref="10958446812"/>
    <nd ref="10958446811"/>
    <nd ref="5071359501"/>
    <tag k="addr:housename" v="The Grange"/>
    <tag k="addr:housenumber" v="20"/>
    <tag k="addr:postcode" v="CB24 4QG"/>
    <tag k="addr:street" v="Market Street"/>
    <tag k="building" v="yes"/>
    <tag k="name" v="The Grange"/>
  </way>
  <way id="551745136" version="4" timestamp="2019-01-07T12:57:52Z" changeset="66095737" uid="669183" user="Andy_W">
    <nd ref="5328236719"/>
    <nd ref="5328236712"/>
    <nd ref="130255529"/>
    <nd ref="5328236717"/>
    <nd ref="5328236716"/>
    <nd ref="5328236719"/>
    <tag k="addr:postcode" v="CB24 4RP"/>
    <tag k="addr:street" v="Middle Watch"/>
    <tag k="amenity" v="place_of_worship"/>
    <tag k="amenity_1" v="cafe"/>
    <tag k="building" v="church"/>
    <tag k="denomination" v="baptist"/>
    <tag k="fhrs:id" v="597236"/>
    <tag k="name" v="Bethel Baptist Chapel"/>
    <tag k="name_1" v="Compass Cafe"/>
    <tag k="religion" v="christian"/>
    <tag k="source:name" v="dictaphone"/>
  </way>
  <way id="583584067" version="2" timestamp="2023-06-05T22:07:36Z" changeset="136990922" uid="3999" user="BarryMyles">
    <nd ref="5579287109"/>
    <nd ref="5579287110"/>
    <nd ref="5579287111"/>
    <nd ref="5579287112"/>
    <nd ref="5579287113"/>
    <nd ref="5579287114"/>
    <nd ref="5579287109"/>
    <tag k="addr:city" v="Cambridge"/>
    <tag k="addr:postcode" v="CB24 4QY"/>
    <tag k="addr:street" v="Wallman's Lane"/>
    <tag k="addr:village" v="Swavesey"/>
    <tag k="building" v="yes"/>
    <tag k="name" v="Swavesey Telephone Exchange"/>
    <tag k="operator" v="Openreach"/>
    <tag k="operator:wikidata" v="Q7096543"/>
    <tag k="ref" v="EASWV"/>
    <tag k="telecom" v="exchange"/>
  </way>
  <way id="584043202" version="5" timestamp="2022-07-30T15:20:40Z" changeset="124272347" uid="1102246" user="jtn20">
    <nd ref="5583386492"/>
    <nd ref="5583386493"/>
    <nd ref="5583386488"/>
    <nd ref="5583386489"/>
    <nd ref="7620682278"/>
    <nd ref="5583386492"/>
    <tag k="addr:housenumber" v="80"/>
    <tag k="addr:postcode" v="CB24 4RW"/>
    <tag k="addr:street" v="Middle Watch"/>
    <tag k="brand" v="Londis"/>
    <tag k="brand:wikidata" v="Q21008564"/>
    <tag k="building" v="house"/>
    <tag k="fhrs:id" v="669879"/>
    <tag k="name" v="Londis"/>
    <tag k="opening_hours" v="Mo-Sa 07:00-21:00; Su 08:00-21:00"/>
    <tag k="shop" v="convenience"/>
  </way>
  <way id="661148761" version="5" timestamp="2024-07-10T17:16:06Z" changeset="153793667" uid="116410" user="Leonardozwei">
    <nd ref="6189803299"/>
    <nd ref="6189803300"/>
    <nd ref="6189803301"/>
    <nd ref="6189803302"/>
    <nd ref="6189803299"/>
    <tag k="addr:city" v="Swavesey"/>
    <tag k="addr:housenumber" v="3"/>
    <tag k="addr:postcode" v="CB24 4QG"/>
    <tag k="addr:street" v="Market Street"/>
    <tag k="building" v="yes"/>
    <tag k="fhrs:id" v="596273"/>
    <tag k="name" v="Swavesey Newsagents"/>
    <tag k="opening_hours" v="Mo-Fr 06:30-19:00; Sa 07:00-19:00; PH closed; Su 07:30-12:00"/>
    <tag k="shop" v="convenience"/>
    <tag k="wheelchair" v="limited"/>
  </way>
  <way id="904766794" version="4" timestamp="2024-07-10T17:16:06Z" changeset="153793667" uid="116410" user="Leonardozwei">
    <nd ref="6189803300"/>
    <nd ref="8402437253"/>
    <nd ref="8402437254"/>
    <nd ref="6189803299"/>
    <nd ref="6189803300"/>
    <tag k="addr:city" v="Swavesey"/>
    <tag k="addr:housenumber" v="5"/>
    <tag k="addr:postcode" v="CB24 4QG"/>
    <tag k="addr:street" v="Market Street"/>
    <tag k="amenity" v="cafe"/>
    <tag k="building" v="yes"/>
    <tag k="cuisine" v="coffee_shop"/>
    <tag k="fhrs:id" v="1099060"/>
    <tag k="indoor_seating" v="yes"/>
    <tag k="name" v="The Nook"/>
    <tag k="opening_hours" v="Mo-Su 09:30-14:00"/>
    <tag k="outdoor_seating" v="yes"/>
    <tag k="takeaway" v="yes"/>
    <tag k="toilets" v="no"/>
    <tag k="wheelchair" v="no"/>
  </way>
  <way id="1239909133" version="2" timestamp="2024-07-03T19:10:58Z" changeset="153516118" uid="116410" user="Leonardozwei">
    <nd ref="4707480336"/>
    <nd ref="11519230507"/>
    <nd ref="11519230510"/>
    <nd ref="11519230511"/>
    <nd ref="11519230508"/>
    <nd ref="11519230509"/>
    <nd ref="4707480336"/>
    <tag k="addr:housenumber" v="7"/>
    <tag k="addr:street" v="High Street"/>
    <tag k="building" v="yes"/>
    <tag k="name" v="The Old Bakehouse"/>
  </way>

</osm>
