<?xml version="1.0" encoding="UTF-8"?>
<osm version="0.6" generator="Overpass API 0.7.62.4 2390de5a">
<note>The data included in this document is from www.openstreetmap.org. The data is made available under ODbL.</note>
<meta osm_base="2025-01-20T02:58:14Z" areas="2024-12-31T00:49:33Z"/>

  <way id="232133840" version="7" timestamp="2024-01-27T15:36:19Z" changeset="146748969" uid="11022773" user="GeoFens">
    <nd ref="8811403680"/>
    <nd ref="2405028076"/>
    <nd ref="2405028307"/>
    <nd ref="2405028323"/>
    <nd ref="2405028033"/>
    <nd ref="2405028294"/>
    <nd ref="2405028303"/>
    <nd ref="2405028510"/>
    <nd ref="2405028262"/>
    <nd ref="2405028559"/>
    <nd ref="8811403681"/>
    <nd ref="8811403680"/>
    <tag k="addr:city" v="Chatteris"/>
    <tag k="addr:housenumber" v="2"/>
    <tag k="addr:postcode" v="PE16 6AE"/>
    <tag k="addr:street" v="Park Street"/>
    <tag k="building" v="yes"/>
    <tag k="name" v="Chatteris Museum"/>
    <tag k="old_name" v="Barclays Bank"/>
    <tag k="tourism" v="museum"/>
    <tag k="website" v="https://www.chatterismuseum.org.uk"/>
  </way>
  <way id="378287100" version="2" timestamp="2018-12-20T05:07:34Z" changeset="65630037" uid="5173844" user="ndrw6">
    <nd ref="3816879720"/>
    <nd ref="3816879721"/>
    <nd ref="3816879724"/>
    <nd ref="3816879725"/>
    <nd ref="3816879720"/>
    <tag k="addr:city" v="Chatteris"/>
    <tag k="addr:housename" v="Tudor Rose Ind Estate"/>
    <tag k="addr:housenumber" v="Units 1-2"/>
    <tag k="addr:postcode" v="PE16 6TY"/>
    <tag k="addr:street" v="Dock Road"/>
    <tag k="building" v="commercial"/>
    <tag k="name" v="Interlink Express"/>
  </way>
  <way id="594962168" version="4" timestamp="2023-11-02T15:26:22Z" changeset="143537855" uid="9451067" user="b-jazz-bot">
    <nd ref="5671899643"/>
    <nd ref="5671899644"/>
    <nd ref="5673193726"/>
    <nd ref="5673193725"/>
    <nd ref="5671899645"/>
    <nd ref="5671899646"/>
    <nd ref="5671899643"/>
    <tag k="addr:city" v="Chatteris"/>
    <tag k="addr:postcode" v="PE16 6NG"/>
    <tag k="addr:street" v="King Edward Road"/>
    <tag k="amenity" v="community_centre"/>
    <tag k="building" v="yes"/>
    <tag k="email" v="enquiries@chatterisconservativeclub.co.uk"/>
    <tag k="name" v="Chatteris Conservative Club"/>
    <tag k="phone" v="+44 1354 692 717"/>
    <tag k="website" v="https://chatterisconservativeclub.co.uk/"/>
  </way>
  <way id="594963346" version="4" timestamp="2020-08-13T12:00:03Z" changeset="89355532" uid="1302721" user="Glucosamine">
    <nd ref="5671906974"/>
    <nd ref="5673203245"/>
    <nd ref="5673203246"/>
    <nd ref="5671906975"/>
    <nd ref="5671906976"/>
    <nd ref="7809891038"/>
    <nd ref="5671906977"/>
    <nd ref="5671906974"/>
    <tag k="addr:city" v="Chatteris"/>
    <tag k="addr:postcode" v="PE16 6NG"/>
    <tag k="addr:street" v="King Edward Road"/>
    <tag k="amenity" v="community_centre"/>
    <tag k="building" v="yes"/>
    <tag k="name" v="King Edward Community Centre"/>
    <tag k="phone" v="+44 1 354 692658"/>
    <tag k="website" v="http://www.kingedwardcentre.org.uk/"/>
  </way>
  <way id="656404708" version="2" timestamp="2021-08-01T23:03:56Z" changeset="108989906" uid="11022773" user="GeoFens">
    <nd ref="6148998180"/>
    <nd ref="6148998179"/>
    <nd ref="6148998178"/>
    <nd ref="6148998177"/>
    <nd ref="6148998180"/>
    <tag k="addr:city" v="Chatteris"/>
    <tag k="addr:housenumber" v="14"/>
    <tag k="addr:postcode" v="PE16 6JA"/>
    <tag k="addr:street" v="Church Lane"/>
    <tag k="amenity" v="townhall"/>
    <tag k="building" v="yes"/>
    <tag k="name" v="Chatteris Town Council"/>
  </way>
  <way id="656405037" version="2" timestamp="2024-03-01T20:44:34Z" changeset="148111632" uid="11022773" user="GeoFens">
    <nd ref="6148999751"/>
    <nd ref="6148999750"/>
    <nd ref="6148999744"/>
    <nd ref="6148999745"/>
    <nd ref="6148999749"/>
    <nd ref="6148999747"/>
    <nd ref="6148999746"/>
    <nd ref="6148999748"/>
    <nd ref="6148999751"/>
    <tag k="addr:city" v="Chatteris"/>
    <tag k="addr:housenumber" v="16"/>
    <tag k="addr:postcode" v="PE16 6US"/>
    <tag k="addr:street" v="Albert Way"/>
    <tag k="building" v="yes"/>
    <tag k="man_made" v="works"/>
    <tag k="name" v="Suttons Performance Packaging"/>
    <tag k="product" v="packaging"/>
    <tag k="website" v="https://www.suttonspp.com"/>
  </way>
  <way id="685011760" version="4" timestamp="2023-10-31T21:00:15Z" changeset="143442649" uid="1418967" user="RAC_UK">
    <nd ref="6418514627"/>
    <nd ref="8811403654"/>
    <nd ref="8811403653"/>
    <nd ref="6418514626"/>
    <nd ref="6418514625"/>
    <nd ref="6418514624"/>
    <nd ref="6418514627"/>
    <tag k="addr:city" v="Chatteris"/>
    <tag k="addr:country" v="GB"/>
    <tag k="addr:postcode" v="PE16 6LD"/>
    <tag k="addr:street" v="East Park Street"/>
    <tag k="amenity" v="place_of_worship"/>
    <tag k="building" v="yes"/>
    <tag k="denomination" v="salvation_army"/>
    <tag k="email" v="chatteris@salvationarmy.org.uk"/>
    <tag k="name" v="Chatteris Salvation Army"/>
    <tag k="phone" v="+44 1354 695555"/>
    <tag k="religion" v="christian"/>
    <tag k="website" v="https://www.salvationarmy.org.uk/chatteris"/>
  </way>
  <way id="821400912" version="1" timestamp="2020-06-30T10:05:25Z" changeset="87342130" uid="8384915" user="Cryptik">
    <nd ref="7669311565"/>
    <nd ref="7669311566"/>
    <nd ref="7669311567"/>
    <nd ref="7669311568"/>
    <nd ref="7669311565"/>
    <tag k="addr:city" v="Chatteris"/>
    <tag k="addr:housenumber" v="18"/>
    <tag k="addr:postcode" v="PE16 6TZ"/>
    <tag k="addr:street" v="Prospect Way"/>
    <tag k="building" v="commercial"/>
    <tag k="name" v="Upchurch Vehicle Services"/>
  </way>
  <way id="821400931" version="2" timestamp="2024-03-03T16:36:13Z" changeset="148173501" uid="11022773" user="GeoFens">
    <nd ref="7669359558"/>
    <nd ref="7669359559"/>
    <nd ref="7669359560"/>
    <nd ref="7669359561"/>
    <nd ref="7669359558"/>
    <tag k="addr:city" v="Chatteris"/>
    <tag k="addr:street" v="Bridge Street"/>
    <tag k="building" v="yes"/>
    <tag k="name" v="ALS Food and Pharmaceutical"/>
  </way>
  <way id="928235618" version="3" timestamp="2024-08-17T17:47:59Z" changeset="155383136" uid="11022773" user="GeoFens">
    <nd ref="8610722953"/>
    <nd ref="12117287411"/>
    <nd ref="12117287412"/>
    <nd ref="12117287414"/>
    <nd ref="12117287413"/>
    <nd ref="8610722952"/>
    <nd ref="8610722951"/>
    <nd ref="10591627763"/>
    <nd ref="10591627764"/>
    <nd ref="10591627765"/>
    <nd ref="10591627762"/>
    <nd ref="8610722950"/>
    <nd ref="8610722953"/>
    <tag k="addr:city" v="Chatteris"/>
    <tag k="addr:housenumber" v="134"/>
    <tag k="addr:street" v="London Road"/>
    <tag k="building" v="yes"/>
    <tag k="name" v="Seasons Garden Centre Chatteris"/>
    <tag k="operator" v="Seasons"/>
    <tag k="phone" v="+44 1354 572187"/>
    <tag k="shop" v="garden_centre"/>
    <tag k="website" v="http://www.seasonsgardencentre.co.uk/chatteris.html"/>
  </way>
  <way id="951973932" version="3" timestamp="2022-10-28T19:16:02Z" changeset="128188221" uid="13666626" user="RedAuburn">
    <nd ref="8811403438"/>
    <nd ref="8811403439"/>
    <nd ref="8811403443"/>
    <nd ref="8811403440"/>
    <nd ref="8811403441"/>
    <nd ref="8811403442"/>
    <nd ref="8811403444"/>
    <nd ref="8811403445"/>
    <nd ref="8811403446"/>
    <nd ref="667142955"/>
    <nd ref="6148998581"/>
    <nd ref="8811403438"/>
    <tag k="addr:city" v="Chatteris"/>
    <tag k="addr:housenumber" v="15"/>
    <tag k="addr:postcode" v="PE16 6AA"/>
    <tag k="addr:street" v="Park Street"/>
    <tag k="amenity" v="post_depot"/>
    <tag k="building" v="yes"/>
    <tag k="name" v="Chatteris Delivery Office"/>
    <tag k="operator" v="Royal Mail"/>
    <tag k="operator:type" v="private"/>
    <tag k="operator:wikidata" v="Q638098"/>
  </way>

</osm>
