<?xml version="1.0" encoding="UTF-8"?>
<osm version="0.6" generator="Overpass API 0.7.62.4 2390de5a">
<note>The data included in this document is from www.openstreetmap.org. The data is made available under ODbL.</note>
<meta osm_base="2025-01-23T15:23:53Z" areas="2024-12-31T00:49:33Z"/>

  <node id="1501274166" lat="52.5781952" lon="-0.4132855" version="3" timestamp="2024-08-10T20:46:21Z" changeset="155078108" uid="95856" user="john paul jones &amp; gringo">
    <tag k="addr:city" v="Peterborough"/>
    <tag k="addr:country" v="GB"/>
    <tag k="addr:housenumber" v="26"/>
    <tag k="addr:postcode" v="PE8 6JE"/>
    <tag k="addr:street" v="London Road"/>
    <tag k="addr:suburb" v="Wansford"/>
    <tag k="amenity" v="restaurant"/>
    <tag k="name" v="Fiddlesticks"/>
  </node>
  <node id="6822436075" lat="52.5700072" lon="-0.4023912" version="5" timestamp="2024-03-30T23:29:49Z" changeset="149371903" uid="95856" user="john paul jones &amp; gringo">
    <tag k="addr:city" v="Peterborough"/>
    <tag k="addr:postcode" v="PE8 6LW"/>
    <tag k="addr:street" v="New Lane"/>
    <tag k="addr:suburb" v="Stibbington"/>
    <tag k="man_made" v="works"/>
    <tag k="name" v="Bradshaw Electrical Vehicle"/>
    <tag k="phone" v="+44 1780 782621"/>
    <tag k="product" v="electric_vehicle"/>
    <tag k="website" v="https://www.bradshawev.com/"/>
  </node>
  <node id="8592951561" lat="52.5773608" lon="-0.4130468" version="3" timestamp="2024-08-10T20:46:21Z" changeset="155078108" uid="95856" user="john paul jones &amp; gringo">
    <tag k="addr:city" v="Peterborough"/>
    <tag k="addr:country" v="GB"/>
    <tag k="addr:housenumber" v="23"/>
    <tag k="addr:postcode" v="PE8 6JE"/>
    <tag k="addr:street" v="Elton Road"/>
    <tag k="addr:suburb" v="Wansford"/>
    <tag k="amenity" v="post_office"/>
    <tag k="brand" v="Post Office"/>
    <tag k="brand:wikidata" v="Q1783168"/>
    <tag k="name" v="Wansford Post Office"/>
    <tag k="ref:pol_id" v="6783"/>
    <tag k="website" v="https://www.postoffice.co.uk/branch-finder/1992309/wansford"/>
  </node>
  <way id="618010692" version="4" timestamp="2024-03-30T23:29:49Z" changeset="149371903" uid="95856" user="john paul jones &amp; gringo">
    <nd ref="2699029279"/>
    <nd ref="5841704000"/>
    <nd ref="5841704001"/>
    <nd ref="5841704002"/>
    <nd ref="5841704003"/>
    <nd ref="5841704004"/>
    <nd ref="5841704005"/>
    <nd ref="5841704006"/>
    <nd ref="5841704007"/>
    <nd ref="5841704019"/>
    <nd ref="5841704008"/>
    <nd ref="5841704009"/>
    <nd ref="5841704010"/>
    <nd ref="5841704011"/>
    <nd ref="5841704012"/>
    <nd ref="5841704013"/>
    <nd ref="5841704014"/>
    <nd ref="5841704015"/>
    <nd ref="5841704016"/>
    <nd ref="5841704017"/>
    <nd ref="5841704020"/>
    <nd ref="5841704022"/>
    <nd ref="5841704018"/>
    <nd ref="5841704021"/>
    <nd ref="2699029282"/>
    <nd ref="2699029281"/>
    <nd ref="2699029279"/>
    <tag k="addr:city" v="Peterborough"/>
    <tag k="addr:housename" v="The Cottage Manor Farm"/>
    <tag k="addr:housenumber" v="31"/>
    <tag k="addr:postcode" v="PE8 6LS"/>
    <tag k="addr:street" v="Great North Road"/>
    <tag k="addr:suburb" v="Stibbington"/>
    <tag k="description" v="Close to historic Stamford, Wansford and Peterborough. A short walk from the Nene Valley Railway, combining floating eco-retreats,safe &amp; secure leisure moorings on a beautiful stretch of the Nene. The site was excavated and opened to the river 12/08/2018."/>
    <tag k="ele" v="10"/>
    <tag k="email" v="Sibsonmanor@hotmail.com"/>
    <tag k="intermittent" v="no"/>
    <tag k="name" v="Sibson Lake"/>
    <tag k="natural" v="water"/>
    <tag k="tourism" v="attraction"/>
    <tag k="water" v="lake"/>
  </way>
  <way id="943549391" version="2" timestamp="2024-08-10T20:46:21Z" changeset="155078108" uid="95856" user="john paul jones &amp; gringo">
    <nd ref="8736359326"/>
    <nd ref="8736359327"/>
    <nd ref="8736359328"/>
    <nd ref="8736359329"/>
    <nd ref="8736359335"/>
    <nd ref="8736359326"/>
    <tag k="addr:city" v="Peterborough"/>
    <tag k="addr:postcode" v="PE8 6JS"/>
    <tag k="addr:street" v="Elton Road"/>
    <tag k="addr:suburb" v="Wansford"/>
    <tag k="building" v="yes"/>
    <tag k="name" v="The Christie Hall"/>
  </way>

</osm>
