<?xml version="1.0" encoding="UTF-8"?>
<osm version="0.6" generator="Overpass API 0.7.62.5 1bd436f1">
<note>The data included in this document is from www.openstreetmap.org. The data is made available under ODbL.</note>
<meta osm_base="2025-02-19T01:06:58Z" areas="2025-02-06T02:17:44Z"/>

  <node id="9665451058" lat="52.1526643" lon="-0.1917785" version="2" timestamp="2022-04-14T09:34:47Z" changeset="119703857" uid="15577619" user="Discusfish">
    <tag k="addr:city" v="Gamlingay"/>
    <tag k="addr:housenumber" v="16"/>
    <tag k="addr:postcode" v="SG19 3JF"/>
    <tag k="addr:street" v="Clare Court"/>
  </node>
  <node id="9665451059" lat="52.1527395" lon="-0.1917834" version="2" timestamp="2022-04-14T09:34:47Z" changeset="119703857" uid="15577619" user="Discusfish">
    <tag k="addr:city" v="Gamlingay"/>
    <tag k="addr:housenumber" v="2"/>
    <tag k="addr:postcode" v="SG19 3JF"/>
    <tag k="addr:street" v="Clare Court"/>
  </node>
  <node id="9665451060" lat="52.1527943" lon="-0.1917892" version="2" timestamp="2022-04-14T09:34:47Z" changeset="119703857" uid="15577619" user="Discusfish">
    <tag k="addr:city" v="Gamlingay"/>
    <tag k="addr:housenumber" v="3"/>
    <tag k="addr:postcode" v="SG19 3JF"/>
    <tag k="addr:street" v="Clare Court"/>
  </node>
  <way id="159744337" version="7" timestamp="2023-12-17T20:42:24Z" changeset="145228822" uid="5589" user="user_5589">
    <nd ref="1718487767"/>
    <nd ref="1718487740"/>
    <nd ref="1718487964"/>
    <nd ref="1718487813"/>
    <nd ref="1718487767"/>
    <tag k="addr:city" v="Gamlingay"/>
    <tag k="addr:housenumber" v="37"/>
    <tag k="addr:postcode" v="SG19 3JH"/>
    <tag k="addr:street" v="Church Street"/>
    <tag k="amenity" v="pharmacy"/>
    <tag k="building" v="yes"/>
    <tag k="healthcare" v="pharmacy"/>
    <tag k="name" v="Gamlingay Pharmacy"/>
    <tag k="source" v="Bing"/>
  </way>
  <way id="159744342" version="5" timestamp="2017-06-22T08:51:36Z" changeset="49740478" uid="364" user="Edward">
    <nd ref="1718487796"/>
    <nd ref="1718488008"/>
    <nd ref="1718487868"/>
    <nd ref="1718487953"/>
    <nd ref="1718487865"/>
    <nd ref="1718487899"/>
    <nd ref="1718487796"/>
    <tag k="addr:city" v="Gamlingay"/>
    <tag k="addr:housename" v="Maypole House"/>
    <tag k="addr:housenumber" v="39"/>
    <tag k="addr:postcode" v="SG19 3JJ"/>
    <tag k="addr:street" v="Church Street"/>
    <tag k="building" v="house"/>
    <tag k="listed_status" v="Grade II"/>
    <tag k="name" v="Maypole House"/>
    <tag k="source" v="Bing"/>
    <tag k="wikidata" v="Q26604360"/>
  </way>
  <way id="359146149" version="6" timestamp="2023-11-03T18:35:20Z" changeset="143586911" uid="504708" user="HillWithSmallFields">
    <nd ref="3639131100"/>
    <nd ref="3639131105"/>
    <nd ref="3639131117"/>
    <nd ref="3639131103"/>
    <nd ref="3639131114"/>
    <nd ref="3639131115"/>
    <nd ref="3639131113"/>
    <nd ref="3639131096"/>
    <nd ref="3639131130"/>
    <nd ref="9044183616"/>
    <nd ref="9044183615"/>
    <nd ref="3639131108"/>
    <nd ref="3639131104"/>
    <nd ref="3639131098"/>
    <nd ref="3639131129"/>
    <nd ref="3639131111"/>
    <nd ref="3639131099"/>
    <nd ref="9044183614"/>
    <nd ref="9044183613"/>
    <nd ref="9044183612"/>
    <nd ref="9044183611"/>
    <nd ref="3639131097"/>
    <nd ref="3639131116"/>
    <nd ref="3639131127"/>
    <nd ref="3639131119"/>
    <nd ref="3639131110"/>
    <nd ref="9044183610"/>
    <nd ref="9044183609"/>
    <nd ref="3639131120"/>
    <nd ref="3639131100"/>
    <tag k="addr:city" v="Gamlingay"/>
    <tag k="addr:housename" v="Gamlingay Parish Church"/>
    <tag k="addr:postcode" v="SG19 3ET"/>
    <tag k="addr:street" v="Church Street"/>
    <tag k="amenity" v="place_of_worship"/>
    <tag k="building" v="church"/>
    <tag k="denomination" v="anglican"/>
    <tag k="name" v="St Mary the Virgin"/>
    <tag k="ref:dove" v="12965"/>
    <tag k="religion" v="christian"/>
    <tag k="wikidata" v="Q17528245"/>
  </way>
  <way id="373908019" version="2" timestamp="2023-12-17T20:42:24Z" changeset="145228822" uid="5589" user="user_5589">
    <nd ref="3773407514"/>
    <nd ref="3773407515"/>
    <nd ref="3773407516"/>
    <nd ref="3773407517"/>
    <nd ref="3773407514"/>
    <tag k="addr:city" v="Gamlingay"/>
    <tag k="addr:housenumber" v="58"/>
    <tag k="addr:postcode" v="SG19 3JR"/>
    <tag k="addr:street" v="Stocks Lane"/>
    <tag k="amenity" v="doctors"/>
    <tag k="building" v="yes"/>
    <tag k="healthcare" v="doctor"/>
    <tag k="name" v="Greensands Medical Practice"/>
  </way>
  <way id="373908313" version="13" timestamp="2023-12-17T20:42:24Z" changeset="145228822" uid="5589" user="user_5589">
    <nd ref="8479228643"/>
    <nd ref="3773404873"/>
    <nd ref="3783817021"/>
    <nd ref="3773406794"/>
    <nd ref="1474320838"/>
    <nd ref="3779846409"/>
    <nd ref="3775206033"/>
    <nd ref="3779846410"/>
    <nd ref="3773406798"/>
    <nd ref="8479228642"/>
    <nd ref="8479228641"/>
    <nd ref="8479228640"/>
    <nd ref="8479228639"/>
    <nd ref="8479228643"/>
    <tag k="addr:city" v="Sandy"/>
    <tag k="addr:county" v="Bedfordshire"/>
    <tag k="addr:housename" v="Gamlingay Village Primary"/>
    <tag k="addr:postcode" v="SG19 3HD"/>
    <tag k="addr:street" v="Station Road"/>
    <tag k="addr:suburb" v="Gamlingay"/>
    <tag k="amenity" v="school"/>
    <tag k="capacity" v="420"/>
    <tag k="email" v="office@gamlingayvp.org"/>
    <tag k="isced:level" v="1"/>
    <tag k="max_age" v="11"/>
    <tag k="min_age" v="4"/>
    <tag k="name" v="Gamlingay Village Primary"/>
    <tag k="note" v="2018-08-31: Gamlingay Village College closed; 2016-03-01: Gamlingay First School closed (different site in village)."/>
    <tag k="old_name" v="Gamlingay Village College"/>
    <tag k="old_name:1" v="Gamlingay First School"/>
    <tag k="operator" v="The Cam Academy Trust"/>
    <tag k="operator:type" v="private"/>
    <tag k="operator:wikidata" v="Q110778636"/>
    <tag k="phone" v="+44 1767 650 208"/>
    <tag k="ref:GB:uprn" v="100091577063"/>
    <tag k="ref:edubase" v="142638"/>
    <tag k="ref:edubase:group" v="2753"/>
    <tag k="school:trust" v="yes"/>
    <tag k="school:trust:name" v="The Cam Academy Trust"/>
    <tag k="school:trust:type" v="multi_academy"/>
    <tag k="school:type" v="academy"/>
    <tag k="website" v="https://www.gamlingayvp.org/"/>
    <tag k="wikidata" v="Q5520248"/>
  </way>
  <way id="374122060" version="3" timestamp="2019-09-12T15:30:59Z" changeset="74399074" uid="322785" user="BCNorwich">
    <nd ref="3775249656"/>
    <nd ref="6790707569"/>
    <nd ref="6790707568"/>
    <nd ref="3775249757"/>
    <nd ref="3775249656"/>
    <tag k="addr:housenumber" v="1-3"/>
    <tag k="addr:street" v="Merton Grange Barns"/>
    <tag k="building" v="farm"/>
  </way>
  <way id="374122067" version="5" timestamp="2019-09-12T11:32:55Z" changeset="74389164" uid="10294304" user="Royal Pollen">
    <nd ref="3775249771"/>
    <nd ref="3775249772"/>
    <nd ref="3775249773"/>
    <nd ref="3775249774"/>
    <nd ref="3775249771"/>
    <tag k="addr:city" v="Gamlingay"/>
    <tag k="addr:housenumber" v="5-7"/>
    <tag k="addr:postcode" v="SG19 3DS"/>
    <tag k="addr:street" v="Merton Grange Barns"/>
    <tag k="building" v="farm"/>
  </way>
  <way id="374130478" version="2" timestamp="2015-10-16T20:08:58Z" changeset="34683055" uid="207297" user="Accipiter">
    <nd ref="3775269520"/>
    <nd ref="3775269521"/>
    <nd ref="3775269522"/>
    <nd ref="3775269523"/>
    <nd ref="3789563858"/>
    <nd ref="3789563859"/>
    <nd ref="3775269520"/>
    <tag k="addr:city" v="Gamlingay"/>
    <tag k="addr:housenumber" v="29-35"/>
    <tag k="addr:postcode" v="SG19 3EP"/>
    <tag k="addr:street" v="Church End"/>
    <tag k="building" v="house"/>
  </way>
  <way id="374130481" version="2" timestamp="2015-10-16T20:08:58Z" changeset="34683055" uid="207297" user="Accipiter">
    <nd ref="3775269528"/>
    <nd ref="3775269529"/>
    <nd ref="3775269530"/>
    <nd ref="3775269531"/>
    <nd ref="3775269528"/>
    <tag k="addr:city" v="Gamlingay"/>
    <tag k="addr:housenumber" v="19-21"/>
    <tag k="addr:postcode" v="SG19 3EP"/>
    <tag k="addr:street" v="Church End"/>
    <tag k="building" v="house"/>
  </way>
  <way id="374130485" version="2" timestamp="2015-10-16T20:08:58Z" changeset="34683055" uid="207297" user="Accipiter">
    <nd ref="3775269538"/>
    <nd ref="3775269539"/>
    <nd ref="3775269540"/>
    <nd ref="3775269541"/>
    <nd ref="3775269538"/>
    <tag k="addr:housename" v="Little Shambles"/>
    <tag k="addr:housenumber" v="13"/>
    <tag k="addr:street" v="Church End"/>
    <tag k="building" v="yes"/>
    <tag k="name" v="Little Shambles"/>
  </way>
  <way id="374363093" version="3" timestamp="2016-04-18T12:52:02Z" changeset="38666815" uid="2545951" user="highflyer74">
    <nd ref="3777395275"/>
    <nd ref="3777395276"/>
    <nd ref="3777395277"/>
    <nd ref="3777395278"/>
    <nd ref="3777395275"/>
    <tag k="addr:city" v="Gamlingay"/>
    <tag k="addr:housenumber" v="33a"/>
    <tag k="addr:postcode" v="SG19 3JH"/>
    <tag k="addr:street" v="Church Street"/>
    <tag k="amenity" v="fast_food"/>
    <tag k="building" v="yes"/>
    <tag k="cuisine" v="chinese"/>
    <tag k="name" v="Happy Chef"/>
  </way>
  <way id="374363098" version="3" timestamp="2015-10-13T20:14:29Z" changeset="34620674" uid="207297" user="Accipiter">
    <nd ref="3777395298"/>
    <nd ref="3777395299"/>
    <nd ref="3777395300"/>
    <nd ref="3777395301"/>
    <nd ref="3777412955"/>
    <nd ref="3777395298"/>
    <tag k="addr:city" v="Gamlingay"/>
    <tag k="addr:street" v="Church Street"/>
    <tag k="building" v="yes"/>
    <tag k="name" v="The Red House"/>
  </way>
  <way id="374363101" version="3" timestamp="2018-08-08T16:43:29Z" changeset="61474712" uid="873940" user="Mike Baggaley">
    <nd ref="3777395309"/>
    <nd ref="3777395310"/>
    <nd ref="3777412949"/>
    <nd ref="3777395311"/>
    <nd ref="3777395318"/>
    <nd ref="3777395312"/>
    <nd ref="3777395313"/>
    <nd ref="3777395314"/>
    <nd ref="3777395309"/>
    <tag k="addr:city" v="Gamlingay"/>
    <tag k="addr:housenumber" v="1"/>
    <tag k="addr:postcode" v="SG19 3JH"/>
    <tag k="addr:street" v="Church Street"/>
    <tag k="amenity" v="restaurant"/>
    <tag k="building" v="yes"/>
    <tag k="cuisine" v="indian"/>
    <tag k="name" v="Jannah"/>
  </way>
  <way id="374363111" version="2" timestamp="2017-06-22T08:51:24Z" changeset="49740478" uid="364" user="Edward">
    <nd ref="3777395355"/>
    <nd ref="3777395356"/>
    <nd ref="3777400357"/>
    <nd ref="3777400358"/>
    <nd ref="3777400359"/>
    <nd ref="3777400360"/>
    <nd ref="3777400361"/>
    <nd ref="3777400362"/>
    <nd ref="3777395355"/>
    <tag k="addr:city" v="Gamlingay"/>
    <tag k="addr:housenumber" v="25"/>
    <tag k="addr:postcode" v="SG19 3JH"/>
    <tag k="addr:street" v="Church Street"/>
    <tag k="amenity" v="pub"/>
    <tag k="building" v="yes"/>
    <tag k="name" v="The Cock Inn"/>
    <tag k="wikidata" v="Q17550821"/>
  </way>
  <way id="374468138" version="2" timestamp="2015-10-16T19:35:30Z" changeset="34682332" uid="207297" user="Accipiter">
    <nd ref="3778567576"/>
    <nd ref="3778567577"/>
    <nd ref="3778567578"/>
    <nd ref="3778567579"/>
    <nd ref="3778567576"/>
    <tag k="addr:city" v="Gamlingay"/>
    <tag k="addr:housename" v="Old Methodist Chapel"/>
    <tag k="addr:street" v="Green End"/>
    <tag k="building" v="kindergarten"/>
    <tag k="name" v="Rainbow Pre School"/>
  </way>
  <way id="374480495" version="5" timestamp="2023-09-03T10:34:54Z" changeset="140751871" uid="5173844" user="ndrw6">
    <nd ref="11164815874"/>
    <nd ref="3778713509"/>
    <nd ref="11164815882"/>
    <nd ref="3778713506"/>
    <nd ref="11164815875"/>
    <nd ref="11164815874"/>
    <tag k="addr:housenumber" v="57, 59"/>
    <tag k="addr:street" v="Green Acres"/>
    <tag k="building" v="house"/>
    <tag k="building:levels" v="2"/>
    <tag k="roof:levels" v="0"/>
  </way>
  <way id="374484776" version="5" timestamp="2023-10-21T10:05:08Z" changeset="142916462" uid="6816132" user="CjMalone">
    <nd ref="11164815766"/>
    <nd ref="3778757194"/>
    <nd ref="11164815763"/>
    <nd ref="11164815764"/>
    <nd ref="3778757195"/>
    <nd ref="3778757196"/>
    <nd ref="11164815766"/>
    <tag k="addr:city" v="Gamlingay"/>
    <tag k="addr:housenumber" v="15"/>
    <tag k="addr:postcode" v="SG19 3NJ"/>
    <tag k="addr:street" v="Cinques Road"/>
    <tag k="addr:village" v="Gamlingay"/>
    <tag k="amenity" v="post_office"/>
    <tag k="brand" v="Post Office"/>
    <tag k="brand:wikidata" v="Q1783168"/>
    <tag k="building" v="yes"/>
    <tag k="name" v="Gamlingay Post Office"/>
    <tag k="opening_hours" v="Mo-Fr 06:00-19:00; Sa 06:00-14:00; Su 07:00-14:00"/>
    <tag k="ref:pol_id" v="609"/>
    <tag k="source:opening_hours" v="pol_branch_list_2018-02"/>
    <tag k="website" v="https://www.postoffice.co.uk/branch-finder/0731064/gamlingay"/>
  </way>
  <way id="374676623" version="2" timestamp="2015-10-15T18:42:29Z" changeset="34661328" uid="207297" user="Accipiter">
    <nd ref="3780599108"/>
    <nd ref="3780599109"/>
    <nd ref="3780599110"/>
    <nd ref="3780599111"/>
    <nd ref="3780599112"/>
    <nd ref="3780599113"/>
    <nd ref="3780599108"/>
    <tag k="addr:city" v="Gamlingay"/>
    <tag k="addr:housename" v="The Emplins"/>
    <tag k="addr:postcode" v="SG19 3ER"/>
    <tag k="addr:street" v="Church Street"/>
    <tag k="building" v="house"/>
    <tag k="name" v="The Emplins"/>
    <tag k="tourism" v="guest_house"/>
  </way>
  <way id="374676629" version="3" timestamp="2017-06-22T08:51:36Z" changeset="49740478" uid="364" user="Edward">
    <nd ref="3780599140"/>
    <nd ref="3780599141"/>
    <nd ref="3780599142"/>
    <nd ref="3780599143"/>
    <nd ref="3780599144"/>
    <nd ref="3780599145"/>
    <nd ref="3780599140"/>
    <tag k="addr:city" v="Gamlingay"/>
    <tag k="addr:housename" v="The Wheatsheaf"/>
    <tag k="addr:housenumber" v="92"/>
    <tag k="addr:postcode" v="SG19 3JJ"/>
    <tag k="addr:street" v="Church Street"/>
    <tag k="amenity" v="pub"/>
    <tag k="building" v="yes"/>
    <tag k="name" v="The Wheatsheaf"/>
    <tag k="opening_hours" v="closed"/>
    <tag k="wikidata" v="Q26604309"/>
  </way>
  <way id="374676636" version="2" timestamp="2015-10-15T19:08:43Z" changeset="34661943" uid="207297" user="Accipiter">
    <nd ref="3780599172"/>
    <nd ref="3780599173"/>
    <nd ref="3780599174"/>
    <nd ref="3780599175"/>
    <nd ref="3780599176"/>
    <nd ref="3780599177"/>
    <nd ref="3780599172"/>
    <tag k="addr:city" v="Gamlingay"/>
    <tag k="addr:housenumber" v="66"/>
    <tag k="addr:postcode" v="SG19 3JJ"/>
    <tag k="addr:street" v="Church Street"/>
    <tag k="building" v="house"/>
  </way>
  <way id="374676641" version="3" timestamp="2015-10-15T19:08:43Z" changeset="34661943" uid="207297" user="Accipiter">
    <nd ref="3780599202"/>
    <nd ref="3780599203"/>
    <nd ref="3787144601"/>
    <nd ref="3780599206"/>
    <nd ref="3780599207"/>
    <nd ref="3780599208"/>
    <nd ref="3780599202"/>
    <tag k="addr:city" v="Gamlingay"/>
    <tag k="addr:housenumber" v="62"/>
    <tag k="addr:postcode" v="SG19 3JJ"/>
    <tag k="addr:street" v="Church Street"/>
    <tag k="building" v="house"/>
  </way>
  <way id="374676651" version="4" timestamp="2024-07-15T22:33:09Z" changeset="153991674" uid="21425661" user="CjMalone">
    <nd ref="3780599249"/>
    <nd ref="3780599250"/>
    <nd ref="3780599251"/>
    <nd ref="3780599252"/>
    <nd ref="3780599249"/>
    <tag k="addr:city" v="Gamlingay"/>
    <tag k="addr:postcode" v="SG19 3JH"/>
    <tag k="addr:street" v="Church Street"/>
    <tag k="brand" v="Co-op Food"/>
    <tag k="brand:wikidata" v="Q3277439"/>
    <tag k="building" v="yes"/>
    <tag k="check_date" v="2024-07-15"/>
    <tag k="check_date:opening_hours" v="2024-07-15"/>
    <tag k="name" v="Co-op Food"/>
    <tag k="opening_hours" v="Mo-Su 07:00-22:00"/>
    <tag k="operator" v="The Co-operative Group"/>
    <tag k="operator:wikidata" v="Q117202"/>
    <tag k="shop" v="supermarket"/>
    <tag k="website" v="https://www.coop.co.uk/store-finder/SG19-3JH/church-street"/>
  </way>
  <way id="374676652" version="3" timestamp="2023-01-02T23:19:59Z" changeset="130806694" uid="6816132" user="CjMalone">
    <nd ref="3780599253"/>
    <nd ref="3780599248"/>
    <nd ref="3780599255"/>
    <nd ref="3780599254"/>
    <nd ref="3780599253"/>
    <tag k="addr:city" v="Gamlingay"/>
    <tag k="addr:housenumber" v="34"/>
    <tag k="addr:postcode" v="SG19 3JH"/>
    <tag k="addr:street" v="Church Street"/>
    <tag k="building" v="retail"/>
    <tag k="name" v="Reg's Bait &amp; Tackle"/>
    <tag k="shop" v="fishing"/>
  </way>
  <way id="374676654" version="3" timestamp="2017-06-22T08:51:32Z" changeset="49740478" uid="364" user="Edward">
    <nd ref="3780599260"/>
    <nd ref="3780599261"/>
    <nd ref="3780599262"/>
    <nd ref="3780599263"/>
    <nd ref="3780599264"/>
    <nd ref="3780599265"/>
    <nd ref="3780599266"/>
    <nd ref="3780599267"/>
    <nd ref="3780599260"/>
    <tag k="addr:housenumber" v="30"/>
    <tag k="addr:postcode" v="SG19 3JH"/>
    <tag k="addr:street" v="Church Street"/>
    <tag k="building" v="house"/>
    <tag k="name" v="Charnock House"/>
    <tag k="wikidata" v="Q26457106"/>
  </way>
  <way id="374986859" version="1" timestamp="2015-10-12T19:28:35Z" changeset="34597651" uid="207297" user="Accipiter">
    <nd ref="3783660525"/>
    <nd ref="3783660524"/>
    <nd ref="3783660526"/>
    <nd ref="3783660527"/>
    <nd ref="3783660525"/>
    <tag k="addr:city" v="Gamlingay"/>
    <tag k="addr:housenumber" v="40"/>
    <tag k="addr:postcode" v="SG19 3JH"/>
    <tag k="addr:street" v="Church Street"/>
    <tag k="building" v="yes"/>
    <tag k="name" v="LJ's Sandwich Bar"/>
    <tag k="shop" v="deli"/>
  </way>
  <way id="374989301" version="1" timestamp="2015-10-12T19:45:34Z" changeset="34597996" uid="207297" user="Accipiter">
    <nd ref="3783735279"/>
    <nd ref="3783735280"/>
    <nd ref="3783735281"/>
    <nd ref="3783735282"/>
    <nd ref="3783735283"/>
    <nd ref="3783735284"/>
    <nd ref="3783735279"/>
    <tag k="addr:city" v="Gamlingay"/>
    <tag k="addr:postcode" v="SG19 3JW"/>
    <tag k="addr:street" v="Mill Street"/>
    <tag k="building" v="house"/>
    <tag k="name" v="The Old Rose and Crown"/>
  </way>
  <way id="374989302" version="2" timestamp="2015-10-13T19:46:23Z" changeset="34620142" uid="207297" user="Accipiter">
    <nd ref="3783735285"/>
    <nd ref="3783735286"/>
    <nd ref="3783735287"/>
    <nd ref="3783735288"/>
    <nd ref="3783735289"/>
    <nd ref="3783735290"/>
    <nd ref="3783735285"/>
    <tag k="addr:city" v="Gamlingay"/>
    <tag k="addr:housenumber" v="1"/>
    <tag k="addr:street" v="Mill Street"/>
    <tag k="building" v="house"/>
  </way>
  <way id="374996147" version="2" timestamp="2015-10-15T19:08:43Z" changeset="34661943" uid="207297" user="Accipiter">
    <nd ref="3783793347"/>
    <nd ref="3783793348"/>
    <nd ref="3783793349"/>
    <nd ref="3783793350"/>
    <nd ref="3783793351"/>
    <nd ref="3783793352"/>
    <nd ref="3783793347"/>
    <tag k="addr:city" v="Gamlingay"/>
    <tag k="addr:housename" v="St Mary's Cottage"/>
    <tag k="addr:housenumber" v="2"/>
    <tag k="addr:postcode" v="SG19 3EU"/>
    <tag k="addr:street" v="Church Lane"/>
    <tag k="building" v="house"/>
    <tag k="name" v="St Mary's Cottage"/>
  </way>
  <way id="374996157" version="2" timestamp="2019-07-26T20:47:01Z" changeset="72703264" uid="1418967" user="RAC_UK">
    <nd ref="3783800094"/>
    <nd ref="3783800095"/>
    <nd ref="3783800098"/>
    <nd ref="3783800099"/>
    <nd ref="3783800100"/>
    <nd ref="3783800101"/>
    <nd ref="3783800096"/>
    <nd ref="3783800097"/>
    <nd ref="3783800094"/>
    <tag k="addr:city" v="Gamlingay"/>
    <tag k="addr:postcode" v="SG19 3JP"/>
    <tag k="addr:street" v="Stocks Lane"/>
    <tag k="amenity" v="fire_station"/>
    <tag k="building" v="yes"/>
    <tag k="name" v="Gamlingay Community Fire &amp; Rescue Station"/>
  </way>
  <way id="375003680" version="2" timestamp="2021-03-02T14:05:17Z" changeset="100285512" uid="5173844" user="ndrw6">
    <nd ref="3783873692"/>
    <nd ref="3783873693"/>
    <nd ref="3783873694"/>
    <nd ref="3783873695"/>
    <nd ref="3783873696"/>
    <nd ref="3783873697"/>
    <nd ref="3783873692"/>
    <tag k="addr:housenumber" v="2"/>
    <tag k="addr:street" v="Cowslip Lane"/>
    <tag k="addr:village" v="Gamlingay"/>
    <tag k="building" v="house"/>
  </way>
  <way id="375003684" version="2" timestamp="2021-03-02T14:05:17Z" changeset="100285512" uid="5173844" user="ndrw6">
    <nd ref="3783873720"/>
    <nd ref="3783873721"/>
    <nd ref="3783873722"/>
    <nd ref="3783873723"/>
    <nd ref="3783873720"/>
    <tag k="addr:housenumber" v="7"/>
    <tag k="addr:street" v="Cowslip Lane"/>
    <tag k="addr:village" v="Gamlingay"/>
    <tag k="building" v="house"/>
  </way>
  <way id="375003696" version="1" timestamp="2015-10-12T21:31:58Z" changeset="34600140" uid="207297" user="Accipiter">
    <nd ref="3783873876"/>
    <nd ref="3783873894"/>
    <nd ref="3783873877"/>
    <nd ref="3783873878"/>
    <nd ref="3783873876"/>
    <tag k="addr:city" v="Gamlingay"/>
    <tag k="addr:postcode" v="SG19 3QP"/>
    <tag k="addr:street" v="Stocks Lane"/>
    <tag k="building" v="church"/>
    <tag k="name" v="Gamlingay Baptist Church"/>
  </way>
  <way id="375003698" version="1" timestamp="2015-10-12T21:31:58Z" changeset="34600140" uid="207297" user="Accipiter">
    <nd ref="3783873879"/>
    <nd ref="3783873887"/>
    <nd ref="3783873880"/>
    <nd ref="3783873881"/>
    <nd ref="3783873882"/>
    <nd ref="3783873883"/>
    <nd ref="3783873891"/>
    <nd ref="3783873890"/>
    <nd ref="3783873884"/>
    <nd ref="3783873879"/>
    <tag k="addr:city" v="Gamlingay"/>
    <tag k="addr:postcode" v="SG19 3QP"/>
    <tag k="addr:street" v="Stocks Lane"/>
    <tag k="building" v="church"/>
    <tag k="name" v="Gamlingay Baptist Church"/>
  </way>
  <way id="375003702" version="1" timestamp="2015-10-12T21:31:59Z" changeset="34600140" uid="207297" user="Accipiter">
    <nd ref="3783873897"/>
    <nd ref="3783873898"/>
    <nd ref="3783873899"/>
    <nd ref="3783873900"/>
    <nd ref="3783873897"/>
    <tag k="addr:city" v="Gamlingay"/>
    <tag k="addr:street" v="Stocks Lane"/>
    <tag k="building" v="yes"/>
    <tag k="name" v="Stocks Lane Community Health Centre"/>
  </way>
  <way id="375130929" version="3" timestamp="2023-12-17T20:42:24Z" changeset="145228822" uid="5589" user="user_5589">
    <nd ref="3785203386"/>
    <nd ref="3785203387"/>
    <nd ref="3785203388"/>
    <nd ref="3785203389"/>
    <nd ref="3785203386"/>
    <tag k="addr:city" v="Gamlingay"/>
    <tag k="addr:housenumber" v="13"/>
    <tag k="addr:postcode" v="SG19 3JW"/>
    <tag k="addr:street" v="Mill Street"/>
    <tag k="amenity" v="fuel"/>
    <tag k="brand" v="Gulf"/>
    <tag k="brand:wikidata" v="Q5617505"/>
    <tag k="building" v="yes"/>
    <tag k="name" v="Worboys Garage"/>
    <tag k="operator" v="Gulf"/>
    <tag k="shop" v="car_repair"/>
  </way>
  <way id="375130931" version="1" timestamp="2015-10-13T19:46:22Z" changeset="34620142" uid="207297" user="Accipiter">
    <nd ref="3785203394"/>
    <nd ref="3785203395"/>
    <nd ref="3785203396"/>
    <nd ref="3785203397"/>
    <nd ref="3785203394"/>
    <tag k="addr:city" v="Gamlingay"/>
    <tag k="addr:housename" v="Cromwell Cottage"/>
    <tag k="addr:housenumber" v="9-11"/>
    <tag k="addr:postcode" v="SG19 3JW"/>
    <tag k="addr:street" v="Mill Street"/>
    <tag k="building" v="house"/>
  </way>
  <way id="375130935" version="1" timestamp="2015-10-13T19:46:22Z" changeset="34620142" uid="207297" user="Accipiter">
    <nd ref="3785203409"/>
    <nd ref="3785203410"/>
    <nd ref="3785203411"/>
    <nd ref="3785203412"/>
    <nd ref="3785203414"/>
    <nd ref="3785203409"/>
    <tag k="addr:city" v="Gamlingay"/>
    <tag k="addr:housenumber" v="7"/>
    <tag k="addr:postcode" v="SG19 3JW"/>
    <tag k="addr:street" v="Mill Street"/>
    <tag k="building" v="yes"/>
    <tag k="name" v="Lane &amp; Chandler"/>
    <tag k="office" v="estate_agent"/>
  </way>
  <way id="375130936" version="1" timestamp="2015-10-13T19:46:23Z" changeset="34620142" uid="207297" user="Accipiter">
    <nd ref="3785203413"/>
    <nd ref="3785203409"/>
    <nd ref="3785203414"/>
    <nd ref="3785203415"/>
    <nd ref="3785203413"/>
    <tag k="addr:city" v="Gamlingay"/>
    <tag k="addr:housenumber" v="7"/>
    <tag k="addr:postcode" v="SG19 3JW"/>
    <tag k="addr:street" v="Mill Street"/>
    <tag k="building" v="yes"/>
    <tag k="name" v="Lindsay's Bakery"/>
    <tag k="shop" v="bakery"/>
  </way>
  <way id="375134696" version="1" timestamp="2015-10-13T20:14:28Z" changeset="34620674" uid="207297" user="Accipiter">
    <nd ref="3785238241"/>
    <nd ref="3785238242"/>
    <nd ref="3785238243"/>
    <nd ref="3785238240"/>
    <nd ref="3785238241"/>
    <tag k="addr:city" v="Gamlingay"/>
    <tag k="addr:housenumber" v="2"/>
    <tag k="addr:postcode" v="SG19 3PE"/>
    <tag k="addr:street" v="The Cross"/>
    <tag k="building" v="yes"/>
    <tag k="name" v="The Cutting Mill"/>
    <tag k="shop" v="hairdresser"/>
  </way>
  <way id="375134700" version="2" timestamp="2023-02-03T14:00:34Z" changeset="132043800" uid="84263" user="Robert Whittaker">
    <nd ref="3785238242"/>
    <nd ref="3785247962"/>
    <nd ref="3785247963"/>
    <nd ref="3785238243"/>
    <nd ref="3785238242"/>
    <tag k="addr:city" v="Gamlingay"/>
    <tag k="addr:housenumber" v="1"/>
    <tag k="addr:postcode" v="SG19 3PE"/>
    <tag k="addr:street" v="The Cross"/>
    <tag k="brand" v="Londis"/>
    <tag k="brand:wikidata" v="Q21008564"/>
    <tag k="building" v="yes"/>
    <tag k="name" v="Londis"/>
    <tag k="shop" v="convenience"/>
  </way>
  <way id="375345415" version="2" timestamp="2018-05-28T10:42:29Z" changeset="59336427" uid="364" user="Edward">
    <nd ref="3780599203"/>
    <nd ref="3787144602"/>
    <nd ref="3787144603"/>
    <nd ref="3780599206"/>
    <nd ref="3787144601"/>
    <nd ref="3780599203"/>
    <tag k="addr:city" v="Gamlingay"/>
    <tag k="addr:housename" v="Black Cat Cottage"/>
    <tag k="addr:housenumber" v="1"/>
    <tag k="addr:postcode" v="SG19 3JP"/>
    <tag k="addr:street" v="Stocks Lane"/>
    <tag k="building" v="house"/>
    <tag k="name" v="Black Cat Cottage"/>
    <tag k="wikidata" v="Q26421022"/>
  </way>
  <way id="375592030" version="4" timestamp="2022-02-17T19:46:56Z" changeset="117535645" uid="242345" user="confusedbuffalo">
    <nd ref="3778567579"/>
    <nd ref="3775031967"/>
    <nd ref="3775031968"/>
    <nd ref="3775031969"/>
    <nd ref="3778567578"/>
    <nd ref="3778567579"/>
    <tag k="addr:city" v="Sandy"/>
    <tag k="addr:county" v="Hertfordshire"/>
    <tag k="addr:housename" v="Gamlingay Rainbow Pre-School"/>
    <tag k="addr:postcode" v="SG19 3LF"/>
    <tag k="addr:street" v="Green End"/>
    <tag k="addr:suburb" v="Gamlingay"/>
    <tag k="amenity" v="kindergarten"/>
    <tag k="email" v="contact@rainbowgamlingay.co.uk"/>
    <tag k="mobile" v="+44 7814 500 946"/>
    <tag k="name" v="Gamlingay Rainbow Pre-School"/>
    <tag k="opening_hours" v="Mo-Fr 07:30-15:00"/>
    <tag k="phone" v="+44 1767 651 996"/>
    <tag k="website" v="http://www.rainbowgamlingay.co.uk/"/>
  </way>
  <way id="375600144" version="2" timestamp="2018-05-28T10:42:39Z" changeset="59336427" uid="364" user="Edward">
    <nd ref="3789563544"/>
    <nd ref="3789563545"/>
    <nd ref="3789563546"/>
    <nd ref="3789563547"/>
    <nd ref="3789563544"/>
    <tag k="addr:city" v="Gamlingay"/>
    <tag k="addr:housenumber" v="11"/>
    <tag k="addr:postcode" v="SG19 3EP"/>
    <tag k="addr:street" v="Church End"/>
    <tag k="building" v="house"/>
    <tag k="wikidata" v="Q26604413"/>
  </way>
  <way id="375600153" version="1" timestamp="2015-10-16T20:08:57Z" changeset="34683055" uid="207297" user="Accipiter">
    <nd ref="3789563860"/>
    <nd ref="3789563861"/>
    <nd ref="3789563862"/>
    <nd ref="3789563863"/>
    <nd ref="3789563860"/>
    <tag k="addr:city" v="Gamlingay"/>
    <tag k="addr:housenumber" v="45"/>
    <tag k="addr:postcode" v="SG19 3EP"/>
    <tag k="addr:street" v="Church End"/>
    <tag k="building" v="house"/>
  </way>
  <way id="375600156" version="1" timestamp="2015-10-16T20:08:57Z" changeset="34683055" uid="207297" user="Accipiter">
    <nd ref="3789563863"/>
    <nd ref="3789563864"/>
    <nd ref="3789563865"/>
    <nd ref="3789563862"/>
    <nd ref="3789563863"/>
    <tag k="addr:city" v="Gamlingay"/>
    <tag k="addr:housenumber" v="47"/>
    <tag k="addr:postcode" v="SG19 3EP"/>
    <tag k="addr:street" v="Church End"/>
    <tag k="building" v="house"/>
  </way>
  <way id="375600160" version="1" timestamp="2015-10-16T20:08:57Z" changeset="34683055" uid="207297" user="Accipiter">
    <nd ref="3789563864"/>
    <nd ref="3789563865"/>
    <nd ref="3789563866"/>
    <nd ref="3789563867"/>
    <nd ref="3789563864"/>
    <tag k="addr:city" v="Gamlingay"/>
    <tag k="addr:housenumber" v="49"/>
    <tag k="addr:postcode" v="SG19 3EP"/>
    <tag k="addr:street" v="Church End"/>
    <tag k="building" v="house"/>
  </way>
  <way id="375603935" version="1" timestamp="2015-10-16T20:30:22Z" changeset="34683406" uid="207297" user="Accipiter">
    <nd ref="3789576326"/>
    <nd ref="3789576327"/>
    <nd ref="3789576328"/>
    <nd ref="3789576324"/>
    <nd ref="3789576326"/>
    <tag k="addr:city" v="Gamlingay"/>
    <tag k="addr:housename" v="The Conifers"/>
    <tag k="addr:street" v="Long Lane"/>
    <tag k="building" v="yes"/>
    <tag k="name" v="The Conifers"/>
  </way>
  <way id="669858265" version="3" timestamp="2022-03-13T10:17:34Z" changeset="118423692" uid="5173844" user="ndrw6">
    <nd ref="6273277935"/>
    <nd ref="6273277932"/>
    <nd ref="6273277933"/>
    <nd ref="6273277934"/>
    <nd ref="9574754927"/>
    <nd ref="9574754928"/>
    <nd ref="6273277935"/>
    <tag k="addr:city" v="Gamlingay"/>
    <tag k="addr:housename" v="Five Acres"/>
    <tag k="addr:postcode" v="SG19 3LH"/>
    <tag k="addr:street" v="Heath Road"/>
    <tag k="building" v="yes"/>
    <tag k="name" v="HFI"/>
  </way>
  <way id="912783358" version="1" timestamp="2021-03-02T14:05:17Z" changeset="100285512" uid="5173844" user="ndrw6">
    <nd ref="8479228247"/>
    <nd ref="8479229023"/>
    <nd ref="8479229022"/>
    <nd ref="8479229019"/>
    <nd ref="8479229018"/>
    <nd ref="8479228248"/>
    <nd ref="8479228247"/>
    <tag k="addr:housenumber" v="10"/>
    <tag k="addr:street" v="Cowslip Lane"/>
    <tag k="addr:village" v="Gamlingay"/>
    <tag k="building" v="house"/>
  </way>
  <way id="912783538" version="1" timestamp="2021-03-02T14:05:17Z" changeset="100285512" uid="5173844" user="ndrw6">
    <nd ref="8479229004"/>
    <nd ref="8479229001"/>
    <nd ref="8479229002"/>
    <nd ref="8479229000"/>
    <nd ref="8479228999"/>
    <nd ref="8479229003"/>
    <nd ref="8479229004"/>
    <tag k="addr:housenumber" v="4"/>
    <tag k="addr:street" v="Cowslip Lane"/>
    <tag k="addr:village" v="Gamlingay"/>
    <tag k="building" v="house"/>
  </way>
  <way id="912783539" version="1" timestamp="2021-03-02T14:05:17Z" changeset="100285512" uid="5173844" user="ndrw6">
    <nd ref="8479229010"/>
    <nd ref="8479229007"/>
    <nd ref="8479229008"/>
    <nd ref="8479229005"/>
    <nd ref="8479229006"/>
    <nd ref="8479229009"/>
    <nd ref="8479229010"/>
    <tag k="addr:housenumber" v="6"/>
    <tag k="addr:street" v="Cowslip Lane"/>
    <tag k="addr:village" v="Gamlingay"/>
    <tag k="building" v="house"/>
  </way>
  <way id="912783540" version="1" timestamp="2021-03-02T14:05:17Z" changeset="100285512" uid="5173844" user="ndrw6">
    <nd ref="8479229016"/>
    <nd ref="8479229013"/>
    <nd ref="8479229014"/>
    <nd ref="8479229012"/>
    <nd ref="8479229011"/>
    <nd ref="8479229015"/>
    <nd ref="8479229016"/>
    <tag k="addr:housenumber" v="8"/>
    <tag k="addr:street" v="Cowslip Lane"/>
    <tag k="addr:village" v="Gamlingay"/>
    <tag k="building" v="house"/>
  </way>
  <way id="912783541" version="1" timestamp="2021-03-02T14:05:17Z" changeset="100285512" uid="5173844" user="ndrw6">
    <nd ref="8479228248"/>
    <nd ref="8479229017"/>
    <nd ref="8479229020"/>
    <nd ref="8479229021"/>
    <nd ref="8479229024"/>
    <nd ref="8479228247"/>
    <nd ref="8479228248"/>
    <tag k="addr:housenumber" v="12"/>
    <tag k="addr:street" v="Cowslip Lane"/>
    <tag k="addr:village" v="Gamlingay"/>
    <tag k="building" v="house"/>
  </way>
  <way id="912783542" version="1" timestamp="2021-03-02T14:05:17Z" changeset="100285512" uid="5173844" user="ndrw6">
    <nd ref="8479229030"/>
    <nd ref="8479229037"/>
    <nd ref="8479229036"/>
    <nd ref="8479229034"/>
    <nd ref="8479229032"/>
    <nd ref="8479229029"/>
    <nd ref="8479229030"/>
    <tag k="addr:housenumber" v="14"/>
    <tag k="addr:street" v="Cowslip Lane"/>
    <tag k="addr:village" v="Gamlingay"/>
    <tag k="building" v="house"/>
  </way>
  <way id="912783544" version="1" timestamp="2021-03-02T14:05:17Z" changeset="100285512" uid="5173844" user="ndrw6">
    <nd ref="8479229044"/>
    <nd ref="8479229043"/>
    <nd ref="8479229042"/>
    <nd ref="8479229039"/>
    <nd ref="8479229040"/>
    <nd ref="8479229041"/>
    <nd ref="8479229044"/>
    <tag k="addr:housenumber" v="1"/>
    <tag k="addr:street" v="Cowslip Lane"/>
    <tag k="addr:village" v="Gamlingay"/>
    <tag k="building" v="house"/>
  </way>
  <way id="912783545" version="1" timestamp="2021-03-02T14:05:17Z" changeset="100285512" uid="5173844" user="ndrw6">
    <nd ref="8479229048"/>
    <nd ref="8479229045"/>
    <nd ref="8479229046"/>
    <nd ref="8479229047"/>
    <nd ref="8479229048"/>
    <tag k="addr:housenumber" v="3"/>
    <tag k="addr:street" v="Cowslip Lane"/>
    <tag k="addr:village" v="Gamlingay"/>
    <tag k="building" v="house"/>
  </way>
  <way id="912783546" version="1" timestamp="2021-03-02T14:05:17Z" changeset="100285512" uid="5173844" user="ndrw6">
    <nd ref="8479229054"/>
    <nd ref="8479229051"/>
    <nd ref="8479229050"/>
    <nd ref="8479229049"/>
    <nd ref="8479229052"/>
    <nd ref="8479229053"/>
    <nd ref="8479229054"/>
    <tag k="addr:housenumber" v="5"/>
    <tag k="addr:postcode" v="SG19 3LZ"/>
    <tag k="addr:street" v="Cowslip Lane"/>
    <tag k="addr:village" v="Gamlingay"/>
    <tag k="building" v="house"/>
  </way>
  <way id="912783547" version="1" timestamp="2021-03-02T14:05:17Z" changeset="100285512" uid="5173844" user="ndrw6">
    <nd ref="8479229062"/>
    <nd ref="8479229059"/>
    <nd ref="8479229057"/>
    <nd ref="8479229058"/>
    <nd ref="8479229060"/>
    <nd ref="8479229061"/>
    <nd ref="8479229056"/>
    <nd ref="8479229055"/>
    <nd ref="8479229062"/>
    <tag k="addr:housenumber" v="9"/>
    <tag k="addr:street" v="Cowslip Lane"/>
    <tag k="addr:village" v="Gamlingay"/>
    <tag k="building" v="house"/>
  </way>
  <way id="1204641088" version="1" timestamp="2023-09-03T10:34:54Z" changeset="140751871" uid="5173844" user="ndrw6">
    <nd ref="11164815875"/>
    <nd ref="3778713507"/>
    <nd ref="3778713505"/>
    <nd ref="3778713508"/>
    <nd ref="11164815874"/>
    <nd ref="11164815875"/>
    <tag k="addr:housenumber" v="57, 59"/>
    <tag k="addr:street" v="Green Acres"/>
    <tag k="building" v="house"/>
    <tag k="building:levels" v="2"/>
    <tag k="roof:levels" v="0"/>
  </way>

</osm>
