<?xml version="1.0" encoding="UTF-8"?>
<osm version="0.6" generator="Overpass API 0.7.62.4 2390de5a">
<note>The data included in this document is from www.openstreetmap.org. The data is made available under ODbL.</note>
<meta osm_base="2024-11-27T17:19:05Z" areas="2024-11-27T10:45:57Z"/>

  <way id="30713608" version="20" timestamp="2024-05-26T06:46:48Z" changeset="151837669" uid="322785" user="BCNorwich">
    <nd ref="339681429"/>
    <nd ref="6997591038"/>
    <nd ref="6997591040"/>
    <nd ref="339681431"/>
    <nd ref="339681432"/>
    <nd ref="339681430"/>
    <nd ref="1302270553"/>
    <nd ref="1302270548"/>
    <nd ref="339681439"/>
    <nd ref="10631064210"/>
    <nd ref="1302270345"/>
    <nd ref="339681429"/>
    <tag k="addr:city" v="Huntingdon"/>
    <tag k="addr:housenumber" v="1"/>
    <tag k="addr:postcode" v="PE29 2NB"/>
    <tag k="addr:street" v="Posr Street"/>
    <tag k="addr:suburb" v="Godmanchester"/>
    <tag k="amenity" v="townhall"/>
    <tag k="building" v="townhall"/>
    <tag k="name" v="Godmanchester Town Hall"/>
    <tag k="post:city" v="Huntingdon"/>
    <tag k="wikidata" v="Q26455130"/>
  </way>
  <way id="30713609" version="16" timestamp="2024-10-29T09:52:46Z" changeset="158489800" uid="84263" user="Robert Whittaker">
    <nd ref="339681433"/>
    <nd ref="339681436"/>
    <nd ref="9139857634"/>
    <nd ref="11309890122"/>
    <nd ref="11309890128"/>
    <nd ref="11309890124"/>
    <nd ref="11309890125"/>
    <nd ref="11309890126"/>
    <nd ref="11309890127"/>
    <nd ref="11309890123"/>
    <nd ref="9139857632"/>
    <nd ref="339681438"/>
    <nd ref="12014577927"/>
    <nd ref="339681434"/>
    <nd ref="339681437"/>
    <nd ref="11215393852"/>
    <nd ref="12062051627"/>
    <nd ref="12062051628"/>
    <nd ref="12062051624"/>
    <nd ref="2384408681"/>
    <nd ref="2384408676"/>
    <nd ref="12062051623"/>
    <nd ref="12034875832"/>
    <nd ref="12062051629"/>
    <nd ref="12062045156"/>
    <nd ref="12034875830"/>
    <nd ref="2384408963"/>
    <nd ref="339681433"/>
    <tag k="addr:city" v="Godmanchester"/>
    <tag k="addr:street" v="Post Street"/>
    <tag k="amenity" v="community_centre"/>
    <tag k="amenity_1" v="events"/>
    <tag k="building" v="civic"/>
    <tag k="contact:addr" v="Town Hall 1 Post Street Godmanchester"/>
    <tag k="disused:school" v="yes"/>
    <tag k="heritage" v="2"/>
    <tag k="heritage:operator" v="he"/>
    <tag k="historic" v="school"/>
    <tag k="name" v="Old Queen Elizabeth School"/>
    <tag k="official_name" v="Queen Elizabeth Grammar School"/>
    <tag k="operator" v="Godmanchester Twon Council"/>
    <tag k="operator:type" v="community"/>
    <tag k="ref:GB:nhle" v="1128566"/>
    <tag k="website" v="https://gmccouncil.com/council-services/hall-hire/"/>
  </way>
  <way id="98780125" version="5" timestamp="2023-12-07T10:45:26Z" changeset="144861966" uid="1802093" user="Paul Berry">
    <nd ref="1142792081"/>
    <nd ref="1142792077"/>
    <nd ref="1142792052"/>
    <nd ref="4323215445"/>
    <nd ref="4323215444"/>
    <nd ref="1142792054"/>
    <nd ref="4323215443"/>
    <nd ref="4323215447"/>
    <nd ref="4323215450"/>
    <nd ref="4323215451"/>
    <nd ref="4323215452"/>
    <nd ref="4323215449"/>
    <nd ref="4323215448"/>
    <nd ref="4323215446"/>
    <nd ref="1142792081"/>
    <tag k="addr:city" v="Huntingdon"/>
    <tag k="addr:housename" v="The Learning Centre"/>
    <tag k="addr:postcode" v="PE29 2LJ"/>
    <tag k="addr:street" v="London Road"/>
    <tag k="addr:suburb" v="Godmanchester"/>
    <tag k="building" v="yes"/>
    <tag k="name" v="The College of Animal Welfare"/>
    <tag k="office" v="educational_institution"/>
  </way>
  <way id="106688969" version="4" timestamp="2023-12-07T10:45:26Z" changeset="144861966" uid="1802093" user="Paul Berry">
    <nd ref="1227197784"/>
    <nd ref="5476844731"/>
    <nd ref="5476844732"/>
    <nd ref="5476844733"/>
    <nd ref="1227197792"/>
    <nd ref="1227197802"/>
    <nd ref="5476844728"/>
    <nd ref="5476844729"/>
    <nd ref="1227197806"/>
    <nd ref="5476844730"/>
    <nd ref="1227197784"/>
    <tag k="addr:city" v="Huntingdon"/>
    <tag k="addr:postcode" v="PE29 2EJ"/>
    <tag k="addr:street" v="Cow Lane"/>
    <tag k="addr:suburb" v="Godmanchester"/>
    <tag k="building" v="yes"/>
    <tag k="name" v="Brickyard Farm"/>
  </way>
  <way id="115153473" version="15" timestamp="2023-12-07T10:45:26Z" changeset="144861966" uid="1802093" user="Paul Berry">
    <nd ref="1302270421"/>
    <nd ref="8709782518"/>
    <nd ref="1302270535"/>
    <nd ref="1302270435"/>
    <nd ref="11195622856"/>
    <nd ref="1302270440"/>
    <nd ref="6997591039"/>
    <nd ref="6997591038"/>
    <nd ref="6997591040"/>
    <nd ref="6997591041"/>
    <nd ref="1302270421"/>
    <tag k="addr:city" v="Huntingdon"/>
    <tag k="addr:housenumber" v="2"/>
    <tag k="addr:postcode" v="PE29 2HB"/>
    <tag k="addr:street" v="Causeway"/>
    <tag k="addr:suburb" v="Godmanchester"/>
    <tag k="amenity" v="pharmacy"/>
    <tag k="building" v="retail"/>
    <tag k="dispensing" v="yes"/>
    <tag k="drive_through" v="no"/>
    <tag k="healthcare" v="pharmacy"/>
    <tag k="name" v="Cliffords Chemist"/>
    <tag k="post:city" v="Huntingdon"/>
    <tag k="shop" v="chemist"/>
  </way>
  <way id="115249714" version="12" timestamp="2024-03-27T11:37:44Z" changeset="149220788" uid="10420541" user="Thingummy">
    <nd ref="1302954730"/>
    <nd ref="1302954728"/>
    <nd ref="2393845172"/>
    <nd ref="2393844974"/>
    <nd ref="1302954733"/>
    <nd ref="1302954725"/>
    <nd ref="1302954726"/>
    <nd ref="1302954732"/>
    <nd ref="1302954729"/>
    <nd ref="1302954731"/>
    <nd ref="1302954730"/>
    <tag k="access" v="private"/>
    <tag k="addr:city" v="Huntingdon"/>
    <tag k="addr:housenumber" v="24"/>
    <tag k="addr:postcode" v="PE29 2HQ"/>
    <tag k="addr:street" v="West Street"/>
    <tag k="building" v="house"/>
    <tag k="heritage" v="2"/>
    <tag k="heritage:operator" v="he"/>
    <tag k="historic" v="manor"/>
    <tag k="name" v="Farm Hall"/>
    <tag k="ref:GB:nhle" v="1128580"/>
    <tag k="wikidata" v="Q17543885"/>
    <tag k="wikipedia" v="en:Operation Epsilon"/>
  </way>
  <way id="115768702" version="11" timestamp="2023-09-12T10:30:44Z" changeset="141156580" uid="10420541" user="Thingummy">
    <nd ref="1307013299"/>
    <nd ref="1307013305"/>
    <nd ref="11185400175"/>
    <nd ref="11185400176"/>
    <nd ref="11185400178"/>
    <nd ref="11185400177"/>
    <nd ref="1307013306"/>
    <nd ref="2384408863"/>
    <nd ref="2384408853"/>
    <nd ref="2384408870"/>
    <nd ref="2384408657"/>
    <nd ref="2384408731"/>
    <nd ref="2384408894"/>
    <nd ref="1307013307"/>
    <nd ref="1307013299"/>
    <tag k="access" v="private"/>
    <tag k="addr:city" v="Huntingdon"/>
    <tag k="addr:housename" v="Island Hall"/>
    <tag k="addr:postcode" v="PE29 2BA"/>
    <tag k="addr:street" v="Post Street"/>
    <tag k="building" v="house"/>
    <tag k="heritage" v="2"/>
    <tag k="heritage:operator" v="he"/>
    <tag k="heritage:ref" v="1330716"/>
    <tag k="historic" v="manor"/>
    <tag k="name" v="Island Hall"/>
    <tag k="wikidata" v="Q17544269"/>
  </way>
  <way id="117768758" version="4" timestamp="2023-09-11T22:30:39Z" changeset="141135651" uid="10420541" user="Thingummy">
    <nd ref="1326075241"/>
    <nd ref="1326075246"/>
    <nd ref="1326075238"/>
    <nd ref="1326075239"/>
    <nd ref="6041456339"/>
    <nd ref="1326075241"/>
    <tag k="addr:city" v="Huntingdon"/>
    <tag k="addr:housenumber" v="7-8"/>
    <tag k="addr:postcode" v="PE29 2AE"/>
    <tag k="addr:street" v="The Avenue"/>
    <tag k="building" v="terrace"/>
    <tag k="name" v="bridge terrace"/>
  </way>
  <way id="162072815" version="10" timestamp="2024-07-15T22:33:09Z" changeset="153991674" uid="21425661" user="CjMalone">
    <nd ref="1740176940"/>
    <nd ref="1740176954"/>
    <nd ref="1740176951"/>
    <nd ref="1740176950"/>
    <nd ref="1740176947"/>
    <nd ref="1740176945"/>
    <nd ref="1740176937"/>
    <nd ref="1740176942"/>
    <nd ref="1740176940"/>
    <tag k="addr:city" v="Huntingdon"/>
    <tag k="addr:housenumber" v="32"/>
    <tag k="addr:postcode" v="PE29 2BT"/>
    <tag k="addr:street" v="Cambridge Road"/>
    <tag k="addr:suburb" v="Godmanchester"/>
    <tag k="brand" v="Co-op Food"/>
    <tag k="brand:wikidata" v="Q3277439"/>
    <tag k="brand:wikipedia" v="en:Co-op Food"/>
    <tag k="building" v="retail"/>
    <tag k="check_date" v="2024-07-15"/>
    <tag k="check_date:opening_hours" v="2024-07-15"/>
    <tag k="fhrs:id" v="748539"/>
    <tag k="name" v="Co-op Food"/>
    <tag k="opening_hours" v="Mo-Su 07:00-22:00"/>
    <tag k="operator" v="The Co-operative Group"/>
    <tag k="operator:wikidata" v="Q117202"/>
    <tag k="phone" v="+44 1480 433139"/>
    <tag k="shop" v="supermarket"/>
    <tag k="website" v="https://www.coop.co.uk/store-finder/PE29-2BT/32-cambridge-road"/>
  </way>
  <way id="163694205" version="3" timestamp="2019-01-02T21:58:15Z" changeset="65972342" uid="364" user="Edward">
    <nd ref="1753742081"/>
    <nd ref="1753742094"/>
    <nd ref="1753742089"/>
    <nd ref="1753742083"/>
    <nd ref="1753742081"/>
    <tag k="addr:housename" v="Dial House"/>
    <tag k="addr:street" v="Cambridge road"/>
    <tag k="building" v="yes"/>
    <tag k="name" v="Dial House"/>
    <tag k="wikidata" v="Q26615638"/>
  </way>
  <way id="229904888" version="2" timestamp="2023-09-12T10:30:44Z" changeset="141156580" uid="10420541" user="Thingummy">
    <nd ref="2384408920"/>
    <nd ref="2384408989"/>
    <nd ref="2384408957"/>
    <nd ref="2384408841"/>
    <nd ref="2384408931"/>
    <nd ref="2384408668"/>
    <nd ref="2384408783"/>
    <nd ref="2384408901"/>
    <nd ref="2384408981"/>
    <nd ref="2384408774"/>
    <nd ref="2384408840"/>
    <nd ref="2384408920"/>
    <tag k="addr:housenumber" v="32"/>
    <tag k="addr:street" v="Post Street"/>
    <tag k="building" v="hotel"/>
    <tag k="name" v="The Black Bull"/>
  </way>
  <way id="229904910" version="2" timestamp="2023-08-06T20:10:22Z" changeset="139531184" uid="10420541" user="Thingummy">
    <nd ref="2384408949"/>
    <nd ref="2384408742"/>
    <nd ref="2384408921"/>
    <nd ref="2384408847"/>
    <nd ref="2384408911"/>
    <nd ref="2384408864"/>
    <nd ref="2384408898"/>
    <nd ref="2384408809"/>
    <nd ref="2384409004"/>
    <nd ref="2384408990"/>
    <nd ref="2384408996"/>
    <nd ref="2384408949"/>
    <tag k="addr:parentstreet" v="Cambridge Street"/>
    <tag k="addr:street" v="Tudor Court"/>
    <tag k="building" v="residential"/>
    <tag k="name" v="Tudor Court"/>
  </way>
  <way id="229904914" version="2" timestamp="2020-08-18T08:20:45Z" changeset="89560461" uid="52797" user="hofoen">
    <nd ref="2384408912"/>
    <nd ref="2384408915"/>
    <nd ref="2384408808"/>
    <nd ref="2384408839"/>
    <nd ref="2384408952"/>
    <nd ref="2384408857"/>
    <nd ref="2384408912"/>
    <tag k="addr:housenumber" v="34"/>
    <tag k="addr:street" v="Post Street"/>
    <tag k="building" v="yes"/>
    <tag k="heritage" v="yes"/>
    <tag k="name" v="The Post House"/>
    <tag k="wikidata" v="Q26455859"/>
  </way>
  <way id="229908743" version="5" timestamp="2024-05-14T23:47:03Z" changeset="151335840" uid="10420541" user="Thingummy">
    <nd ref="2384442364"/>
    <nd ref="2384442520"/>
    <nd ref="2384442359"/>
    <nd ref="2384442490"/>
    <nd ref="2384442425"/>
    <nd ref="2384442427"/>
    <nd ref="2384442364"/>
    <tag k="addr:city" v="Huntingdon"/>
    <tag k="addr:housenumber" v="50"/>
    <tag k="addr:postcode" v="PE29 2AY"/>
    <tag k="addr:street" v="Cambridge Street"/>
    <tag k="amenity" v="dentist"/>
    <tag k="building" v="yes"/>
    <tag k="fee" v="yes"/>
    <tag k="healthcare" v="dentist"/>
    <tag k="healthcare:speciality" v="dentistry"/>
    <tag k="name" v="Godmanchester Dental"/>
  </way>
  <way id="229909527" version="2" timestamp="2023-11-17T20:28:37Z" changeset="144153738" uid="10420541" user="Thingummy">
    <nd ref="2384450181"/>
    <nd ref="2384450273"/>
    <nd ref="2384450209"/>
    <nd ref="2384450555"/>
    <nd ref="2384450181"/>
    <tag k="addr:street" v="Causeway"/>
    <tag k="amenity" v="cafe"/>
    <tag k="building" v="yes"/>
    <tag k="cuisine" v="coffee_shop"/>
    <tag k="name" v="Pinnies"/>
    <tag k="operator" v="Mencap"/>
    <tag k="operator:type" v="charitable"/>
    <tag k="website" v="https://www.huntingdonmencap.co.uk/pinnies-tea-room/"/>
  </way>
  <way id="229909554" version="6" timestamp="2024-04-08T18:01:22Z" changeset="149746635" uid="10420541" user="Thingummy">
    <nd ref="2384450563"/>
    <nd ref="2384450135"/>
    <nd ref="2384450399"/>
    <nd ref="2384450436"/>
    <nd ref="11802547326"/>
    <nd ref="2384450393"/>
    <nd ref="2384450563"/>
    <tag k="addr:city" v="Huntingdon"/>
    <tag k="addr:housename" v="View house"/>
    <tag k="addr:housenumber" v="14"/>
    <tag k="addr:postcode" v="PE29 2HA"/>
    <tag k="addr:street" v="Causeway"/>
    <tag k="amenity" v="childcare"/>
    <tag k="building" v="yes"/>
    <tag k="heritage" v="2"/>
    <tag k="heritage:operator" v="he"/>
    <tag k="heritage:ref" v="1128662"/>
    <tag k="name" v="Ducklings"/>
    <tag k="start_date" v="~1900"/>
  </way>
  <way id="230961758" version="2" timestamp="2022-11-15T13:50:59Z" changeset="128943543" uid="10420541" user="Thingummy">
    <nd ref="2393851108"/>
    <nd ref="2393851131"/>
    <nd ref="2393851147"/>
    <nd ref="2393851138"/>
    <nd ref="2393851108"/>
    <tag k="addr:street" v="Old Court Hall"/>
    <tag k="building" v="house"/>
    <tag k="heritage:operator" v="English Heritage"/>
    <tag k="name" v="Westbury Barn"/>
  </way>
  <way id="230961759" version="7" timestamp="2023-11-03T14:30:32Z" changeset="143577303" uid="242345" user="confusedbuffalo">
    <nd ref="2393851136"/>
    <nd ref="2393851097"/>
    <nd ref="2393851168"/>
    <nd ref="2393851166"/>
    <nd ref="11163604202"/>
    <nd ref="2393851158"/>
    <nd ref="11163604191"/>
    <nd ref="11163604192"/>
    <nd ref="2393851104"/>
    <nd ref="11163604203"/>
    <nd ref="2393851099"/>
    <nd ref="2393851136"/>
    <tag k="addr:city" v="Huntingdon"/>
    <tag k="addr:housenumber" v="7"/>
    <tag k="addr:postcode" v="PE29 2HS"/>
    <tag k="addr:street" v="Old Court Hall"/>
    <tag k="building" v="yes"/>
    <tag k="craft" v="engraver"/>
    <tag k="email" v="stanjay@ntlworld.com"/>
    <tag k="name" v="Stanjay Sports"/>
    <tag k="phone" v="+44 1480 453303"/>
    <tag k="shop" v="trophy"/>
    <tag k="vending" v="fishing_tackle"/>
    <tag k="website" v="https://www.stanjayfishingandtrophies.co.uk/engraving"/>
  </way>
  <way id="230961765" version="9" timestamp="2023-12-07T10:45:26Z" changeset="144861966" uid="1802093" user="Paul Berry">
    <nd ref="2393851116"/>
    <nd ref="2393851148"/>
    <nd ref="2393851110"/>
    <nd ref="9755088547"/>
    <nd ref="9755088548"/>
    <nd ref="9755088546"/>
    <nd ref="9755088543"/>
    <nd ref="9755068885"/>
    <nd ref="9755088544"/>
    <nd ref="9755088545"/>
    <nd ref="2393851103"/>
    <nd ref="2393851115"/>
    <nd ref="9755068886"/>
    <nd ref="2393851152"/>
    <nd ref="2393851102"/>
    <nd ref="2393851116"/>
    <tag k="addr:city" v="Huntingdon"/>
    <tag k="addr:housenumber" v="1"/>
    <tag k="addr:postcode" v="PE29 2JH"/>
    <tag k="addr:street" v="Pinfold Lane"/>
    <tag k="addr:suburb" v="Godmanchester"/>
    <tag k="amenity" v="doctors"/>
    <tag k="building" v="healthcare"/>
    <tag k="healthcare" v="doctor"/>
    <tag k="name" v="Roman Gate Surgery"/>
    <tag k="operator" v="The Hicks Group"/>
    <tag k="phone" v="+44 1480 455331;+44 1480 453038"/>
    <tag k="post:city" v="Huntingdon"/>
  </way>
  <way id="231209665" version="2" timestamp="2024-04-08T17:47:22Z" changeset="149746005" uid="10420541" user="Thingummy">
    <nd ref="2396170089"/>
    <nd ref="2396170174"/>
    <nd ref="2396170217"/>
    <nd ref="2396169691"/>
    <nd ref="2396169970"/>
    <nd ref="2396169804"/>
    <nd ref="2396170089"/>
    <tag k="addr:housenumber" v="7"/>
    <tag k="addr:street" v="Cambridge Road"/>
    <tag k="amenity" v="childcare"/>
    <tag k="building" v="yes"/>
    <tag k="name" v="Grove Villa"/>
  </way>
  <way id="563684903" version="8" timestamp="2024-09-02T17:00:00Z" changeset="156108280" uid="10420541" user="Thingummy">
    <nd ref="5431797250"/>
    <nd ref="5431797248"/>
    <nd ref="12151927780"/>
    <nd ref="5431797249"/>
    <nd ref="5431797251"/>
    <nd ref="5431797250"/>
    <tag k="addr:city" v="Huntingdon"/>
    <tag k="addr:housenumber" v="2"/>
    <tag k="addr:postcode" v="PE29 2NL"/>
    <tag k="addr:street" v="Butcher Drive"/>
    <tag k="addr:suburb" v="Godmanchester"/>
    <tag k="building" v="school"/>
    <tag k="building:levels" v="1"/>
    <tag k="name" v="Godmanchester Bridge Academy Pre-School"/>
    <tag k="phone" v="+44 1954231751"/>
    <tag k="website" v="www.pre-school.org.uk/cambridgeshire-peterborough"/>
  </way>
  <way id="569485670" version="4" timestamp="2023-12-07T10:45:26Z" changeset="144861966" uid="1802093" user="Paul Berry">
    <nd ref="5476843612"/>
    <nd ref="5476843613"/>
    <nd ref="10634481574"/>
    <nd ref="10048919309"/>
    <nd ref="5476843615"/>
    <nd ref="5476843616"/>
    <nd ref="5476843617"/>
    <nd ref="5476843618"/>
    <nd ref="5476843619"/>
    <nd ref="5476843620"/>
    <nd ref="5476844721"/>
    <nd ref="5476844722"/>
    <nd ref="5476844723"/>
    <nd ref="5476843612"/>
    <tag k="addr:city" v="Huntingdon"/>
    <tag k="addr:housename" v="Rectory Farm"/>
    <tag k="addr:locality" v="Rectory Farm"/>
    <tag k="addr:postcode" v="PE29 2BP"/>
    <tag k="addr:street" v="Cambridge Road"/>
    <tag k="addr:suburb" v="Godmanchester"/>
    <tag k="building" v="farm"/>
    <tag k="name" v="Rectory Farm"/>
    <tag k="shop" v="farm"/>
  </way>
  <way id="570468752" version="5" timestamp="2023-10-13T00:10:45Z" changeset="142500460" uid="10420541" user="Thingummy">
    <nd ref="5484533340"/>
    <nd ref="5484533341"/>
    <nd ref="5484533342"/>
    <nd ref="5484533344"/>
    <nd ref="5484533345"/>
    <nd ref="5484533343"/>
    <nd ref="5484533340"/>
    <tag k="addr:city" v="Huntingdon"/>
    <tag k="addr:housename" v="Danescroft"/>
    <tag k="addr:housenumber" v="1-16"/>
    <tag k="addr:postcode" v="PE29 2DQ"/>
    <tag k="addr:street" v="Bascraft Way"/>
    <tag k="addr:unit" v="1 -16"/>
    <tag k="building" v="apartments"/>
    <tag k="name" v="Danescroft"/>
  </way>
  <way id="570468753" version="4" timestamp="2023-11-25T18:48:00Z" changeset="144450431" uid="13445" user="zorque">
    <nd ref="5484533346"/>
    <nd ref="5484533347"/>
    <nd ref="5484533348"/>
    <nd ref="5484533349"/>
    <nd ref="5484533350"/>
    <nd ref="5484533351"/>
    <nd ref="5484533352"/>
    <nd ref="5484533353"/>
    <nd ref="5484533354"/>
    <nd ref="5484533355"/>
    <nd ref="5484533356"/>
    <nd ref="5484533357"/>
    <nd ref="5484533358"/>
    <nd ref="5484533359"/>
    <nd ref="5484533360"/>
    <nd ref="5484533361"/>
    <nd ref="5484533362"/>
    <nd ref="5484533363"/>
    <nd ref="5484533364"/>
    <nd ref="5484533365"/>
    <nd ref="5484533366"/>
    <nd ref="306562206"/>
    <nd ref="5484533367"/>
    <nd ref="5484533368"/>
    <nd ref="9764009863"/>
    <nd ref="5484533369"/>
    <nd ref="5484533370"/>
    <nd ref="5484533371"/>
    <nd ref="5484533372"/>
    <nd ref="5484533373"/>
    <nd ref="5484533346"/>
    <tag k="addr:city" v="Huntingdon"/>
    <tag k="addr:postcode" v="PE29 2NJ"/>
    <tag k="addr:street" v="Mowlands"/>
    <tag k="addr:suburb" v="Godmanchester"/>
    <tag k="building" v="apartments"/>
    <tag k="building:levels" v="2"/>
    <tag k="name" v="McCartney House"/>
    <tag k="operator" v="Muir Living"/>
    <tag k="social_facility" v="assisted_living"/>
  </way>
  <way id="570705849" version="6" timestamp="2024-02-16T20:45:36Z" changeset="147548329" uid="10420541" user="Thingummy">
    <nd ref="5486678899"/>
    <nd ref="5486678900"/>
    <nd ref="5486678901"/>
    <nd ref="5486678902"/>
    <nd ref="5486678903"/>
    <nd ref="5486678904"/>
    <nd ref="5486678905"/>
    <nd ref="5486678906"/>
    <nd ref="5486678907"/>
    <nd ref="5486678908"/>
    <nd ref="9569892504"/>
    <nd ref="5486678899"/>
    <tag k="addr:city" v="Huntingdon"/>
    <tag k="addr:housename" v="Judith's Field Paillion"/>
    <tag k="addr:postcode" v="PE29 2WB"/>
    <tag k="addr:street" v="London Road"/>
    <tag k="addr:suburb" v="Godmanchester"/>
    <tag k="building" v="civic"/>
    <tag k="building:levels" v="1"/>
    <tag k="height" v="3"/>
    <tag k="name" v="Judith's Field Pavillion"/>
    <tag k="operator" v="Godmanchester Town Council"/>
    <tag k="operator:website" v="https://gmccouncil.com/council-services/hall-hire/"/>
    <tag k="smoking" v="no"/>
  </way>
  <way id="663558752" version="15" timestamp="2024-07-15T16:01:25Z" changeset="153979415" uid="21425661" user="CjMalone">
    <nd ref="6210848916"/>
    <nd ref="6210848913"/>
    <nd ref="10223420483"/>
    <nd ref="6514070428"/>
    <nd ref="10223420470"/>
    <nd ref="11804370752"/>
    <nd ref="6210848914"/>
    <nd ref="6210848917"/>
    <nd ref="6210848915"/>
    <nd ref="6210848916"/>
    <tag k="addr:city" v="Huntingdon"/>
    <tag k="addr:housename" v="King James Retail Centre"/>
    <tag k="addr:postcode" v="PE29 2PA"/>
    <tag k="addr:street" v="Ermine Street"/>
    <tag k="addr:suburb" v="Godmanchester"/>
    <tag k="addr:unit" v="Unit 1"/>
    <tag k="brand" v="Co-op Food"/>
    <tag k="brand:wikidata" v="Q3277439"/>
    <tag k="brand:wikipedia" v="en:Co-op Food"/>
    <tag k="building" v="yes"/>
    <tag k="check_date" v="2024-07-15"/>
    <tag k="check_date:opening_hours" v="2024-07-15"/>
    <tag k="fhrs:id" v="1036869"/>
    <tag k="name" v="Co-op Food"/>
    <tag k="opening_hours" v="Mo-Su 07:00-22:00"/>
    <tag k="operator" v="Central England Co-operative"/>
    <tag k="operator:wikidata" v="Q16986583"/>
    <tag k="phone" v="+44 1480 450033"/>
    <tag k="shop" v="supermarket"/>
    <tag k="website" v="https://stores.centralengland.coop/cambridgeshire/godmanchester/king-james-retail-centre"/>
  </way>
  <way id="1130165610" version="3" timestamp="2024-04-19T12:21:59Z" changeset="150221212" uid="95856" user="john paul jones &amp; gringo">
    <nd ref="10490244945"/>
    <nd ref="11806716955"/>
    <nd ref="11806716954"/>
    <nd ref="11806716953"/>
    <nd ref="11806746283"/>
    <nd ref="10490244946"/>
    <nd ref="11806746282"/>
    <nd ref="11806746281"/>
    <nd ref="11806746280"/>
    <nd ref="11806746279"/>
    <nd ref="11806746278"/>
    <nd ref="11806746277"/>
    <nd ref="11806746276"/>
    <nd ref="11806746275"/>
    <nd ref="11806746274"/>
    <nd ref="11806746273"/>
    <nd ref="10490244947"/>
    <nd ref="11806746290"/>
    <nd ref="10490244948"/>
    <nd ref="11806746285"/>
    <nd ref="11806746284"/>
    <nd ref="11806746272"/>
    <nd ref="11806716963"/>
    <nd ref="11806716964"/>
    <nd ref="11806716965"/>
    <nd ref="11806716966"/>
    <nd ref="11806716967"/>
    <nd ref="11806716968"/>
    <nd ref="11806746269"/>
    <nd ref="11806746271"/>
    <nd ref="11806746270"/>
    <nd ref="11806716962"/>
    <nd ref="11806716961"/>
    <nd ref="11806716959"/>
    <nd ref="11806716958"/>
    <nd ref="11806716957"/>
    <nd ref="11806716956"/>
    <nd ref="10490244945"/>
    <tag k="addr:city" v="Huntingdon"/>
    <tag k="addr:country" v="GB"/>
    <tag k="addr:district" v="Huntingdonshire"/>
    <tag k="addr:housename" v="Saxon Manor Care Home"/>
    <tag k="addr:postcode" v="PE29 2FF"/>
    <tag k="addr:street" v="Russet Close"/>
    <tag k="addr:suburb" v="Godmanchester"/>
    <tag k="amenity" v="social_facility"/>
    <tag k="building" v="residential"/>
    <tag k="name" v="Saxon Manor"/>
    <tag k="nohousenumber" v="yes"/>
    <tag k="operator" v="Avery Healthcare Group"/>
    <tag k="operator:type" v="private"/>
    <tag k="owner" v="Willowbrook"/>
    <tag k="social_facility" v="nursing_home"/>
    <tag k="social_facility:for" v="senior;mental_health"/>
    <tag k="wheelchair" v="yes"/>
  </way>
  <way id="1196022600" version="3" timestamp="2024-06-27T09:09:36Z" changeset="153237734" uid="10420541" user="Thingummy">
    <nd ref="2384421586"/>
    <nd ref="11187511386"/>
    <nd ref="11187511385"/>
    <nd ref="2384421494"/>
    <nd ref="11187511383"/>
    <nd ref="11187511382"/>
    <nd ref="12014577962"/>
    <nd ref="2384421535"/>
    <nd ref="2384421586"/>
    <tag k="addr:housenumber" v="59"/>
    <tag k="addr:street" v="Cambridge Street"/>
    <tag k="building" v="house"/>
    <tag k="building:colour" v="white"/>
    <tag k="building:material" v="timber_framing"/>
    <tag k="heritage" v="2"/>
    <tag k="heritage:operator" v="he"/>
    <tag k="heritage:ref" v="1310066"/>
    <tag k="historic:period" v="tudor"/>
    <tag k="name" v="The Limes"/>
  </way>
  <way id="1224873954" version="2" timestamp="2024-04-08T18:01:22Z" changeset="149746635" uid="10420541" user="Thingummy">
    <nd ref="11802644973"/>
    <nd ref="11359055698"/>
    <nd ref="11359055699"/>
    <nd ref="11359055700"/>
    <nd ref="11359055701"/>
    <nd ref="11359055702"/>
    <nd ref="11359055703"/>
    <nd ref="2384450187"/>
    <nd ref="11802644973"/>
    <tag k="addr:housenumber" v="19"/>
    <tag k="addr:street" v="Causeway"/>
    <tag k="amenity" v="childcare"/>
    <tag k="building" v="yes"/>
    <tag k="name" v="Clarence House"/>
  </way>
  <way id="1224873956" version="1" timestamp="2023-11-17T20:28:37Z" changeset="144153738" uid="10420541" user="Thingummy">
    <nd ref="11359055712"/>
    <nd ref="11359055713"/>
    <nd ref="11359055714"/>
    <nd ref="11359055715"/>
    <nd ref="11359055712"/>
    <tag k="addr:city" v="Godmanchester"/>
    <tag k="addr:housenumber" v="8"/>
    <tag k="addr:street" v="Causeway"/>
    <tag k="building" v="yes"/>
    <tag k="male" v="yes"/>
    <tag k="name" v="Bee's Barber"/>
    <tag k="shop" v="hairdresser"/>
    <tag k="website" v="http://www.beesbarbers.com"/>
  </way>

</osm>
