<?xml version="1.0" encoding="UTF-8"?>
<osm version="0.6" generator="Overpass API 0.7.62.4 2390de5a">
<note>The data included in this document is from www.openstreetmap.org. The data is made available under ODbL.</note>
<meta osm_base="2025-01-21T14:27:30Z" areas="2024-12-31T00:49:33Z"/>

  <node id="30152962" lat="52.0956220" lon="0.2701632" version="5" timestamp="2019-02-04T10:42:15Z" changeset="66899076" uid="5173844" user="ndrw6">
    <tag k="addr:city" v="Cambridge"/>
    <tag k="addr:housename" v="Station House"/>
    <tag k="addr:postcode" v="CB21 4NW"/>
    <tag k="addr:street" v="Station Road"/>
    <tag k="addr:village" v="Linton"/>
    <tag k="name" v="The GeoInformation Group"/>
    <tag k="office" v="company"/>
  </node>
  <node id="30152966" lat="52.0979157" lon="0.2772189" version="4" timestamp="2020-10-15T16:48:31Z" changeset="92534907" uid="7329" user="Jez Nicholson">
    <tag k="addr:housenumber" v="63"/>
    <tag k="addr:postcode" v="CB21 4HS"/>
    <tag k="addr:street" v="High Street"/>
    <tag k="amenity" v="pub"/>
    <tag k="fhrs:id" v="596715"/>
    <tag k="name" v="Dog &amp; Duck"/>
    <tag k="wikidata" v="Q26456060"/>
  </node>
  <node id="30153024" lat="52.0970322" lon="0.2868086" version="3" timestamp="2020-10-15T16:48:31Z" changeset="92534907" uid="7329" user="Jez Nicholson">
    <tag k="addr:housenumber" v="6-8"/>
    <tag k="addr:postcode" v="CB21 4LY"/>
    <tag k="addr:street" v="Bartlow Road"/>
    <tag k="amenity" v="restaurant"/>
    <tag k="fhrs:id" v="596795"/>
    <tag k="name" v="Linton Tandoori"/>
  </node>
  <node id="30153028" lat="52.0975045" lon="0.2832695" version="4" timestamp="2020-10-15T16:48:31Z" changeset="92534907" uid="7329" user="Jez Nicholson">
    <tag k="addr:housenumber" v="110"/>
    <tag k="addr:postcode" v="CB21 4JT"/>
    <tag k="addr:street" v="High Street"/>
    <tag k="amenity" v="pub"/>
    <tag k="fhrs:id" v="596753"/>
    <tag k="name" v="Waggon &amp; Horses"/>
    <tag k="wikidata" v="Q26420570"/>
  </node>
  <node id="1751073095" lat="52.0934117" lon="0.2737573" version="6" timestamp="2019-03-25T06:50:03Z" changeset="68495008" uid="9451067" user="b-jazz-bot">
    <tag k="addr:city" v="Cambridge"/>
    <tag k="addr:country" v="GB"/>
    <tag k="addr:housenumber" v="Unit 12 C&amp;D"/>
    <tag k="addr:postcode" v="CB21 4XN"/>
    <tag k="addr:street" v="The Grip Industrial Estate"/>
    <tag k="addr:unit" v="12 C, D"/>
    <tag k="internet_access" v="wlan"/>
    <tag k="leisure" v="playground"/>
    <tag k="name" v="Spotted Giraffe"/>
    <tag k="opening_hours" v="Mo 13:00-18:00, Tu-Fr 09:00-18:00, Sa-Su 10:00-16:00"/>
    <tag k="phone" v="+44 1223 892226"/>
    <tag k="playground" v="structure"/>
    <tag k="website" v="https://www.spottedgiraffe.co.uk/"/>
  </node>
  <node id="1751073148" lat="52.0977883" lon="0.2786118" version="3" timestamp="2020-10-15T16:48:31Z" changeset="92534907" uid="7329" user="Jez Nicholson">
    <tag k="addr:housenumber" v="77"/>
    <tag k="addr:postcode" v="CB21 4HS"/>
    <tag k="addr:street" v="High Street"/>
    <tag k="fhrs:id" v="596813"/>
    <tag k="name" v="Sweet Talk News"/>
    <tag k="shop" v="convenience"/>
  </node>
  <node id="6531792535" lat="52.0960895" lon="0.2703364" version="1" timestamp="2019-06-07T10:31:49Z" changeset="71018424" uid="3859843" user="billfred51">
    <tag k="addr:city" v="Linton"/>
    <tag k="addr:housename" v="Photon House"/>
    <tag k="addr:postcode" v="CB21 4NW"/>
    <tag k="addr:street" v="Station Road"/>
    <tag k="name" v="Comar Optics Ltd."/>
    <tag k="office" v="yes"/>
  </node>
  <node id="6562869906" lat="52.0976289" lon="0.2817111" version="1" timestamp="2019-06-21T12:02:43Z" changeset="71478844" uid="1287673" user="sloerunner">
    <tag k="addr:housenumber" v="94"/>
    <tag k="addr:postcode" v="CB21 4JT"/>
    <tag k="addr:street" v="High Street"/>
    <tag k="name" v="Farm Shop At The Old Granary"/>
    <tag k="shop" v="farm"/>
  </node>
  <node id="6562869907" lat="52.0976780" lon="0.2817372" version="4" timestamp="2023-08-09T20:39:34Z" changeset="139677501" uid="3199858" user="Mateusz Konieczny - bot account">
    <tag k="addr:housenumber" v="113"/>
    <tag k="addr:postcode" v="CB21 4JT"/>
    <tag k="addr:street" v="High Street"/>
    <tag k="fhrs:id" v="596762"/>
    <tag k="name" v="Jigsaw Bakery"/>
    <tag k="opening_hours" v="We-Fr 11:00-18:00; Sa 11:00-14:00"/>
    <tag k="shop" v="bakery"/>
  </node>
  <node id="6562869908" lat="52.0976767" lon="0.2818157" version="2" timestamp="2020-07-21T21:59:31Z" changeset="88313938" uid="8661831" user="Colin_Jones">
    <tag k="addr:housenumber" v="113a"/>
    <tag k="addr:postcode" v="CB21 4JT"/>
    <tag k="addr:street" v="High Street"/>
    <tag k="name" v="Home"/>
    <tag k="phone" v="+44 1223 943961"/>
    <tag k="shop" v="gift"/>
    <tag k="website" v="https://lintonhome.co.uk"/>
  </node>
  <node id="8259203590" lat="52.0968301" lon="0.2755090" version="3" timestamp="2022-09-10T09:58:44Z" changeset="126008732" uid="5173844" user="ndrw6">
    <tag k="addr:city" v="Linton"/>
    <tag k="addr:housenumber" v="30"/>
    <tag k="addr:postcode" v="CB21 4HS"/>
    <tag k="addr:street" v="High Street"/>
    <tag k="amenity" v="cafe"/>
    <tag k="contact:facebook" v="LintonKitchen"/>
    <tag k="contact:instagram" v="thelintonkitchen"/>
    <tag k="contact:twitter" v="LintonKitchen"/>
    <tag k="name" v="Linton Kitchen"/>
    <tag k="opening_hours" v="Tu-Sa 09:00-17:00; Su 10:00-15:00"/>
    <tag k="phone" v="+44 1223 894949"/>
    <tag k="website" v="www.lintonkitchen.co.uk"/>
  </node>
  <way id="4731554" version="8" timestamp="2023-10-05T13:28:28Z" changeset="142190236" uid="37791" user="Fradeve11">
    <nd ref="30153019"/>
    <nd ref="30153018"/>
    <nd ref="30153009"/>
    <nd ref="30153010"/>
    <nd ref="30153011"/>
    <nd ref="30153012"/>
    <nd ref="10012955373"/>
    <nd ref="10012955374"/>
    <nd ref="1905267829"/>
    <nd ref="30153013"/>
    <nd ref="30153014"/>
    <nd ref="30153015"/>
    <nd ref="2804680185"/>
    <nd ref="2804681021"/>
    <nd ref="30153016"/>
    <nd ref="10012955592"/>
    <nd ref="30153017"/>
    <nd ref="1905267853"/>
    <nd ref="1905267881"/>
    <nd ref="2804681037"/>
    <nd ref="30153019"/>
    <tag k="addr:postcode" v="CB21 4XB"/>
    <tag k="addr:street" v="Wheatsheaf Way"/>
    <tag k="amenity" v="school"/>
    <tag k="capacity" v="240"/>
    <tag k="isced:level" v="1"/>
    <tag k="max_age" v="11"/>
    <tag k="min_age" v="7"/>
    <tag k="name" v="Linton Heights Junior School"/>
    <tag k="phone" v="+44 1223 892210"/>
    <tag k="ref:GB:uprn" v="100091411083"/>
    <tag k="ref:edubase" v="143576"/>
    <tag k="ref:edubase:group" v="16031"/>
    <tag k="school:trust" v="yes"/>
    <tag k="school:trust:name" v="Anglian Learning"/>
    <tag k="school:trust:type" v="multi_academy"/>
    <tag k="school:type" v="academy"/>
    <tag k="website" v="https://www.lintonheights.cambs.sch.uk/"/>
    <tag k="wikidata" v="Q66231651"/>
  </way>
  <way id="237312170" version="9" timestamp="2024-07-15T22:33:09Z" changeset="153991674" uid="21425661" user="CjMalone">
    <nd ref="30153033"/>
    <nd ref="30153030"/>
    <nd ref="7039647622"/>
    <nd ref="7039647623"/>
    <nd ref="7039647624"/>
    <nd ref="30153033"/>
    <tag k="addr:city" v="Cambridge"/>
    <tag k="addr:housenumber" v="106"/>
    <tag k="addr:postcode" v="CB21 4JT"/>
    <tag k="addr:street" v="High Street"/>
    <tag k="addr:village" v="Linton"/>
    <tag k="brand" v="The Co-operative Food"/>
    <tag k="brand:wikidata" v="Q107617274"/>
    <tag k="building" v="yes"/>
    <tag k="check_date" v="2024-07-15"/>
    <tag k="check_date:opening_hours" v="2024-07-15"/>
    <tag k="fhrs:id" v="596814"/>
    <tag k="name" v="The Co-operative Food"/>
    <tag k="opening_hours" v="Mo-Su 07:00-22:00"/>
    <tag k="operator" v="The Co-operative Group"/>
    <tag k="operator:wikidata" v="Q117202"/>
    <tag k="phone" v="+44 1223 891258"/>
    <tag k="shop" v="supermarket"/>
    <tag k="website" v="https://www.coop.co.uk/store-finder/CB21-4JT/106-high-street"/>
  </way>
  <way id="237312325" version="2" timestamp="2023-02-15T09:30:55Z" changeset="132572515" uid="84263" user="Robert Whittaker">
    <nd ref="2452333463"/>
    <nd ref="2452333465"/>
    <nd ref="2452333467"/>
    <nd ref="2452333469"/>
    <nd ref="2452333462"/>
    <nd ref="2452333463"/>
    <tag k="addr:housename" v="Granta Filling Station"/>
    <tag k="addr:postcode" v="CB21 4NL"/>
    <tag k="addr:street" v="Linton By-Pass"/>
    <tag k="brand" v="Mace"/>
    <tag k="brand:wikidata" v="Q75240338"/>
    <tag k="building" v="yes"/>
    <tag k="name" v="Mace"/>
    <tag k="shop" v="convenience"/>
  </way>
  <way id="275798313" version="7" timestamp="2023-09-21T08:21:28Z" changeset="141546567" uid="37791" user="Fradeve11">
    <nd ref="2804681062"/>
    <nd ref="2804681019"/>
    <nd ref="30152981"/>
    <nd ref="2804680187"/>
    <nd ref="2804681017"/>
    <nd ref="2804681011"/>
    <nd ref="10012956092"/>
    <nd ref="2804681068"/>
    <nd ref="2804681008"/>
    <nd ref="2804680200"/>
    <nd ref="2804681027"/>
    <nd ref="2804680189"/>
    <nd ref="2804681062"/>
    <tag k="addr:postcode" v="CB21 4JX"/>
    <tag k="addr:street" v="Church Lane"/>
    <tag k="amenity" v="school"/>
    <tag k="capacity" v="180"/>
    <tag k="denomination" v="anglican"/>
    <tag k="diocese" v="Diocese of Ely"/>
    <tag k="isced:level" v="1"/>
    <tag k="max_age" v="7"/>
    <tag k="min_age" v="5"/>
    <tag k="name" v="Linton CofE Infant School"/>
    <tag k="phone" v="+44 1223 891421"/>
    <tag k="ref:GB:uprn" v="100091410672"/>
    <tag k="ref:edubase" v="110832"/>
    <tag k="religion" v="christian"/>
    <tag k="school:boarding" v="no"/>
    <tag k="school:gender" v="mixed"/>
    <tag k="school:selective" v="no"/>
    <tag k="school:trust" v="no"/>
    <tag k="school:type" v="voluntary_aided"/>
    <tag k="website" v="https://www.lintoninfants.com"/>
    <tag k="wikidata" v="Q66223655"/>
  </way>
  <way id="478246644" version="2" timestamp="2023-01-28T00:30:39Z" changeset="131792931" uid="3999" user="BarryMyles">
    <nd ref="4714863143"/>
    <nd ref="4714863144"/>
    <nd ref="4714863145"/>
    <nd ref="4714863146"/>
    <nd ref="4714863143"/>
    <tag k="addr:city" v="Linton"/>
    <tag k="addr:postcode" v="CB21 4JF"/>
    <tag k="addr:street" v="Back Road"/>
    <tag k="building" v="yes"/>
    <tag k="name" v="Linton Telephone Exchange"/>
    <tag k="operator" v="Openreach"/>
    <tag k="operator:wikidata" v="Q7096543"/>
    <tag k="ref" v="EALNT"/>
    <tag k="telecom" v="exchange"/>
  </way>
  <way id="626619727" version="4" timestamp="2023-10-10T15:31:22Z" changeset="142399098" uid="37791" user="Fradeve11">
    <nd ref="2452228380"/>
    <nd ref="30152538"/>
    <nd ref="1270244441"/>
    <nd ref="30152537"/>
    <nd ref="30152545"/>
    <nd ref="2452228612"/>
    <nd ref="2347363694"/>
    <nd ref="30152543"/>
    <nd ref="30152526"/>
    <nd ref="30152542"/>
    <nd ref="30152541"/>
    <nd ref="30152540"/>
    <nd ref="30152539"/>
    <nd ref="1270244192"/>
    <nd ref="1270244775"/>
    <nd ref="5915736523"/>
    <nd ref="5915736521"/>
    <nd ref="5915736528"/>
    <nd ref="5915736524"/>
    <nd ref="5915736525"/>
    <nd ref="5915736526"/>
    <nd ref="5915736527"/>
    <nd ref="5915736529"/>
    <nd ref="5915736530"/>
    <nd ref="5915736531"/>
    <nd ref="5915736520"/>
    <nd ref="5915736522"/>
    <nd ref="2452228380"/>
    <tag k="addr:postcode" v="CB21 4JB"/>
    <tag k="addr:street" v="Cambridge Road"/>
    <tag k="amenity" v="school"/>
    <tag k="capacity" v="918"/>
    <tag k="isced:level" v="2"/>
    <tag k="max_age" v="16"/>
    <tag k="min_age" v="11"/>
    <tag k="name" v="Linton Village College"/>
    <tag k="phone" v="+44 1223 891233"/>
    <tag k="ref:GB:uprn" v="100091410749"/>
    <tag k="ref:edubase" v="136442"/>
    <tag k="ref:edubase:group" v="16031"/>
    <tag k="school:trust" v="yes"/>
    <tag k="school:trust:name" v="Anglian Learning"/>
    <tag k="school:trust:type" v="multi_academy"/>
    <tag k="school:type" v="academy"/>
    <tag k="website" v="https://www.lvc.org/"/>
    <tag k="wikidata" v="Q6554925"/>
  </way>
  <way id="752080499" version="2" timestamp="2024-07-07T12:29:38Z" changeset="153660011" uid="493595" user="Yorvik Prestigitator">
    <nd ref="7030278725"/>
    <nd ref="7030278722"/>
    <nd ref="30152989"/>
    <nd ref="7030278723"/>
    <nd ref="7030278724"/>
    <nd ref="7030278725"/>
    <tag k="addr:street" v="Coles Lane"/>
    <tag k="amenity" v="community_centre"/>
    <tag k="building" v="public"/>
    <tag k="community_centre" v="village_hall"/>
    <tag k="name" v="Linton Village Hall"/>
  </way>
  <way id="913805995" version="2" timestamp="2022-02-20T22:14:52Z" changeset="117656759" uid="242345" user="confusedbuffalo">
    <nd ref="2804681048"/>
    <nd ref="2804681020"/>
    <nd ref="2804681006"/>
    <nd ref="2804681063"/>
    <nd ref="2804681058"/>
    <nd ref="2804681053"/>
    <nd ref="2804681059"/>
    <nd ref="2804680199"/>
    <nd ref="2804681040"/>
    <nd ref="2804681044"/>
    <nd ref="2804681007"/>
    <nd ref="2804681038"/>
    <nd ref="2804681018"/>
    <nd ref="2804681033"/>
    <nd ref="2804681048"/>
    <tag k="addr:city" v="Linton"/>
    <tag k="addr:county" v="Cambridgeshire"/>
    <tag k="addr:postcode" v="CB21 4XB"/>
    <tag k="addr:street" v="Wheatsheaf Way"/>
    <tag k="building" v="yes"/>
    <tag k="building:levels" v="1"/>
    <tag k="description" v="Linton Heights Junior School"/>
    <tag k="name" v="Linton Heights Junior School"/>
  </way>
  <relation id="10368501" version="2" timestamp="2021-12-29T21:39:46Z" changeset="115538843" uid="14683432" user="Tawenmund">
    <member type="way" ref="752080547" role="inner"/>
    <member type="way" ref="752080545" role="inner"/>
    <member type="way" ref="752080546" role="inner"/>
    <member type="way" ref="752080548" role="outer"/>
    <tag k="addr:city" v="Linton"/>
    <tag k="addr:housename" v="Symonds House"/>
    <tag k="addr:postcode" v="CB21 4HY"/>
    <tag k="addr:street" v="Symonds Lane"/>
    <tag k="amenity" v="social_facility"/>
    <tag k="building" v="yes"/>
    <tag k="name" v="Symonds House"/>
    <tag k="social_facility" v="nursing_home"/>
    <tag k="social_facility:for" v="senior"/>
    <tag k="type" v="multipolygon"/>
    <tag k="wheelchair" v="yes"/>
  </relation>

</osm>
