<?xml version="1.0" encoding="UTF-8"?>
<osm version="0.6" generator="Overpass API 0.7.62.4 2390de5a">
<note>The data included in this document is from www.openstreetmap.org. The data is made available under ODbL.</note>
<meta osm_base="2024-11-27T17:15:02Z" areas="2024-11-27T10:45:57Z"/>

  <way id="39539119" version="7" timestamp="2024-08-18T20:41:25Z" changeset="155433745" uid="21425661" user="CjMalone">
    <nd ref="7108180342"/>
    <nd ref="7108180341"/>
    <nd ref="7108180344"/>
    <nd ref="473727922"/>
    <nd ref="473727919"/>
    <nd ref="473727921"/>
    <nd ref="7108180342"/>
    <tag k="addr:city" v="Ely"/>
    <tag k="addr:country" v="GB"/>
    <tag k="addr:housenumber" v="2A"/>
    <tag k="addr:postcode" v="CB7 5HH"/>
    <tag k="addr:street" v="Clay Street"/>
    <tag k="addr:town" v="Soham"/>
    <tag k="brand" v="Asda"/>
    <tag k="brand:wikidata" v="Q297410"/>
    <tag k="brand:wikipedia" v="en:Asda"/>
    <tag k="building" v="yes"/>
    <tag k="check_date" v="2024-08-18"/>
    <tag k="check_date:opening_hours" v="2024-08-18"/>
    <tag k="contact:facebook" v="https://www.facebook.com/asdasoham/"/>
    <tag k="contact:twitter" v="asda"/>
    <tag k="contact:website" v="https://storelocator.asda.com/east-of-england/soham/2a-clay-street"/>
    <tag k="fhrs:id" v="710398"/>
    <tag k="name" v="Asda"/>
    <tag k="opening_hours" v="Mo-Sa 07:00-22:00; Su 10:00-16:00"/>
    <tag k="operator" v="Asda Stores Ltd"/>
    <tag k="shop" v="supermarket"/>
    <tag k="source:addr" v="FHRS Open Data"/>
  </way>
  <way id="220758229" version="4" timestamp="2023-11-07T09:02:09Z" changeset="143726366" uid="84263" user="Robert Whittaker">
    <nd ref="2298479038"/>
    <nd ref="2298479063"/>
    <nd ref="2298479083"/>
    <nd ref="2298479056"/>
    <nd ref="2298479077"/>
    <nd ref="2298479049"/>
    <nd ref="2298479042"/>
    <nd ref="2298479012"/>
    <nd ref="2298479048"/>
    <nd ref="2298479021"/>
    <nd ref="2298479057"/>
    <nd ref="2298479034"/>
    <nd ref="2298479038"/>
    <tag k="addr:city" v="Ely"/>
    <tag k="addr:housenumber" v="66"/>
    <tag k="addr:postcode" v="CB7 5AH"/>
    <tag k="addr:street" v="Fordham Road"/>
    <tag k="addr:town" v="Soham"/>
    <tag k="amenity" v="pub"/>
    <tag k="building" v="yes"/>
    <tag k="name" v="Cherry Tree"/>
    <tag k="url" v="www.cherrytree-soham.co.uk"/>
  </way>
  <way id="220813252" version="1" timestamp="2013-05-11T00:02:12Z" changeset="16073148" uid="281267" user="smb1001">
    <nd ref="2299006827"/>
    <nd ref="2299007272"/>
    <nd ref="2299007222"/>
    <nd ref="2299007275"/>
    <nd ref="2299006827"/>
    <tag k="addr:housenumber" v="7"/>
    <tag k="addr:street" v="Churchgate Street"/>
    <tag k="building" v="yes"/>
    <tag k="name" v="The Viva Centre"/>
  </way>
  <way id="220813261" version="7" timestamp="2024-07-15T22:33:09Z" changeset="153991674" uid="21425661" user="CjMalone">
    <nd ref="2299007098"/>
    <nd ref="2299007038"/>
    <nd ref="2299007351"/>
    <nd ref="2299006914"/>
    <nd ref="2299007345"/>
    <nd ref="2299007274"/>
    <nd ref="2299007145"/>
    <nd ref="7110503265"/>
    <nd ref="7110503264"/>
    <nd ref="2299006901"/>
    <nd ref="2299007266"/>
    <nd ref="7110503255"/>
    <nd ref="7110503253"/>
    <nd ref="7110503254"/>
    <nd ref="2299007098"/>
    <tag k="addr:city" v="Ely"/>
    <tag k="addr:housenumber" v="43"/>
    <tag k="addr:postcode" v="CB7 5HA"/>
    <tag k="addr:street" v="High Street"/>
    <tag k="addr:town" v="Soham"/>
    <tag k="brand" v="Co-op Food"/>
    <tag k="brand:wikidata" v="Q3277439"/>
    <tag k="brand:wikipedia" v="en:Co-op Food"/>
    <tag k="building" v="yes"/>
    <tag k="check_date" v="2024-07-15"/>
    <tag k="check_date:opening_hours" v="2024-07-15"/>
    <tag k="fhrs:id" v="336691"/>
    <tag k="name" v="The Co-operative Food"/>
    <tag k="opening_hours" v="Mo-Su 07:00-22:00"/>
    <tag k="operator" v="The Co-operative Group"/>
    <tag k="operator:wikidata" v="Q117202"/>
    <tag k="shop" v="supermarket"/>
    <tag k="source:addr" v="FHRS Open Data"/>
    <tag k="website" v="https://www.coop.co.uk/store-finder/CB7-5HA/43-high-street"/>
  </way>
  <way id="221049315" version="4" timestamp="2020-06-17T14:27:57Z" changeset="86779223" uid="364" user="Edward">
    <nd ref="2301043315"/>
    <nd ref="2301043351"/>
    <nd ref="2301212893"/>
    <nd ref="2301212618"/>
    <nd ref="2301043329"/>
    <nd ref="2301043309"/>
    <nd ref="2301043323"/>
    <nd ref="2301043277"/>
    <nd ref="7110937406"/>
    <nd ref="7110937407"/>
    <nd ref="2301043404"/>
    <nd ref="2301043205"/>
    <nd ref="2301043304"/>
    <nd ref="2301043319"/>
    <nd ref="2301043269"/>
    <nd ref="2301043298"/>
    <nd ref="2301043315"/>
    <tag k="addr:postcode" v="CB7 5HJ"/>
    <tag k="addr:street" v="Clay Street"/>
    <tag k="amenity" v="library"/>
    <tag k="building" v="yes"/>
    <tag k="name" v="Soham Library"/>
    <tag k="operator" v="Cambridgeshire County Council"/>
    <tag k="website" v="https://www.cambridgeshire.gov.uk/soham-library/"/>
    <tag k="wikidata" v="Q55163461"/>
  </way>
  <way id="221177681" version="2" timestamp="2023-10-12T21:56:41Z" changeset="142498518" uid="5173844" user="ndrw6">
    <nd ref="2302318152"/>
    <nd ref="2302318104"/>
    <nd ref="2302318177"/>
    <nd ref="2302318119"/>
    <nd ref="2302318112"/>
    <nd ref="2302318158"/>
    <nd ref="2302318200"/>
    <nd ref="2302318131"/>
    <nd ref="2302318152"/>
    <tag k="addr:housenumber" v="49"/>
    <tag k="addr:postcode" v="CB7 5AD"/>
    <tag k="addr:street" v="Brook Street"/>
    <tag k="amenity" v="restaurant"/>
    <tag k="building" v="yes"/>
    <tag k="cuisine" v="chinese"/>
    <tag k="name" v="Yim Wah House"/>
  </way>
  <way id="288286195" version="1" timestamp="2014-06-16T10:37:18Z" changeset="22961616" uid="2127295" user="Simon Peverett">
    <nd ref="2918460440"/>
    <nd ref="2918460441"/>
    <nd ref="2918460442"/>
    <nd ref="2918460443"/>
    <nd ref="2918460444"/>
    <nd ref="2918460445"/>
    <nd ref="2918460446"/>
    <nd ref="2918460447"/>
    <nd ref="2918460448"/>
    <nd ref="2918460449"/>
    <nd ref="2918460440"/>
    <tag k="addr:city" v="Ely"/>
    <tag k="addr:housenumber" v="6"/>
    <tag k="addr:postcode" v="CB7 5UP"/>
    <tag k="addr:street" v="Long Dolver Drove"/>
    <tag k="building" v="house"/>
    <tag k="name" v="Dane's Lodge"/>
  </way>
  <way id="288286196" version="1" timestamp="2014-06-16T10:37:18Z" changeset="22961616" uid="2127295" user="Simon Peverett">
    <nd ref="2918460450"/>
    <nd ref="2918460451"/>
    <nd ref="2918460452"/>
    <nd ref="2918460453"/>
    <nd ref="2918460450"/>
    <tag k="addr:city" v="Ely"/>
    <tag k="addr:postcode" v="CB7 5UP"/>
    <tag k="addr:street" v="Long Dolver Drove"/>
    <tag k="building" v="yes"/>
    <tag k="name" v="Country Club Kennels"/>
  </way>
  <way id="288286197" version="1" timestamp="2014-06-16T10:37:18Z" changeset="22961616" uid="2127295" user="Simon Peverett">
    <nd ref="2918460454"/>
    <nd ref="2918460455"/>
    <nd ref="2918460456"/>
    <nd ref="2918460457"/>
    <nd ref="2918460454"/>
    <tag k="addr:city" v="Ely"/>
    <tag k="addr:postcode" v="CB7 5UP"/>
    <tag k="addr:street" v="Long Dolver Drove"/>
    <tag k="building" v="yes"/>
    <tag k="name" v="Country Club Cattery"/>
  </way>
  <way id="288286198" version="1" timestamp="2014-06-16T10:37:18Z" changeset="22961616" uid="2127295" user="Simon Peverett">
    <nd ref="2918460458"/>
    <nd ref="2918460459"/>
    <nd ref="2918460460"/>
    <nd ref="2918460461"/>
    <nd ref="2918460458"/>
    <tag k="addr:city" v="Ely"/>
    <tag k="addr:postcode" v="CB7 5UP"/>
    <tag k="addr:street" v="Long Dolver Drove"/>
    <tag k="building" v="yes"/>
    <tag k="name" v="Country Club Kennels &amp; Cattery Office"/>
  </way>
  <way id="437215797" version="3" timestamp="2023-02-01T12:49:32Z" changeset="131962320" uid="2969887" user="eastender">
    <nd ref="4350314954"/>
    <nd ref="4350314955"/>
    <nd ref="4350314953"/>
    <nd ref="4350314952"/>
    <nd ref="4350314954"/>
    <tag k="addr:city" v="Ely"/>
    <tag k="addr:housenumber" v="1-5"/>
    <tag k="addr:postcode" v="CB7 5HB"/>
    <tag k="addr:street" v="High Street"/>
    <tag k="building" v="yes"/>
    <tag k="name" v="Crown Garage (Honda)"/>
    <tag k="phone" v="+44 1353 720779"/>
    <tag k="shop" v="car"/>
  </way>
  <way id="640682889" version="6" timestamp="2024-07-22T20:44:47Z" changeset="154280304" uid="21425661" user="CjMalone">
    <nd ref="6035359999"/>
    <nd ref="6035360000"/>
    <nd ref="6035360001"/>
    <nd ref="6035360002"/>
    <nd ref="6035359999"/>
    <tag k="addr:city" v="Ely"/>
    <tag k="addr:postcode" v="CB7 5DE"/>
    <tag k="addr:street" v="The Shade"/>
    <tag k="addr:town" v="Soham"/>
    <tag k="brand" v="M&amp;S Simply Food"/>
    <tag k="brand:wikidata" v="Q714491"/>
    <tag k="brand:wikipedia" v="en:Marks &amp; Spencer"/>
    <tag k="building" v="yes"/>
    <tag k="check_date" v="2024-07-21"/>
    <tag k="check_date:opening_hours" v="2024-07-21"/>
    <tag k="contact:website" v="https://www.marksandspencer.com/stores/soham-connect-bp-2065"/>
    <tag k="fhrs:id" v="929386"/>
    <tag k="name" v="M&amp;S Simply Food"/>
    <tag k="opening_hours" v="Mo-Su 00:00-24:00"/>
    <tag k="operator" v="BP"/>
    <tag k="shop" v="convenience"/>
    <tag k="source:addr" v="FHRS Open Data"/>
    <tag k="source:outline" v="ESRI World Imagery"/>
  </way>
  <way id="705319898" version="4" timestamp="2024-04-12T09:15:29Z" changeset="149900472" uid="84263" user="Robert Whittaker">
    <nd ref="11811332509"/>
    <nd ref="6625510570"/>
    <nd ref="6625510566"/>
    <nd ref="6625510568"/>
    <nd ref="6625510567"/>
    <nd ref="6625510569"/>
    <nd ref="6625510571"/>
    <nd ref="6625510572"/>
    <nd ref="11811332507"/>
    <nd ref="11811332508"/>
    <nd ref="6625510564"/>
    <nd ref="6625510565"/>
    <nd ref="11811362127"/>
    <nd ref="11811362128"/>
    <nd ref="11811332509"/>
    <tag k="addr:city" v="Ely"/>
    <tag k="addr:housenumber" v="107a"/>
    <tag k="addr:postcode" v="CB7 5HL"/>
    <tag k="addr:street" v="Clay Street"/>
    <tag k="addr:town" v="Soham"/>
    <tag k="building" v="yes"/>
    <tag k="leisure" v="fitness_centre"/>
    <tag k="name" v="Sweat Gymnasium"/>
    <tag k="website" v="https://sweatgym.co.uk/"/>
  </way>
  <way id="760752104" version="3" timestamp="2020-01-05T10:34:48Z" changeset="79209165" uid="84263" user="Robert Whittaker">
    <nd ref="6025969364"/>
    <nd ref="7106818639"/>
    <nd ref="7106818643"/>
    <nd ref="7106818642"/>
    <nd ref="7106818640"/>
    <nd ref="7106818641"/>
    <nd ref="6025969364"/>
    <tag k="addr:city" v="Ely"/>
    <tag k="addr:housenumber" v="2A"/>
    <tag k="addr:postcode" v="CB7 5HZ"/>
    <tag k="addr:street" v="Brook Dam Lane"/>
    <tag k="addr:town" v="Soham"/>
    <tag k="amenity" v="fast_food"/>
    <tag k="building" v="yes"/>
    <tag k="cuisine" v="chinese"/>
    <tag k="fhrs:id" v="336674"/>
    <tag k="name" v="Good Luck Takeaway"/>
    <tag k="source" v="Bing"/>
    <tag k="source:addr" v="FHRS Open Data"/>
  </way>
  <way id="761051402" version="2" timestamp="2020-01-05T22:40:05Z" changeset="79225101" uid="84263" user="Robert Whittaker">
    <nd ref="7110503206"/>
    <nd ref="7110503205"/>
    <nd ref="7110503204"/>
    <nd ref="7110503203"/>
    <nd ref="7110503206"/>
    <tag k="addr:housenumber" v="10"/>
    <tag k="addr:street" v="High Street"/>
    <tag k="building" v="yes"/>
    <tag k="name" v="Soham Barbers"/>
    <tag k="shop" v="hairdresser"/>
  </way>
  <way id="1150306929" version="1" timestamp="2023-03-01T00:07:54Z" changeset="133150449" uid="3999" user="BarryMyles">
    <nd ref="10700749134"/>
    <nd ref="10700749135"/>
    <nd ref="10700749136"/>
    <nd ref="10700749137"/>
    <nd ref="10700749138"/>
    <nd ref="10700749139"/>
    <nd ref="10700749134"/>
    <tag k="addr:city" v="Soham"/>
    <tag k="addr:postcode" v="CB7 5AA"/>
    <tag k="addr:street" v="Sand Street"/>
    <tag k="building" v="yes"/>
    <tag k="name" v="Soham Telephone Exchange"/>
    <tag k="operator" v="Openreach"/>
    <tag k="operator:wikidata" v="Q7096543"/>
    <tag k="ref" v="EASOH"/>
    <tag k="telecom" v="exchange"/>
  </way>

</osm>
