<?xml version="1.0" encoding="UTF-8"?>
<osm version="0.6" generator="Overpass API 0.7.62.4 2390de5a">
<note>The data included in this document is from www.openstreetmap.org. The data is made available under ODbL.</note>
<meta osm_base="2025-01-21T14:17:13Z" areas="2024-12-31T00:49:33Z"/>

  <node id="256442717" lat="52.4567266" lon="0.3047740" version="5" timestamp="2024-10-04T12:43:28Z" changeset="157459406" uid="12752888" user="U42">
    <tag k="addr:city" v="Ely"/>
    <tag k="addr:housenumber" v="33"/>
    <tag k="addr:postcode" v="CB6 1PH"/>
    <tag k="addr:street" v="Main Street"/>
    <tag k="addr:village" v="Littleport"/>
    <tag k="amenity" v="fast_food"/>
    <tag k="check_date" v="2024-10-04"/>
    <tag k="fhrs:id" v="336216"/>
    <tag k="indoor_seating" v="no"/>
    <tag k="name" v="Rumble's Fish Bar"/>
    <tag k="outdoor_seating" v="no"/>
    <tag k="source:addr" v="FSA Food Hygiene Ratings Database"/>
    <tag k="takeaway" v="only"/>
  </node>
  <node id="256442740" lat="52.4567423" lon="0.3066454" version="5" timestamp="2019-03-08T13:01:21Z" changeset="67921738" uid="84263" user="Robert Whittaker">
    <tag k="addr:housenumber" v="12"/>
    <tag k="addr:postcode" v="CB6 1PJ"/>
    <tag k="addr:street" v="Main Street"/>
    <tag k="addr:village" v="Littleport"/>
    <tag k="amenity" v="restaurant"/>
    <tag k="fhrs:id" v="336296"/>
    <tag k="name" v="Ali's Kebab, Pizza &amp; Burger House"/>
    <tag k="website" v="https://www.aliskebablittleport.com/"/>
  </node>
  <node id="256442743" lat="52.4569634" lon="0.3078069" version="3" timestamp="2019-03-06T19:34:50Z" changeset="67856444" uid="84263" user="Robert Whittaker">
    <tag k="addr:city" v="Ely"/>
    <tag k="addr:housenumber" v="2"/>
    <tag k="addr:postcode" v="CB6 1NE"/>
    <tag k="addr:street" v="Granby Street"/>
    <tag k="addr:village" v="Littleport"/>
    <tag k="amenity" v="fast_food"/>
    <tag k="cuisine" v="pizza"/>
    <tag k="delivery" v="yes"/>
    <tag k="drive_through" v="no"/>
    <tag k="fhrs:id" v="336410"/>
    <tag k="name" v="PizzaTown Littleport"/>
    <tag k="outdoor_seating" v="no"/>
    <tag k="source:addr" v="FHRS Open Data"/>
    <tag k="takeaway" v="only"/>
  </node>
  <node id="1593445088" lat="52.4567967" lon="0.3058616" version="4" timestamp="2019-03-06T19:34:50Z" changeset="67856444" uid="84263" user="Robert Whittaker">
    <tag k="addr:city" v="Ely"/>
    <tag k="addr:housenumber" v="24"/>
    <tag k="addr:postcode" v="CB6 1PJ"/>
    <tag k="addr:street" v="Main Street"/>
    <tag k="addr:village" v="Littleport"/>
    <tag k="amenity" v="post_office"/>
    <tag k="fhrs:id" v="494196"/>
    <tag k="name" v="McColl's @ Littleport"/>
    <tag k="shop" v="convenience"/>
    <tag k="source:addr" v="FHRS Open Data"/>
  </node>
  <node id="4971976354" lat="52.4566662" lon="0.3046667" version="3" timestamp="2019-03-06T19:34:52Z" changeset="67856444" uid="84263" user="Robert Whittaker">
    <tag k="addr:city" v="Ely"/>
    <tag k="addr:housenumber" v="1"/>
    <tag k="addr:postcode" v="CB6 1HE"/>
    <tag k="addr:street" v="High Street"/>
    <tag k="addr:village" v="Littleport"/>
    <tag k="amenity" v="fast_food"/>
    <tag k="cuisine" v="asian"/>
    <tag k="delivery" v="yes"/>
    <tag k="drive_through" v="no"/>
    <tag k="fhrs:id" v="336422"/>
    <tag k="name" v="Wok This Way"/>
    <tag k="opening_hours" v="Tu-Th 17:00-22:00; Fr-Sa 16:30-22:30; Su 17:00-22:00"/>
    <tag k="phone" v="+44 1353 860669"/>
    <tag k="smoking" v="no"/>
    <tag k="source" v="survey"/>
    <tag k="source:addr" v="FHRS Open Data"/>
    <tag k="takeaway" v="yes"/>
    <tag k="website" v="https://wokthiswaylittleport.com/"/>
  </node>
  <node id="6320839005" lat="52.4567639" lon="0.3072417" version="2" timestamp="2019-03-08T00:05:27Z" changeset="67904672" uid="84263" user="Robert Whittaker">
    <tag k="addr:city" v="Ely"/>
    <tag k="addr:housenumber" v="2A"/>
    <tag k="addr:postcode" v="CB6 1PJ"/>
    <tag k="addr:street" v="Main Street"/>
    <tag k="addr:village" v="Littleport"/>
    <tag k="amenity" v="fast_food"/>
    <tag k="cuisine" v="chinese"/>
    <tag k="fhrs:id" v="336264"/>
    <tag k="name" v="Happy House"/>
    <tag k="source:addr" v="FHRS Open Data"/>
  </node>
  <node id="6320839031" lat="52.4567524" lon="0.3067884" version="2" timestamp="2019-03-12T15:21:09Z" changeset="68066341" uid="616774" user="mueschel">
    <tag k="addr:housenumber" v="8"/>
    <tag k="addr:postcode" v="CB6 1PJ"/>
    <tag k="addr:street" v="Main Street"/>
    <tag k="addr:village" v="Littleport"/>
    <tag k="name" v="Beynur's Tattoos"/>
    <tag k="shop" v="tattoo"/>
    <tag k="website" v="https://www.beynurstattoos.co.uk/"/>
  </node>
  <way id="23586510" version="15" timestamp="2023-10-12T12:50:56Z" changeset="142478634" uid="37791" user="Fradeve11">
    <nd ref="4054280942"/>
    <nd ref="255411853"/>
    <nd ref="255411851"/>
    <nd ref="8450434129"/>
    <nd ref="8297504356"/>
    <nd ref="4054280949"/>
    <nd ref="4054280945"/>
    <nd ref="4054280947"/>
    <nd ref="4054280951"/>
    <nd ref="4054280940"/>
    <nd ref="8288275091"/>
    <nd ref="4054280952"/>
    <nd ref="4054280943"/>
    <nd ref="4054280939"/>
    <nd ref="4054280948"/>
    <nd ref="4054280956"/>
    <nd ref="4054280941"/>
    <nd ref="4054280950"/>
    <nd ref="4054280944"/>
    <nd ref="4054280953"/>
    <nd ref="4054280955"/>
    <nd ref="255411844"/>
    <nd ref="4054280946"/>
    <nd ref="255411854"/>
    <nd ref="4054280942"/>
    <tag k="addr:city" v="Ely"/>
    <tag k="addr:postcode" v="CB6 1HW"/>
    <tag k="addr:street" v="Grange Lane"/>
    <tag k="addr:village" v="Littleport"/>
    <tag k="amenity" v="school"/>
    <tag k="capacity" v="420"/>
    <tag k="fhrs:id" v="1083051"/>
    <tag k="isced:level" v="0;1"/>
    <tag k="max_age" v="11"/>
    <tag k="min_age" v="4"/>
    <tag k="name" v="Millfield Primary School"/>
    <tag k="phone" v="+44 1353 861612"/>
    <tag k="ref:GB:uprn" v="10002596590"/>
    <tag k="ref:edubase" v="142498"/>
    <tag k="ref:edubase:group" v="3025"/>
    <tag k="religion" v="none"/>
    <tag k="school:boarding" v="no"/>
    <tag k="school:gender" v="mixed"/>
    <tag k="school:selective" v="no"/>
    <tag k="school:trust" v="yes"/>
    <tag k="school:trust:name" v="The Elliot Foundation Academies Trust"/>
    <tag k="school:trust:type" v="multi_academy"/>
    <tag k="school:type" v="academy"/>
    <tag k="website" v="https://www.millfieldprimaryschool.co.uk"/>
    <tag k="wikidata" v="Q67149907"/>
  </way>
  <way id="136891313" version="15" timestamp="2024-07-15T16:01:25Z" changeset="153979415" uid="21425661" user="CjMalone">
    <nd ref="1501782521"/>
    <nd ref="6317767372"/>
    <nd ref="6317767387"/>
    <nd ref="1501782532"/>
    <nd ref="3668329980"/>
    <nd ref="3668329981"/>
    <nd ref="3668329979"/>
    <nd ref="1501782538"/>
    <nd ref="1501782521"/>
    <tag k="addr:city" v="Ely"/>
    <tag k="addr:housenumber" v="40-42"/>
    <tag k="addr:postcode" v="CB6 1JH"/>
    <tag k="addr:street" v="Wisbech Road"/>
    <tag k="addr:village" v="Littleport"/>
    <tag k="brand" v="The Co-operative Food"/>
    <tag k="brand:wikidata" v="Q107617274"/>
    <tag k="building" v="retail"/>
    <tag k="building:levels" v="1"/>
    <tag k="check_date" v="2024-07-15"/>
    <tag k="check_date:opening_hours" v="2024-07-15"/>
    <tag k="fhrs:id" v="336353"/>
    <tag k="name" v="The Co-operative Food"/>
    <tag k="opening_hours" v="Su 10:00-16:00, Mo-Sa 07:00-22:00"/>
    <tag k="operator" v="Central England Co-operative"/>
    <tag k="operator:wikidata" v="Q16986583"/>
    <tag k="payment:cash" v="yes"/>
    <tag k="phone" v="+44 1353 864040"/>
    <tag k="roof:levels" v="0"/>
    <tag k="roof:shape" v="round"/>
    <tag k="shop" v="supermarket"/>
    <tag k="source" v="survey"/>
    <tag k="source:addr" v="FHRS Open Data"/>
    <tag k="website" v="https://stores.centralengland.coop/cambridgeshire/ely/40-42-wisbech-road"/>
    <tag k="wheelchair" v="yes"/>
  </way>
  <way id="146051064" version="6" timestamp="2019-03-08T13:11:56Z" changeset="67921738" uid="84263" user="Robert Whittaker">
    <nd ref="1593444889"/>
    <nd ref="1593444888"/>
    <nd ref="1593444883"/>
    <nd ref="1593444881"/>
    <nd ref="1593444858"/>
    <nd ref="1593444859"/>
    <nd ref="1593444887"/>
    <nd ref="1593444886"/>
    <nd ref="1593444889"/>
    <tag k="addr:city" v="Littleport"/>
    <tag k="addr:housename" v="Swan on the River"/>
    <tag k="addr:housenumber" v="1"/>
    <tag k="addr:postcode" v="CB6 1NT"/>
    <tag k="addr:street" v="Sandhill"/>
    <tag k="amenity" v="pub"/>
    <tag k="building" v="yes"/>
    <tag k="email" v="info@swanontheriver.co.uk"/>
    <tag k="fhrs:id" v="658905"/>
    <tag k="name" v="The Swan on the River"/>
    <tag k="outdoor_seating" v="yes"/>
    <tag k="phone" v="+44 1353 861677"/>
    <tag k="website" v="http://www.swanontheriver.co.uk/"/>
  </way>
  <way id="146051066" version="3" timestamp="2024-10-04T12:42:12Z" changeset="157459245" uid="12752888" user="U42">
    <nd ref="1593444711"/>
    <nd ref="1593444710"/>
    <nd ref="1593444709"/>
    <nd ref="1593444708"/>
    <nd ref="1593444705"/>
    <nd ref="1593444707"/>
    <nd ref="1593444701"/>
    <nd ref="1593444703"/>
    <nd ref="1593444711"/>
    <tag k="addr:city" v="Ely"/>
    <tag k="addr:housenumber" v="61"/>
    <tag k="addr:postcode" v="CB6 1HJ"/>
    <tag k="addr:street" v="Ely Road"/>
    <tag k="addr:village" v="Littleport"/>
    <tag k="amenity" v="pub"/>
    <tag k="building" v="yes"/>
    <tag k="check_date" v="2024-10-04"/>
    <tag k="fhrs:id" v="904858"/>
    <tag k="name" v="The Plough and Harrow"/>
    <tag k="source:addr" v="FSA Food Hygiene Ratings Database"/>
  </way>
  <way id="362554720" version="7" timestamp="2024-07-15T22:33:09Z" changeset="153991674" uid="21425661" user="CjMalone">
    <nd ref="3668329982"/>
    <nd ref="3668329983"/>
    <nd ref="3668329984"/>
    <nd ref="3668329985"/>
    <nd ref="3668329982"/>
    <tag k="addr:city" v="Ely"/>
    <tag k="addr:housenumber" v="30"/>
    <tag k="addr:postcode" v="CB6 1PJ"/>
    <tag k="addr:street" v="Main Street"/>
    <tag k="addr:village" v="Littleport"/>
    <tag k="brand" v="Co-op Food"/>
    <tag k="brand:wikidata" v="Q3277439"/>
    <tag k="brand:wikipedia" v="en:Co-op Food"/>
    <tag k="building" v="retail"/>
    <tag k="check_date" v="2024-07-15"/>
    <tag k="check_date:opening_hours" v="2024-07-15"/>
    <tag k="fhrs:id" v="336649"/>
    <tag k="name" v="The Co-operative Food"/>
    <tag k="opening_hours" v="Mo-Su 07:00-22:00"/>
    <tag k="operator" v="The Co-operative Group"/>
    <tag k="operator:wikidata" v="Q117202"/>
    <tag k="shop" v="supermarket"/>
    <tag k="source:addr" v="FSA Food Hygiene Ratings Database"/>
    <tag k="website" v="https://www.coop.co.uk/store-finder/CB6-1PJ/30-main-street"/>
    <tag k="wheelchair" v="yes"/>
  </way>
  <way id="648435318" version="4" timestamp="2019-10-06T10:16:52Z" changeset="75336882" uid="5620981" user="Falacer">
    <nd ref="6320839028"/>
    <nd ref="6087736465"/>
    <nd ref="6087736462"/>
    <nd ref="6320839034"/>
    <nd ref="6320839028"/>
    <tag k="addr:city" v="Littleport"/>
    <tag k="addr:housenumber" v="11"/>
    <tag k="addr:postcode" v="CB6 1PH"/>
    <tag k="addr:street" v="Main Street"/>
    <tag k="building" v="yes"/>
    <tag k="name" v="King's Barber Littleport"/>
    <tag k="opening_hours" v="Mo-We 08:30-18:00; Th-Sa 08:30-18:30; Su 10:00-16:00"/>
    <tag k="phone" v="+44 1353 967843"/>
    <tag k="shop" v="hairdresser"/>
  </way>
  <way id="674320086" version="3" timestamp="2023-10-11T11:15:10Z" changeset="142431974" uid="5686749" user="MageJohn">
    <nd ref="6315091988"/>
    <nd ref="6315091936"/>
    <nd ref="6315091972"/>
    <nd ref="6315091948"/>
    <nd ref="6315091988"/>
    <tag k="addr:city" v="Ely"/>
    <tag k="addr:housenumber" v="2"/>
    <tag k="addr:postcode" v="CB6 1JU"/>
    <tag k="addr:street" v="Parsons Lane"/>
    <tag k="amenity" v="pharmacy"/>
    <tag k="building" v="retail"/>
    <tag k="dispensing" v="yes"/>
    <tag k="drive_through" v="no"/>
    <tag k="email" v="wp010@wellbeing-pharmacy.co.uk"/>
    <tag k="healthcare" v="pharmacy"/>
    <tag k="name" v="Wellbeing Pharmacy Littleport"/>
    <tag k="opening_hours" v="Mo-Sa 09:00-13:00,14:00-21:00; Su 08:00-21:00"/>
    <tag k="operator" v="Wellbeing Pharmacy"/>
    <tag k="phone" v="+44 1353 861081"/>
    <tag k="source" v="Bing"/>
    <tag k="website" v="https://wellbeing-pharmacy.co.uk/"/>
  </way>
  <way id="674320089" version="3" timestamp="2019-03-06T19:34:58Z" changeset="67856444" uid="84263" user="Robert Whittaker">
    <nd ref="6315091891"/>
    <nd ref="6315091437"/>
    <nd ref="6315091405"/>
    <nd ref="6315091408"/>
    <nd ref="6315091460"/>
    <nd ref="6315091932"/>
    <nd ref="6315091439"/>
    <nd ref="6315091891"/>
    <tag k="addr:city" v="Ely"/>
    <tag k="addr:housenumber" v="34"/>
    <tag k="addr:postcode" v="CB6 1PJ"/>
    <tag k="addr:street" v="Main Street"/>
    <tag k="addr:village" v="Littleport"/>
    <tag k="amenity" v="pub"/>
    <tag k="building" v="yes"/>
    <tag k="fhrs:id" v="336324"/>
    <tag k="name" v="The Crown"/>
    <tag k="source" v="Bing"/>
    <tag k="source:addr" v="FHRS Open Data"/>
  </way>
  <way id="674320091" version="4" timestamp="2022-11-20T11:36:01Z" changeset="129152898" uid="84263" user="Robert Whittaker">
    <nd ref="6315091985"/>
    <nd ref="6315092000"/>
    <nd ref="6315091991"/>
    <nd ref="6315091981"/>
    <nd ref="6315091975"/>
    <nd ref="6315091967"/>
    <nd ref="6315091985"/>
    <tag k="addr:city" v="Ely"/>
    <tag k="addr:housenumber" v="1"/>
    <tag k="addr:postcode" v="CB6 1PH"/>
    <tag k="addr:street" v="Main Street"/>
    <tag k="addr:village" v="Littleport"/>
    <tag k="brand" v="Costcutter"/>
    <tag k="brand:wikidata" v="Q5175072"/>
    <tag k="building" v="yes"/>
    <tag k="fhrs:id" v="798488"/>
    <tag k="name" v="Costcutter"/>
    <tag k="shop" v="convenience"/>
    <tag k="source" v="Bing"/>
    <tag k="source:addr" v="FHRS Open Data"/>
  </way>
  <way id="674320093" version="3" timestamp="2019-03-08T13:05:18Z" changeset="67921738" uid="84263" user="Robert Whittaker">
    <nd ref="6315091962"/>
    <nd ref="6315091411"/>
    <nd ref="6315091440"/>
    <nd ref="6315091435"/>
    <nd ref="6315091428"/>
    <nd ref="6315091424"/>
    <nd ref="6315091421"/>
    <nd ref="6315091418"/>
    <nd ref="6315091409"/>
    <nd ref="6315091404"/>
    <nd ref="6315091962"/>
    <tag k="addr:city" v="Ely"/>
    <tag k="addr:housenumber" v="2"/>
    <tag k="addr:postcode" v="CB6 1LX"/>
    <tag k="addr:street" v="Victoria Street"/>
    <tag k="addr:village" v="Littleport"/>
    <tag k="amenity" v="social_facility"/>
    <tag k="building" v="yes"/>
    <tag k="fhrs:id" v="336651"/>
    <tag k="name" v="Laburnum Lodge"/>
    <tag k="social_facility" v="nursing_home"/>
    <tag k="social_facility:for" v="senior"/>
    <tag k="source" v="Bing"/>
    <tag k="source:addr" v="FSA Food Hygiene Ratings Database"/>
  </way>
  <way id="674320109" version="3" timestamp="2019-03-08T00:05:29Z" changeset="67904672" uid="84263" user="Robert Whittaker">
    <nd ref="6315091947"/>
    <nd ref="6315091425"/>
    <nd ref="6315091432"/>
    <nd ref="6315091395"/>
    <nd ref="6315091947"/>
    <tag k="addr:housenumber" v="22"/>
    <tag k="addr:postcode" v="CB6 1PJ"/>
    <tag k="addr:street" v="Main Street"/>
    <tag k="alcohol" v="yes"/>
    <tag k="building" v="yes"/>
    <tag k="fhrs:id" v="893670"/>
    <tag k="name" v="Rima's Shop"/>
    <tag k="shop" v="convenience"/>
    <tag k="source" v="Bing"/>
    <tag k="source:addr:postcode" v="FHRS Open Data"/>
  </way>
  <way id="674320114" version="3" timestamp="2025-01-11T18:04:42Z" changeset="161249006" uid="493595" user="Yorvik Prestigitator">
    <nd ref="6315091897"/>
    <nd ref="6315091920"/>
    <nd ref="6315091938"/>
    <nd ref="6315091443"/>
    <nd ref="6317767415"/>
    <nd ref="6317767411"/>
    <nd ref="6315091897"/>
    <tag k="addr:city" v="Littleport"/>
    <tag k="addr:street" v="Victoria Street"/>
    <tag k="amenity" v="community_centre"/>
    <tag k="building" v="public"/>
    <tag k="community_centre" v="village_hall"/>
    <tag k="name" v="Littleport Village Hall"/>
    <tag k="source" v="Bing"/>
  </way>
  <way id="674320115" version="3" timestamp="2019-03-08T00:05:29Z" changeset="67904672" uid="84263" user="Robert Whittaker">
    <nd ref="6315091417"/>
    <nd ref="6315091429"/>
    <nd ref="6315091433"/>
    <nd ref="6315091430"/>
    <nd ref="6315091417"/>
    <tag k="addr:city" v="Ely"/>
    <tag k="addr:housenumber" v="13"/>
    <tag k="addr:postcode" v="CB6 1LU"/>
    <tag k="addr:street" v="Victoria Street"/>
    <tag k="addr:village" v="Littleport"/>
    <tag k="amenity" v="restaurant"/>
    <tag k="building" v="yes"/>
    <tag k="cuisine" v="indian"/>
    <tag k="fhrs:id" v="798493"/>
    <tag k="name" v="Indian Garden"/>
    <tag k="source" v="Bing"/>
    <tag k="source:addr" v="FHRS Open Data"/>
  </way>
  <way id="674321933" version="6" timestamp="2024-07-22T20:44:47Z" changeset="154280304" uid="21425661" user="CjMalone">
    <nd ref="6315106830"/>
    <nd ref="3395170108"/>
    <nd ref="3395170074"/>
    <nd ref="3395170122"/>
    <nd ref="11253421117"/>
    <nd ref="6315106830"/>
    <tag k="addr:city" v="Ely"/>
    <tag k="addr:housenumber" v="152"/>
    <tag k="addr:street" v="Wisbech Road"/>
    <tag k="addr:village" v="Littleport"/>
    <tag k="brand" v="M&amp;S Simply Food"/>
    <tag k="brand:wikidata" v="Q714491"/>
    <tag k="building" v="yes"/>
    <tag k="check_date" v="2024-07-21"/>
    <tag k="check_date:opening_hours" v="2024-07-21"/>
    <tag k="contact:website" v="https://www.marksandspencer.com/stores/littleport-bp-1438"/>
    <tag k="fhrs:id" v="830283"/>
    <tag k="name" v="M&amp;S Simply Food"/>
    <tag k="opening_hours" v="Mo-Su 00:00-24:00"/>
    <tag k="shop" v="convenience"/>
    <tag k="source:addr" v="FSA Food Hygiene Ratings Database"/>
  </way>
  <way id="674324089" version="5" timestamp="2024-09-16T18:43:36Z" changeset="156701170" uid="21425661" user="CjMalone">
    <nd ref="6315120363"/>
    <nd ref="6315120370"/>
    <nd ref="6315120365"/>
    <nd ref="6315120366"/>
    <nd ref="6315120360"/>
    <nd ref="6315120368"/>
    <nd ref="6315120367"/>
    <nd ref="6315120369"/>
    <nd ref="6317767352"/>
    <nd ref="6317767345"/>
    <nd ref="6315120363"/>
    <tag k="addr:city" v="Ely"/>
    <tag k="addr:housenumber" v="1-3"/>
    <tag k="addr:postcode" v="CB6 1PR"/>
    <tag k="addr:street" v="Wisbech Road"/>
    <tag k="addr:village" v="Littleport"/>
    <tag k="brand" v="One Stop"/>
    <tag k="brand:wikidata" v="Q65954217"/>
    <tag k="building" v="yes"/>
    <tag k="check_date" v="2023-05-30"/>
    <tag k="fhrs:id" v="336656"/>
    <tag k="name" v="One Stop"/>
    <tag k="shop" v="convenience"/>
    <tag k="source" v="Bing"/>
    <tag k="source:addr" v="FHRS Open Data"/>
  </way>
  <way id="674324223" version="3" timestamp="2019-03-06T19:34:58Z" changeset="67856444" uid="84263" user="Robert Whittaker">
    <nd ref="6315121950"/>
    <nd ref="6315121953"/>
    <nd ref="6315121952"/>
    <nd ref="6315121954"/>
    <nd ref="6315121951"/>
    <nd ref="6315121950"/>
    <tag k="addr:city" v="Ely"/>
    <tag k="addr:housenumber" v="19"/>
    <tag k="addr:postcode" v="CB6 1PN"/>
    <tag k="addr:street" v="Wellington Street"/>
    <tag k="addr:village" v="Littleport"/>
    <tag k="amenity" v="fast_food"/>
    <tag k="building" v="yes"/>
    <tag k="cuisine" v="chinese"/>
    <tag k="fhrs:id" v="1023584"/>
    <tag k="name" v="Star Chef"/>
    <tag k="source" v="Bing"/>
    <tag k="source:addr" v="FHRS Open Data"/>
  </way>
  <way id="674375683" version="3" timestamp="2019-03-08T00:05:29Z" changeset="67904672" uid="84263" user="Robert Whittaker">
    <nd ref="6320839013"/>
    <nd ref="6315668364"/>
    <nd ref="6320839003"/>
    <nd ref="6320839038"/>
    <nd ref="6320839013"/>
    <tag k="addr:city" v="Ely"/>
    <tag k="addr:housenumber" v="3"/>
    <tag k="addr:postcode" v="CB6 1PH"/>
    <tag k="addr:street" v="Main Street"/>
    <tag k="addr:village" v="Littleport"/>
    <tag k="amenity" v="cafe"/>
    <tag k="building" v="yes"/>
    <tag k="fhrs:id" v="810059"/>
    <tag k="name" v="The Copper Cup"/>
    <tag k="source" v="Bing"/>
    <tag k="source:addr" v="FHRS Open Data"/>
  </way>
  <way id="674611101" version="3" timestamp="2023-12-26T16:04:24Z" changeset="145540667" uid="12752888" user="U42">
    <nd ref="6315091916"/>
    <nd ref="6315091468"/>
    <nd ref="6315091989"/>
    <nd ref="6317767401"/>
    <nd ref="6315091916"/>
    <tag k="addr:city" v="Ely"/>
    <tag k="addr:housenumber" v="23"/>
    <tag k="addr:postcode" v="CB6 1PH"/>
    <tag k="addr:street" v="Main Street"/>
    <tag k="addr:village" v="Littleport"/>
    <tag k="amenity" v="cafe"/>
    <tag k="building" v="yes"/>
    <tag k="fhrs:id" v="1021413"/>
    <tag k="indoor_seating" v="yes"/>
    <tag k="name" v="Habis"/>
    <tag k="outdoor_seating" v="no"/>
    <tag k="source" v="Bing"/>
    <tag k="source:addr" v="FHRS Open Data"/>
  </way>
  <way id="674611117" version="2" timestamp="2019-03-06T19:34:59Z" changeset="67856444" uid="84263" user="Robert Whittaker">
    <nd ref="6317767406"/>
    <nd ref="6317767376"/>
    <nd ref="6317767397"/>
    <nd ref="6317767384"/>
    <nd ref="6317767371"/>
    <nd ref="6317767369"/>
    <nd ref="6317767406"/>
    <tag k="addr:city" v="Ely"/>
    <tag k="addr:postcode" v="CB6 1PZ"/>
    <tag k="addr:street" v="Ponts Hill"/>
    <tag k="addr:village" v="Littleport"/>
    <tag k="amenity" v="community_centre"/>
    <tag k="building" v="yes"/>
    <tag k="fhrs:id" v="336650"/>
    <tag k="name" v="Littleport Ex-Servicemen's Club"/>
    <tag k="source:addr" v="FHRS Open Data"/>
    <tag k="source:outline" v="Bing"/>
  </way>
  <way id="674935416" version="2" timestamp="2019-03-08T00:05:29Z" changeset="67904672" uid="84263" user="Robert Whittaker">
    <nd ref="6320839032"/>
    <nd ref="6320839029"/>
    <nd ref="6315091477"/>
    <nd ref="6315091480"/>
    <nd ref="6320839032"/>
    <tag k="addr:city" v="Ely"/>
    <tag k="addr:housenumber" v="6"/>
    <tag k="addr:postcode" v="CB6 1PJ"/>
    <tag k="addr:street" v="Main Street"/>
    <tag k="addr:village" v="Littleport"/>
    <tag k="amenity" v="fast_food"/>
    <tag k="building" v="yes"/>
    <tag k="cuisine" v="fish_and_chips"/>
    <tag k="fhrs:id" v="946481"/>
    <tag k="name" v="The Cod Father"/>
    <tag k="source" v="Bing"/>
    <tag k="source:addr" v="FHRS Open Data"/>
  </way>
  <way id="674935439" version="1" timestamp="2019-03-06T13:41:27Z" changeset="67844759" uid="84263" user="Robert Whittaker">
    <nd ref="6315091900"/>
    <nd ref="6320839026"/>
    <nd ref="6320839017"/>
    <nd ref="6315091483"/>
    <nd ref="6315091900"/>
    <tag k="addr:housenumber" v="16"/>
    <tag k="addr:street" v="Main Street"/>
    <tag k="building" v="yes"/>
    <tag k="name" v="MellyMade Designs"/>
    <tag k="shop" v="gift"/>
    <tag k="source" v="Bing"/>
  </way>
  <way id="675427165" version="3" timestamp="2024-10-05T19:54:13Z" changeset="157515804" uid="12752888" user="U42">
    <nd ref="6325341409"/>
    <nd ref="6325341408"/>
    <nd ref="6325341414"/>
    <nd ref="6325341422"/>
    <nd ref="6325341425"/>
    <nd ref="6325341406"/>
    <nd ref="12114518345"/>
    <nd ref="6325341412"/>
    <nd ref="6325341424"/>
    <nd ref="6325341426"/>
    <nd ref="6325341427"/>
    <nd ref="6325341417"/>
    <nd ref="6325341415"/>
    <nd ref="6325341416"/>
    <nd ref="6325341409"/>
    <tag k="addr:city" v="Ely"/>
    <tag k="addr:postcode" v="CB6 1NP"/>
    <tag k="addr:street" v="Hempfield Place"/>
    <tag k="addr:village" v="Littleport"/>
    <tag k="club" v="yes"/>
    <tag k="fhrs:id" v="336643"/>
    <tag k="name" v="Littleport Bowls Club"/>
    <tag k="source:addr:postcode" v="FSA Food Hygiene Ratings Database"/>
    <tag k="sport" v="bowls"/>
    <tag k="website" v="http://www.littleportbowlsclub.co.uk/"/>
  </way>
  <way id="685011755" version="1" timestamp="2019-04-20T21:43:21Z" changeset="69412255" uid="1418967" user="RAC_UK">
    <nd ref="6418514599"/>
    <nd ref="6418514598"/>
    <nd ref="6418514597"/>
    <nd ref="6418514596"/>
    <nd ref="6418514599"/>
    <tag k="addr:city" v="Littleport"/>
    <tag k="addr:country" v="GB"/>
    <tag k="addr:postcode" v="CB6 1NG"/>
    <tag k="addr:street" v="City Road"/>
    <tag k="amenity" v="place_of_worship"/>
    <tag k="building" v="yes"/>
    <tag k="denomination" v="salvation_army"/>
    <tag k="email" v="littleport@salvationarmy.org.uk"/>
    <tag k="name" v="Littleport Salvation Army"/>
    <tag k="religion" v="christian"/>
    <tag k="source:name" v="dictaphone"/>
  </way>
  <way id="886143727" version="1" timestamp="2020-12-18T09:31:33Z" changeset="96057382" uid="669183" user="Andy_W">
    <nd ref="8239840922"/>
    <nd ref="8239840923"/>
    <nd ref="8239840924"/>
    <nd ref="8239840925"/>
    <nd ref="8239840926"/>
    <nd ref="8239840927"/>
    <nd ref="8239840928"/>
    <nd ref="8239840929"/>
    <nd ref="8239840930"/>
    <nd ref="8239840922"/>
    <tag k="addr:city" v="Littleport"/>
    <tag k="addr:housenumber" v="181"/>
    <tag k="addr:postcode" v="CB6 1RA"/>
    <tag k="addr:street" v="Wisbech Road"/>
    <tag k="building" v="commercial"/>
    <tag k="name" v="Espace North Building"/>
  </way>
  <way id="1155332749" version="1" timestamp="2023-03-18T23:15:12Z" changeset="133841305" uid="3999" user="BarryMyles">
    <nd ref="10744300642"/>
    <nd ref="10744300643"/>
    <nd ref="10744300644"/>
    <nd ref="10744300645"/>
    <nd ref="10744300646"/>
    <nd ref="10744300647"/>
    <nd ref="10744300642"/>
    <tag k="addr:city" v="Littleport"/>
    <tag k="addr:postcode" v="CB6 1HT"/>
    <tag k="addr:street" v="Millpit Furlong"/>
    <tag k="building" v="yes"/>
    <tag k="name" v="Littleport Telephone Exchange"/>
    <tag k="operator" v="Openreach"/>
    <tag k="operator:wikidata" v="Q7096543"/>
    <tag k="ref" v="EALPT"/>
    <tag k="telecom" v="exchange"/>
  </way>

</osm>
