<?xml version="1.0" encoding="UTF-8"?>
<osm version="0.6" generator="Overpass API 0.7.62.4 2390de5a">
<note>The data included in this document is from www.openstreetmap.org. The data is made available under ODbL.</note>
<meta osm_base="2025-01-20T16:09:11Z" areas="2024-12-31T00:49:33Z"/>

  <way id="359146577" version="5" timestamp="2022-07-16T16:09:28Z" changeset="123694679" uid="242345" user="confusedbuffalo">
    <nd ref="3639131172"/>
    <nd ref="3639131157"/>
    <nd ref="3639131168"/>
    <nd ref="3639131154"/>
    <nd ref="3639131173"/>
    <nd ref="3639131166"/>
    <nd ref="3639131167"/>
    <nd ref="3639131153"/>
    <nd ref="3639131161"/>
    <nd ref="3639131169"/>
    <nd ref="7990120515"/>
    <nd ref="3639131158"/>
    <nd ref="3639131159"/>
    <nd ref="3639131172"/>
    <tag k="addr:city" v="St Neots"/>
    <tag k="addr:postcode" v="PE19 6UJ"/>
    <tag k="addr:street" v="High Street"/>
    <tag k="amenity" v="place_of_worship"/>
    <tag k="building" v="church"/>
    <tag k="denomination" v="anglican"/>
    <tag k="name" v="St Margaret (Abbotsley Parish Church)"/>
    <tag k="religion" v="christian"/>
    <tag k="wikidata" v="Q7594099"/>
  </way>
  <way id="639722305" version="3" timestamp="2023-10-21T06:23:51Z" changeset="142909226" uid="9451067" user="b-jazz-bot">
    <nd ref="6027510878"/>
    <nd ref="6027511067"/>
    <nd ref="6027510813"/>
    <nd ref="6027511481"/>
    <nd ref="6027510878"/>
    <tag k="addr:city" v="St Neots"/>
    <tag k="addr:postcode" v="PE19 6UJ"/>
    <tag k="addr:street" v="High Street"/>
    <tag k="amenity" v="pub"/>
    <tag k="building" v="yes"/>
    <tag k="name" v="The Eight Bells"/>
    <tag k="website" v="https://abbotsleyeightbells.co.uk/"/>
  </way>
  <way id="639722359" version="4" timestamp="2020-10-08T22:37:07Z" changeset="92198409" uid="281267" user="smb1001">
    <nd ref="6027511649"/>
    <nd ref="6027510808"/>
    <nd ref="7990120522"/>
    <nd ref="7990120517"/>
    <nd ref="7990120524"/>
    <nd ref="7990120527"/>
    <nd ref="6027625317"/>
    <nd ref="6027511003"/>
    <nd ref="6027511049"/>
    <nd ref="6027511649"/>
    <tag k="addr:street" v="High Street"/>
    <tag k="amenity" v="public_building"/>
    <tag k="building" v="yes"/>
    <tag k="name" v="Abbotsley Village Hall"/>
  </way>

</osm>
