<?xml version="1.0" encoding="UTF-8"?>
<osm version="0.6" generator="Overpass API 0.7.62.5 1bd436f1">
<note>The data included in this document is from www.openstreetmap.org. The data is made available under ODbL.</note>
<meta osm_base="2025-02-19T01:06:58Z" areas="2025-02-06T02:17:44Z"/>

  <way id="209241803" version="5" timestamp="2024-11-19T05:09:59Z" changeset="159308995" uid="4910264" user="Black Tusk">
    <nd ref="2194680141"/>
    <nd ref="2194680145"/>
    <nd ref="2194680149"/>
    <nd ref="2194680147"/>
    <nd ref="2194680157"/>
    <nd ref="2194680153"/>
    <nd ref="2194680138"/>
    <nd ref="2194680155"/>
    <nd ref="2194680177"/>
    <nd ref="2194680148"/>
    <nd ref="2194680159"/>
    <nd ref="2194680141"/>
    <tag k="addr:city" v="St Neots"/>
    <tag k="addr:housenumber" v="2"/>
    <tag k="addr:postcode" v="PE19 6TG"/>
    <tag k="addr:street" v="The Green"/>
    <tag k="addr:village" v="Eltisley"/>
    <tag k="amenity" v="pub"/>
    <tag k="building" v="yes"/>
    <tag k="food" v="yes"/>
    <tag k="name" v="The Eltisley"/>
    <tag k="phone" v="+44 1480 880308"/>
    <tag k="postal_code" v="PE19 6TG"/>
    <tag k="website" v="http://www.theeltisley.co.uk/"/>
  </way>
  <way id="234823852" version="8" timestamp="2024-11-19T05:09:59Z" changeset="159308995" uid="4910264" user="Black Tusk">
    <nd ref="2429533163"/>
    <nd ref="12307357147"/>
    <nd ref="12307357148"/>
    <nd ref="2429533162"/>
    <nd ref="2429533161"/>
    <nd ref="12307357150"/>
    <nd ref="12307357149"/>
    <nd ref="2429533160"/>
    <nd ref="2429533163"/>
    <tag k="addr:city" v="St Neots"/>
    <tag k="addr:country" v="GB"/>
    <tag k="addr:housenumber" v="58"/>
    <tag k="addr:postcode" v="PE19 6TQ"/>
    <tag k="addr:street" v="The Green"/>
    <tag k="addr:village" v="Eltisley"/>
    <tag k="building" v="house"/>
  </way>
  <way id="402905495" version="11" timestamp="2024-11-27T16:17:36Z" changeset="159667578" uid="5173844" user="ndrw6">
    <nd ref="12379148524"/>
    <nd ref="4053068670"/>
    <nd ref="4053072315"/>
    <nd ref="4053072318"/>
    <nd ref="4053072301"/>
    <nd ref="853408805"/>
    <nd ref="1381891328"/>
    <nd ref="4053072321"/>
    <nd ref="4053072297"/>
    <nd ref="4053072299"/>
    <nd ref="4053072332"/>
    <nd ref="12379148525"/>
    <nd ref="12379148524"/>
    <tag k="addr:city" v="St Neots"/>
    <tag k="addr:postcode" v="PE19 6TL"/>
    <tag k="addr:street" v="Caxton End"/>
    <tag k="amenity" v="school"/>
    <tag k="capacity" v="105"/>
    <tag k="isced:level" v="1"/>
    <tag k="max_age" v="11"/>
    <tag k="min_age" v="4"/>
    <tag k="name" v="Newton Primary School"/>
    <tag k="official_name" v="The Newton Community Primary School"/>
    <tag k="phone" v="+44 1480 880215"/>
    <tag k="ref:GB:uprn" v="100091523180"/>
    <tag k="ref:edubase" v="110717"/>
    <tag k="religion" v="none"/>
    <tag k="school:boarding" v="no"/>
    <tag k="school:gender" v="mixed"/>
    <tag k="school:selective" v="no"/>
    <tag k="school:trust" v="no"/>
    <tag k="school:type" v="community"/>
    <tag k="website" v="https://eltisleynewton.com/"/>
    <tag k="wikidata" v="Q67148344"/>
  </way>
  <way id="406168257" version="3" timestamp="2024-11-19T04:42:53Z" changeset="159308604" uid="4910264" user="Black Tusk">
    <nd ref="4082732904"/>
    <nd ref="4082732914"/>
    <nd ref="4082732923"/>
    <nd ref="4082732955"/>
    <nd ref="4082732911"/>
    <nd ref="4082732899"/>
    <nd ref="4082732904"/>
    <tag k="addr:city" v="St Neots"/>
    <tag k="addr:postcode" v="PE19 6TL"/>
    <tag k="addr:street" v="Caxton End"/>
    <tag k="addr:village" v="Eltisley"/>
    <tag k="building" v="school"/>
    <tag k="name" v="Newton Primary School"/>
  </way>
  <way id="589256559" version="5" timestamp="2024-11-19T05:22:13Z" changeset="159309205" uid="4910264" user="Black Tusk">
    <nd ref="5626860601"/>
    <nd ref="5626860608"/>
    <nd ref="5626860602"/>
    <nd ref="5626860603"/>
    <nd ref="5626860604"/>
    <nd ref="5626860601"/>
    <tag k="addr:city" v="St Neots"/>
    <tag k="addr:housenumber" v="43"/>
    <tag k="addr:postcode" v="PE19 6TE"/>
    <tag k="addr:street" v="St Neots Road"/>
    <tag k="addr:village" v="Eltisley"/>
    <tag k="building" v="house"/>
  </way>
  <way id="589256560" version="4" timestamp="2024-11-19T05:22:13Z" changeset="159309205" uid="4910264" user="Black Tusk">
    <nd ref="5626860602"/>
    <nd ref="5626860605"/>
    <nd ref="5626860606"/>
    <nd ref="5626860607"/>
    <nd ref="5626860608"/>
    <nd ref="5626860602"/>
    <tag k="addr:city" v="St Neots"/>
    <tag k="addr:housenumber" v="45"/>
    <tag k="addr:postcode" v="PE19 6TE"/>
    <tag k="addr:street" v="St Neots Road"/>
    <tag k="addr:village" v="Eltisley"/>
    <tag k="building" v="house"/>
  </way>
  <way id="670004633" version="6" timestamp="2024-11-19T05:27:47Z" changeset="159309281" uid="4910264" user="Black Tusk">
    <nd ref="6274635958"/>
    <nd ref="6274642433"/>
    <nd ref="6274635970"/>
    <nd ref="6274635972"/>
    <nd ref="6274635958"/>
    <tag k="addr:city" v="St Neots"/>
    <tag k="addr:housenumber" v="47"/>
    <tag k="addr:postcode" v="PE19 6TG"/>
    <tag k="addr:street" v="The Green"/>
    <tag k="addr:village" v="Eltisley"/>
    <tag k="building" v="house"/>
  </way>
  <way id="670004635" version="6" timestamp="2024-11-19T05:09:59Z" changeset="159308995" uid="4910264" user="Black Tusk">
    <nd ref="6274642425"/>
    <nd ref="6274642480"/>
    <nd ref="12302807842"/>
    <nd ref="12302807845"/>
    <nd ref="6274642467"/>
    <nd ref="6274635936"/>
    <nd ref="6274642543"/>
    <nd ref="6274642515"/>
    <nd ref="12302807844"/>
    <nd ref="12302807843"/>
    <nd ref="6274642425"/>
    <tag k="addr:city" v="St Neots"/>
    <tag k="addr:housenumber" v="2"/>
    <tag k="addr:postcode" v="PE19 6TF"/>
    <tag k="addr:street" v="St Thomas"/>
    <tag k="addr:village" v="Eltisley"/>
    <tag k="building" v="house"/>
  </way>
  <way id="670004636" version="5" timestamp="2024-11-21T01:40:36Z" changeset="159390893" uid="4910264" user="Black Tusk">
    <nd ref="6274642414"/>
    <nd ref="6274642483"/>
    <nd ref="6274642465"/>
    <nd ref="6274642471"/>
    <nd ref="6274642414"/>
    <tag k="addr:city" v="St Neots"/>
    <tag k="addr:housenumber" v="26"/>
    <tag k="addr:postcode" v="PE19 6TG"/>
    <tag k="addr:street" v="The Green"/>
    <tag k="addr:village" v="Eltisley"/>
    <tag k="building" v="house"/>
    <tag k="heritage" v="2"/>
    <tag k="listed_status" v="Grade II"/>
    <tag k="ref:GB:nhle" v="1331396"/>
  </way>
  <way id="670004637" version="8" timestamp="2024-11-24T09:59:59Z" changeset="159526802" uid="616774" user="mueschel">
    <nd ref="6274635968"/>
    <nd ref="6274635959"/>
    <nd ref="12358423009"/>
    <nd ref="12358423008"/>
    <nd ref="6274642408"/>
    <nd ref="6274642423"/>
    <nd ref="12358423013"/>
    <nd ref="12358423012"/>
    <nd ref="12358423011"/>
    <nd ref="12358423010"/>
    <nd ref="6274635968"/>
    <tag k="addr:city" v="St Neots"/>
    <tag k="addr:housenumber" v="51"/>
    <tag k="addr:postcode" v="PE19 6TG"/>
    <tag k="addr:street" v="The Green"/>
    <tag k="addr:village" v="Eltisley"/>
    <tag k="building" v="house"/>
    <tag k="heritage" v="yes"/>
    <tag k="listed_status" v="Grade II"/>
  </way>
  <way id="670004640" version="9" timestamp="2024-11-21T02:04:18Z" changeset="159391236" uid="4910264" user="Black Tusk">
    <nd ref="6274642542"/>
    <nd ref="6274642390"/>
    <nd ref="6274635961"/>
    <nd ref="6274642563"/>
    <nd ref="6274642554"/>
    <nd ref="6274642420"/>
    <nd ref="6274642542"/>
    <tag k="addr:city" v="St Neots"/>
    <tag k="addr:housenumber" v="18"/>
    <tag k="addr:postcode" v="PE19 6TG"/>
    <tag k="addr:street" v="The Green"/>
    <tag k="addr:village" v="Eltisley"/>
    <tag k="building" v="house"/>
    <tag k="heritage" v="2"/>
    <tag k="listed_status" v="Grade II"/>
    <tag k="ref:GB:nhle" v="1331397"/>
  </way>
  <way id="670004641" version="6" timestamp="2024-11-19T05:09:59Z" changeset="159308995" uid="4910264" user="Black Tusk">
    <nd ref="6274642482"/>
    <nd ref="6274642557"/>
    <nd ref="6274642432"/>
    <nd ref="6274642445"/>
    <nd ref="6274642482"/>
    <tag k="addr:city" v="St Neots"/>
    <tag k="addr:housenumber" v="4"/>
    <tag k="addr:postcode" v="PE19 6TG"/>
    <tag k="addr:street" v="The Green"/>
    <tag k="addr:village" v="Eltisley"/>
    <tag k="building" v="house"/>
  </way>
  <way id="670004644" version="4" timestamp="2024-11-19T05:09:59Z" changeset="159308995" uid="4910264" user="Black Tusk">
    <nd ref="6274642424"/>
    <nd ref="6274642457"/>
    <nd ref="6274642397"/>
    <nd ref="6274635967"/>
    <nd ref="12199825247"/>
    <nd ref="6274642424"/>
    <tag k="addr:city" v="St Neots"/>
    <tag k="addr:housenumber" v="13"/>
    <tag k="addr:postcode" v="PE19 6TG"/>
    <tag k="addr:street" v="The Green"/>
    <tag k="addr:village" v="Eltisley"/>
    <tag k="building" v="house"/>
  </way>
  <way id="670004645" version="6" timestamp="2024-11-21T01:53:38Z" changeset="159391082" uid="4910264" user="Black Tusk">
    <nd ref="6274635946"/>
    <nd ref="6274642527"/>
    <nd ref="6274635945"/>
    <nd ref="6274642506"/>
    <nd ref="6274635966"/>
    <nd ref="12358547448"/>
    <nd ref="6274642395"/>
    <nd ref="6274635946"/>
    <tag k="addr:city" v="St Neots"/>
    <tag k="addr:housenumber" v="75"/>
    <tag k="addr:postcode" v="PE19 6TG"/>
    <tag k="addr:street" v="The Green"/>
    <tag k="addr:village" v="Eltisley"/>
    <tag k="building" v="house"/>
    <tag k="heritage" v="yes"/>
    <tag k="listed_status" v="Grade II"/>
    <tag k="ref:GB:nhle" v="1163469"/>
  </way>
  <way id="670004647" version="4" timestamp="2024-11-19T05:09:59Z" changeset="159308995" uid="4910264" user="Black Tusk">
    <nd ref="6274642428"/>
    <nd ref="6274642526"/>
    <nd ref="6274635948"/>
    <nd ref="6274635926"/>
    <nd ref="6274642428"/>
    <tag k="addr:city" v="St Neots"/>
    <tag k="addr:housenumber" v="22"/>
    <tag k="addr:postcode" v="PE19 6TG"/>
    <tag k="addr:street" v="The Green"/>
    <tag k="addr:village" v="Eltisley"/>
    <tag k="building" v="house"/>
  </way>
  <way id="670004649" version="5" timestamp="2024-11-19T05:09:59Z" changeset="159308995" uid="4910264" user="Black Tusk">
    <nd ref="6274642466"/>
    <nd ref="6274642453"/>
    <nd ref="6274635956"/>
    <nd ref="6274642470"/>
    <nd ref="6274642477"/>
    <nd ref="6274642401"/>
    <nd ref="6274642466"/>
    <tag k="addr:city" v="St Neots"/>
    <tag k="addr:housenumber" v="4"/>
    <tag k="addr:postcode" v="PE19 6TF"/>
    <tag k="addr:street" v="St Thomas"/>
    <tag k="addr:village" v="Eltisley"/>
    <tag k="building" v="house"/>
  </way>
  <way id="670004650" version="6" timestamp="2024-11-19T05:09:59Z" changeset="159308995" uid="4910264" user="Black Tusk">
    <nd ref="6274642497"/>
    <nd ref="6274635953"/>
    <nd ref="6274642391"/>
    <nd ref="6274642431"/>
    <nd ref="6274642497"/>
    <tag k="addr:city" v="St Neots"/>
    <tag k="addr:housenumber" v="54"/>
    <tag k="addr:postcode" v="PE19 6TQ"/>
    <tag k="addr:street" v="The Green"/>
    <tag k="addr:village" v="Eltisley"/>
    <tag k="building" v="house"/>
  </way>
  <way id="670004651" version="6" timestamp="2024-11-19T05:09:59Z" changeset="159308995" uid="4910264" user="Black Tusk">
    <nd ref="6274642426"/>
    <nd ref="12199422215"/>
    <nd ref="6274642560"/>
    <nd ref="6274642415"/>
    <nd ref="6274642403"/>
    <nd ref="6274642400"/>
    <nd ref="6274642426"/>
    <tag k="addr:city" v="St Neots"/>
    <tag k="addr:housenumber" v="38"/>
    <tag k="addr:postcode" v="PE19 6TG"/>
    <tag k="addr:street" v="The Green"/>
    <tag k="addr:village" v="Eltisley"/>
    <tag k="building" v="house"/>
  </way>
  <way id="670004652" version="7" timestamp="2024-11-19T05:09:59Z" changeset="159308995" uid="4910264" user="Black Tusk">
    <nd ref="6274642417"/>
    <nd ref="6274642481"/>
    <nd ref="6274642460"/>
    <nd ref="6274642455"/>
    <nd ref="6274642417"/>
    <tag k="addr:city" v="St Neots"/>
    <tag k="addr:housenumber" v="36"/>
    <tag k="addr:postcode" v="PE19 6TG"/>
    <tag k="addr:street" v="The Green"/>
    <tag k="addr:village" v="Eltisley"/>
    <tag k="building" v="house"/>
  </way>
  <way id="670004655" version="4" timestamp="2024-11-19T05:09:59Z" changeset="159308995" uid="4910264" user="Black Tusk">
    <nd ref="6274635969"/>
    <nd ref="6274635931"/>
    <nd ref="6274642439"/>
    <nd ref="6274642530"/>
    <nd ref="6274635969"/>
    <tag k="addr:city" v="St Neots"/>
    <tag k="addr:housenumber" v="30"/>
    <tag k="addr:postcode" v="PE19 6TG"/>
    <tag k="addr:street" v="The Green"/>
    <tag k="addr:village" v="Eltisley"/>
    <tag k="building" v="house"/>
  </way>
  <way id="670004656" version="3" timestamp="2024-11-19T05:22:13Z" changeset="159309205" uid="4910264" user="Black Tusk">
    <nd ref="6274635942"/>
    <nd ref="6274642519"/>
    <nd ref="6274642462"/>
    <nd ref="6274642409"/>
    <nd ref="6274635942"/>
    <tag k="addr:city" v="St Neots"/>
    <tag k="addr:housenumber" v="44"/>
    <tag k="addr:postcode" v="PE19 6TE"/>
    <tag k="addr:street" v="St Neots Road"/>
    <tag k="addr:village" v="Eltisley"/>
    <tag k="building" v="house"/>
  </way>
  <way id="670004657" version="5" timestamp="2024-11-19T05:27:47Z" changeset="159309281" uid="4910264" user="Black Tusk">
    <nd ref="6274635980"/>
    <nd ref="6274642529"/>
    <nd ref="6274642492"/>
    <nd ref="6274635944"/>
    <nd ref="6274635980"/>
    <tag k="addr:city" v="St Neots"/>
    <tag k="addr:housenumber" v="49"/>
    <tag k="addr:postcode" v="PE19 6TG"/>
    <tag k="addr:street" v="The Green"/>
    <tag k="addr:village" v="Eltisley"/>
    <tag k="building" v="house"/>
  </way>
  <way id="670004658" version="5" timestamp="2024-11-19T05:09:59Z" changeset="159308995" uid="4910264" user="Black Tusk">
    <nd ref="6274635950"/>
    <nd ref="6274635928"/>
    <nd ref="6274642413"/>
    <nd ref="6274642524"/>
    <nd ref="6274642487"/>
    <nd ref="6274642437"/>
    <nd ref="6274635950"/>
    <tag k="addr:city" v="St Neots"/>
    <tag k="addr:housenumber" v="3"/>
    <tag k="addr:postcode" v="PE19 6TF"/>
    <tag k="addr:street" v="St Thomas"/>
    <tag k="addr:village" v="Eltisley"/>
    <tag k="building" v="house"/>
  </way>
  <way id="670004660" version="5" timestamp="2024-11-19T05:09:59Z" changeset="159308995" uid="4910264" user="Black Tusk">
    <nd ref="6274642503"/>
    <nd ref="6274635971"/>
    <nd ref="6274635939"/>
    <nd ref="6274642438"/>
    <nd ref="6274642430"/>
    <nd ref="6274642485"/>
    <nd ref="6274642511"/>
    <nd ref="6274642561"/>
    <nd ref="6274642503"/>
    <tag k="addr:city" v="St Neots"/>
    <tag k="addr:housenumber" v="1"/>
    <tag k="addr:postcode" v="PE19 6TF"/>
    <tag k="addr:street" v="St Thomas"/>
    <tag k="addr:village" v="Eltisley"/>
    <tag k="building" v="house"/>
  </way>
  <way id="670004661" version="5" timestamp="2024-11-21T01:40:36Z" changeset="159390893" uid="4910264" user="Black Tusk">
    <nd ref="6274642489"/>
    <nd ref="6274642510"/>
    <nd ref="6274642517"/>
    <nd ref="6274635957"/>
    <nd ref="6274635964"/>
    <nd ref="6274635975"/>
    <nd ref="6274642489"/>
    <tag k="addr:city" v="St Neots"/>
    <tag k="addr:housename" v="Pond Farmhouse"/>
    <tag k="addr:housenumber" v="23"/>
    <tag k="addr:postcode" v="PE19 6TG"/>
    <tag k="addr:street" v="The Green"/>
    <tag k="addr:village" v="Eltisley"/>
    <tag k="building" v="house"/>
    <tag k="heritage" v="yes"/>
    <tag k="listed_status" v="Grade II"/>
    <tag k="ref:GB:nhle" v="1163501"/>
  </way>
  <way id="670004662" version="7" timestamp="2024-11-19T05:09:59Z" changeset="159308995" uid="4910264" user="Black Tusk">
    <nd ref="6274635947"/>
    <nd ref="6274642463"/>
    <nd ref="6274642472"/>
    <nd ref="6274635951"/>
    <nd ref="6274635947"/>
    <tag k="addr:city" v="St Neots"/>
    <tag k="addr:country" v="GB"/>
    <tag k="addr:housename" v="Mill House"/>
    <tag k="addr:housenumber" v="60"/>
    <tag k="addr:postcode" v="PE19 6TQ"/>
    <tag k="addr:street" v="The Green"/>
    <tag k="addr:village" v="Eltisley"/>
    <tag k="building" v="house"/>
  </way>
  <way id="670004664" version="7" timestamp="2024-11-19T05:09:59Z" changeset="159308995" uid="4910264" user="Black Tusk">
    <nd ref="6274635981"/>
    <nd ref="6274642514"/>
    <nd ref="6274642544"/>
    <nd ref="6274642396"/>
    <nd ref="12199422216"/>
    <nd ref="12199422217"/>
    <nd ref="6274635981"/>
    <tag k="addr:city" v="St Neots"/>
    <tag k="addr:housenumber" v="32"/>
    <tag k="addr:postcode" v="PE19 6TG"/>
    <tag k="addr:street" v="The Green"/>
    <tag k="addr:village" v="Eltisley"/>
    <tag k="building" v="house"/>
  </way>
  <way id="670004667" version="6" timestamp="2024-11-19T05:09:59Z" changeset="159308995" uid="4910264" user="Black Tusk">
    <nd ref="6274635954"/>
    <nd ref="6274642521"/>
    <nd ref="6274642502"/>
    <nd ref="6274642469"/>
    <nd ref="6274642461"/>
    <nd ref="6274642513"/>
    <nd ref="6274635954"/>
    <tag k="addr:city" v="St Neots"/>
    <tag k="addr:housenumber" v="34"/>
    <tag k="addr:postcode" v="PE19 6TG"/>
    <tag k="addr:street" v="The Green"/>
    <tag k="addr:village" v="Eltisley"/>
    <tag k="building" v="house"/>
  </way>
  <way id="670004671" version="6" timestamp="2024-11-19T05:09:59Z" changeset="159308995" uid="4910264" user="Black Tusk">
    <nd ref="6274642549"/>
    <nd ref="6274642564"/>
    <nd ref="6274642507"/>
    <nd ref="6274642525"/>
    <nd ref="6274642549"/>
    <tag k="addr:city" v="St Neots"/>
    <tag k="addr:housenumber" v="40"/>
    <tag k="addr:postcode" v="PE19 6TG"/>
    <tag k="addr:street" v="The Green"/>
    <tag k="addr:village" v="Eltisley"/>
    <tag k="building" v="house"/>
  </way>
  <way id="670004672" version="6" timestamp="2024-11-19T05:09:59Z" changeset="159308995" uid="4910264" user="Black Tusk">
    <nd ref="6274642567"/>
    <nd ref="10047674545"/>
    <nd ref="6274642516"/>
    <nd ref="6274642418"/>
    <nd ref="6274642392"/>
    <nd ref="6274642567"/>
    <tag k="addr:city" v="St Neots"/>
    <tag k="addr:country" v="GB"/>
    <tag k="addr:housenumber" v="37"/>
    <tag k="addr:postcode" v="PE19 6TG"/>
    <tag k="addr:street" v="The Green"/>
    <tag k="addr:village" v="Eltisley"/>
    <tag k="building" v="pavilion"/>
    <tag k="building:levels" v="1"/>
    <tag k="name" v="Cade Pavilion"/>
  </way>
  <way id="670004674" version="6" timestamp="2024-11-21T02:04:18Z" changeset="159391236" uid="4910264" user="Black Tusk">
    <nd ref="6274642478"/>
    <nd ref="6274635927"/>
    <nd ref="6274642443"/>
    <nd ref="6274642435"/>
    <nd ref="6274642478"/>
    <tag k="addr:city" v="St Neots"/>
    <tag k="addr:housenumber" v="20"/>
    <tag k="addr:postcode" v="PE19 6TG"/>
    <tag k="addr:street" v="The Green"/>
    <tag k="addr:village" v="Eltisley"/>
    <tag k="building" v="house"/>
    <tag k="heritage" v="2"/>
    <tag k="listed_status" v="Grade II"/>
    <tag k="ref:GB:nhle" v="1163520"/>
  </way>
  <way id="670004675" version="5" timestamp="2024-11-19T05:09:59Z" changeset="159308995" uid="4910264" user="Black Tusk">
    <nd ref="6274642533"/>
    <nd ref="6274642498"/>
    <nd ref="6274642416"/>
    <nd ref="6274642556"/>
    <nd ref="6274635983"/>
    <nd ref="6274642479"/>
    <nd ref="6274642533"/>
    <tag k="addr:city" v="St Neots"/>
    <tag k="addr:housenumber" v="7"/>
    <tag k="addr:postcode" v="PE19 6TF"/>
    <tag k="addr:street" v="St Thomas"/>
    <tag k="addr:village" v="Eltisley"/>
    <tag k="building" v="house"/>
  </way>
  <way id="670004677" version="4" timestamp="2024-11-19T05:09:59Z" changeset="159308995" uid="4910264" user="Black Tusk">
    <nd ref="6274642440"/>
    <nd ref="6274635955"/>
    <nd ref="6274642448"/>
    <nd ref="6274642444"/>
    <nd ref="6274642440"/>
    <tag k="addr:city" v="St Neots"/>
    <tag k="addr:housenumber" v="7"/>
    <tag k="addr:postcode" v="PE19 6TG"/>
    <tag k="addr:street" v="The Green"/>
    <tag k="addr:suburb" v="Eltisley"/>
    <tag k="building" v="house"/>
  </way>
  <way id="670004678" version="5" timestamp="2024-11-19T05:09:59Z" changeset="159308995" uid="4910264" user="Black Tusk">
    <nd ref="6274642568"/>
    <nd ref="6274642555"/>
    <nd ref="6274635979"/>
    <nd ref="6274635974"/>
    <nd ref="6274635930"/>
    <nd ref="6274635952"/>
    <nd ref="6274642429"/>
    <nd ref="6274642473"/>
    <nd ref="6274642568"/>
    <tag k="addr:city" v="St Neots"/>
    <tag k="addr:housenumber" v="5"/>
    <tag k="addr:postcode" v="PE19 6TF"/>
    <tag k="addr:street" v="St Thomas"/>
    <tag k="addr:village" v="Eltisley"/>
    <tag k="building" v="house"/>
  </way>
  <way id="670004681" version="9" timestamp="2024-11-21T02:04:18Z" changeset="159391236" uid="4910264" user="Black Tusk">
    <nd ref="6274642442"/>
    <nd ref="6274642468"/>
    <nd ref="6274642494"/>
    <nd ref="6274642505"/>
    <nd ref="6274642442"/>
    <tag k="addr:city" v="St Neots"/>
    <tag k="addr:housenumber" v="52"/>
    <tag k="addr:postcode" v="PE19 6TQ"/>
    <tag k="addr:street" v="The Green"/>
    <tag k="addr:village" v="Eltisley"/>
    <tag k="building" v="house"/>
    <tag k="heritage" v="2"/>
    <tag k="listed_status" v="Grade II"/>
    <tag k="ref:GB:nhle" v="1163524"/>
  </way>
  <way id="670004683" version="3" timestamp="2024-11-19T05:09:59Z" changeset="159308995" uid="4910264" user="Black Tusk">
    <nd ref="6274642518"/>
    <nd ref="6274642490"/>
    <nd ref="6274642495"/>
    <nd ref="6274642545"/>
    <nd ref="6274642518"/>
    <tag k="addr:housenumber" v="5"/>
    <tag k="addr:street" v="The Green"/>
    <tag k="addr:village" v="Eltisley"/>
    <tag k="building" v="house"/>
    <tag k="postal_code" v="PE19 6TG"/>
  </way>
  <way id="670005668" version="6" timestamp="2024-11-19T05:09:59Z" changeset="159308995" uid="4910264" user="Black Tusk">
    <nd ref="6274651418"/>
    <nd ref="6274651208"/>
    <nd ref="6274651238"/>
    <nd ref="6274651185"/>
    <nd ref="6274650762"/>
    <nd ref="6274650764"/>
    <nd ref="12310293239"/>
    <nd ref="6274651418"/>
    <tag k="addr:city" v="St Neots"/>
    <tag k="addr:housenumber" v="23"/>
    <tag k="addr:postcode" v="PE19 6TN"/>
    <tag k="addr:street" v="Greenfields"/>
    <tag k="addr:village" v="Eltisley"/>
    <tag k="building" v="house"/>
  </way>
  <way id="670005669" version="8" timestamp="2024-11-23T16:54:28Z" changeset="159507683" uid="4910264" user="Black Tusk">
    <nd ref="12368018679"/>
    <nd ref="6274651447"/>
    <nd ref="12351703980"/>
    <nd ref="12351703981"/>
    <nd ref="6274651247"/>
    <nd ref="12368018680"/>
    <nd ref="12368018679"/>
    <tag k="addr:city" v="St Neots"/>
    <tag k="addr:housenumber" v="82"/>
    <tag k="addr:postcode" v="PE19 6TJ"/>
    <tag k="addr:street" v="Caxton End"/>
    <tag k="addr:village" v="Eltisley"/>
    <tag k="building" v="house"/>
  </way>
  <way id="670005670" version="9" timestamp="2024-11-19T05:09:59Z" changeset="159308995" uid="4910264" user="Black Tusk">
    <nd ref="6274651200"/>
    <nd ref="6274651274"/>
    <nd ref="6274651399"/>
    <nd ref="6274650739"/>
    <nd ref="6274651200"/>
    <tag k="addr:city" v="St Neots"/>
    <tag k="addr:housenumber" v="39"/>
    <tag k="addr:postcode" v="PE19 6TG"/>
    <tag k="addr:street" v="The Green"/>
    <tag k="addr:village" v="Eltisley"/>
    <tag k="building" v="industrial"/>
    <tag k="power" v="substation"/>
    <tag k="substation" v="distribution"/>
  </way>
  <way id="670005673" version="5" timestamp="2024-11-19T04:42:53Z" changeset="159308604" uid="4910264" user="Black Tusk">
    <nd ref="6274651192"/>
    <nd ref="6274650744"/>
    <nd ref="6274651270"/>
    <nd ref="6274651255"/>
    <nd ref="6274651192"/>
    <tag k="addr:city" v="St Neots"/>
    <tag k="addr:housenumber" v="22"/>
    <tag k="addr:postcode" v="PE19 6TJ"/>
    <tag k="addr:street" v="Caxton End"/>
    <tag k="addr:village" v="Eltisley"/>
    <tag k="building" v="residential"/>
  </way>
  <way id="670005674" version="6" timestamp="2024-11-19T05:09:59Z" changeset="159308995" uid="4910264" user="Black Tusk">
    <nd ref="6274651237"/>
    <nd ref="6274651243"/>
    <nd ref="6274651240"/>
    <nd ref="6274651386"/>
    <nd ref="6274651237"/>
    <tag k="addr:city" v="St Neots"/>
    <tag k="addr:housenumber" v="5"/>
    <tag k="addr:postcode" v="PE19 6TJ"/>
    <tag k="addr:street" v="Caxton End"/>
    <tag k="addr:village" v="Eltisley"/>
    <tag k="building" v="house"/>
  </way>
  <way id="670005675" version="6" timestamp="2024-11-19T04:42:53Z" changeset="159308604" uid="4910264" user="Black Tusk">
    <nd ref="6274650753"/>
    <nd ref="6274650746"/>
    <nd ref="6274650758"/>
    <nd ref="6274650751"/>
    <nd ref="6274650753"/>
    <tag k="addr:city" v="St Neots"/>
    <tag k="addr:housenumber" v="17"/>
    <tag k="addr:postcode" v="PE19 6TJ"/>
    <tag k="addr:street" v="Caxton End"/>
    <tag k="addr:village" v="Eltisley"/>
    <tag k="building" v="industrial"/>
    <tag k="industrial" v="pump house"/>
  </way>
  <way id="670005676" version="6" timestamp="2024-11-21T02:04:18Z" changeset="159391236" uid="4910264" user="Black Tusk">
    <nd ref="6274650767"/>
    <nd ref="6274650737"/>
    <nd ref="6274651267"/>
    <nd ref="6274651426"/>
    <nd ref="6274650767"/>
    <tag k="addr:city" v="St Neots"/>
    <tag k="addr:housenumber" v="18"/>
    <tag k="addr:postcode" v="PE19 6TJ"/>
    <tag k="addr:street" v="Caxton End"/>
    <tag k="addr:village" v="Eltisley"/>
    <tag k="building" v="house"/>
    <tag k="heritage" v="2"/>
    <tag k="listed_status" v="Grade II"/>
    <tag k="ref:GB:nhle" v="1127176"/>
  </way>
  <way id="670005677" version="6" timestamp="2024-11-19T05:16:30Z" changeset="159309113" uid="4910264" user="Black Tusk">
    <nd ref="6274651435"/>
    <nd ref="6274651389"/>
    <nd ref="6274650774"/>
    <nd ref="6274650731"/>
    <nd ref="6274651435"/>
    <tag k="addr:city" v="St Neots"/>
    <tag k="addr:housenumber" v="25"/>
    <tag k="addr:postcode" v="PE19 6TJ"/>
    <tag k="addr:street" v="Caxton End"/>
    <tag k="addr:village" v="Eltisley"/>
    <tag k="building" v="house"/>
  </way>
  <way id="670005678" version="6" timestamp="2024-11-19T05:16:30Z" changeset="159309113" uid="4910264" user="Black Tusk">
    <nd ref="6274651234"/>
    <nd ref="6274650752"/>
    <nd ref="6274651446"/>
    <nd ref="6274650740"/>
    <nd ref="6274650732"/>
    <nd ref="6274650730"/>
    <nd ref="6274651234"/>
    <tag k="addr:city" v="St Neots"/>
    <tag k="addr:housenumber" v="46"/>
    <tag k="addr:postcode" v="PE19 6TJ"/>
    <tag k="addr:street" v="Caxton End"/>
    <tag k="addr:village" v="Eltisley"/>
    <tag k="building" v="house"/>
  </way>
  <way id="670005679" version="8" timestamp="2024-11-21T02:04:18Z" changeset="159391236" uid="4910264" user="Black Tusk">
    <nd ref="6274651256"/>
    <nd ref="6274651260"/>
    <nd ref="6274651409"/>
    <nd ref="6274651443"/>
    <nd ref="6274650738"/>
    <nd ref="6274650766"/>
    <nd ref="6274651263"/>
    <nd ref="6274650725"/>
    <nd ref="6274651256"/>
    <tag k="addr:city" v="St Neots"/>
    <tag k="addr:housenumber" v="70"/>
    <tag k="addr:postcode" v="PE19 6TJ"/>
    <tag k="addr:street" v="Caxton End"/>
    <tag k="addr:village" v="Eltisley"/>
    <tag k="building" v="house"/>
    <tag k="heritage" v="2"/>
    <tag k="listed_status" v="Grade II"/>
    <tag k="ref:GB:nhle" v="1163409"/>
  </way>
  <way id="670005680" version="8" timestamp="2024-11-21T01:40:36Z" changeset="159390893" uid="4910264" user="Black Tusk">
    <nd ref="6274651394"/>
    <nd ref="6274651271"/>
    <nd ref="12310865344"/>
    <nd ref="12310865343"/>
    <nd ref="12310865345"/>
    <nd ref="12310865346"/>
    <nd ref="6274651427"/>
    <nd ref="6274651258"/>
    <nd ref="6274651394"/>
    <tag k="addr:city" v="St Neots"/>
    <tag k="addr:housenumber" v="12"/>
    <tag k="addr:postcode" v="PE19 6TL"/>
    <tag k="addr:street" v="Caxton End"/>
    <tag k="addr:village" v="Eltisley"/>
    <tag k="building" v="house"/>
    <tag k="heritage" v="yes"/>
    <tag k="listed_status" v="Grade II"/>
    <tag k="ref:GB:nhle" v="1163346"/>
  </way>
  <way id="670005681" version="6" timestamp="2024-11-19T05:09:59Z" changeset="159308995" uid="4910264" user="Black Tusk">
    <nd ref="6274651397"/>
    <nd ref="6274651261"/>
    <nd ref="6274651254"/>
    <nd ref="6274651251"/>
    <nd ref="6274651397"/>
    <tag k="addr:city" v="St Neots"/>
    <tag k="addr:housenumber" v="7"/>
    <tag k="addr:postcode" v="PE19 6TJ"/>
    <tag k="addr:street" v="Caxton End"/>
    <tag k="addr:village" v="Eltisley"/>
    <tag k="building" v="house"/>
  </way>
  <way id="670005682" version="5" timestamp="2024-11-19T05:16:30Z" changeset="159309113" uid="4910264" user="Black Tusk">
    <nd ref="6274651257"/>
    <nd ref="6274650735"/>
    <nd ref="6274651453"/>
    <nd ref="6274651442"/>
    <nd ref="6274651195"/>
    <nd ref="6274651205"/>
    <nd ref="6274651257"/>
    <tag k="addr:city" v="St Neots"/>
    <tag k="addr:housename" v="Lennox House"/>
    <tag k="addr:housenumber" v="10"/>
    <tag k="addr:postcode" v="PE19 6TJ"/>
    <tag k="addr:street" v="Caxton End"/>
    <tag k="addr:village" v="Eltisley"/>
    <tag k="building" v="house"/>
  </way>
  <way id="670005687" version="8" timestamp="2024-11-23T16:54:28Z" changeset="159507683" uid="4910264" user="Black Tusk">
    <nd ref="6274650760"/>
    <nd ref="6274650729"/>
    <nd ref="6274650726"/>
    <nd ref="6274651211"/>
    <nd ref="6274651196"/>
    <nd ref="12368018675"/>
    <nd ref="6274650760"/>
    <tag k="addr:city" v="St Neots"/>
    <tag k="addr:housenumber" v="68"/>
    <tag k="addr:postcode" v="PE19 6TJ"/>
    <tag k="addr:street" v="Caxton End"/>
    <tag k="addr:village" v="Eltisley"/>
    <tag k="building" v="house"/>
  </way>
  <way id="670005688" version="7" timestamp="2024-11-19T05:09:59Z" changeset="159308995" uid="4910264" user="Black Tusk">
    <nd ref="6274651385"/>
    <nd ref="6274651439"/>
    <nd ref="6274651401"/>
    <nd ref="6274651242"/>
    <nd ref="6274651385"/>
    <tag k="addr:city" v="St Neots"/>
    <tag k="addr:housenumber" v="1"/>
    <tag k="addr:postcode" v="PE19 6TJ"/>
    <tag k="addr:street" v="Caxton End"/>
    <tag k="addr:village" v="Eltisley"/>
    <tag k="building" v="house"/>
  </way>
  <way id="670005691" version="6" timestamp="2024-11-19T05:09:59Z" changeset="159308995" uid="4910264" user="Black Tusk">
    <nd ref="6274650757"/>
    <nd ref="6274651408"/>
    <nd ref="6274650745"/>
    <nd ref="6274651390"/>
    <nd ref="6274651429"/>
    <nd ref="6274651250"/>
    <nd ref="6274650757"/>
    <tag k="addr:city" v="St Neots"/>
    <tag k="addr:housenumber" v="31"/>
    <tag k="addr:postcode" v="PE19 6TN"/>
    <tag k="addr:street" v="Greenfields"/>
    <tag k="addr:village" v="Eltisley"/>
    <tag k="building" v="house"/>
  </way>
  <way id="670005695" version="8" timestamp="2024-11-23T16:54:28Z" changeset="159507683" uid="4910264" user="Black Tusk">
    <nd ref="6274651206"/>
    <nd ref="6274650734"/>
    <nd ref="6274651420"/>
    <nd ref="6274651402"/>
    <nd ref="6274651244"/>
    <nd ref="12368018673"/>
    <nd ref="12368018672"/>
    <nd ref="12351566555"/>
    <nd ref="6274651206"/>
    <tag k="addr:city" v="St Neots"/>
    <tag k="addr:housenumber" v="56"/>
    <tag k="addr:postcode" v="PE19 6TJ"/>
    <tag k="addr:street" v="Caxton End"/>
    <tag k="addr:village" v="Eltisley"/>
    <tag k="building" v="house"/>
  </way>
  <way id="670005696" version="7" timestamp="2024-11-19T05:16:30Z" changeset="159309113" uid="4910264" user="Black Tusk">
    <nd ref="6274651445"/>
    <nd ref="6274651236"/>
    <nd ref="6274651231"/>
    <nd ref="6274651199"/>
    <nd ref="6274651445"/>
    <tag k="addr:city" v="St Neots"/>
    <tag k="addr:housenumber" v="58"/>
    <tag k="addr:postcode" v="PE19 6TJ"/>
    <tag k="addr:street" v="Caxton End"/>
    <tag k="addr:village" v="Eltisley"/>
    <tag k="building" v="house"/>
  </way>
  <way id="670005697" version="6" timestamp="2024-11-19T05:16:30Z" changeset="159309113" uid="4910264" user="Black Tusk">
    <nd ref="6274650755"/>
    <nd ref="6274650768"/>
    <nd ref="6274651421"/>
    <nd ref="6274651434"/>
    <nd ref="6274650755"/>
    <tag k="addr:city" v="St Neots"/>
    <tag k="addr:housenumber" v="80"/>
    <tag k="addr:postcode" v="PE19 6TJ"/>
    <tag k="addr:street" v="Caxton End"/>
    <tag k="addr:village" v="Eltisley"/>
    <tag k="building" v="house"/>
  </way>
  <way id="670005699" version="6" timestamp="2024-11-19T05:09:59Z" changeset="159308995" uid="4910264" user="Black Tusk">
    <nd ref="6274651225"/>
    <nd ref="6274651224"/>
    <nd ref="6274651262"/>
    <nd ref="6274651425"/>
    <nd ref="6274651225"/>
    <tag k="addr:city" v="St Neots"/>
    <tag k="addr:housenumber" v="3"/>
    <tag k="addr:postcode" v="PE19 6TJ"/>
    <tag k="addr:street" v="Caxton End"/>
    <tag k="addr:village" v="Eltisley"/>
    <tag k="building" v="house"/>
  </way>
  <way id="670005700" version="6" timestamp="2024-11-19T05:09:59Z" changeset="159308995" uid="4910264" user="Black Tusk">
    <nd ref="6274650763"/>
    <nd ref="6274651245"/>
    <nd ref="6274651456"/>
    <nd ref="6274650741"/>
    <nd ref="6274650748"/>
    <nd ref="6274651239"/>
    <nd ref="6274650763"/>
    <tag k="addr:city" v="St Neots"/>
    <tag k="addr:housenumber" v="25"/>
    <tag k="addr:postcode" v="PE19 6TN"/>
    <tag k="addr:street" v="Greenfields"/>
    <tag k="addr:village" v="Eltisley"/>
    <tag k="building" v="house"/>
  </way>
  <way id="670005701" version="4" timestamp="2024-11-21T01:53:38Z" changeset="159391082" uid="4910264" user="Black Tusk">
    <nd ref="6274651451"/>
    <nd ref="12310782088"/>
    <nd ref="12310782087"/>
    <nd ref="6274651448"/>
    <nd ref="12310782090"/>
    <nd ref="12310782089"/>
    <nd ref="12310782091"/>
    <nd ref="12310782092"/>
    <nd ref="6274651207"/>
    <nd ref="12310782084"/>
    <nd ref="12310782085"/>
    <nd ref="12310782086"/>
    <nd ref="6274651451"/>
    <tag k="addr:city" v="St Neots"/>
    <tag k="addr:housenumber" v="38"/>
    <tag k="addr:postcode" v="PE19 6TJ"/>
    <tag k="addr:street" v="Caxton End"/>
    <tag k="addr:suburb" v="Eltisley"/>
    <tag k="building" v="farm"/>
    <tag k="heritage" v="2"/>
    <tag k="listed_status" v="Grade II"/>
    <tag k="name" v="Manor Farm"/>
    <tag k="ref:GB:nhle" v="1309206"/>
  </way>
  <way id="670005703" version="6" timestamp="2024-11-19T05:16:30Z" changeset="159309113" uid="4910264" user="Black Tusk">
    <nd ref="6274651283"/>
    <nd ref="6274651400"/>
    <nd ref="12351557255"/>
    <nd ref="12351557254"/>
    <nd ref="6274651407"/>
    <nd ref="6274651424"/>
    <nd ref="6274651283"/>
    <tag k="addr:city" v="St Neots"/>
    <tag k="addr:housenumber" v="39"/>
    <tag k="addr:postcode" v="PE19 6TJ"/>
    <tag k="addr:street" v="Caxton End"/>
    <tag k="addr:village" v="Eltisley"/>
    <tag k="building" v="house"/>
  </way>
  <way id="670005704" version="6" timestamp="2024-11-19T05:16:30Z" changeset="159309113" uid="4910264" user="Black Tusk">
    <nd ref="6274651229"/>
    <nd ref="6274651415"/>
    <nd ref="6274651215"/>
    <nd ref="6274651396"/>
    <nd ref="6274651444"/>
    <nd ref="6274650742"/>
    <nd ref="6274651229"/>
    <tag k="addr:city" v="St Neots"/>
    <tag k="addr:housenumber" v="37"/>
    <tag k="addr:postcode" v="PE19 6TJ"/>
    <tag k="addr:street" v="Caxton End"/>
    <tag k="addr:village" v="Eltisley"/>
    <tag k="building" v="house"/>
  </way>
  <way id="670005705" version="6" timestamp="2024-11-19T05:16:30Z" changeset="159309113" uid="4910264" user="Black Tusk">
    <nd ref="6274651233"/>
    <nd ref="6274651278"/>
    <nd ref="12351557256"/>
    <nd ref="12351557257"/>
    <nd ref="6274650761"/>
    <nd ref="6274650736"/>
    <nd ref="12351557259"/>
    <nd ref="12351557258"/>
    <nd ref="6274651233"/>
    <tag k="addr:city" v="St Neots"/>
    <tag k="addr:housenumber" v="47"/>
    <tag k="addr:postcode" v="PE19 6TJ"/>
    <tag k="addr:street" v="Caxton End"/>
    <tag k="addr:village" v="Eltisley"/>
    <tag k="building" v="house"/>
  </way>
  <way id="670005706" version="7" timestamp="2024-11-19T05:16:30Z" changeset="159309113" uid="4910264" user="Black Tusk">
    <nd ref="6274650773"/>
    <nd ref="6274651277"/>
    <nd ref="12351566557"/>
    <nd ref="12351566559"/>
    <nd ref="12351566561"/>
    <nd ref="12351566562"/>
    <nd ref="12351566560"/>
    <nd ref="12351566558"/>
    <nd ref="6274651422"/>
    <nd ref="6274651395"/>
    <nd ref="6274650773"/>
    <tag k="addr:city" v="St Neots"/>
    <tag k="addr:housenumber" v="60"/>
    <tag k="addr:postcode" v="PE19 6TJ"/>
    <tag k="addr:street" v="Caxton End"/>
    <tag k="addr:village" v="Eltisley"/>
    <tag k="building" v="house"/>
  </way>
  <way id="670005707" version="6" timestamp="2024-11-19T05:16:30Z" changeset="159309113" uid="4910264" user="Black Tusk">
    <nd ref="6274651454"/>
    <nd ref="6274650780"/>
    <nd ref="6274650759"/>
    <nd ref="6274651191"/>
    <nd ref="6274651454"/>
    <tag k="addr:city" v="St Neots"/>
    <tag k="addr:housenumber" v="27"/>
    <tag k="addr:postcode" v="PE19 6TJ"/>
    <tag k="addr:street" v="Caxton End"/>
    <tag k="addr:village" v="Eltisley"/>
    <tag k="building" v="house"/>
  </way>
  <way id="670005708" version="12" timestamp="2024-11-23T16:54:28Z" changeset="159507683" uid="4910264" user="Black Tusk">
    <nd ref="6274650765"/>
    <nd ref="6274650728"/>
    <nd ref="6274651450"/>
    <nd ref="12368018671"/>
    <nd ref="6274650765"/>
    <tag k="addr:city" v="St Neots"/>
    <tag k="addr:housenumber" v="52"/>
    <tag k="addr:postcode" v="PE19 6TJ"/>
    <tag k="addr:street" v="Caxton End"/>
    <tag k="addr:village" v="Eltisley"/>
    <tag k="building" v="house"/>
    <tag k="heritage" v="2"/>
    <tag k="listed_status" v="Grade II"/>
    <tag k="ref:GB:nhle" v="1331395"/>
  </way>
  <way id="670005710" version="6" timestamp="2024-11-19T05:16:30Z" changeset="159309113" uid="4910264" user="Black Tusk">
    <nd ref="6274651191"/>
    <nd ref="6274650759"/>
    <nd ref="6274651194"/>
    <nd ref="6274650776"/>
    <nd ref="6274651191"/>
    <tag k="addr:city" v="St Neots"/>
    <tag k="addr:housenumber" v="29"/>
    <tag k="addr:postcode" v="PE19 6TJ"/>
    <tag k="addr:street" v="Caxton End"/>
    <tag k="addr:village" v="Eltisley"/>
    <tag k="building" v="house"/>
  </way>
  <way id="670005711" version="9" timestamp="2024-11-23T16:54:28Z" changeset="159507683" uid="4910264" user="Black Tusk">
    <nd ref="12368018676"/>
    <nd ref="6274650733"/>
    <nd ref="6274651226"/>
    <nd ref="6274651235"/>
    <nd ref="6274651214"/>
    <nd ref="6274651414"/>
    <nd ref="6274650782"/>
    <nd ref="12368018677"/>
    <nd ref="12368018676"/>
    <tag k="addr:city" v="St Neots"/>
    <tag k="addr:housenumber" v="74"/>
    <tag k="addr:postcode" v="PE19 6TJ"/>
    <tag k="addr:street" v="Caxton End"/>
    <tag k="addr:village" v="Eltisley"/>
    <tag k="building" v="house"/>
    <tag k="heritage" v="2"/>
    <tag k="listed_status" v="Grade II"/>
    <tag k="ref:GB:nhle" v="1163409"/>
  </way>
  <way id="670005712" version="6" timestamp="2024-11-19T05:16:30Z" changeset="159309113" uid="4910264" user="Black Tusk">
    <nd ref="6274651220"/>
    <nd ref="6274651216"/>
    <nd ref="6274651223"/>
    <nd ref="6274651241"/>
    <nd ref="6274651209"/>
    <nd ref="6274651201"/>
    <nd ref="6274651203"/>
    <nd ref="6274651455"/>
    <nd ref="6274651220"/>
    <tag k="addr:city" v="St Neots"/>
    <tag k="addr:housenumber" v="41"/>
    <tag k="addr:postcode" v="PE19 6TJ"/>
    <tag k="addr:street" v="Caxton End"/>
    <tag k="addr:village" v="Eltisley"/>
    <tag k="building" v="house"/>
  </way>
  <way id="670005714" version="8" timestamp="2024-11-19T05:16:30Z" changeset="159309113" uid="4910264" user="Black Tusk">
    <nd ref="6274650778"/>
    <nd ref="6274651187"/>
    <nd ref="6274651430"/>
    <nd ref="6274651452"/>
    <nd ref="6274650778"/>
    <tag k="addr:city" v="St Neots"/>
    <tag k="addr:housenumber" v="21"/>
    <tag k="addr:postcode" v="PE19 6TJ"/>
    <tag k="addr:street" v="Caxton End"/>
    <tag k="addr:village" v="Eltisley"/>
    <tag k="building" v="house"/>
  </way>
  <way id="670005718" version="6" timestamp="2024-11-19T05:16:30Z" changeset="159309113" uid="4910264" user="Black Tusk">
    <nd ref="6274651391"/>
    <nd ref="6274650783"/>
    <nd ref="6274650727"/>
    <nd ref="6274651438"/>
    <nd ref="6274651391"/>
    <tag k="addr:city" v="St Neots"/>
    <tag k="addr:housenumber" v="35"/>
    <tag k="addr:postcode" v="PE19 6TJ"/>
    <tag k="addr:street" v="Caxton End"/>
    <tag k="addr:village" v="Eltisley"/>
    <tag k="building" v="house"/>
  </way>
  <way id="670016593" version="6" timestamp="2024-11-21T01:40:36Z" changeset="159390893" uid="4910264" user="Black Tusk">
    <nd ref="6274730848"/>
    <nd ref="6274730781"/>
    <nd ref="6274730966"/>
    <nd ref="6274730913"/>
    <nd ref="6274730791"/>
    <nd ref="6274730930"/>
    <nd ref="6274730848"/>
    <tag k="addr:city" v="St Neots"/>
    <tag k="addr:housenumber" v="130"/>
    <tag k="addr:postcode" v="PE19 6TJ"/>
    <tag k="addr:street" v="Caxton End"/>
    <tag k="addr:village" v="Eltisley"/>
    <tag k="building" v="house"/>
    <tag k="heritage" v="2"/>
    <tag k="listed_status" v="Grade II"/>
    <tag k="name" v="Jesus College Farmhouse"/>
    <tag k="ref:GB:nhle" v="1318237"/>
  </way>
  <way id="670016598" version="4" timestamp="2024-11-19T05:16:30Z" changeset="159309113" uid="4910264" user="Black Tusk">
    <nd ref="6274730745"/>
    <nd ref="6274730742"/>
    <nd ref="6274730868"/>
    <nd ref="6274730839"/>
    <nd ref="6274730745"/>
    <tag k="addr:city" v="St Neots"/>
    <tag k="addr:housenumber" v="103"/>
    <tag k="addr:postcode" v="PE19 6TJ"/>
    <tag k="addr:street" v="Caxton End"/>
    <tag k="addr:village" v="Eltisley"/>
    <tag k="building" v="house"/>
  </way>
  <way id="670016608" version="5" timestamp="2024-11-19T05:36:22Z" changeset="159309415" uid="4910264" user="Black Tusk">
    <nd ref="6274730767"/>
    <nd ref="6274730800"/>
    <nd ref="6274730837"/>
    <nd ref="6274730978"/>
    <nd ref="12348757650"/>
    <nd ref="12348757649"/>
    <nd ref="6274730812"/>
    <nd ref="6274730847"/>
    <nd ref="6274730830"/>
    <nd ref="6274730881"/>
    <nd ref="6274730767"/>
    <tag k="addr:city" v="St Neots"/>
    <tag k="addr:postcode" v="PE19 6TT"/>
    <tag k="addr:street" v="Potton End"/>
    <tag k="addr:village" v="Eltisley"/>
    <tag k="building" v="house"/>
    <tag k="name" v="Greenacres"/>
  </way>
  <way id="670016615" version="5" timestamp="2024-11-19T05:36:22Z" changeset="159309415" uid="4910264" user="Black Tusk">
    <nd ref="6274730866"/>
    <nd ref="6274730958"/>
    <nd ref="6274730727"/>
    <nd ref="6274730862"/>
    <nd ref="6274730820"/>
    <nd ref="6274730785"/>
    <nd ref="6274730850"/>
    <nd ref="6274730864"/>
    <nd ref="6274730866"/>
    <tag k="addr:city" v="St Neots"/>
    <tag k="addr:postcode" v="PE19 6TH"/>
    <tag k="addr:street" v="Potton End"/>
    <tag k="addr:village" v="Eltisley"/>
    <tag k="building" v="house"/>
    <tag k="name" v="Oak Tree House"/>
  </way>
  <way id="670016618" version="7" timestamp="2024-11-21T01:40:36Z" changeset="159390893" uid="4910264" user="Black Tusk">
    <nd ref="6274730900"/>
    <nd ref="6274730879"/>
    <nd ref="6274730890"/>
    <nd ref="12348757603"/>
    <nd ref="12348757602"/>
    <nd ref="6274730878"/>
    <nd ref="6274730884"/>
    <nd ref="6274730842"/>
    <nd ref="6274730827"/>
    <nd ref="6274730829"/>
    <nd ref="6274730900"/>
    <tag k="addr:city" v="St Neots"/>
    <tag k="addr:housenumber" v="1"/>
    <tag k="addr:postcode" v="PE19 6TH"/>
    <tag k="addr:street" v="Potton End"/>
    <tag k="addr:village" v="Eltisley"/>
    <tag k="building" v="house"/>
    <tag k="heritage" v="2"/>
    <tag k="listed_status" v="Grade II"/>
    <tag k="ref:GB:nhle" v="1331398"/>
  </way>
  <way id="670016630" version="5" timestamp="2024-11-19T05:36:22Z" changeset="159309415" uid="4910264" user="Black Tusk">
    <nd ref="6274730730"/>
    <nd ref="6274730769"/>
    <nd ref="6274730894"/>
    <nd ref="6274730728"/>
    <nd ref="6274730730"/>
    <tag k="addr:city" v="St Neots"/>
    <tag k="addr:postcode" v="PE19 6TH"/>
    <tag k="addr:street" v="Potton End"/>
    <tag k="addr:village" v="Eltisley"/>
    <tag k="building" v="house"/>
    <tag k="name" v="Cochrane Cottage"/>
  </way>
  <way id="670016632" version="5" timestamp="2024-11-19T05:30:04Z" changeset="159309317" uid="4910264" user="Black Tusk">
    <nd ref="6274730944"/>
    <nd ref="6274730888"/>
    <nd ref="6274730935"/>
    <nd ref="6274730954"/>
    <nd ref="6274730944"/>
    <tag k="addr:city" v="St Neots"/>
    <tag k="addr:housenumber" v="6"/>
    <tag k="addr:postcode" v="PE19 6TP"/>
    <tag k="addr:street" v="Meadow View"/>
    <tag k="addr:village" v="Eltisley"/>
    <tag k="building" v="house"/>
  </way>
  <way id="670016634" version="7" timestamp="2024-11-21T02:04:18Z" changeset="159391236" uid="4910264" user="Black Tusk">
    <nd ref="6274730951"/>
    <nd ref="6274730896"/>
    <nd ref="6274730949"/>
    <nd ref="6274730768"/>
    <nd ref="6274730951"/>
    <tag k="addr:city" v="St Neots"/>
    <tag k="addr:housenumber" v="124"/>
    <tag k="addr:postcode" v="PE19 6TJ"/>
    <tag k="addr:street" v="Caxton End"/>
    <tag k="addr:village" v="Eltisley"/>
    <tag k="building" v="house"/>
    <tag k="heritage" v="2"/>
    <tag k="listed_status" v="Grade II"/>
    <tag k="ref:GB:nhle" v="1127178"/>
  </way>
  <way id="670016643" version="5" timestamp="2024-11-19T05:30:04Z" changeset="159309317" uid="4910264" user="Black Tusk">
    <nd ref="6274730782"/>
    <nd ref="6274730756"/>
    <nd ref="6274730754"/>
    <nd ref="6274730810"/>
    <nd ref="6274730782"/>
    <tag k="addr:city" v="St Neots"/>
    <tag k="addr:housenumber" v="2"/>
    <tag k="addr:postcode" v="PE19 6TP"/>
    <tag k="addr:street" v="Meadow View"/>
    <tag k="addr:village" v="Eltisley"/>
    <tag k="building" v="house"/>
  </way>
  <way id="670016647" version="4" timestamp="2024-11-19T05:16:30Z" changeset="159309113" uid="4910264" user="Black Tusk">
    <nd ref="6274730989"/>
    <nd ref="6274730877"/>
    <nd ref="6274730831"/>
    <nd ref="6274730851"/>
    <nd ref="12351557261"/>
    <nd ref="12351557260"/>
    <nd ref="6274730885"/>
    <nd ref="6274730952"/>
    <nd ref="6274730989"/>
    <tag k="addr:city" v="St Neots"/>
    <tag k="addr:housenumber" v="97"/>
    <tag k="addr:postcode" v="PE19 6TJ"/>
    <tag k="addr:street" v="Caxton End"/>
    <tag k="addr:village" v="Eltisley"/>
    <tag k="building" v="house"/>
  </way>
  <way id="670016654" version="5" timestamp="2024-11-19T05:30:04Z" changeset="159309317" uid="4910264" user="Black Tusk">
    <nd ref="6274730789"/>
    <nd ref="6274730929"/>
    <nd ref="6274730979"/>
    <nd ref="6274730963"/>
    <nd ref="6274730789"/>
    <tag k="addr:city" v="St Neots"/>
    <tag k="addr:housenumber" v="1"/>
    <tag k="addr:postcode" v="PE19 6TP"/>
    <tag k="addr:street" v="Meadow View"/>
    <tag k="addr:village" v="Eltisley"/>
    <tag k="building" v="house"/>
  </way>
  <way id="670016656" version="5" timestamp="2024-11-19T05:30:04Z" changeset="159309317" uid="4910264" user="Black Tusk">
    <nd ref="6274730732"/>
    <nd ref="6274730813"/>
    <nd ref="6274730876"/>
    <nd ref="6274730883"/>
    <nd ref="6274730732"/>
    <tag k="addr:city" v="St Neots"/>
    <tag k="addr:housenumber" v="5"/>
    <tag k="addr:postcode" v="PE19 6TP"/>
    <tag k="addr:street" v="Meadow View"/>
    <tag k="addr:village" v="Eltisley"/>
    <tag k="building" v="house"/>
  </way>
  <way id="670016658" version="5" timestamp="2024-11-19T05:36:22Z" changeset="159309415" uid="4910264" user="Black Tusk">
    <nd ref="6274730740"/>
    <nd ref="6274730859"/>
    <nd ref="6274730908"/>
    <nd ref="6274730887"/>
    <nd ref="6274730746"/>
    <nd ref="6274730955"/>
    <nd ref="6274730740"/>
    <tag k="addr:city" v="St Neots"/>
    <tag k="addr:postcode" v="PE19 6TH"/>
    <tag k="addr:street" v="Potton End"/>
    <tag k="addr:village" v="Eltisley"/>
    <tag k="building" v="house"/>
    <tag k="name" v="Mallards"/>
  </way>
  <way id="670016677" version="5" timestamp="2024-11-19T05:36:22Z" changeset="159309415" uid="4910264" user="Black Tusk">
    <nd ref="6274730927"/>
    <nd ref="6274730807"/>
    <nd ref="6274730774"/>
    <nd ref="6274730919"/>
    <nd ref="6274730927"/>
    <tag k="addr:city" v="St Neots"/>
    <tag k="addr:postcode" v="PE19 6TT"/>
    <tag k="addr:street" v="Potton End"/>
    <tag k="addr:village" v="Eltisley"/>
    <tag k="building" v="house"/>
    <tag k="name" v="Beechfield"/>
  </way>
  <way id="670016685" version="5" timestamp="2024-11-19T05:30:04Z" changeset="159309317" uid="4910264" user="Black Tusk">
    <nd ref="6274730985"/>
    <nd ref="6274730855"/>
    <nd ref="6274730981"/>
    <nd ref="6274730874"/>
    <nd ref="6274730985"/>
    <tag k="addr:city" v="St Neots"/>
    <tag k="addr:housenumber" v="4"/>
    <tag k="addr:postcode" v="PE19 6TP"/>
    <tag k="addr:street" v="Meadow View"/>
    <tag k="addr:village" v="Eltisley"/>
    <tag k="building" v="house"/>
  </way>
  <way id="670016687" version="5" timestamp="2024-11-19T05:30:04Z" changeset="159309317" uid="4910264" user="Black Tusk">
    <nd ref="6274730969"/>
    <nd ref="6274730943"/>
    <nd ref="6274730822"/>
    <nd ref="6274730809"/>
    <nd ref="6274730969"/>
    <tag k="addr:city" v="St Neots"/>
    <tag k="addr:housenumber" v="3"/>
    <tag k="addr:postcode" v="PE19 6TP"/>
    <tag k="addr:street" v="Meadow View"/>
    <tag k="addr:village" v="Eltisley"/>
    <tag k="building" v="house"/>
  </way>
  <way id="670016694" version="5" timestamp="2024-11-19T05:36:22Z" changeset="159309415" uid="4910264" user="Black Tusk">
    <nd ref="6274730893"/>
    <nd ref="6274730750"/>
    <nd ref="6274730891"/>
    <nd ref="6274730758"/>
    <nd ref="6274730735"/>
    <nd ref="6274730849"/>
    <nd ref="6274730893"/>
    <tag k="addr:city" v="St Neots"/>
    <tag k="addr:postcode" v="PE19 6TH"/>
    <tag k="addr:street" v="Potton End"/>
    <tag k="addr:village" v="Eltisley"/>
    <tag k="building" v="house"/>
    <tag k="name" v="Wood View"/>
  </way>
  <way id="670016704" version="5" timestamp="2024-11-19T05:36:22Z" changeset="159309415" uid="4910264" user="Black Tusk">
    <nd ref="6274730799"/>
    <nd ref="6274730835"/>
    <nd ref="6274730993"/>
    <nd ref="6274730760"/>
    <nd ref="6274730799"/>
    <tag k="addr:city" v="St Neots"/>
    <tag k="addr:postcode" v="PE19 6TH"/>
    <tag k="addr:street" v="Potton End"/>
    <tag k="addr:village" v="Eltisley"/>
    <tag k="building" v="house"/>
    <tag k="name" v="Murray Dell"/>
  </way>
  <way id="670446606" version="4" timestamp="2024-11-19T05:27:47Z" changeset="159309281" uid="4910264" user="Black Tusk">
    <nd ref="6278435293"/>
    <nd ref="6278435337"/>
    <nd ref="6278435334"/>
    <nd ref="6278435327"/>
    <nd ref="6278435325"/>
    <nd ref="6278435326"/>
    <nd ref="6278435298"/>
    <nd ref="6278435301"/>
    <nd ref="6278435293"/>
    <tag k="addr:city" v="St Neots"/>
    <tag k="addr:housenumber" v="79"/>
    <tag k="addr:postcode" v="PE19 6TG"/>
    <tag k="addr:street" v="The Green"/>
    <tag k="addr:village" v="Eltisley"/>
    <tag k="building" v="house"/>
  </way>
  <way id="1318157532" version="4" timestamp="2024-11-19T05:09:59Z" changeset="159308995" uid="4910264" user="Black Tusk">
    <nd ref="12199422218"/>
    <nd ref="12199422219"/>
    <nd ref="12199422220"/>
    <nd ref="12199422221"/>
    <nd ref="12199422218"/>
    <tag k="addr:city" v="St Neots"/>
    <tag k="addr:housenumber" v="28"/>
    <tag k="addr:postcode" v="PE19 6TG"/>
    <tag k="addr:street" v="The Green"/>
    <tag k="addr:village" v="Eltisley"/>
    <tag k="building" v="house"/>
  </way>
  <way id="1318182933" version="3" timestamp="2024-11-19T05:09:59Z" changeset="159308995" uid="4910264" user="Black Tusk">
    <nd ref="12199825245"/>
    <nd ref="12199825246"/>
    <nd ref="12199825249"/>
    <nd ref="12199825250"/>
    <nd ref="12199825248"/>
    <nd ref="6274635967"/>
    <nd ref="12199825247"/>
    <nd ref="12199825245"/>
    <tag k="addr:city" v="St Neots"/>
    <tag k="addr:housenumber" v="11A"/>
    <tag k="addr:postcode" v="PE19 6TG"/>
    <tag k="addr:street" v="The Green"/>
    <tag k="addr:village" v="Eltisley"/>
    <tag k="building" v="yes"/>
  </way>
  <way id="1318182934" version="3" timestamp="2024-11-19T05:09:59Z" changeset="159308995" uid="4910264" user="Black Tusk">
    <nd ref="12199825251"/>
    <nd ref="12199825252"/>
    <nd ref="12199825253"/>
    <nd ref="12199825254"/>
    <nd ref="12199825255"/>
    <nd ref="12199825245"/>
    <nd ref="12199825251"/>
    <tag k="addr:city" v="St Neots"/>
    <tag k="addr:housenumber" v="11"/>
    <tag k="addr:postcode" v="PE19 6TG"/>
    <tag k="addr:street" v="The Green"/>
    <tag k="addr:village" v="Eltisley"/>
    <tag k="building" v="house"/>
  </way>
  <way id="1318182935" version="3" timestamp="2024-11-19T05:09:59Z" changeset="159308995" uid="4910264" user="Black Tusk">
    <nd ref="12199825256"/>
    <nd ref="12199825257"/>
    <nd ref="12199825258"/>
    <nd ref="12199825259"/>
    <nd ref="12199825256"/>
    <tag k="addr:city" v="St Neots"/>
    <tag k="addr:housenumber" v="21"/>
    <tag k="addr:postcode" v="PE19 6TG"/>
    <tag k="addr:street" v="The Green"/>
    <tag k="addr:village" v="Eltisley"/>
    <tag k="building" v="house"/>
  </way>
  <way id="1318182936" version="4" timestamp="2024-11-19T05:09:59Z" changeset="159308995" uid="4910264" user="Black Tusk">
    <nd ref="12199825260"/>
    <nd ref="12199825261"/>
    <nd ref="12199825262"/>
    <nd ref="12199825263"/>
    <nd ref="12199825260"/>
    <tag k="addr:city" v="St Neots"/>
    <tag k="addr:housenumber" v="19"/>
    <tag k="addr:postcode" v="PE19 6TG"/>
    <tag k="addr:street" v="The Green"/>
    <tag k="addr:village" v="Eltisley"/>
    <tag k="building" v="house"/>
  </way>
  <way id="1318182937" version="3" timestamp="2024-11-19T05:09:59Z" changeset="159308995" uid="4910264" user="Black Tusk">
    <nd ref="12199825264"/>
    <nd ref="12199825265"/>
    <nd ref="12199825268"/>
    <nd ref="12199825269"/>
    <nd ref="12199825270"/>
    <nd ref="12199825271"/>
    <nd ref="12199825266"/>
    <nd ref="12199825267"/>
    <nd ref="12199825264"/>
    <tag k="addr:city" v="St Neots"/>
    <tag k="addr:housenumber" v="17"/>
    <tag k="addr:postcode" v="PE19 6TG"/>
    <tag k="addr:street" v="The Green"/>
    <tag k="addr:village" v="Eltisley"/>
    <tag k="building" v="house"/>
  </way>
  <way id="1318238221" version="3" timestamp="2024-11-19T05:27:47Z" changeset="159309281" uid="4910264" user="Black Tusk">
    <nd ref="12200376252"/>
    <nd ref="12200376253"/>
    <nd ref="12200376254"/>
    <nd ref="12200376255"/>
    <nd ref="12200376252"/>
    <tag k="addr:city" v="St Neots"/>
    <tag k="addr:housenumber" v="55"/>
    <tag k="addr:postcode" v="PE19 6TG"/>
    <tag k="addr:street" v="The Green"/>
    <tag k="addr:village" v="Eltisley"/>
    <tag k="building" v="house"/>
  </way>
  <way id="1318238222" version="4" timestamp="2024-11-19T05:27:47Z" changeset="159309281" uid="4910264" user="Black Tusk">
    <nd ref="12200376256"/>
    <nd ref="12200376257"/>
    <nd ref="12200376258"/>
    <nd ref="12200376259"/>
    <nd ref="12200376256"/>
    <tag k="addr:city" v="St Neots"/>
    <tag k="addr:housenumber" v="57"/>
    <tag k="addr:postcode" v="PE19 6TG"/>
    <tag k="addr:street" v="The Green"/>
    <tag k="addr:village" v="Eltisley"/>
    <tag k="building" v="house"/>
  </way>
  <way id="1318238223" version="3" timestamp="2024-11-19T05:27:47Z" changeset="159309281" uid="4910264" user="Black Tusk">
    <nd ref="12200376260"/>
    <nd ref="12200376261"/>
    <nd ref="12200376262"/>
    <nd ref="12200376263"/>
    <nd ref="12200376260"/>
    <tag k="addr:city" v="St Neots"/>
    <tag k="addr:housenumber" v="59"/>
    <tag k="addr:postcode" v="PE19 6TG"/>
    <tag k="addr:street" v="The Green"/>
    <tag k="addr:village" v="Eltisley"/>
    <tag k="building" v="yes"/>
  </way>
  <way id="1318238224" version="4" timestamp="2024-11-19T05:27:47Z" changeset="159309281" uid="4910264" user="Black Tusk">
    <nd ref="12200376264"/>
    <nd ref="12200376265"/>
    <nd ref="12297843652"/>
    <nd ref="12297843653"/>
    <nd ref="12200376266"/>
    <nd ref="12200376267"/>
    <nd ref="12200376264"/>
    <tag k="addr:city" v="St Neots"/>
    <tag k="addr:housenumber" v="65"/>
    <tag k="addr:postcode" v="PE19 6TG"/>
    <tag k="addr:street" v="The Green"/>
    <tag k="addr:village" v="Eltisley"/>
    <tag k="building" v="house"/>
  </way>
  <way id="1318238225" version="3" timestamp="2024-11-19T05:27:47Z" changeset="159309281" uid="4910264" user="Black Tusk">
    <nd ref="12200376268"/>
    <nd ref="12200376269"/>
    <nd ref="12200376270"/>
    <nd ref="12200376272"/>
    <nd ref="12200376273"/>
    <nd ref="12200376271"/>
    <nd ref="12200376268"/>
    <tag k="addr:city" v="St Neots"/>
    <tag k="addr:housenumber" v="81"/>
    <tag k="addr:postcode" v="PE19 6TG"/>
    <tag k="addr:street" v="The Green"/>
    <tag k="addr:village" v="Eltisley"/>
    <tag k="building" v="house"/>
  </way>
  <way id="1318238226" version="3" timestamp="2024-11-19T05:27:47Z" changeset="159309281" uid="4910264" user="Black Tusk">
    <nd ref="12200376274"/>
    <nd ref="12200376281"/>
    <nd ref="12200376280"/>
    <nd ref="12200376275"/>
    <nd ref="12200376276"/>
    <nd ref="12200376277"/>
    <nd ref="12200376278"/>
    <nd ref="12200376279"/>
    <nd ref="12200376274"/>
    <tag k="addr:city" v="St Neots"/>
    <tag k="addr:housenumber" v="83"/>
    <tag k="addr:postcode" v="PE19 6TG"/>
    <tag k="addr:street" v="The Green"/>
    <tag k="addr:village" v="Eltisley"/>
    <tag k="building" v="house"/>
  </way>
  <way id="1329227470" version="2" timestamp="2024-11-19T05:09:59Z" changeset="159308995" uid="4910264" user="Black Tusk">
    <nd ref="12297843642"/>
    <nd ref="12297843643"/>
    <nd ref="12297843644"/>
    <nd ref="12297843645"/>
    <nd ref="12297843646"/>
    <nd ref="12297843642"/>
    <tag k="addr:city" v="St Neots"/>
    <tag k="addr:housenumber" v="13A"/>
    <tag k="addr:postcode" v="PE19 6TG"/>
    <tag k="addr:street" v="The Green"/>
    <tag k="addr:village" v="Eltisley"/>
    <tag k="building" v="house"/>
  </way>
  <way id="1329227471" version="2" timestamp="2024-11-19T05:09:59Z" changeset="159308995" uid="4910264" user="Black Tusk">
    <nd ref="12297843647"/>
    <nd ref="12297843648"/>
    <nd ref="12297843649"/>
    <nd ref="12297843650"/>
    <nd ref="12297843651"/>
    <nd ref="12297843647"/>
    <tag k="addr:city" v="St Neots"/>
    <tag k="addr:housenumber" v="15"/>
    <tag k="addr:postcode" v="PE19 6TG"/>
    <tag k="addr:street" v="The Green"/>
    <tag k="addr:village" v="Eltisley"/>
    <tag k="building" v="house"/>
  </way>
  <way id="1329227473" version="2" timestamp="2024-11-19T05:27:47Z" changeset="159309281" uid="4910264" user="Black Tusk">
    <nd ref="12297843658"/>
    <nd ref="12297843659"/>
    <nd ref="12297843660"/>
    <nd ref="12297843661"/>
    <nd ref="12297843658"/>
    <tag k="addr:city" v="St Neots"/>
    <tag k="addr:housenumber" v="61"/>
    <tag k="addr:postcode" v="PE19 6TG"/>
    <tag k="addr:street" v="The Green"/>
    <tag k="addr:village" v="Eltisley"/>
    <tag k="building" v="house"/>
  </way>
  <way id="1329227474" version="2" timestamp="2024-11-19T05:27:47Z" changeset="159309281" uid="4910264" user="Black Tusk">
    <nd ref="12297843659"/>
    <nd ref="12297843662"/>
    <nd ref="12297843663"/>
    <nd ref="12297843660"/>
    <nd ref="12297843659"/>
    <tag k="addr:city" v="St Neots"/>
    <tag k="addr:housenumber" v="63"/>
    <tag k="addr:postcode" v="PE19 6TG"/>
    <tag k="addr:street" v="The Green"/>
    <tag k="addr:village" v="Eltisley"/>
    <tag k="building" v="house"/>
  </way>
  <way id="1330242675" version="2" timestamp="2024-11-19T05:22:13Z" changeset="159309205" uid="4910264" user="Black Tusk">
    <nd ref="12307802106"/>
    <nd ref="12307802107"/>
    <nd ref="12307802108"/>
    <nd ref="12307802109"/>
    <nd ref="12307802106"/>
    <tag k="addr:city" v="St Neots"/>
    <tag k="addr:housenumber" v="41"/>
    <tag k="addr:postcode" v="PE19 6TE"/>
    <tag k="addr:street" v="St Neots Road"/>
    <tag k="addr:village" v="Eltisley"/>
    <tag k="building" v="house"/>
  </way>
  <way id="1330242676" version="2" timestamp="2024-11-19T05:22:13Z" changeset="159309205" uid="4910264" user="Black Tusk">
    <nd ref="12307802110"/>
    <nd ref="12307802111"/>
    <nd ref="12307802112"/>
    <nd ref="12307802113"/>
    <nd ref="12307802110"/>
    <tag k="addr:city" v="St Neots"/>
    <tag k="addr:housenumber" v="39"/>
    <tag k="addr:postcode" v="PE19 6TE"/>
    <tag k="addr:street" v="St Neots Road"/>
    <tag k="addr:village" v="Eltisley"/>
    <tag k="building" v="house"/>
  </way>
  <way id="1330242677" version="2" timestamp="2024-11-19T05:22:13Z" changeset="159309205" uid="4910264" user="Black Tusk">
    <nd ref="12307802114"/>
    <nd ref="12307802115"/>
    <nd ref="12307802116"/>
    <nd ref="12307802117"/>
    <nd ref="12307802114"/>
    <tag k="addr:city" v="St Neots"/>
    <tag k="addr:housenumber" v="33"/>
    <tag k="addr:postcode" v="PE19 6TE"/>
    <tag k="addr:street" v="St Neots Road"/>
    <tag k="addr:village" v="Eltisley"/>
    <tag k="building" v="house"/>
  </way>
  <way id="1330242678" version="2" timestamp="2024-11-19T05:22:13Z" changeset="159309205" uid="4910264" user="Black Tusk">
    <nd ref="12307802118"/>
    <nd ref="12307802119"/>
    <nd ref="12307802120"/>
    <nd ref="12307802121"/>
    <nd ref="12307802118"/>
    <tag k="addr:city" v="St Neots"/>
    <tag k="addr:housenumber" v="35"/>
    <tag k="addr:postcode" v="PE19 6TE"/>
    <tag k="addr:street" v="St Neots Road"/>
    <tag k="addr:village" v="Eltisley"/>
    <tag k="building" v="house"/>
  </way>
  <way id="1330242679" version="2" timestamp="2024-11-19T05:22:13Z" changeset="159309205" uid="4910264" user="Black Tusk">
    <nd ref="12307802122"/>
    <nd ref="12307802123"/>
    <nd ref="12307802124"/>
    <nd ref="12307802125"/>
    <nd ref="12307802122"/>
    <tag k="addr:city" v="St Neots"/>
    <tag k="addr:housenumber" v="37"/>
    <tag k="addr:postcode" v="PE19 6TE"/>
    <tag k="addr:street" v="St Neots Road"/>
    <tag k="addr:village" v="Eltisley"/>
    <tag k="building" v="house"/>
  </way>
  <way id="1330242680" version="3" timestamp="2024-11-19T05:22:13Z" changeset="159309205" uid="4910264" user="Black Tusk">
    <nd ref="12307802126"/>
    <nd ref="12307802127"/>
    <nd ref="12307802128"/>
    <nd ref="12307802129"/>
    <nd ref="12307802130"/>
    <nd ref="12307802126"/>
    <tag k="addr:city" v="St Neots"/>
    <tag k="addr:housenumber" v="31"/>
    <tag k="addr:postcode" v="PE19 6TE"/>
    <tag k="addr:street" v="St Neots Road"/>
    <tag k="addr:village" v="Eltisley"/>
    <tag k="building" v="house"/>
  </way>
  <way id="1330431197" version="2" timestamp="2024-11-19T05:22:13Z" changeset="159309205" uid="4910264" user="Black Tusk">
    <nd ref="12309697716"/>
    <nd ref="12309697717"/>
    <nd ref="12309697718"/>
    <nd ref="12309697719"/>
    <nd ref="12309697720"/>
    <nd ref="12309697721"/>
    <nd ref="12309697716"/>
    <tag k="addr:city" v="St Neots"/>
    <tag k="addr:housenumber" v="46"/>
    <tag k="addr:postcode" v="PE19 6TE"/>
    <tag k="addr:street" v="St Neots Road"/>
    <tag k="addr:village" v="Eltisley"/>
    <tag k="building" v="house"/>
  </way>
  <way id="1330431198" version="2" timestamp="2024-11-19T05:22:13Z" changeset="159309205" uid="4910264" user="Black Tusk">
    <nd ref="12309697722"/>
    <nd ref="12309697723"/>
    <nd ref="12309697724"/>
    <nd ref="12309697725"/>
    <nd ref="12309697726"/>
    <nd ref="12309697727"/>
    <nd ref="12309697722"/>
    <tag k="addr:city" v="St Neots"/>
    <tag k="addr:housenumber" v="42"/>
    <tag k="addr:postcode" v="PE19 6TE"/>
    <tag k="addr:street" v="St Neots Road"/>
    <tag k="addr:village" v="Eltisley"/>
    <tag k="building" v="house"/>
  </way>
  <way id="1330431199" version="2" timestamp="2024-11-19T05:22:13Z" changeset="159309205" uid="4910264" user="Black Tusk">
    <nd ref="12309697728"/>
    <nd ref="12309697729"/>
    <nd ref="12309697730"/>
    <nd ref="12309697732"/>
    <nd ref="12309697731"/>
    <nd ref="12309697725"/>
    <nd ref="12309697728"/>
    <tag k="addr:city" v="St Neots"/>
    <tag k="addr:housenumber" v="40"/>
    <tag k="addr:postcode" v="PE19 6TE"/>
    <tag k="addr:street" v="St Neots Road"/>
    <tag k="addr:village" v="Eltisley"/>
    <tag k="building" v="house"/>
  </way>
  <way id="1330431200" version="2" timestamp="2024-11-19T05:22:13Z" changeset="159309205" uid="4910264" user="Black Tusk">
    <nd ref="12309697733"/>
    <nd ref="12309697734"/>
    <nd ref="12309697735"/>
    <nd ref="12309697736"/>
    <nd ref="12309697733"/>
    <tag k="addr:city" v="St Neots"/>
    <tag k="addr:housenumber" v="38"/>
    <tag k="addr:postcode" v="PE19 6TE"/>
    <tag k="addr:street" v="St Neots Road"/>
    <tag k="addr:village" v="Eltisley"/>
    <tag k="building" v="house"/>
  </way>
  <way id="1330431201" version="2" timestamp="2024-11-19T05:22:13Z" changeset="159309205" uid="4910264" user="Black Tusk">
    <nd ref="12309697737"/>
    <nd ref="12309697738"/>
    <nd ref="12309697739"/>
    <nd ref="12309697740"/>
    <nd ref="12309697737"/>
    <tag k="addr:city" v="St Neots"/>
    <tag k="addr:housenumber" v="36"/>
    <tag k="addr:postcode" v="PE19 6TE"/>
    <tag k="addr:street" v="St Neots Road"/>
    <tag k="addr:village" v="Eltisley"/>
    <tag k="building" v="house"/>
  </way>
  <way id="1330431202" version="2" timestamp="2024-11-19T05:22:13Z" changeset="159309205" uid="4910264" user="Black Tusk">
    <nd ref="12309697741"/>
    <nd ref="12309697742"/>
    <nd ref="12309697743"/>
    <nd ref="12309697746"/>
    <nd ref="12309697744"/>
    <nd ref="12309697741"/>
    <tag k="addr:city" v="St Neots"/>
    <tag k="addr:housenumber" v="34"/>
    <tag k="addr:postcode" v="PE19 6TE"/>
    <tag k="addr:street" v="St Neots Road"/>
    <tag k="addr:village" v="Eltisley"/>
    <tag k="building" v="house"/>
  </way>
  <way id="1330431203" version="2" timestamp="2024-11-19T05:22:13Z" changeset="159309205" uid="4910264" user="Black Tusk">
    <nd ref="12309697745"/>
    <nd ref="12309697744"/>
    <nd ref="12309697746"/>
    <nd ref="12309697747"/>
    <nd ref="12309697748"/>
    <nd ref="12309697745"/>
    <tag k="addr:city" v="St Neots"/>
    <tag k="addr:housenumber" v="32"/>
    <tag k="addr:postcode" v="PE19 6TE"/>
    <tag k="addr:street" v="St Neots Road"/>
    <tag k="addr:village" v="Eltisley"/>
    <tag k="building" v="house"/>
  </way>
  <way id="1330431204" version="2" timestamp="2024-11-19T05:22:13Z" changeset="159309205" uid="4910264" user="Black Tusk">
    <nd ref="12309697748"/>
    <nd ref="12309697747"/>
    <nd ref="12309697749"/>
    <nd ref="12309697754"/>
    <nd ref="12309697750"/>
    <nd ref="12309697748"/>
    <tag k="addr:city" v="St Neots"/>
    <tag k="addr:housenumber" v="30"/>
    <tag k="addr:postcode" v="PE19 6TE"/>
    <tag k="addr:street" v="St Neots Road"/>
    <tag k="addr:village" v="Eltisley"/>
    <tag k="building" v="house"/>
  </way>
  <way id="1330431205" version="2" timestamp="2024-11-19T05:22:13Z" changeset="159309205" uid="4910264" user="Black Tusk">
    <nd ref="12309697751"/>
    <nd ref="12309697752"/>
    <nd ref="12309697753"/>
    <nd ref="12309697754"/>
    <nd ref="12309697751"/>
    <tag k="addr:city" v="St Neots"/>
    <tag k="addr:housenumber" v="28"/>
    <tag k="addr:postcode" v="PE19 6TE"/>
    <tag k="addr:street" v="St Neots Road"/>
    <tag k="addr:village" v="Eltisley"/>
    <tag k="building" v="house"/>
  </way>
  <way id="1330431206" version="2" timestamp="2024-11-19T05:22:13Z" changeset="159309205" uid="4910264" user="Black Tusk">
    <nd ref="12309697755"/>
    <nd ref="12309697756"/>
    <nd ref="12309697757"/>
    <nd ref="12309697758"/>
    <nd ref="12309697755"/>
    <tag k="addr:city" v="St Neots"/>
    <tag k="addr:housenumber" v="26"/>
    <tag k="addr:postcode" v="PE19 6TE"/>
    <tag k="addr:street" v="St Neots Road"/>
    <tag k="addr:village" v="Eltisley"/>
    <tag k="building" v="house"/>
  </way>
  <way id="1330431207" version="2" timestamp="2024-11-19T05:22:13Z" changeset="159309205" uid="4910264" user="Black Tusk">
    <nd ref="12309697759"/>
    <nd ref="12309697760"/>
    <nd ref="12309697761"/>
    <nd ref="12309697762"/>
    <nd ref="12309697759"/>
    <tag k="addr:city" v="St Neots"/>
    <tag k="addr:housenumber" v="24"/>
    <tag k="addr:postcode" v="PE19 6TE"/>
    <tag k="addr:street" v="St Neots Road"/>
    <tag k="addr:village" v="Eltisley"/>
    <tag k="building" v="house"/>
  </way>
  <way id="1330431208" version="2" timestamp="2024-11-19T05:22:13Z" changeset="159309205" uid="4910264" user="Black Tusk">
    <nd ref="12309697763"/>
    <nd ref="12309697764"/>
    <nd ref="12309697765"/>
    <nd ref="12309697773"/>
    <nd ref="12309697772"/>
    <nd ref="12309697769"/>
    <nd ref="12309697763"/>
    <tag k="addr:city" v="St Neots"/>
    <tag k="addr:housenumber" v="20"/>
    <tag k="addr:postcode" v="PE19 6TE"/>
    <tag k="addr:street" v="St Neots Road"/>
    <tag k="addr:village" v="Eltisley"/>
    <tag k="building" v="house"/>
  </way>
  <way id="1330431209" version="2" timestamp="2024-11-19T05:22:13Z" changeset="159309205" uid="4910264" user="Black Tusk">
    <nd ref="12309697766"/>
    <nd ref="12309697767"/>
    <nd ref="12309697769"/>
    <nd ref="12309697770"/>
    <nd ref="12309697771"/>
    <nd ref="12309697768"/>
    <nd ref="12309697766"/>
    <tag k="addr:city" v="St Neots"/>
    <tag k="addr:housenumber" v="22"/>
    <tag k="addr:postcode" v="PE19 6TE"/>
    <tag k="addr:street" v="St Neots Road"/>
    <tag k="addr:village" v="Eltisley"/>
    <tag k="building" v="house"/>
  </way>
  <way id="1330431210" version="2" timestamp="2024-11-19T05:22:13Z" changeset="159309205" uid="4910264" user="Black Tusk">
    <nd ref="12309697774"/>
    <nd ref="12309697775"/>
    <nd ref="12309697776"/>
    <nd ref="12309697777"/>
    <nd ref="12309697778"/>
    <nd ref="12309697779"/>
    <nd ref="12309697774"/>
    <tag k="addr:city" v="St Neots"/>
    <tag k="addr:housenumber" v="14"/>
    <tag k="addr:postcode" v="PE19 6TE"/>
    <tag k="addr:street" v="St Neots Road"/>
    <tag k="addr:village" v="Eltisley"/>
    <tag k="building" v="residential"/>
  </way>
  <way id="1330431211" version="2" timestamp="2024-11-19T05:22:13Z" changeset="159309205" uid="4910264" user="Black Tusk">
    <nd ref="12309697780"/>
    <nd ref="12309697774"/>
    <nd ref="12309697779"/>
    <nd ref="12309697783"/>
    <nd ref="12309697782"/>
    <nd ref="12309697781"/>
    <nd ref="12309697780"/>
    <tag k="addr:city" v="St Neots"/>
    <tag k="addr:housenumber" v="16"/>
    <tag k="addr:postcode" v="PE19 6TE"/>
    <tag k="addr:street" v="St Neots Road"/>
    <tag k="addr:village" v="Eltisley"/>
    <tag k="building" v="house"/>
  </way>
  <way id="1330431212" version="2" timestamp="2024-11-19T05:22:13Z" changeset="159309205" uid="4910264" user="Black Tusk">
    <nd ref="12309697784"/>
    <nd ref="12309697780"/>
    <nd ref="12309697781"/>
    <nd ref="12309697785"/>
    <nd ref="12309697786"/>
    <nd ref="12309697787"/>
    <nd ref="12309697784"/>
    <tag k="addr:city" v="St Neots"/>
    <tag k="addr:housenumber" v="18"/>
    <tag k="addr:postcode" v="PE19 6TE"/>
    <tag k="addr:street" v="St Neots Road"/>
    <tag k="addr:suburb" v="Eltisley"/>
    <tag k="building" v="house"/>
  </way>
  <way id="1330473992" version="3" timestamp="2024-11-19T05:09:59Z" changeset="159308995" uid="4910264" user="Black Tusk">
    <nd ref="6274651418"/>
    <nd ref="12310293239"/>
    <nd ref="12310293240"/>
    <nd ref="12310293241"/>
    <nd ref="6274651418"/>
    <tag k="addr:city" v="St Neots"/>
    <tag k="addr:housenumber" v="21"/>
    <tag k="addr:postcode" v="PE19 6TN"/>
    <tag k="addr:street" v="Greenfields"/>
    <tag k="addr:village" v="Eltisley"/>
    <tag k="building" v="house"/>
  </way>
  <way id="1330473993" version="3" timestamp="2024-11-19T05:09:59Z" changeset="159308995" uid="4910264" user="Black Tusk">
    <nd ref="12310293242"/>
    <nd ref="12310293243"/>
    <nd ref="12310293244"/>
    <nd ref="12310293245"/>
    <nd ref="12310293242"/>
    <tag k="addr:city" v="St Neots"/>
    <tag k="addr:housenumber" v="20"/>
    <tag k="addr:postcode" v="PE19 6TN"/>
    <tag k="addr:street" v="Greenfields"/>
    <tag k="addr:village" v="Eltisley"/>
    <tag k="building" v="house"/>
  </way>
  <way id="1330473994" version="3" timestamp="2024-11-19T05:09:59Z" changeset="159308995" uid="4910264" user="Black Tusk">
    <nd ref="12310293246"/>
    <nd ref="12310293247"/>
    <nd ref="12310293248"/>
    <nd ref="12310293249"/>
    <nd ref="12310293250"/>
    <nd ref="12310293251"/>
    <nd ref="12310293246"/>
    <tag k="addr:city" v="St Neots"/>
    <tag k="addr:housenumber" v="27"/>
    <tag k="addr:postcode" v="PE19 6TN"/>
    <tag k="addr:street" v="Greenfields"/>
    <tag k="addr:village" v="Eltisley"/>
    <tag k="building" v="house"/>
  </way>
  <way id="1330473995" version="3" timestamp="2024-11-19T05:09:59Z" changeset="159308995" uid="4910264" user="Black Tusk">
    <nd ref="12310293252"/>
    <nd ref="12310293253"/>
    <nd ref="12310293249"/>
    <nd ref="12310293248"/>
    <nd ref="12310293252"/>
    <tag k="addr:city" v="St Neots"/>
    <tag k="addr:housenumber" v="29"/>
    <tag k="addr:postcode" v="PE19 6TN"/>
    <tag k="addr:street" v="Greenfields"/>
    <tag k="addr:village" v="Eltisley"/>
    <tag k="building" v="house"/>
  </way>
  <way id="1330473996" version="3" timestamp="2024-11-19T05:09:59Z" changeset="159308995" uid="4910264" user="Black Tusk">
    <nd ref="12310293254"/>
    <nd ref="12310293255"/>
    <nd ref="12310293256"/>
    <nd ref="12310293257"/>
    <nd ref="12310293254"/>
    <tag k="addr:city" v="St Neots"/>
    <tag k="addr:housenumber" v="18"/>
    <tag k="addr:postcode" v="PE19 6TN"/>
    <tag k="addr:street" v="Greenfields"/>
    <tag k="addr:village" v="Eltisley"/>
    <tag k="building" v="house"/>
  </way>
  <way id="1330473997" version="3" timestamp="2024-11-19T05:09:59Z" changeset="159308995" uid="4910264" user="Black Tusk">
    <nd ref="12310293258"/>
    <nd ref="12310293254"/>
    <nd ref="12310293257"/>
    <nd ref="12310293259"/>
    <nd ref="12310293258"/>
    <tag k="addr:city" v="St Neots"/>
    <tag k="addr:housenumber" v="16"/>
    <tag k="addr:postcode" v="PE19 6TN"/>
    <tag k="addr:street" v="Greenfields"/>
    <tag k="addr:village" v="Eltisley"/>
    <tag k="building" v="house"/>
  </way>
  <way id="1330473998" version="3" timestamp="2024-11-19T05:09:59Z" changeset="159308995" uid="4910264" user="Black Tusk">
    <nd ref="12310293260"/>
    <nd ref="12310293261"/>
    <nd ref="12310293262"/>
    <nd ref="12310293263"/>
    <nd ref="12310293260"/>
    <tag k="addr:city" v="St Neots"/>
    <tag k="addr:housenumber" v="14"/>
    <tag k="addr:postcode" v="PE19 6TN"/>
    <tag k="addr:street" v="Greenfields"/>
    <tag k="addr:village" v="Eltisley"/>
    <tag k="building" v="house"/>
  </way>
  <way id="1330473999" version="3" timestamp="2024-11-19T05:09:59Z" changeset="159308995" uid="4910264" user="Black Tusk">
    <nd ref="12310293264"/>
    <nd ref="12310293260"/>
    <nd ref="12310293263"/>
    <nd ref="12310293265"/>
    <nd ref="12310293264"/>
    <tag k="addr:city" v="St Neots"/>
    <tag k="addr:housenumber" v="12"/>
    <tag k="addr:postcode" v="PE19 6TN"/>
    <tag k="addr:street" v="Greenfields"/>
    <tag k="addr:village" v="Eltisley"/>
    <tag k="building" v="house"/>
  </way>
  <way id="1330474000" version="3" timestamp="2024-11-19T05:09:59Z" changeset="159308995" uid="4910264" user="Black Tusk">
    <nd ref="12310293266"/>
    <nd ref="12310293267"/>
    <nd ref="12310293268"/>
    <nd ref="12310293269"/>
    <nd ref="12310293266"/>
    <tag k="addr:city" v="St Neots"/>
    <tag k="addr:housenumber" v="10"/>
    <tag k="addr:postcode" v="PE19 6TN"/>
    <tag k="addr:street" v="Greenfields"/>
    <tag k="addr:village" v="Eltisley"/>
    <tag k="building" v="house"/>
  </way>
  <way id="1330474001" version="3" timestamp="2024-11-19T05:09:59Z" changeset="159308995" uid="4910264" user="Black Tusk">
    <nd ref="12310293270"/>
    <nd ref="12310293272"/>
    <nd ref="12310293273"/>
    <nd ref="12310293274"/>
    <nd ref="12310293275"/>
    <nd ref="12310293276"/>
    <nd ref="12310293277"/>
    <nd ref="12310293266"/>
    <nd ref="12310293269"/>
    <nd ref="12310293271"/>
    <nd ref="12310293270"/>
    <tag k="addr:city" v="St Neots"/>
    <tag k="addr:housenumber" v="8"/>
    <tag k="addr:postcode" v="PE19 6TN"/>
    <tag k="addr:street" v="Greenfields"/>
    <tag k="addr:village" v="Eltisley"/>
    <tag k="building" v="house"/>
  </way>
  <way id="1330474002" version="3" timestamp="2024-11-19T05:09:59Z" changeset="159308995" uid="4910264" user="Black Tusk">
    <nd ref="12310293278"/>
    <nd ref="12310293283"/>
    <nd ref="12310293282"/>
    <nd ref="12310293279"/>
    <nd ref="12310293280"/>
    <nd ref="12310293281"/>
    <nd ref="12310293278"/>
    <tag k="addr:city" v="St Neots"/>
    <tag k="addr:housenumber" v="6"/>
    <tag k="addr:postcode" v="PE19 6TN"/>
    <tag k="addr:street" v="Greenfields"/>
    <tag k="addr:village" v="Eltisley"/>
    <tag k="building" v="house"/>
  </way>
  <way id="1330474003" version="3" timestamp="2024-11-19T05:09:59Z" changeset="159308995" uid="4910264" user="Black Tusk">
    <nd ref="12310293284"/>
    <nd ref="12310293285"/>
    <nd ref="12310293286"/>
    <nd ref="12310293287"/>
    <nd ref="12310293284"/>
    <tag k="addr:city" v="St Neots"/>
    <tag k="addr:housenumber" v="4"/>
    <tag k="addr:postcode" v="PE19 6TN"/>
    <tag k="addr:street" v="Greenfields"/>
    <tag k="addr:village" v="Eltisley"/>
    <tag k="building" v="house"/>
  </way>
  <way id="1330474005" version="3" timestamp="2024-11-19T05:09:59Z" changeset="159308995" uid="4910264" user="Black Tusk">
    <nd ref="12310293294"/>
    <nd ref="12310293295"/>
    <nd ref="12310293296"/>
    <nd ref="12310293297"/>
    <nd ref="12310293294"/>
    <tag k="addr:city" v="St Neots"/>
    <tag k="addr:housenumber" v="17"/>
    <tag k="addr:postcode" v="PE19 6TN"/>
    <tag k="addr:street" v="Greenfields"/>
    <tag k="addr:village" v="Eltisley"/>
    <tag k="building" v="house"/>
  </way>
  <way id="1330474006" version="3" timestamp="2024-11-19T05:09:59Z" changeset="159308995" uid="4910264" user="Black Tusk">
    <nd ref="12310293297"/>
    <nd ref="12310293296"/>
    <nd ref="12310293298"/>
    <nd ref="12310293299"/>
    <nd ref="12310293297"/>
    <tag k="addr:city" v="St Neots"/>
    <tag k="addr:housenumber" v="19"/>
    <tag k="addr:postcode" v="PE19 6TN"/>
    <tag k="addr:street" v="Greenfields"/>
    <tag k="addr:village" v="Eltisley"/>
    <tag k="building" v="house"/>
  </way>
  <way id="1330474007" version="3" timestamp="2024-11-19T05:09:59Z" changeset="159308995" uid="4910264" user="Black Tusk">
    <nd ref="12310293300"/>
    <nd ref="12310293301"/>
    <nd ref="12310293302"/>
    <nd ref="12310293303"/>
    <nd ref="12310293300"/>
    <tag k="addr:city" v="St Neots"/>
    <tag k="addr:housenumber" v="9"/>
    <tag k="addr:postcode" v="PE19 6TJ"/>
    <tag k="addr:street" v="Caxton End"/>
    <tag k="addr:village" v="Eltisley"/>
    <tag k="building" v="house"/>
  </way>
  <way id="1330474008" version="3" timestamp="2024-11-19T05:09:59Z" changeset="159308995" uid="4910264" user="Black Tusk">
    <nd ref="12310293301"/>
    <nd ref="12310293304"/>
    <nd ref="12310293305"/>
    <nd ref="12310293302"/>
    <nd ref="12310293301"/>
    <tag k="addr:city" v="St Neots"/>
    <tag k="addr:housenumber" v="11"/>
    <tag k="addr:postcode" v="PE19 6TJ"/>
    <tag k="addr:street" v="Caxton End"/>
    <tag k="addr:village" v="Eltisley"/>
    <tag k="building" v="house"/>
  </way>
  <way id="1330474009" version="3" timestamp="2024-11-19T05:09:59Z" changeset="159308995" uid="4910264" user="Black Tusk">
    <nd ref="12310293304"/>
    <nd ref="12310293306"/>
    <nd ref="12310293307"/>
    <nd ref="12310293305"/>
    <nd ref="12310293304"/>
    <tag k="addr:city" v="St Neots"/>
    <tag k="addr:housenumber" v="13"/>
    <tag k="addr:postcode" v="PE19 6TJ"/>
    <tag k="addr:street" v="Caxton End"/>
    <tag k="addr:village" v="Eltisley"/>
    <tag k="building" v="house"/>
  </way>
  <way id="1330474010" version="3" timestamp="2024-11-19T05:09:59Z" changeset="159308995" uid="4910264" user="Black Tusk">
    <nd ref="12310293306"/>
    <nd ref="12310293308"/>
    <nd ref="12310293309"/>
    <nd ref="12310293307"/>
    <nd ref="12310293306"/>
    <tag k="addr:city" v="St Neots"/>
    <tag k="addr:housenumber" v="15"/>
    <tag k="addr:postcode" v="PE19 6TJ"/>
    <tag k="addr:street" v="Caxton End"/>
    <tag k="addr:village" v="Eltisley"/>
    <tag k="building" v="house"/>
  </way>
  <way id="1330533640" version="2" timestamp="2024-11-19T04:42:53Z" changeset="159308604" uid="4910264" user="Black Tusk">
    <nd ref="12310711591"/>
    <nd ref="12310711592"/>
    <nd ref="12310711593"/>
    <nd ref="12310711594"/>
    <nd ref="12310711591"/>
    <tag k="addr:city" v="St Neots"/>
    <tag k="addr:postcode" v="PE19 6TL"/>
    <tag k="addr:street" v="Caxton End"/>
    <tag k="addr:village" v="Eltisley"/>
    <tag k="building" v="kindergarten"/>
    <tag k="name" v="Bluebell Day Nursery"/>
  </way>
  <way id="1330534505" version="3" timestamp="2024-11-19T05:16:30Z" changeset="159309113" uid="4910264" user="Black Tusk">
    <nd ref="12310865347"/>
    <nd ref="12310865348"/>
    <nd ref="12310865349"/>
    <nd ref="12310865350"/>
    <nd ref="12310865347"/>
    <tag k="addr:city" v="St Neots"/>
    <tag k="addr:housenumber" v="24"/>
    <tag k="addr:postcode" v="PE19 6TJ"/>
    <tag k="addr:street" v="Caxton End"/>
    <tag k="addr:village" v="Eltisley"/>
    <tag k="building" v="house"/>
  </way>
  <way id="1330534506" version="3" timestamp="2024-11-19T05:16:30Z" changeset="159309113" uid="4910264" user="Black Tusk">
    <nd ref="12310865351"/>
    <nd ref="12310865352"/>
    <nd ref="12310865353"/>
    <nd ref="12310865354"/>
    <nd ref="12310865351"/>
    <tag k="addr:city" v="St Neots"/>
    <tag k="addr:housenumber" v="26"/>
    <tag k="addr:postcode" v="PE19 6TJ"/>
    <tag k="addr:street" v="Caxton End"/>
    <tag k="addr:village" v="Eltisley"/>
    <tag k="building" v="house"/>
  </way>
  <way id="1330691121" version="3" timestamp="2024-11-19T05:09:59Z" changeset="159308995" uid="4910264" user="Black Tusk">
    <nd ref="12312257947"/>
    <nd ref="12312257948"/>
    <nd ref="12312257949"/>
    <nd ref="12312257950"/>
    <nd ref="12312257947"/>
    <tag k="addr:city" v="St Neots"/>
    <tag k="addr:housenumber" v="3"/>
    <tag k="addr:postcode" v="PE19 6TN"/>
    <tag k="addr:street" v="Greenfields"/>
    <tag k="addr:village" v="Eltisley"/>
    <tag k="building" v="house"/>
  </way>
  <way id="1330691122" version="3" timestamp="2024-11-19T05:09:59Z" changeset="159308995" uid="4910264" user="Black Tusk">
    <nd ref="12312257951"/>
    <nd ref="12312257947"/>
    <nd ref="12312257950"/>
    <nd ref="12312257953"/>
    <nd ref="12353332463"/>
    <nd ref="12312257954"/>
    <nd ref="12312257952"/>
    <nd ref="12312257951"/>
    <tag k="addr:city" v="St Neots"/>
    <tag k="addr:housenumber" v="1"/>
    <tag k="addr:postcode" v="PE19 6TN"/>
    <tag k="addr:street" v="Greenfields"/>
    <tag k="addr:village" v="Eltisley"/>
    <tag k="building" v="house"/>
  </way>
  <way id="1330691123" version="3" timestamp="2024-11-19T05:09:59Z" changeset="159308995" uid="4910264" user="Black Tusk">
    <nd ref="12312257955"/>
    <nd ref="12312257956"/>
    <nd ref="12312257957"/>
    <nd ref="12312257958"/>
    <nd ref="12312257955"/>
    <tag k="addr:city" v="St Neots"/>
    <tag k="addr:housenumber" v="15"/>
    <tag k="addr:postcode" v="PE19 6TN"/>
    <tag k="addr:street" v="Greenfields"/>
    <tag k="addr:village" v="Eltisley"/>
    <tag k="building" v="house"/>
  </way>
  <way id="1330691124" version="3" timestamp="2024-11-19T05:09:59Z" changeset="159308995" uid="4910264" user="Black Tusk">
    <nd ref="12312257959"/>
    <nd ref="12312257960"/>
    <nd ref="12312257961"/>
    <nd ref="12312257962"/>
    <nd ref="12312257959"/>
    <tag k="addr:city" v="St Neots"/>
    <tag k="addr:housenumber" v="13"/>
    <tag k="addr:postcode" v="PE19 6TN"/>
    <tag k="addr:street" v="Greenfields"/>
    <tag k="addr:village" v="Eltisley"/>
    <tag k="building" v="house"/>
  </way>
  <way id="1330691125" version="3" timestamp="2024-11-19T05:09:59Z" changeset="159308995" uid="4910264" user="Black Tusk">
    <nd ref="12312257963"/>
    <nd ref="12312257964"/>
    <nd ref="12312257965"/>
    <nd ref="12312257966"/>
    <nd ref="12312257963"/>
    <tag k="addr:city" v="St Neots"/>
    <tag k="addr:housenumber" v="11"/>
    <tag k="addr:postcode" v="PE19 6TN"/>
    <tag k="addr:street" v="Greenfields"/>
    <tag k="addr:village" v="Eltisley"/>
    <tag k="building" v="house"/>
  </way>
  <way id="1330691126" version="3" timestamp="2024-11-19T05:09:59Z" changeset="159308995" uid="4910264" user="Black Tusk">
    <nd ref="12312257967"/>
    <nd ref="12312257968"/>
    <nd ref="12312257969"/>
    <nd ref="12312257970"/>
    <nd ref="12312257967"/>
    <tag k="addr:city" v="St Neots"/>
    <tag k="addr:housenumber" v="9"/>
    <tag k="addr:postcode" v="PE19 6TN"/>
    <tag k="addr:street" v="Greenfields"/>
    <tag k="addr:village" v="Eltisley"/>
    <tag k="building" v="house"/>
  </way>
  <way id="1330691127" version="3" timestamp="2024-11-19T05:09:59Z" changeset="159308995" uid="4910264" user="Black Tusk">
    <nd ref="12312257971"/>
    <nd ref="12312257972"/>
    <nd ref="12312257973"/>
    <nd ref="12312257974"/>
    <nd ref="12312257971"/>
    <tag k="addr:city" v="St Neots"/>
    <tag k="addr:housenumber" v="7"/>
    <tag k="addr:postcode" v="PE19 6TN"/>
    <tag k="addr:street" v="Greenfields"/>
    <tag k="addr:village" v="Eltisley"/>
    <tag k="building" v="house"/>
  </way>
  <way id="1330691128" version="3" timestamp="2024-11-19T05:09:59Z" changeset="159308995" uid="4910264" user="Black Tusk">
    <nd ref="12312257975"/>
    <nd ref="12312257976"/>
    <nd ref="12312257977"/>
    <nd ref="12312257978"/>
    <nd ref="12312257975"/>
    <tag k="addr:city" v="St Neots"/>
    <tag k="addr:housenumber" v="5"/>
    <tag k="addr:postcode" v="PE19 6TN"/>
    <tag k="addr:street" v="Greenfields"/>
    <tag k="addr:village" v="Eltisley"/>
    <tag k="building" v="house"/>
  </way>
  <way id="1335096783" version="3" timestamp="2024-11-19T05:16:30Z" changeset="159309113" uid="4910264" user="Black Tusk">
    <nd ref="12351557248"/>
    <nd ref="12351557249"/>
    <nd ref="12351557250"/>
    <nd ref="12351557251"/>
    <nd ref="12351557248"/>
    <tag k="addr:city" v="St Neots"/>
    <tag k="addr:housenumber" v="31"/>
    <tag k="addr:postcode" v="PE19 6TJ"/>
    <tag k="addr:street" v="Caxton End"/>
    <tag k="addr:village" v="Eltisley"/>
    <tag k="building" v="house"/>
  </way>
  <way id="1335096784" version="3" timestamp="2024-11-19T05:16:30Z" changeset="159309113" uid="4910264" user="Black Tusk">
    <nd ref="12351557251"/>
    <nd ref="12351557250"/>
    <nd ref="12351557252"/>
    <nd ref="12351557253"/>
    <nd ref="12351557251"/>
    <tag k="addr:city" v="St Neots"/>
    <tag k="addr:housenumber" v="33"/>
    <tag k="addr:postcode" v="PE19 6TJ"/>
    <tag k="addr:street" v="Caxton End"/>
    <tag k="addr:village" v="Eltisley"/>
    <tag k="building" v="house"/>
  </way>
  <way id="1335096785" version="3" timestamp="2024-11-19T05:16:30Z" changeset="159309113" uid="4910264" user="Black Tusk">
    <nd ref="12351557262"/>
    <nd ref="12351557263"/>
    <nd ref="6274730742"/>
    <nd ref="6274730745"/>
    <nd ref="12351557262"/>
    <tag k="addr:city" v="St Neots"/>
    <tag k="addr:housenumber" v="101"/>
    <tag k="addr:postcode" v="PE19 6TJ"/>
    <tag k="addr:street" v="Caxton End"/>
    <tag k="addr:village" v="Eltisley"/>
    <tag k="building" v="house"/>
  </way>
  <way id="1335099290" version="3" timestamp="2024-11-19T05:16:30Z" changeset="159309113" uid="4910264" user="Black Tusk">
    <nd ref="12351566551"/>
    <nd ref="12351566552"/>
    <nd ref="12351566553"/>
    <nd ref="12351566554"/>
    <nd ref="12351566551"/>
    <tag k="addr:city" v="St Neots"/>
    <tag k="addr:housename" v="Pinewood"/>
    <tag k="addr:housenumber" v="48"/>
    <tag k="addr:postcode" v="PE19 6TJ"/>
    <tag k="addr:street" v="Caxton End"/>
    <tag k="addr:village" v="Eltisley"/>
    <tag k="building" v="house"/>
  </way>
  <way id="1335117941" version="3" timestamp="2024-11-19T05:16:30Z" changeset="159309113" uid="4910264" user="Black Tusk">
    <nd ref="12351703967"/>
    <nd ref="12351703968"/>
    <nd ref="12351703969"/>
    <nd ref="12351703970"/>
    <nd ref="12351703971"/>
    <nd ref="12351703972"/>
    <nd ref="12351703967"/>
    <tag k="addr:city" v="St Neots"/>
    <tag k="addr:housenumber" v="66"/>
    <tag k="addr:postcode" v="PE19 6TJ"/>
    <tag k="addr:street" v="Caxton End"/>
    <tag k="addr:village" v="Eltisley"/>
    <tag k="building" v="house"/>
  </way>
  <way id="1335117942" version="4" timestamp="2024-11-23T16:54:28Z" changeset="159507683" uid="4910264" user="Black Tusk">
    <nd ref="12368018674"/>
    <nd ref="12351703974"/>
    <nd ref="12351703968"/>
    <nd ref="12351703975"/>
    <nd ref="12368018674"/>
    <tag k="addr:city" v="St Neots"/>
    <tag k="addr:housenumber" v="64"/>
    <tag k="addr:postcode" v="PE19 6TJ"/>
    <tag k="addr:street" v="Caxton End"/>
    <tag k="addr:village" v="Eltisley"/>
    <tag k="building" v="house"/>
  </way>
  <way id="1335117944" version="3" timestamp="2024-11-19T05:16:30Z" changeset="159309113" uid="4910264" user="Black Tusk">
    <nd ref="12351703982"/>
    <nd ref="12351703983"/>
    <nd ref="12351703984"/>
    <nd ref="12351703986"/>
    <nd ref="12351703988"/>
    <nd ref="12351703989"/>
    <nd ref="12351703987"/>
    <nd ref="12351703985"/>
    <nd ref="12351703982"/>
    <tag k="addr:city" v="St Neots"/>
    <tag k="addr:housenumber" v="84"/>
    <tag k="addr:postcode" v="PE19 6TJ"/>
    <tag k="addr:street" v="Caxton End"/>
    <tag k="addr:village" v="Eltisley"/>
    <tag k="building" v="house"/>
  </way>
  <way id="1335117945" version="6" timestamp="2024-11-21T02:04:18Z" changeset="159391236" uid="4910264" user="Black Tusk">
    <nd ref="12351703990"/>
    <nd ref="12351703991"/>
    <nd ref="12351703992"/>
    <nd ref="12351703993"/>
    <nd ref="12351703990"/>
    <tag k="addr:city" v="St Neots"/>
    <tag k="addr:housenumber" v="124A"/>
    <tag k="addr:postcode" v="PE19 6TJ"/>
    <tag k="addr:street" v="Caxton End"/>
    <tag k="addr:village" v="Eltisley"/>
    <tag k="building" v="house"/>
    <tag k="heritage" v="2"/>
    <tag k="listed_status" v="Grade II"/>
    <tag k="ref:GB:nhle" v="1127178"/>
  </way>
  <way id="1335117946" version="3" timestamp="2024-11-19T05:16:30Z" changeset="159309113" uid="4910264" user="Black Tusk">
    <nd ref="12351703994"/>
    <nd ref="12351703995"/>
    <nd ref="12351703996"/>
    <nd ref="12351703997"/>
    <nd ref="12351703994"/>
    <tag k="addr:city" v="St Neots"/>
    <tag k="addr:housenumber" v="132"/>
    <tag k="addr:postcode" v="PE19 6TJ"/>
    <tag k="addr:street" v="Caxton End"/>
    <tag k="addr:village" v="Eltisley"/>
    <tag k="building" v="house"/>
  </way>
  <way id="1335117947" version="3" timestamp="2024-11-19T05:16:30Z" changeset="159309113" uid="4910264" user="Black Tusk">
    <nd ref="12351703995"/>
    <nd ref="12351703998"/>
    <nd ref="12351703999"/>
    <nd ref="12351703996"/>
    <nd ref="12351703995"/>
    <tag k="addr:city" v="St Neots"/>
    <tag k="addr:housenumber" v="134"/>
    <tag k="addr:postcode" v="PE19 6TJ"/>
    <tag k="addr:street" v="Caxton End"/>
    <tag k="addr:village" v="Eltisley"/>
    <tag k="building" v="house"/>
  </way>

</osm>
