<?xml version="1.0" encoding="UTF-8"?>
<osm version="0.6" generator="Overpass API 0.7.62.4 2390de5a">
<note>The data included in this document is from www.openstreetmap.org. The data is made available under ODbL.</note>
<meta osm_base="2025-01-23T15:28:55Z" areas="2024-12-31T00:49:33Z"/>

  <way id="543452837" version="5" timestamp="2024-12-23T13:16:24Z" changeset="160537795" uid="5173844" user="ndrw6">
    <nd ref="5253616941"/>
    <nd ref="5745987828"/>
    <nd ref="5745987829"/>
    <nd ref="5253616942"/>
    <nd ref="5253616943"/>
    <nd ref="5253616944"/>
    <nd ref="5253616941"/>
    <tag k="addr:city" v="Huntingdon"/>
    <tag k="addr:country" v="GB"/>
    <tag k="addr:housenumber" v="15"/>
    <tag k="addr:street" v="Scotts Close"/>
    <tag k="addr:village" v="Hilton"/>
    <tag k="building" v="house"/>
  </way>
  <way id="543452839" version="3" timestamp="2024-12-23T13:16:24Z" changeset="160537795" uid="5173844" user="ndrw6">
    <nd ref="5253616949"/>
    <nd ref="5253616950"/>
    <nd ref="5253616951"/>
    <nd ref="5253616952"/>
    <nd ref="5253616949"/>
    <tag k="addr:city" v="Huntingdon"/>
    <tag k="addr:country" v="GB"/>
    <tag k="addr:housenumber" v="8"/>
    <tag k="addr:street" v="Scotts Close"/>
    <tag k="addr:village" v="Hilton"/>
    <tag k="building" v="house"/>
  </way>
  <way id="605412735" version="4" timestamp="2024-12-23T13:16:24Z" changeset="160537795" uid="5173844" user="ndrw6">
    <nd ref="5742292813"/>
    <nd ref="5742292807"/>
    <nd ref="5742292806"/>
    <nd ref="5742292810"/>
    <nd ref="5742292808"/>
    <nd ref="5742292809"/>
    <nd ref="5742292811"/>
    <nd ref="5742292812"/>
    <nd ref="5742292813"/>
    <tag k="addr:city" v="Huntingdon"/>
    <tag k="addr:country" v="GB"/>
    <tag k="addr:postcode" v="PE28 9NG"/>
    <tag k="addr:street" v="Potton Road"/>
    <tag k="addr:village" v="Hilton"/>
    <tag k="amenity" v="pub"/>
    <tag k="building" v="commercial"/>
    <tag k="name" v="Prince of Wales"/>
  </way>
  <way id="605412743" version="4" timestamp="2024-12-23T13:16:24Z" changeset="160537795" uid="5173844" user="ndrw6">
    <nd ref="5742293059"/>
    <nd ref="5742293058"/>
    <nd ref="5742293057"/>
    <nd ref="5742293056"/>
    <nd ref="5742293059"/>
    <tag k="addr:city" v="Huntingdon"/>
    <tag k="addr:country" v="GB"/>
    <tag k="addr:housenumber" v="4"/>
    <tag k="addr:postcode" v="PE28 9NX"/>
    <tag k="addr:street" v="Mill Hill End"/>
    <tag k="addr:village" v="Hilton"/>
    <tag k="building" v="house"/>
  </way>
  <way id="605412744" version="4" timestamp="2024-12-23T13:16:24Z" changeset="160537795" uid="5173844" user="ndrw6">
    <nd ref="5742293063"/>
    <nd ref="5742293055"/>
    <nd ref="5742293054"/>
    <nd ref="5742293062"/>
    <nd ref="5742293061"/>
    <nd ref="5742293060"/>
    <nd ref="5742293063"/>
    <tag k="addr:city" v="Huntingdon"/>
    <tag k="addr:country" v="GB"/>
    <tag k="addr:housenumber" v="5"/>
    <tag k="addr:postcode" v="PE28 9NX"/>
    <tag k="addr:street" v="Mill Hill End"/>
    <tag k="addr:village" v="Hilton"/>
    <tag k="building" v="house"/>
  </way>
  <way id="605412746" version="4" timestamp="2024-12-23T13:16:24Z" changeset="160537795" uid="5173844" user="ndrw6">
    <nd ref="5742293071"/>
    <nd ref="5742293068"/>
    <nd ref="5742293069"/>
    <nd ref="5742293070"/>
    <nd ref="5742293071"/>
    <tag k="addr:city" v="Huntingdon"/>
    <tag k="addr:country" v="GB"/>
    <tag k="addr:housenumber" v="6"/>
    <tag k="addr:postcode" v="PE28 9NX"/>
    <tag k="addr:street" v="Mill Hill End"/>
    <tag k="addr:village" v="Hilton"/>
    <tag k="building" v="house"/>
  </way>
  <way id="605412756" version="5" timestamp="2024-12-23T13:16:24Z" changeset="160537795" uid="5173844" user="ndrw6">
    <nd ref="5742293127"/>
    <nd ref="5742293121"/>
    <nd ref="5742293120"/>
    <nd ref="5742293126"/>
    <nd ref="5742293123"/>
    <nd ref="5742293122"/>
    <nd ref="5742293125"/>
    <nd ref="5742293124"/>
    <nd ref="5742293127"/>
    <tag k="addr:city" v="Huntingdon"/>
    <tag k="addr:country" v="GB"/>
    <tag k="addr:housenumber" v="7"/>
    <tag k="addr:postcode" v="PE28 9NX"/>
    <tag k="addr:street" v="Mill Hill End"/>
    <tag k="addr:village" v="Hilton"/>
    <tag k="building" v="house"/>
  </way>
  <way id="605412757" version="4" timestamp="2024-12-23T13:16:24Z" changeset="160537795" uid="5173844" user="ndrw6">
    <nd ref="5742293131"/>
    <nd ref="5742293128"/>
    <nd ref="5742293129"/>
    <nd ref="5742293130"/>
    <nd ref="5742293131"/>
    <tag k="addr:city" v="Huntingdon"/>
    <tag k="addr:country" v="GB"/>
    <tag k="addr:housenumber" v="8"/>
    <tag k="addr:postcode" v="PE28 9NX"/>
    <tag k="addr:street" v="Mill Hill End"/>
    <tag k="addr:village" v="Hilton"/>
    <tag k="building" v="house"/>
  </way>
  <way id="605412758" version="4" timestamp="2024-12-23T13:16:24Z" changeset="160537795" uid="5173844" user="ndrw6">
    <nd ref="5742293135"/>
    <nd ref="5742293132"/>
    <nd ref="5742293133"/>
    <nd ref="5742293134"/>
    <nd ref="5742293135"/>
    <tag k="addr:city" v="Huntingdon"/>
    <tag k="addr:country" v="GB"/>
    <tag k="addr:housenumber" v="9"/>
    <tag k="addr:postcode" v="PE28 9NX"/>
    <tag k="addr:street" v="Mill Hill End"/>
    <tag k="addr:village" v="Hilton"/>
    <tag k="building" v="house"/>
  </way>
  <way id="605412769" version="3" timestamp="2025-01-08T08:57:25Z" changeset="161124591" uid="10633286" user="Moorit">
    <nd ref="5742293189"/>
    <nd ref="5742293188"/>
    <nd ref="5742293187"/>
    <nd ref="5742293186"/>
    <nd ref="5742293189"/>
    <tag k="addr:city" v="Huntingdon"/>
    <tag k="addr:country" v="GB"/>
    <tag k="addr:housenumber" v="8"/>
    <tag k="addr:street" v="Smeefield"/>
    <tag k="addr:village" v="Hilton"/>
    <tag k="building" v="house"/>
  </way>
  <way id="605412772" version="3" timestamp="2024-12-23T13:16:24Z" changeset="160537795" uid="5173844" user="ndrw6">
    <nd ref="5742293201"/>
    <nd ref="5742293198"/>
    <nd ref="5742293199"/>
    <nd ref="5742293200"/>
    <nd ref="5742293201"/>
    <tag k="addr:city" v="Huntingdon"/>
    <tag k="addr:country" v="GB"/>
    <tag k="addr:housenumber" v="18"/>
    <tag k="addr:street" v="Church End"/>
    <tag k="addr:village" v="Hilton"/>
    <tag k="building" v="house"/>
  </way>
  <way id="605412787" version="3" timestamp="2025-01-08T08:57:25Z" changeset="161124591" uid="10633286" user="Moorit">
    <nd ref="5742293281"/>
    <nd ref="5742293280"/>
    <nd ref="5742293279"/>
    <nd ref="5742293278"/>
    <nd ref="5742293281"/>
    <tag k="addr:city" v="Huntingdon"/>
    <tag k="addr:country" v="GB"/>
    <tag k="addr:housenumber" v="4"/>
    <tag k="addr:postcode" v="PE28 9NU"/>
    <tag k="addr:street" v="Smeefield"/>
    <tag k="addr:village" v="Hilton"/>
    <tag k="building" v="house"/>
  </way>
  <way id="605412788" version="5" timestamp="2025-01-08T08:57:25Z" changeset="161124591" uid="10633286" user="Moorit">
    <nd ref="5742293285"/>
    <nd ref="5742293282"/>
    <nd ref="5742293283"/>
    <nd ref="5742293277"/>
    <nd ref="5742293275"/>
    <nd ref="5742293274"/>
    <nd ref="5742293276"/>
    <nd ref="5742293284"/>
    <nd ref="5742293285"/>
    <tag k="addr:city" v="Huntingdon"/>
    <tag k="addr:country" v="GB"/>
    <tag k="addr:housenumber" v="2"/>
    <tag k="addr:postcode" v="PE28 9NU"/>
    <tag k="addr:street" v="Smeefield"/>
    <tag k="addr:village" v="Hilton"/>
    <tag k="building" v="house"/>
  </way>
  <way id="605412792" version="4" timestamp="2024-12-23T13:16:24Z" changeset="160537795" uid="5173844" user="ndrw6">
    <nd ref="5742293303"/>
    <nd ref="5742293308"/>
    <nd ref="5742293309"/>
    <nd ref="5742293306"/>
    <nd ref="5742293307"/>
    <nd ref="5742293302"/>
    <nd ref="5742293304"/>
    <nd ref="5742293305"/>
    <nd ref="5742293303"/>
    <tag k="addr:city" v="Huntingdon"/>
    <tag k="addr:country" v="GB"/>
    <tag k="addr:housenumber" v="1"/>
    <tag k="addr:postcode" v="PE28 9NX"/>
    <tag k="addr:street" v="Mill Hill End"/>
    <tag k="addr:village" v="Hilton"/>
    <tag k="building" v="house"/>
  </way>
  <way id="605412796" version="4" timestamp="2024-12-23T13:16:24Z" changeset="160537795" uid="5173844" user="ndrw6">
    <nd ref="5742293333"/>
    <nd ref="5742293330"/>
    <nd ref="5742293331"/>
    <nd ref="5742293332"/>
    <nd ref="5742293333"/>
    <tag k="addr:city" v="Huntingdon"/>
    <tag k="addr:country" v="GB"/>
    <tag k="addr:housenumber" v="2"/>
    <tag k="addr:postcode" v="PE28 9NX"/>
    <tag k="addr:street" v="Mill Hill End"/>
    <tag k="addr:village" v="Hilton"/>
    <tag k="building" v="house"/>
  </way>
  <way id="605412797" version="4" timestamp="2024-12-23T13:16:24Z" changeset="160537795" uid="5173844" user="ndrw6">
    <nd ref="5742293337"/>
    <nd ref="5742293336"/>
    <nd ref="5742293335"/>
    <nd ref="5742293334"/>
    <nd ref="5742293337"/>
    <tag k="addr:city" v="Huntingdon"/>
    <tag k="addr:country" v="GB"/>
    <tag k="addr:housenumber" v="3"/>
    <tag k="addr:postcode" v="PE28 9NX"/>
    <tag k="addr:street" v="Mill Hill End"/>
    <tag k="addr:village" v="Hilton"/>
    <tag k="building" v="house"/>
  </way>
  <way id="605412808" version="4" timestamp="2024-12-23T13:16:24Z" changeset="160537795" uid="5173844" user="ndrw6">
    <nd ref="5742293395"/>
    <nd ref="5742293394"/>
    <nd ref="5742293393"/>
    <nd ref="5742293392"/>
    <nd ref="5742293395"/>
    <tag k="addr:city" v="Huntingdon"/>
    <tag k="addr:country" v="GB"/>
    <tag k="addr:housenumber" v="1"/>
    <tag k="addr:postcode" v="PE28 9NS"/>
    <tag k="addr:street" v="Chapel Close"/>
    <tag k="addr:village" v="Hilton"/>
    <tag k="building" v="house"/>
  </way>
  <way id="605412809" version="5" timestamp="2024-12-23T13:16:24Z" changeset="160537795" uid="5173844" user="ndrw6">
    <nd ref="5742293399"/>
    <nd ref="5742293398"/>
    <nd ref="5742293397"/>
    <nd ref="5742293396"/>
    <nd ref="5742293399"/>
    <tag k="addr:city" v="Huntingdon"/>
    <tag k="addr:country" v="GB"/>
    <tag k="addr:housenumber" v="2"/>
    <tag k="addr:postcode" v="PE28 9NS"/>
    <tag k="addr:street" v="Chapel Close"/>
    <tag k="addr:village" v="Hilton"/>
    <tag k="building" v="house"/>
  </way>
  <way id="605941502" version="3" timestamp="2024-12-23T13:16:24Z" changeset="160537795" uid="5173844" user="ndrw6">
    <nd ref="5745987421"/>
    <nd ref="5745987120"/>
    <nd ref="5745987117"/>
    <nd ref="5745987116"/>
    <nd ref="5745987119"/>
    <nd ref="5745987118"/>
    <nd ref="5745987421"/>
    <tag k="addr:city" v="Huntingdon"/>
    <tag k="addr:country" v="GB"/>
    <tag k="addr:housenumber" v="20"/>
    <tag k="addr:street" v="Scotts Close"/>
    <tag k="addr:village" v="Hilton"/>
    <tag k="building" v="house"/>
  </way>
  <way id="605941503" version="3" timestamp="2024-12-23T13:16:24Z" changeset="160537795" uid="5173844" user="ndrw6">
    <nd ref="5745987429"/>
    <nd ref="5745987423"/>
    <nd ref="5745987422"/>
    <nd ref="5745987428"/>
    <nd ref="5745987427"/>
    <nd ref="5745987424"/>
    <nd ref="5745987425"/>
    <nd ref="5745987426"/>
    <nd ref="5745987429"/>
    <tag k="addr:city" v="Huntingdon"/>
    <tag k="addr:country" v="GB"/>
    <tag k="addr:housenumber" v="21"/>
    <tag k="addr:street" v="Scotts Close"/>
    <tag k="addr:village" v="Hilton"/>
    <tag k="building" v="house"/>
  </way>
  <way id="605941506" version="4" timestamp="2024-12-24T08:30:22Z" changeset="160566058" uid="21959662" user="cmarriott">
    <nd ref="5745987447"/>
    <nd ref="5745987446"/>
    <nd ref="5745987445"/>
    <nd ref="5745987443"/>
    <nd ref="5745987442"/>
    <nd ref="5745987444"/>
    <nd ref="5745987447"/>
    <tag k="addr:city" v="Huntingdon"/>
    <tag k="addr:country" v="GB"/>
    <tag k="addr:housenumber" v="19"/>
    <tag k="addr:postcode" v="PE28 9PQ"/>
    <tag k="addr:street" v="Scotts Close"/>
    <tag k="addr:village" v="Hilton"/>
    <tag k="building" v="house"/>
    <tag k="building:levels" v="3"/>
    <tag k="house" v="residential"/>
  </way>
  <way id="605941537" version="3" timestamp="2024-12-23T13:16:24Z" changeset="160537795" uid="5173844" user="ndrw6">
    <nd ref="5745987681"/>
    <nd ref="5745987678"/>
    <nd ref="5745987679"/>
    <nd ref="5745987680"/>
    <nd ref="5745987681"/>
    <tag k="addr:city" v="Huntingdon"/>
    <tag k="addr:country" v="GB"/>
    <tag k="addr:housenumber" v="1"/>
    <tag k="addr:street" v="Scotts Close"/>
    <tag k="addr:village" v="Hilton"/>
    <tag k="building" v="house"/>
  </way>
  <way id="605941538" version="3" timestamp="2024-12-23T13:16:24Z" changeset="160537795" uid="5173844" user="ndrw6">
    <nd ref="5745987685"/>
    <nd ref="5745987682"/>
    <nd ref="5745987683"/>
    <nd ref="5745987684"/>
    <nd ref="5745987685"/>
    <tag k="addr:city" v="Huntingdon"/>
    <tag k="addr:country" v="GB"/>
    <tag k="addr:housenumber" v="2"/>
    <tag k="addr:street" v="Scotts Close"/>
    <tag k="addr:village" v="Hilton"/>
    <tag k="building" v="house"/>
  </way>
  <way id="605941541" version="3" timestamp="2024-12-23T13:16:24Z" changeset="160537795" uid="5173844" user="ndrw6">
    <nd ref="5745987697"/>
    <nd ref="5745987694"/>
    <nd ref="5745987695"/>
    <nd ref="5745987696"/>
    <nd ref="5745987697"/>
    <tag k="addr:city" v="Huntingdon"/>
    <tag k="addr:country" v="GB"/>
    <tag k="addr:housenumber" v="4"/>
    <tag k="addr:street" v="Scotts Close"/>
    <tag k="addr:village" v="Hilton"/>
    <tag k="building" v="house"/>
  </way>
  <way id="605941542" version="3" timestamp="2024-12-23T13:16:24Z" changeset="160537795" uid="5173844" user="ndrw6">
    <nd ref="5745987701"/>
    <nd ref="5745987698"/>
    <nd ref="5745987699"/>
    <nd ref="5745987700"/>
    <nd ref="5745987701"/>
    <tag k="addr:city" v="Huntingdon"/>
    <tag k="addr:country" v="GB"/>
    <tag k="addr:housenumber" v="3"/>
    <tag k="addr:street" v="Scotts Close"/>
    <tag k="addr:village" v="Hilton"/>
    <tag k="building" v="house"/>
  </way>
  <way id="605941545" version="3" timestamp="2024-12-23T13:16:24Z" changeset="160537795" uid="5173844" user="ndrw6">
    <nd ref="5745987713"/>
    <nd ref="5745987710"/>
    <nd ref="5745987711"/>
    <nd ref="5745987712"/>
    <nd ref="5745987713"/>
    <tag k="addr:city" v="Huntingdon"/>
    <tag k="addr:country" v="GB"/>
    <tag k="addr:housenumber" v="9"/>
    <tag k="addr:street" v="Scotts Close"/>
    <tag k="addr:village" v="Hilton"/>
    <tag k="building" v="house"/>
  </way>
  <way id="605941548" version="5" timestamp="2024-12-23T13:16:24Z" changeset="160537795" uid="5173844" user="ndrw6">
    <nd ref="5745987827"/>
    <nd ref="5745987824"/>
    <nd ref="5745987822"/>
    <nd ref="5745987823"/>
    <nd ref="5745987825"/>
    <nd ref="5745987826"/>
    <nd ref="5745987827"/>
    <tag k="addr:city" v="Huntingdon"/>
    <tag k="addr:country" v="GB"/>
    <tag k="addr:housenumber" v="16"/>
    <tag k="addr:postcode" v="PE28 9PQ"/>
    <tag k="addr:street" v="Scotts Close"/>
    <tag k="addr:village" v="Hilton"/>
    <tag k="building" v="house"/>
  </way>
  <way id="606147341" version="3" timestamp="2024-12-23T13:16:24Z" changeset="160537795" uid="5173844" user="ndrw6">
    <nd ref="5747769171"/>
    <nd ref="5747769168"/>
    <nd ref="5747769164"/>
    <nd ref="5747769165"/>
    <nd ref="5747769166"/>
    <nd ref="5747769167"/>
    <nd ref="5747769169"/>
    <nd ref="5747769170"/>
    <nd ref="5747769171"/>
    <tag k="addr:city" v="Huntingdon"/>
    <tag k="addr:country" v="GB"/>
    <tag k="addr:housenumber" v="3"/>
    <tag k="addr:street" v="Pecks Close"/>
    <tag k="addr:village" v="Hilton"/>
    <tag k="building" v="house"/>
  </way>
  <way id="606147342" version="5" timestamp="2024-12-23T13:16:24Z" changeset="160537795" uid="5173844" user="ndrw6">
    <nd ref="5747769179"/>
    <nd ref="5747769176"/>
    <nd ref="5747769174"/>
    <nd ref="5747769175"/>
    <nd ref="5747769177"/>
    <nd ref="5747769172"/>
    <nd ref="5747769173"/>
    <nd ref="5747769178"/>
    <nd ref="5747769179"/>
    <tag k="addr:city" v="Huntingdon"/>
    <tag k="addr:country" v="GB"/>
    <tag k="addr:housenumber" v="2"/>
    <tag k="addr:postcode" v="PE28 9QN"/>
    <tag k="addr:street" v="Pecks Close"/>
    <tag k="addr:village" v="Hilton"/>
    <tag k="building" v="house"/>
  </way>
  <way id="606147344" version="4" timestamp="2024-12-23T13:16:24Z" changeset="160537795" uid="5173844" user="ndrw6">
    <nd ref="5747769189"/>
    <nd ref="5747769188"/>
    <nd ref="5747769187"/>
    <nd ref="5747769186"/>
    <nd ref="5747769184"/>
    <nd ref="5747769185"/>
    <nd ref="5747769189"/>
    <tag k="addr:city" v="Huntingdon"/>
    <tag k="addr:country" v="GB"/>
    <tag k="addr:housenumber" v="1"/>
    <tag k="addr:postcode" v="PE28 9QN"/>
    <tag k="addr:street" v="Pecks Close"/>
    <tag k="addr:village" v="Hilton"/>
    <tag k="building" v="house"/>
  </way>
  <way id="606150271" version="4" timestamp="2024-12-23T13:16:24Z" changeset="160537795" uid="5173844" user="ndrw6">
    <nd ref="5747796829"/>
    <nd ref="8889817030"/>
    <nd ref="8889817029"/>
    <nd ref="5747796826"/>
    <nd ref="5747796829"/>
    <tag k="addr:city" v="Huntingdon"/>
    <tag k="addr:country" v="GB"/>
    <tag k="addr:housenumber" v="2"/>
    <tag k="addr:street" v="New England"/>
    <tag k="addr:village" v="Hilton"/>
    <tag k="building" v="house"/>
  </way>
  <way id="606150272" version="6" timestamp="2024-12-23T13:16:24Z" changeset="160537795" uid="5173844" user="ndrw6">
    <nd ref="5747796833"/>
    <nd ref="8889817028"/>
    <nd ref="8889817027"/>
    <nd ref="5747796830"/>
    <nd ref="5747796833"/>
    <tag k="addr:city" v="Huntingdon"/>
    <tag k="addr:country" v="GB"/>
    <tag k="addr:housenumber" v="4"/>
    <tag k="addr:postcode" v="PE28 9NP"/>
    <tag k="addr:street" v="New England"/>
    <tag k="addr:village" v="Hilton"/>
    <tag k="building" v="house"/>
  </way>
  <way id="606150273" version="4" timestamp="2024-12-23T13:16:24Z" changeset="160537795" uid="5173844" user="ndrw6">
    <nd ref="5747796836"/>
    <nd ref="8889817026"/>
    <nd ref="8889817025"/>
    <nd ref="5747796835"/>
    <nd ref="5747796836"/>
    <tag k="addr:city" v="Huntingdon"/>
    <tag k="addr:country" v="GB"/>
    <tag k="addr:housenumber" v="5"/>
    <tag k="addr:postcode" v="PE28 9NP"/>
    <tag k="addr:street" v="New England"/>
    <tag k="addr:village" v="Hilton"/>
    <tag k="building" v="house"/>
  </way>
  <way id="606150274" version="4" timestamp="2024-12-23T13:16:24Z" changeset="160537795" uid="5173844" user="ndrw6">
    <nd ref="5747796841"/>
    <nd ref="8889817024"/>
    <nd ref="8889817023"/>
    <nd ref="5747796840"/>
    <nd ref="5747796841"/>
    <tag k="addr:city" v="Huntingdon"/>
    <tag k="addr:country" v="GB"/>
    <tag k="addr:housenumber" v="8"/>
    <tag k="addr:postcode" v="PE28 9NP"/>
    <tag k="addr:street" v="New England"/>
    <tag k="addr:village" v="Hilton"/>
    <tag k="building" v="house"/>
  </way>
  <way id="606150275" version="4" timestamp="2024-12-23T13:16:24Z" changeset="160537795" uid="5173844" user="ndrw6">
    <nd ref="5747796842"/>
    <nd ref="8889817022"/>
    <nd ref="8889817021"/>
    <nd ref="5747796843"/>
    <nd ref="5747796842"/>
    <tag k="addr:city" v="Huntingdon"/>
    <tag k="addr:country" v="GB"/>
    <tag k="addr:housenumber" v="9"/>
    <tag k="addr:postcode" v="PE28 9NP"/>
    <tag k="addr:street" v="New England"/>
    <tag k="addr:village" v="Hilton"/>
    <tag k="building" v="house"/>
  </way>
  <way id="606150277" version="4" timestamp="2024-12-23T13:16:24Z" changeset="160537795" uid="5173844" user="ndrw6">
    <nd ref="5747796852"/>
    <nd ref="8889817020"/>
    <nd ref="8889817019"/>
    <nd ref="5747796851"/>
    <nd ref="5747796852"/>
    <tag k="addr:city" v="Huntingdon"/>
    <tag k="addr:country" v="GB"/>
    <tag k="addr:housenumber" v="11"/>
    <tag k="addr:postcode" v="PE28 9NP"/>
    <tag k="addr:street" v="New England"/>
    <tag k="addr:village" v="Hilton"/>
    <tag k="building" v="house"/>
  </way>
  <way id="606150278" version="4" timestamp="2024-12-23T13:16:24Z" changeset="160537795" uid="5173844" user="ndrw6">
    <nd ref="5747796857"/>
    <nd ref="8889817018"/>
    <nd ref="8889817017"/>
    <nd ref="5747796856"/>
    <nd ref="5747796857"/>
    <tag k="addr:city" v="Huntingdon"/>
    <tag k="addr:country" v="GB"/>
    <tag k="addr:housenumber" v="2"/>
    <tag k="addr:street" v="Westbrook"/>
    <tag k="addr:village" v="Hilton"/>
    <tag k="building" v="house"/>
  </way>
  <way id="606150282" version="3" timestamp="2024-12-23T13:16:24Z" changeset="160537795" uid="5173844" user="ndrw6">
    <nd ref="5747796873"/>
    <nd ref="5747796870"/>
    <nd ref="5747796871"/>
    <nd ref="5747796872"/>
    <nd ref="5747796873"/>
    <tag k="addr:city" v="Huntingdon"/>
    <tag k="addr:country" v="GB"/>
    <tag k="addr:housenumber" v="12"/>
    <tag k="addr:street" v="Westbrook"/>
    <tag k="addr:village" v="Hilton"/>
    <tag k="building" v="house"/>
  </way>
  <way id="606150283" version="4" timestamp="2024-12-23T13:16:24Z" changeset="160537795" uid="5173844" user="ndrw6">
    <nd ref="8889790913"/>
    <nd ref="5747796878"/>
    <nd ref="5747796877"/>
    <nd ref="5747796875"/>
    <nd ref="5747796874"/>
    <nd ref="8889790914"/>
    <nd ref="8889790913"/>
    <tag k="addr:city" v="Huntingdon"/>
    <tag k="addr:country" v="GB"/>
    <tag k="addr:housenumber" v="16"/>
    <tag k="addr:street" v="Westbrook"/>
    <tag k="addr:village" v="Hilton"/>
    <tag k="building" v="house"/>
  </way>
  <way id="606150292" version="3" timestamp="2024-12-23T13:16:24Z" changeset="160537795" uid="5173844" user="ndrw6">
    <nd ref="5747796923"/>
    <nd ref="5747796920"/>
    <nd ref="5747796921"/>
    <nd ref="5747796915"/>
    <nd ref="5747796914"/>
    <nd ref="5747796922"/>
    <nd ref="5747796923"/>
    <tag k="addr:city" v="Huntingdon"/>
    <tag k="addr:country" v="GB"/>
    <tag k="addr:housenumber" v="15"/>
    <tag k="addr:street" v="Westbrook"/>
    <tag k="addr:village" v="Hilton"/>
    <tag k="building" v="house"/>
  </way>
  <way id="606150296" version="3" timestamp="2024-12-23T13:16:24Z" changeset="160537795" uid="5173844" user="ndrw6">
    <nd ref="5747796943"/>
    <nd ref="5747796942"/>
    <nd ref="5747796941"/>
    <nd ref="5747796940"/>
    <nd ref="5747796943"/>
    <tag k="addr:city" v="Huntingdon"/>
    <tag k="addr:country" v="GB"/>
    <tag k="addr:housenumber" v="20"/>
    <tag k="addr:street" v="Chequers Croft"/>
    <tag k="addr:village" v="Hilton"/>
    <tag k="building" v="house"/>
  </way>
  <way id="606150306" version="3" timestamp="2024-12-23T13:16:24Z" changeset="160537795" uid="5173844" user="ndrw6">
    <nd ref="5747796983"/>
    <nd ref="5747796982"/>
    <nd ref="5747796981"/>
    <nd ref="5747796980"/>
    <nd ref="5747796983"/>
    <tag k="addr:city" v="Huntingdon"/>
    <tag k="addr:country" v="GB"/>
    <tag k="addr:housenumber" v="4"/>
    <tag k="addr:street" v="Chequers Croft"/>
    <tag k="addr:village" v="Hilton"/>
    <tag k="building" v="house"/>
  </way>
  <way id="606150321" version="3" timestamp="2024-12-23T13:16:24Z" changeset="160537795" uid="5173844" user="ndrw6">
    <nd ref="5747797068"/>
    <nd ref="5747797065"/>
    <nd ref="5747797063"/>
    <nd ref="5747797064"/>
    <nd ref="5747797066"/>
    <nd ref="5747797061"/>
    <nd ref="5747797062"/>
    <nd ref="5747797067"/>
    <nd ref="5747797068"/>
    <tag k="addr:city" v="Huntingdon"/>
    <tag k="addr:country" v="GB"/>
    <tag k="addr:housenumber" v="1"/>
    <tag k="addr:street" v="College Court"/>
    <tag k="addr:village" v="Hilton"/>
    <tag k="building" v="house"/>
  </way>
  <way id="606150327" version="4" timestamp="2024-12-23T13:16:24Z" changeset="160537795" uid="5173844" user="ndrw6">
    <nd ref="5747797106"/>
    <nd ref="5747797103"/>
    <nd ref="5747797104"/>
    <nd ref="5747797105"/>
    <nd ref="5747797106"/>
    <tag k="addr:city" v="Huntingdon"/>
    <tag k="addr:country" v="GB"/>
    <tag k="addr:housenumber" v="12"/>
    <tag k="addr:postcode" v="PE28 9NR"/>
    <tag k="addr:street" v="Tithe Close"/>
    <tag k="addr:village" v="Hilton"/>
    <tag k="building" v="house"/>
  </way>
  <way id="606150328" version="3" timestamp="2024-12-23T13:16:24Z" changeset="160537795" uid="5173844" user="ndrw6">
    <nd ref="5747797110"/>
    <nd ref="5747797109"/>
    <nd ref="5747797108"/>
    <nd ref="5747797107"/>
    <nd ref="5747797110"/>
    <tag k="addr:city" v="Huntingdon"/>
    <tag k="addr:country" v="GB"/>
    <tag k="addr:housenumber" v="13"/>
    <tag k="addr:postcode" v="PE28 9NR"/>
    <tag k="addr:street" v="Tithe Close"/>
    <tag k="addr:village" v="Hilton"/>
    <tag k="building" v="house"/>
  </way>
  <way id="606150329" version="3" timestamp="2024-12-23T13:16:24Z" changeset="160537795" uid="5173844" user="ndrw6">
    <nd ref="5747797116"/>
    <nd ref="5747797115"/>
    <nd ref="5747797114"/>
    <nd ref="5747797112"/>
    <nd ref="5747797111"/>
    <nd ref="5747797113"/>
    <nd ref="5747797116"/>
    <tag k="addr:city" v="Huntingdon"/>
    <tag k="addr:country" v="GB"/>
    <tag k="addr:housenumber" v="14"/>
    <tag k="addr:postcode" v="PE28 9NR"/>
    <tag k="addr:street" v="Tithe Close"/>
    <tag k="addr:village" v="Hilton"/>
    <tag k="building" v="house"/>
  </way>
  <way id="606150330" version="3" timestamp="2024-12-23T13:16:24Z" changeset="160537795" uid="5173844" user="ndrw6">
    <nd ref="5747797124"/>
    <nd ref="5747797120"/>
    <nd ref="5747797119"/>
    <nd ref="5747797121"/>
    <nd ref="5747797122"/>
    <nd ref="5747797117"/>
    <nd ref="5747797118"/>
    <nd ref="5747797123"/>
    <nd ref="5747797124"/>
    <tag k="addr:city" v="Huntingdon"/>
    <tag k="addr:country" v="GB"/>
    <tag k="addr:housenumber" v="15"/>
    <tag k="addr:postcode" v="PE28 9NR"/>
    <tag k="addr:street" v="Tithe Close"/>
    <tag k="addr:village" v="Hilton"/>
    <tag k="building" v="house"/>
  </way>
  <way id="606150332" version="3" timestamp="2024-12-23T13:16:24Z" changeset="160537795" uid="5173844" user="ndrw6">
    <nd ref="5747797128"/>
    <nd ref="5747797125"/>
    <nd ref="5747797126"/>
    <nd ref="5747797127"/>
    <nd ref="5747797128"/>
    <tag k="addr:city" v="Huntingdon"/>
    <tag k="addr:country" v="GB"/>
    <tag k="addr:housenumber" v="1"/>
    <tag k="addr:postcode" v="PE28 9NR"/>
    <tag k="addr:street" v="Tithe Close"/>
    <tag k="addr:village" v="Hilton"/>
    <tag k="building" v="house"/>
  </way>
  <way id="606150334" version="3" timestamp="2024-12-23T13:16:24Z" changeset="160537795" uid="5173844" user="ndrw6">
    <nd ref="5747797132"/>
    <nd ref="5747797129"/>
    <nd ref="5747797130"/>
    <nd ref="5747797131"/>
    <nd ref="5747797132"/>
    <tag k="addr:city" v="Huntingdon"/>
    <tag k="addr:country" v="GB"/>
    <tag k="addr:housenumber" v="2"/>
    <tag k="addr:postcode" v="PE28 9NR"/>
    <tag k="addr:street" v="Tithe Close"/>
    <tag k="addr:village" v="Hilton"/>
    <tag k="building" v="house"/>
  </way>
  <way id="606150335" version="3" timestamp="2024-12-23T13:16:24Z" changeset="160537795" uid="5173844" user="ndrw6">
    <nd ref="5747797136"/>
    <nd ref="5747797133"/>
    <nd ref="5747797134"/>
    <nd ref="5747797135"/>
    <nd ref="5747797136"/>
    <tag k="addr:city" v="Huntingdon"/>
    <tag k="addr:country" v="GB"/>
    <tag k="addr:housenumber" v="3"/>
    <tag k="addr:postcode" v="PE28 9NR"/>
    <tag k="addr:street" v="Tithe Close"/>
    <tag k="addr:village" v="Hilton"/>
    <tag k="building" v="house"/>
  </way>
  <way id="606150337" version="3" timestamp="2024-12-23T13:16:24Z" changeset="160537795" uid="5173844" user="ndrw6">
    <nd ref="5747797140"/>
    <nd ref="5747797137"/>
    <nd ref="5747797138"/>
    <nd ref="5747797139"/>
    <nd ref="5747797140"/>
    <tag k="addr:city" v="Huntingdon"/>
    <tag k="addr:country" v="GB"/>
    <tag k="addr:housenumber" v="4"/>
    <tag k="addr:postcode" v="PE28 9NR"/>
    <tag k="addr:street" v="Tithe Close"/>
    <tag k="addr:village" v="Hilton"/>
    <tag k="building" v="house"/>
  </way>
  <way id="606150338" version="3" timestamp="2024-12-23T13:16:24Z" changeset="160537795" uid="5173844" user="ndrw6">
    <nd ref="5747797144"/>
    <nd ref="5747797141"/>
    <nd ref="5747797142"/>
    <nd ref="5747797143"/>
    <nd ref="5747797144"/>
    <tag k="addr:city" v="Huntingdon"/>
    <tag k="addr:country" v="GB"/>
    <tag k="addr:housenumber" v="5"/>
    <tag k="addr:postcode" v="PE28 9NR"/>
    <tag k="addr:street" v="Tithe Close"/>
    <tag k="addr:village" v="Hilton"/>
    <tag k="building" v="house"/>
  </way>
  <way id="606150340" version="3" timestamp="2024-12-23T13:16:24Z" changeset="160537795" uid="5173844" user="ndrw6">
    <nd ref="5747797148"/>
    <nd ref="5747797147"/>
    <nd ref="5747797146"/>
    <nd ref="5747797145"/>
    <nd ref="5747797148"/>
    <tag k="addr:city" v="Huntingdon"/>
    <tag k="addr:country" v="GB"/>
    <tag k="addr:housenumber" v="6"/>
    <tag k="addr:postcode" v="PE28 9NR"/>
    <tag k="addr:street" v="Tithe Close"/>
    <tag k="addr:village" v="Hilton"/>
    <tag k="building" v="house"/>
  </way>
  <way id="606150341" version="3" timestamp="2024-12-23T13:16:24Z" changeset="160537795" uid="5173844" user="ndrw6">
    <nd ref="5747797152"/>
    <nd ref="5747797149"/>
    <nd ref="5747797150"/>
    <nd ref="5747797151"/>
    <nd ref="5747797152"/>
    <tag k="addr:city" v="Huntingdon"/>
    <tag k="addr:country" v="GB"/>
    <tag k="addr:housenumber" v="7"/>
    <tag k="addr:postcode" v="PE28 9NR"/>
    <tag k="addr:street" v="Tithe Close"/>
    <tag k="addr:village" v="Hilton"/>
    <tag k="building" v="house"/>
  </way>
  <way id="606150342" version="3" timestamp="2024-12-23T13:16:24Z" changeset="160537795" uid="5173844" user="ndrw6">
    <nd ref="5747797158"/>
    <nd ref="5747797155"/>
    <nd ref="5747797153"/>
    <nd ref="5747797154"/>
    <nd ref="5747797156"/>
    <nd ref="5747797157"/>
    <nd ref="5747797158"/>
    <tag k="addr:city" v="Huntingdon"/>
    <tag k="addr:country" v="GB"/>
    <tag k="addr:housenumber" v="8"/>
    <tag k="addr:postcode" v="PE28 9NR"/>
    <tag k="addr:street" v="Tithe Close"/>
    <tag k="addr:village" v="Hilton"/>
    <tag k="building" v="house"/>
  </way>
  <way id="606150343" version="3" timestamp="2024-12-23T13:16:24Z" changeset="160537795" uid="5173844" user="ndrw6">
    <nd ref="5747797162"/>
    <nd ref="5747797159"/>
    <nd ref="5747797160"/>
    <nd ref="5747797161"/>
    <nd ref="5747797162"/>
    <tag k="addr:city" v="Huntingdon"/>
    <tag k="addr:country" v="GB"/>
    <tag k="addr:housenumber" v="11"/>
    <tag k="addr:postcode" v="PE28 9NR"/>
    <tag k="addr:street" v="Tithe Close"/>
    <tag k="addr:village" v="Hilton"/>
    <tag k="building" v="house"/>
  </way>
  <way id="606150345" version="3" timestamp="2024-12-23T13:16:24Z" changeset="160537795" uid="5173844" user="ndrw6">
    <nd ref="5747797174"/>
    <nd ref="5747797168"/>
    <nd ref="5747797167"/>
    <nd ref="5747797171"/>
    <nd ref="5747797170"/>
    <nd ref="5747797169"/>
    <nd ref="5747797172"/>
    <nd ref="5747797173"/>
    <nd ref="5747797174"/>
    <tag k="addr:city" v="Huntingdon"/>
    <tag k="addr:country" v="GB"/>
    <tag k="addr:housenumber" v="10"/>
    <tag k="addr:postcode" v="PE28 9NR"/>
    <tag k="addr:street" v="Tithe Close"/>
    <tag k="addr:village" v="Hilton"/>
    <tag k="building" v="house"/>
  </way>
  <way id="606150346" version="3" timestamp="2024-12-23T13:16:24Z" changeset="160537795" uid="5173844" user="ndrw6">
    <nd ref="5747797178"/>
    <nd ref="5747797175"/>
    <nd ref="5747797176"/>
    <nd ref="5747797177"/>
    <nd ref="5747797178"/>
    <tag k="addr:city" v="Huntingdon"/>
    <tag k="addr:country" v="GB"/>
    <tag k="addr:housenumber" v="9"/>
    <tag k="addr:postcode" v="PE28 9NR"/>
    <tag k="addr:street" v="Tithe Close"/>
    <tag k="addr:village" v="Hilton"/>
    <tag k="building" v="house"/>
  </way>
  <way id="606150355" version="3" timestamp="2024-12-23T13:16:24Z" changeset="160537795" uid="5173844" user="ndrw6">
    <nd ref="5747797211"/>
    <nd ref="5747797208"/>
    <nd ref="5747797209"/>
    <nd ref="5747797210"/>
    <nd ref="5747797211"/>
    <tag k="addr:city" v="Huntingdon"/>
    <tag k="addr:country" v="GB"/>
    <tag k="addr:housenumber" v="2"/>
    <tag k="addr:street" v="Kidmans Close"/>
    <tag k="addr:village" v="Hilton"/>
    <tag k="building" v="house"/>
  </way>
  <way id="606150356" version="3" timestamp="2024-12-23T13:16:24Z" changeset="160537795" uid="5173844" user="ndrw6">
    <nd ref="5747797215"/>
    <nd ref="5747797212"/>
    <nd ref="5747797213"/>
    <nd ref="5747797214"/>
    <nd ref="5747797215"/>
    <tag k="addr:city" v="Huntingdon"/>
    <tag k="addr:country" v="GB"/>
    <tag k="addr:housenumber" v="4"/>
    <tag k="addr:street" v="Kidmans Close"/>
    <tag k="addr:village" v="Hilton"/>
    <tag k="building" v="house"/>
  </way>
  <way id="606150357" version="3" timestamp="2024-12-23T13:16:24Z" changeset="160537795" uid="5173844" user="ndrw6">
    <nd ref="5747797219"/>
    <nd ref="5747797216"/>
    <nd ref="5747797217"/>
    <nd ref="5747797218"/>
    <nd ref="5747797219"/>
    <tag k="addr:city" v="Huntingdon"/>
    <tag k="addr:country" v="GB"/>
    <tag k="addr:housenumber" v="10"/>
    <tag k="addr:street" v="Tithe Lane (byway)"/>
    <tag k="addr:village" v="Hilton"/>
    <tag k="building" v="house"/>
  </way>
  <way id="606150358" version="3" timestamp="2024-12-23T13:16:24Z" changeset="160537795" uid="5173844" user="ndrw6">
    <nd ref="5747797223"/>
    <nd ref="5747797222"/>
    <nd ref="5747797221"/>
    <nd ref="5747797220"/>
    <nd ref="5747797223"/>
    <tag k="addr:city" v="Huntingdon"/>
    <tag k="addr:country" v="GB"/>
    <tag k="addr:housenumber" v="12"/>
    <tag k="addr:street" v="Tithe Lane (byway)"/>
    <tag k="addr:village" v="Hilton"/>
    <tag k="building" v="house"/>
  </way>
  <way id="606150359" version="3" timestamp="2024-12-23T13:16:24Z" changeset="160537795" uid="5173844" user="ndrw6">
    <nd ref="5747797227"/>
    <nd ref="5747797226"/>
    <nd ref="5747797225"/>
    <nd ref="5747797224"/>
    <nd ref="5747797227"/>
    <tag k="addr:city" v="Huntingdon"/>
    <tag k="addr:country" v="GB"/>
    <tag k="addr:housenumber" v="8"/>
    <tag k="addr:street" v="Tithe Lane (byway)"/>
    <tag k="addr:village" v="Hilton"/>
    <tag k="building" v="house"/>
  </way>
  <way id="606150360" version="3" timestamp="2024-12-23T13:16:24Z" changeset="160537795" uid="5173844" user="ndrw6">
    <nd ref="5747797231"/>
    <nd ref="5747797228"/>
    <nd ref="5747797229"/>
    <nd ref="5747797230"/>
    <nd ref="5747797231"/>
    <tag k="addr:city" v="Huntingdon"/>
    <tag k="addr:country" v="GB"/>
    <tag k="addr:housenumber" v="6"/>
    <tag k="addr:street" v="Kidmans Close"/>
    <tag k="addr:village" v="Hilton"/>
    <tag k="building" v="house"/>
  </way>
  <way id="606150362" version="3" timestamp="2024-12-23T13:16:24Z" changeset="160537795" uid="5173844" user="ndrw6">
    <nd ref="5747797241"/>
    <nd ref="5747797240"/>
    <nd ref="5747797236"/>
    <nd ref="5747797237"/>
    <nd ref="5747797239"/>
    <nd ref="5747797238"/>
    <nd ref="5747797241"/>
    <tag k="addr:city" v="Huntingdon"/>
    <tag k="addr:country" v="GB"/>
    <tag k="addr:housenumber" v="14"/>
    <tag k="addr:street" v="Tithe Lane (byway)"/>
    <tag k="addr:village" v="Hilton"/>
    <tag k="building" v="house"/>
  </way>
  <way id="606150373" version="4" timestamp="2024-12-23T13:16:24Z" changeset="160537795" uid="5173844" user="ndrw6">
    <nd ref="5747797285"/>
    <nd ref="8889790854"/>
    <nd ref="8889790853"/>
    <nd ref="5747797282"/>
    <nd ref="5747797285"/>
    <tag k="addr:city" v="Huntingdon"/>
    <tag k="addr:country" v="GB"/>
    <tag k="addr:housenumber" v="27"/>
    <tag k="addr:street" v="Kidmans Close"/>
    <tag k="addr:village" v="Hilton"/>
    <tag k="building" v="house"/>
  </way>
  <way id="606150374" version="4" timestamp="2024-12-23T13:16:24Z" changeset="160537795" uid="5173844" user="ndrw6">
    <nd ref="5747797288"/>
    <nd ref="8889790858"/>
    <nd ref="8889790857"/>
    <nd ref="5747797287"/>
    <nd ref="5747797288"/>
    <tag k="addr:city" v="Huntingdon"/>
    <tag k="addr:country" v="GB"/>
    <tag k="addr:housenumber" v="29"/>
    <tag k="addr:street" v="Kidmans Close"/>
    <tag k="addr:village" v="Hilton"/>
    <tag k="building" v="house"/>
  </way>
  <way id="606150375" version="4" timestamp="2024-12-23T13:16:24Z" changeset="160537795" uid="5173844" user="ndrw6">
    <nd ref="5747797292"/>
    <nd ref="8889790856"/>
    <nd ref="8889790855"/>
    <nd ref="5747797291"/>
    <nd ref="5747797292"/>
    <tag k="addr:city" v="Huntingdon"/>
    <tag k="addr:country" v="GB"/>
    <tag k="addr:housenumber" v="33"/>
    <tag k="addr:street" v="Kidmans Close"/>
    <tag k="addr:village" v="Hilton"/>
    <tag k="building" v="house"/>
  </way>
  <way id="960999894" version="3" timestamp="2024-12-23T13:16:24Z" changeset="160537795" uid="5173844" user="ndrw6">
    <nd ref="8889790854"/>
    <nd ref="5747797284"/>
    <nd ref="5747797283"/>
    <nd ref="8889790853"/>
    <nd ref="8889790854"/>
    <tag k="addr:city" v="Huntingdon"/>
    <tag k="addr:country" v="GB"/>
    <tag k="addr:housenumber" v="25"/>
    <tag k="addr:street" v="Kidmans Close"/>
    <tag k="addr:village" v="Hilton"/>
    <tag k="building" v="house"/>
  </way>
  <way id="960999895" version="3" timestamp="2024-12-23T13:16:24Z" changeset="160537795" uid="5173844" user="ndrw6">
    <nd ref="8889790856"/>
    <nd ref="5747797293"/>
    <nd ref="5747797290"/>
    <nd ref="8889790855"/>
    <nd ref="8889790856"/>
    <tag k="addr:city" v="Huntingdon"/>
    <tag k="addr:country" v="GB"/>
    <tag k="addr:housenumber" v="35"/>
    <tag k="addr:street" v="Kidmans Close"/>
    <tag k="addr:village" v="Hilton"/>
    <tag k="building" v="house"/>
  </way>
  <way id="960999896" version="3" timestamp="2024-12-23T13:16:24Z" changeset="160537795" uid="5173844" user="ndrw6">
    <nd ref="8889790858"/>
    <nd ref="5747797289"/>
    <nd ref="5747797286"/>
    <nd ref="8889790857"/>
    <nd ref="8889790858"/>
    <tag k="addr:city" v="Huntingdon"/>
    <tag k="addr:country" v="GB"/>
    <tag k="addr:housenumber" v="31"/>
    <tag k="addr:street" v="Kidmans Close"/>
    <tag k="addr:village" v="Hilton"/>
    <tag k="building" v="house"/>
  </way>
  <way id="960999916" version="3" timestamp="2024-12-23T13:16:24Z" changeset="160537795" uid="5173844" user="ndrw6">
    <nd ref="8889790914"/>
    <nd ref="5747796876"/>
    <nd ref="5747796879"/>
    <nd ref="8889790913"/>
    <nd ref="8889790914"/>
    <tag k="addr:city" v="Huntingdon"/>
    <tag k="addr:country" v="GB"/>
    <tag k="addr:housenumber" v="14"/>
    <tag k="addr:street" v="Westbrook"/>
    <tag k="addr:village" v="Hilton"/>
    <tag k="building" v="house"/>
  </way>
  <way id="960999918" version="3" timestamp="2024-12-23T13:16:24Z" changeset="160537795" uid="5173844" user="ndrw6">
    <nd ref="8889817018"/>
    <nd ref="5747796854"/>
    <nd ref="5747796855"/>
    <nd ref="8889817017"/>
    <nd ref="8889817018"/>
    <tag k="addr:city" v="Huntingdon"/>
    <tag k="addr:country" v="GB"/>
    <tag k="addr:housenumber" v="4"/>
    <tag k="addr:street" v="Westbrook"/>
    <tag k="addr:village" v="Hilton"/>
    <tag k="building" v="house"/>
  </way>
  <way id="960999919" version="3" timestamp="2024-12-23T13:16:24Z" changeset="160537795" uid="5173844" user="ndrw6">
    <nd ref="8889817020"/>
    <nd ref="5747796853"/>
    <nd ref="5747796850"/>
    <nd ref="8889817019"/>
    <nd ref="8889817020"/>
    <tag k="addr:city" v="Huntingdon"/>
    <tag k="addr:country" v="GB"/>
    <tag k="addr:housenumber" v="12"/>
    <tag k="addr:postcode" v="PE28 9NP"/>
    <tag k="addr:street" v="New England"/>
    <tag k="addr:village" v="Hilton"/>
    <tag k="building" v="house"/>
  </way>
  <way id="960999920" version="3" timestamp="2024-12-23T13:16:24Z" changeset="160537795" uid="5173844" user="ndrw6">
    <nd ref="8889817022"/>
    <nd ref="5747796845"/>
    <nd ref="5747796844"/>
    <nd ref="8889817021"/>
    <nd ref="8889817022"/>
    <tag k="addr:city" v="Huntingdon"/>
    <tag k="addr:country" v="GB"/>
    <tag k="addr:housenumber" v="10"/>
    <tag k="addr:postcode" v="PE28 9NP"/>
    <tag k="addr:street" v="New England"/>
    <tag k="addr:village" v="Hilton"/>
    <tag k="building" v="house"/>
  </way>
  <way id="960999921" version="3" timestamp="2024-12-23T13:16:24Z" changeset="160537795" uid="5173844" user="ndrw6">
    <nd ref="8889817024"/>
    <nd ref="5747796838"/>
    <nd ref="5747796839"/>
    <nd ref="8889817023"/>
    <nd ref="8889817024"/>
    <tag k="addr:city" v="Huntingdon"/>
    <tag k="addr:country" v="GB"/>
    <tag k="addr:housenumber" v="7"/>
    <tag k="addr:postcode" v="PE28 9NP"/>
    <tag k="addr:street" v="New England"/>
    <tag k="addr:village" v="Hilton"/>
    <tag k="building" v="house"/>
  </way>
  <way id="960999922" version="3" timestamp="2024-12-23T13:16:24Z" changeset="160537795" uid="5173844" user="ndrw6">
    <nd ref="8889817026"/>
    <nd ref="5747796837"/>
    <nd ref="5747796834"/>
    <nd ref="8889817025"/>
    <nd ref="8889817026"/>
    <tag k="addr:city" v="Huntingdon"/>
    <tag k="addr:country" v="GB"/>
    <tag k="addr:housenumber" v="6"/>
    <tag k="addr:postcode" v="PE28 9NP"/>
    <tag k="addr:street" v="New England"/>
    <tag k="addr:village" v="Hilton"/>
    <tag k="building" v="house"/>
  </way>
  <way id="960999923" version="4" timestamp="2024-12-23T13:16:24Z" changeset="160537795" uid="5173844" user="ndrw6">
    <nd ref="8889817028"/>
    <nd ref="5747796832"/>
    <nd ref="5747796831"/>
    <nd ref="8889817027"/>
    <nd ref="8889817028"/>
    <tag k="addr:city" v="Huntingdon"/>
    <tag k="addr:country" v="GB"/>
    <tag k="addr:housenumber" v="3"/>
    <tag k="addr:postcode" v="PE28 9NP"/>
    <tag k="addr:street" v="New England"/>
    <tag k="addr:village" v="Hilton"/>
    <tag k="building" v="house"/>
  </way>
  <way id="960999924" version="3" timestamp="2024-12-23T13:16:24Z" changeset="160537795" uid="5173844" user="ndrw6">
    <nd ref="8889817030"/>
    <nd ref="5747796828"/>
    <nd ref="5747796827"/>
    <nd ref="8889817029"/>
    <nd ref="8889817030"/>
    <tag k="addr:city" v="Huntingdon"/>
    <tag k="addr:country" v="GB"/>
    <tag k="addr:housenumber" v="1"/>
    <tag k="addr:street" v="New England"/>
    <tag k="addr:village" v="Hilton"/>
    <tag k="building" v="house"/>
  </way>

</osm>
