<?xml version="1.0" encoding="UTF-8"?>
<osm version="0.6" generator="Overpass API 0.7.62.4 2390de5a">
<note>The data included in this document is from www.openstreetmap.org. The data is made available under ODbL.</note>
<meta osm_base="2025-01-21T14:25:27Z" areas="2024-12-31T00:49:33Z"/>

  <node id="6055417758" lat="52.1929038" lon="-0.1347750" version="1" timestamp="2018-11-12T17:47:44Z" changeset="64415324" uid="281267" user="smb1001">
    <tag k="addr:housename" v="Bond House"/>
    <tag k="addr:postcode" v="SG19 3BJ"/>
    <tag k="addr:street" v="Hardwicke Road"/>
    <tag k="name" v="Premier Limpet Ltd"/>
  </node>
  <node id="6055417759" lat="52.1891207" lon="-0.1369148" version="1" timestamp="2018-11-12T17:47:44Z" changeset="64415324" uid="281267" user="smb1001">
    <tag k="addr:housenumber" v="3"/>
    <tag k="addr:postcode" v="SG19 3AH"/>
    <tag k="addr:street" v="Sand Road Industrial Estate"/>
    <tag k="name" v="Tracel"/>
  </node>
  <node id="6055417761" lat="52.1882258" lon="-0.1370757" version="1" timestamp="2018-11-12T17:47:44Z" changeset="64415324" uid="281267" user="smb1001">
    <tag k="addr:housename" v="Sand House"/>
    <tag k="addr:postcode" v="SG19 3AH"/>
    <tag k="addr:street" v="Sand Road"/>
    <tag k="name" v="D. C. Norris &amp; Co"/>
  </node>
  <node id="6055417762" lat="52.1889826" lon="-0.1359502" version="1" timestamp="2018-11-12T17:47:45Z" changeset="64415324" uid="281267" user="smb1001">
    <tag k="addr:housenumber" v="10"/>
    <tag k="addr:postcode" v="SG19 3AH"/>
    <tag k="addr:street" v="Sand Road Industrial Estate"/>
    <tag k="name" v="Morite Winding"/>
  </node>
  <node id="6055417768" lat="52.1896995" lon="-0.1368182" version="1" timestamp="2018-11-12T17:47:45Z" changeset="64415324" uid="281267" user="smb1001">
    <tag k="addr:housenumber" v="8"/>
    <tag k="addr:postcode" v="SG19 3AH"/>
    <tag k="addr:street" v="Sand Road Industrial Estate"/>
    <tag k="name" v="Mass Racing"/>
  </node>
  <node id="6055417770" lat="52.1884695" lon="-0.1361863" version="1" timestamp="2018-11-12T17:47:45Z" changeset="64415324" uid="281267" user="smb1001">
    <tag k="addr:housenumber" v="1"/>
    <tag k="addr:postcode" v="SG19 3AH"/>
    <tag k="addr:street" v="Sand Road Industrial Estate"/>
    <tag k="name" v="Above All Autocentre"/>
  </node>
  <node id="6860790639" lat="52.1914073" lon="-0.1450164" version="1" timestamp="2019-10-08T15:52:46Z" changeset="75421713" uid="281267" user="smb1001">
    <tag k="addr:housename" v="Highbury Fields"/>
    <tag k="addr:postcode" v="SG19 3AR"/>
    <tag k="addr:street" v="Eltisley Road"/>
    <tag k="name" v="Aquadistri"/>
  </node>
  <way id="71809509" version="4" timestamp="2018-11-12T09:58:42Z" changeset="64399146" uid="281267" user="smb1001">
    <nd ref="853408775"/>
    <nd ref="853408839"/>
    <nd ref="853409015"/>
    <nd ref="853408884"/>
    <nd ref="853408759"/>
    <nd ref="2016847241"/>
    <nd ref="853408943"/>
    <nd ref="853408775"/>
    <tag k="addr:postcode" v="SG19 3BJ"/>
    <tag k="addr:street" v="Hardwicke Road"/>
    <tag k="landuse" v="industrial"/>
    <tag k="name" v="Hardwick Road Industrial Estate"/>
  </way>
  <way id="71809512" version="5" timestamp="2018-10-29T14:11:27Z" changeset="63978561" uid="281267" user="smb1001">
    <nd ref="853408937"/>
    <nd ref="1479103843"/>
    <nd ref="1479103837"/>
    <nd ref="853409040"/>
    <nd ref="3772966417"/>
    <nd ref="4083436585"/>
    <nd ref="853408914"/>
    <nd ref="853408785"/>
    <nd ref="853408962"/>
    <nd ref="853408829"/>
    <nd ref="853409007"/>
    <nd ref="853408937"/>
    <tag k="addr:postcode" v="SG19 3AR"/>
    <tag k="addr:street" v="Eltisley Road"/>
    <tag k="landuse" v="industrial"/>
    <tag k="name" v="Potton Self Build"/>
  </way>
  <way id="107260711" version="9" timestamp="2023-08-27T06:08:18Z" changeset="140437284" uid="242345" user="confusedbuffalo">
    <nd ref="1233157903"/>
    <nd ref="1233157899"/>
    <nd ref="1233157953"/>
    <nd ref="1233157937"/>
    <nd ref="1233157946"/>
    <nd ref="1233157928"/>
    <nd ref="1233157936"/>
    <nd ref="1233157965"/>
    <nd ref="6066648222"/>
    <nd ref="1233157938"/>
    <nd ref="1233157919"/>
    <nd ref="6066648198"/>
    <nd ref="1233157886"/>
    <nd ref="1233157934"/>
    <nd ref="1233157925"/>
    <nd ref="1233157961"/>
    <nd ref="1233157889"/>
    <nd ref="1233157951"/>
    <nd ref="1233157903"/>
    <tag k="addr:city" v="Sandy"/>
    <tag k="addr:housename" v="Barnabas Oley Church of England Primary School"/>
    <tag k="addr:postcode" v="SG19 3AE"/>
    <tag k="addr:province" v="Cambridgeshire"/>
    <tag k="addr:street" v="Little Lane"/>
    <tag k="addr:suburb" v="Great Gransden"/>
    <tag k="amenity" v="school"/>
    <tag k="capacity" v="157"/>
    <tag k="denomination" v="anglican"/>
    <tag k="diocese" v="Diocese of Ely"/>
    <tag k="email" v="office@barnabasoley.cambs.sch.uk"/>
    <tag k="isced:level" v="1"/>
    <tag k="max_age" v="11"/>
    <tag k="min_age" v="5"/>
    <tag k="name" v="Barnabas Oley CofE Primary School"/>
    <tag k="operator" v="Cambridgeshire County Council"/>
    <tag k="phone" v="+44 1767 677 294"/>
    <tag k="ref:GB:uprn" v="100091577239"/>
    <tag k="ref:edubase" v="110814"/>
    <tag k="religion" v="christian"/>
    <tag k="school:trust" v="no"/>
    <tag k="school:type" v="voluntary_controlled"/>
    <tag k="website" v="https://www.barnabasoley.cambs.sch.uk/"/>
    <tag k="wikidata" v="Q66223637"/>
  </way>
  <way id="190949839" version="5" timestamp="2024-04-28T13:11:05Z" changeset="150618033" uid="281267" user="smb1001">
    <nd ref="2015395421"/>
    <nd ref="2015395090"/>
    <nd ref="2015395166"/>
    <nd ref="765938434"/>
    <nd ref="765938445"/>
    <nd ref="765938439"/>
    <nd ref="2015395421"/>
    <tag k="addr:city" v="Sandy"/>
    <tag k="addr:housenumber" v="2"/>
    <tag k="addr:postcode" v="SG19 3AT"/>
    <tag k="addr:street" v="West Street"/>
    <tag k="addr:village" v="Great Gransden"/>
    <tag k="building" v="yes"/>
    <tag k="disused:amenity" v="pub"/>
    <tag k="name" v="Crown &amp; Cushion"/>
    <tag k="wikidata" v="Q26578310"/>
  </way>
  <way id="191055303" version="3" timestamp="2019-03-04T22:23:47Z" changeset="67784495" uid="9451067" user="b-jazz-bot">
    <nd ref="2016400762"/>
    <nd ref="2016400754"/>
    <nd ref="2016400746"/>
    <nd ref="2016400720"/>
    <nd ref="2016400945"/>
    <nd ref="2016400905"/>
    <nd ref="2016400762"/>
    <tag k="addr:postcode" v="SG19 3BG"/>
    <tag k="addr:street" v="Caxton Road"/>
    <tag k="amenity" v="kindergarten"/>
    <tag k="building" v="yes"/>
    <tag k="name" v="Great Gransden Playgroup"/>
    <tag k="website" v="https://www.greatgransdenplaygroup.org/"/>
  </way>
  <way id="191101491" version="5" timestamp="2024-08-28T11:35:16Z" changeset="155875683" uid="742701" user="kerr smith">
    <nd ref="2016847798"/>
    <nd ref="2016847456"/>
    <nd ref="12141942425"/>
    <nd ref="12141942424"/>
    <nd ref="2016847080"/>
    <nd ref="2016846834"/>
    <nd ref="2016847798"/>
    <tag k="addr:postcode" v="SG19 3BH"/>
    <tag k="addr:street" v="Caxton Road"/>
    <tag k="building" v="industrial"/>
    <tag k="name" v="John Taylor Crane Services"/>
    <tag k="website" v="https://jtcranes.co.uk/"/>
  </way>
  <way id="191101515" version="6" timestamp="2023-08-22T10:15:11Z" changeset="140221583" uid="1102246" user="jtn20">
    <nd ref="6022063753"/>
    <nd ref="2016847757"/>
    <nd ref="2016846821"/>
    <nd ref="2016847914"/>
    <nd ref="2016847511"/>
    <nd ref="6022063763"/>
    <nd ref="6022063753"/>
    <tag k="HE_ref" v="1211128"/>
    <tag k="addr:city" v="Sandy"/>
    <tag k="addr:postcode" v="SG19 3AA"/>
    <tag k="addr:street" v="Fox Street"/>
    <tag k="addr:village" v="Great Gransden"/>
    <tag k="amenity" v="public_building"/>
    <tag k="building" v="yes"/>
    <tag k="inscription" v="TÂ·V W \n1871"/>
    <tag k="listed_status" v="Grade II"/>
    <tag k="name" v="Reading Rooms"/>
    <tag k="wikidata" v="Q26506159"/>
  </way>
  <way id="240447001" version="5" timestamp="2023-04-24T18:51:27Z" changeset="135314946" uid="10633286" user="Moorit">
    <nd ref="2481826985"/>
    <nd ref="2481826991"/>
    <nd ref="2481827000"/>
    <nd ref="2481826982"/>
    <nd ref="2481826964"/>
    <nd ref="2481826958"/>
    <nd ref="2481826997"/>
    <nd ref="2481826987"/>
    <nd ref="2481826985"/>
    <tag k="addr:city" v="Sandy"/>
    <tag k="addr:housenumber" v="20"/>
    <tag k="addr:place" v="Kadina"/>
    <tag k="addr:postcode" v="SG19 3BA"/>
    <tag k="addr:street" v="Little Gransden Lane"/>
    <tag k="addr:village" v="Great Gransden"/>
    <tag k="building" v="residential"/>
    <tag k="name" v="Berry Close Studios"/>
  </way>
  <way id="240495300" version="4" timestamp="2023-11-16T16:38:01Z" changeset="144103995" uid="13445" user="zorque">
    <nd ref="2482245275"/>
    <nd ref="2482245262"/>
    <nd ref="2482245277"/>
    <nd ref="2482245264"/>
    <nd ref="2482245275"/>
    <tag k="addr:city" v="Sandy"/>
    <tag k="addr:postcode" v="SG19 3AD"/>
    <tag k="addr:street" v="Middle Street"/>
    <tag k="addr:suburb" v="Great Gransden"/>
    <tag k="building" v="yes"/>
    <tag k="name" v="Great Gransden Telephone Exchange"/>
    <tag k="operator" v="Openreach"/>
    <tag k="operator:wikidata" v="Q7096543"/>
    <tag k="ref" v="SMGG"/>
    <tag k="telecom" v="exchange"/>
  </way>
  <way id="354601449" version="8" timestamp="2022-04-06T15:55:23Z" changeset="119393821" uid="669183" user="Andy_W">
    <nd ref="3602813499"/>
    <nd ref="6948622293"/>
    <nd ref="6948622348"/>
    <nd ref="3602813555"/>
    <nd ref="3602813737"/>
    <nd ref="9646081167"/>
    <nd ref="3602813778"/>
    <nd ref="3602813554"/>
    <nd ref="6948622291"/>
    <nd ref="9646081164"/>
    <nd ref="9646081163"/>
    <nd ref="3602813545"/>
    <nd ref="9646081162"/>
    <nd ref="3602813742"/>
    <nd ref="3602813713"/>
    <nd ref="3602813540"/>
    <nd ref="3602812659"/>
    <nd ref="9646047255"/>
    <nd ref="9646047283"/>
    <nd ref="3602813544"/>
    <nd ref="9646047256"/>
    <nd ref="9646047257"/>
    <nd ref="9646047258"/>
    <nd ref="3602812649"/>
    <nd ref="3602813770"/>
    <nd ref="9646047259"/>
    <nd ref="9646047260"/>
    <nd ref="9646047282"/>
    <nd ref="3602813497"/>
    <nd ref="9646047261"/>
    <nd ref="9646047262"/>
    <nd ref="3602813543"/>
    <nd ref="9646047263"/>
    <nd ref="3602813743"/>
    <nd ref="9646047267"/>
    <nd ref="3602813733"/>
    <nd ref="9646047268"/>
    <nd ref="9646047271"/>
    <nd ref="9646047270"/>
    <nd ref="3602813533"/>
    <nd ref="3602813553"/>
    <nd ref="3602813776"/>
    <nd ref="9646081173"/>
    <nd ref="3602812636"/>
    <nd ref="9646081171"/>
    <nd ref="9646081170"/>
    <nd ref="6948622299"/>
    <nd ref="3602813527"/>
    <nd ref="6948622317"/>
    <nd ref="3602813499"/>
    <tag k="addr:city" v="Little Gransden"/>
    <tag k="addr:housename" v="Gransden Lodge Airfield"/>
    <tag k="addr:postcode" v="SG19 3EB"/>
    <tag k="addr:street" v="Longstowe Road"/>
    <tag k="aeroway" v="aerodrome"/>
    <tag k="ele:ft" v="256"/>
    <tag k="email" v="office@camgliding.uk"/>
    <tag k="internet_access" v="wlan"/>
    <tag k="internet_access:fee" v="no"/>
    <tag k="internet_access:ssid" v="CGC-Clubhouse"/>
    <tag k="name" v="Gransden Lodge Airfield"/>
    <tag k="operator" v="Cambridge Gliding Centre"/>
    <tag k="phone" v="+44 1767677077"/>
    <tag k="sport" v="gliding"/>
    <tag k="website" v="https://www.camgliding.uk/"/>
    <tag k="wheelchair" v="limited"/>
    <tag k="wikidata" v="Q3913333"/>
    <tag k="wikipedia" v="en:Gransden Lodge Airfield"/>
  </way>
  <way id="373866543" version="5" timestamp="2020-10-08T16:01:08Z" changeset="92183893" uid="281267" user="smb1001">
    <nd ref="4083436521"/>
    <nd ref="4083436578"/>
    <nd ref="3772966405"/>
    <nd ref="3772966406"/>
    <nd ref="7988916726"/>
    <nd ref="3772966407"/>
    <nd ref="1479103843"/>
    <nd ref="853408937"/>
    <nd ref="1488424557"/>
    <nd ref="4083436521"/>
    <tag k="addr:postcode" v="SG19 3AR"/>
    <tag k="addr:street" v="Eltisley Road"/>
    <tag k="landuse" v="industrial"/>
    <tag k="name" v="Highbury Fields"/>
  </way>
  <way id="408659665" version="2" timestamp="2018-10-30T10:25:25Z" changeset="64006338" uid="281267" user="smb1001">
    <nd ref="4105599070"/>
    <nd ref="4105599047"/>
    <nd ref="6024556904"/>
    <nd ref="4105599069"/>
    <nd ref="4105599006"/>
    <nd ref="4105599022"/>
    <nd ref="4105599056"/>
    <nd ref="4105599016"/>
    <nd ref="6024556959"/>
    <nd ref="6024556848"/>
    <nd ref="4105599070"/>
    <tag k="addr:postcode" v="SG19 3BB"/>
    <tag k="addr:street" v="Meadow Road"/>
    <tag k="name" v="Great Gransden Campsite"/>
    <tag k="tourism" v="camp_site"/>
  </way>
  <way id="635441979" version="2" timestamp="2019-11-05T14:40:22Z" changeset="76653633" uid="281267" user="smb1001">
    <nd ref="5994223225"/>
    <nd ref="5994223222"/>
    <nd ref="5994223223"/>
    <nd ref="5994223220"/>
    <nd ref="5994223221"/>
    <nd ref="5994223224"/>
    <nd ref="5994223225"/>
    <tag k="addr:postcode" v="SG19 3EE"/>
    <tag k="addr:street" v="Mill Road"/>
    <tag k="building" v="yes"/>
    <tag k="name" v="Tinley Tech"/>
    <tag k="website" v="https://tinleytech.co.uk/"/>
  </way>
  <way id="639343803" version="2" timestamp="2019-11-05T14:40:22Z" changeset="76653633" uid="281267" user="smb1001">
    <nd ref="6024556925"/>
    <nd ref="6024556887"/>
    <nd ref="6024556751"/>
    <nd ref="6024556789"/>
    <nd ref="6024556925"/>
    <tag k="addr:postcode" v="SG19 3EE"/>
    <tag k="addr:street" v="Mill Road"/>
    <tag k="landuse" v="farmyard"/>
    <tag k="name" v="The New Barns"/>
  </way>
  <way id="742210015" version="2" timestamp="2024-08-28T11:35:16Z" changeset="155875683" uid="742701" user="kerr smith">
    <nd ref="3602813768"/>
    <nd ref="6948611677"/>
    <nd ref="6948611664"/>
    <nd ref="12141942414"/>
    <nd ref="12141942415"/>
    <nd ref="6948611665"/>
    <nd ref="1495263069"/>
    <nd ref="3602813529"/>
    <nd ref="1495263061"/>
    <nd ref="3602813558"/>
    <nd ref="3602813537"/>
    <nd ref="3602813764"/>
    <nd ref="3602813768"/>
    <tag k="addr:postcode" v="SG19 3BH"/>
    <tag k="addr:street" v="Caxton Road"/>
    <tag k="landuse" v="industrial"/>
    <tag k="name" v="Berry's Yard"/>
  </way>
  <way id="1187271333" version="1" timestamp="2023-07-04T11:43:15Z" changeset="138104418" uid="281267" user="smb1001">
    <nd ref="2016846962"/>
    <nd ref="11025412103"/>
    <nd ref="11025412100"/>
    <nd ref="11025412101"/>
    <nd ref="11025412102"/>
    <nd ref="2016847425"/>
    <nd ref="2016846962"/>
    <tag k="addr:city" v="Sandy"/>
    <tag k="addr:country" v="GB"/>
    <tag k="addr:postcode" v="SG19 3AA"/>
    <tag k="addr:street" v="Fox Street"/>
    <tag k="addr:village" v="Great Gransden"/>
    <tag k="amenity" v="post_office"/>
    <tag k="brand:wikidata" v="Q1783168"/>
    <tag k="building" v="yes"/>
    <tag k="contact:website" v="https://www.postoffice.co.uk/branch-finder/0781061/great-gransden"/>
    <tag k="name" v="Gransden Food &amp; Wine"/>
    <tag k="ref:pol_id" v="724"/>
    <tag k="shop" v="convenience"/>
  </way>

</osm>
