<?xml version="1.0" encoding="UTF-8"?>
<osm version="0.6" generator="Overpass API 0.7.62.4 2390de5a">
<note>The data included in this document is from www.openstreetmap.org. The data is made available under ODbL.</note>
<meta osm_base="2025-01-21T14:25:27Z" areas="2024-12-31T00:49:33Z"/>

  <node id="148190061" lat="52.3101619" lon="0.0548797" version="6" timestamp="2024-01-14T22:09:28Z" changeset="146260922" uid="6816132" user="CjMalone">
    <tag k="addr:city" v="Cambridge"/>
    <tag k="addr:housenumber" v="1"/>
    <tag k="addr:postcode" v="CB24 5HF"/>
    <tag k="addr:street" v="Station Road"/>
    <tag k="addr:village" v="Willingham"/>
    <tag k="amenity" v="pub"/>
    <tag k="contact:facebook" v="2015-04-02"/>
    <tag k="fhrs:id" v="727249"/>
    <tag k="name" v="The Porterhouse"/>
    <tag k="opening_hours" v="Mo-Sa 17:00-23:00, Su 12:00-15:00"/>
  </node>
  <node id="148198281" lat="52.3145469" lon="0.0618320" version="5" timestamp="2024-09-16T18:43:36Z" changeset="156701170" uid="21425661" user="CjMalone">
    <tag k="addr:housenumber" v="56-58"/>
    <tag k="addr:postcode" v="CB24 5HT"/>
    <tag k="addr:street" v="Church Street"/>
    <tag k="brand" v="One Stop"/>
    <tag k="brand:wikidata" v="Q65954217"/>
    <tag k="check_date" v="2023-05-30"/>
    <tag k="fhrs:id" v="596370"/>
    <tag k="name" v="One Stop"/>
    <tag k="shop" v="convenience"/>
  </node>
  <node id="1591271545" lat="52.3305396" lon="0.0653152" version="6" timestamp="2019-01-31T12:54:36Z" changeset="66801100" uid="669183" user="Andy_W">
    <tag k="addr:city" v="Cambridge"/>
    <tag k="addr:postcode" v="CB24 5LT"/>
    <tag k="addr:street" v="Earith Road"/>
    <tag k="addr:village" v="Willingham"/>
    <tag k="landuse" v="farm"/>
    <tag k="name" v="Middle Fen Farm"/>
    <tag k="note:retag" v="CS #48756035"/>
  </node>
  <node id="4352367009" lat="52.3396693" lon="0.0642713" version="2" timestamp="2019-01-31T12:48:51Z" changeset="66800918" uid="669183" user="Andy_W">
    <tag k="addr:city" v="Cambridge"/>
    <tag k="addr:postcode" v="CB24 5LT"/>
    <tag k="addr:street" v="Earith Road"/>
    <tag k="addr:village" v="Willingham"/>
    <tag k="name" v="Engine Ground Farm"/>
    <tag k="place" v="farm"/>
  </node>
  <node id="4352367010" lat="52.3387544" lon="0.0634271" version="2" timestamp="2019-01-31T12:48:52Z" changeset="66800918" uid="669183" user="Andy_W">
    <tag k="addr:city" v="Cambridge"/>
    <tag k="addr:postcode" v="CB24 5LT"/>
    <tag k="addr:street" v="Earith Road"/>
    <tag k="addr:village" v="Willingham"/>
    <tag k="name" v="Bridge Farm"/>
    <tag k="place" v="farm"/>
  </node>
  <node id="4355244986" lat="52.3177841" lon="0.0544851" version="2" timestamp="2019-01-31T12:54:36Z" changeset="66801100" uid="669183" user="Andy_W">
    <tag k="addr:city" v="Cambridge"/>
    <tag k="addr:postcode" v="CB24 5LP"/>
    <tag k="addr:street" v="West Fen Road"/>
    <tag k="addr:village" v="Willingham"/>
    <tag k="name" v="Fenlow Farm"/>
    <tag k="place" v="farm"/>
  </node>
  <node id="4355245024" lat="52.3179064" lon="0.0559874" version="2" timestamp="2019-01-31T12:54:36Z" changeset="66801100" uid="669183" user="Andy_W">
    <tag k="addr:city" v="Cambridge"/>
    <tag k="addr:postcode" v="CB24 5LP"/>
    <tag k="addr:street" v="West Fen Road"/>
    <tag k="addr:village" v="Willingham"/>
    <tag k="name" v="Melrose Farm"/>
    <tag k="place" v="farm"/>
  </node>
  <node id="4355245049" lat="52.3189115" lon="0.0532095" version="2" timestamp="2019-01-31T12:54:36Z" changeset="66801100" uid="669183" user="Andy_W">
    <tag k="addr:city" v="Cambridge"/>
    <tag k="addr:postcode" v="CB24 5LP"/>
    <tag k="addr:street" v="West Fen Road"/>
    <tag k="addr:village" v="Willingham"/>
    <tag k="name" v="Hygate Farm"/>
    <tag k="place" v="farm"/>
  </node>
  <node id="4355293880" lat="52.3234977" lon="0.0501701" version="2" timestamp="2019-01-31T12:54:36Z" changeset="66801100" uid="669183" user="Andy_W">
    <tag k="addr:city" v="Cambridge"/>
    <tag k="addr:postcode" v="CB24 5LP"/>
    <tag k="addr:street" v="West Fen Road"/>
    <tag k="addr:village" v="Willingham"/>
    <tag k="name" v="Yewdale Farm"/>
    <tag k="place" v="farm"/>
  </node>
  <node id="4355297901" lat="52.3250108" lon="0.0495164" version="2" timestamp="2019-01-31T12:54:36Z" changeset="66801100" uid="669183" user="Andy_W">
    <tag k="addr:city" v="Cambridge"/>
    <tag k="addr:postcode" v="CB24 5LP"/>
    <tag k="addr:street" v="West Fen Road"/>
    <tag k="addr:village" v="Willingham"/>
    <tag k="name" v="Treadon Farm"/>
    <tag k="place" v="farm"/>
  </node>
  <way id="15016574" version="7" timestamp="2023-10-05T18:52:02Z" changeset="142202545" uid="669183" user="Andy_W">
    <nd ref="148189889"/>
    <nd ref="11241999249"/>
    <nd ref="11241999253"/>
    <nd ref="11241999255"/>
    <nd ref="11241999254"/>
    <nd ref="11241999252"/>
    <nd ref="11241999251"/>
    <nd ref="11241999250"/>
    <nd ref="4357207089"/>
    <nd ref="148189894"/>
    <nd ref="148189891"/>
    <nd ref="2882058932"/>
    <nd ref="148190114"/>
    <nd ref="3547893673"/>
    <nd ref="148190116"/>
    <nd ref="148190109"/>
    <nd ref="11241903426"/>
    <nd ref="11241903427"/>
    <nd ref="11241903428"/>
    <nd ref="11241903429"/>
    <nd ref="11241903430"/>
    <nd ref="11241903431"/>
    <nd ref="11241903432"/>
    <nd ref="11241903433"/>
    <nd ref="11241903434"/>
    <nd ref="148190112"/>
    <nd ref="148189889"/>
    <tag k="addr:city" v="Cambridge"/>
    <tag k="addr:postcode" v="CB24 5EU"/>
    <tag k="addr:street" v="Over Road"/>
    <tag k="addr:village" v="Willingham"/>
    <tag k="landuse" v="retail"/>
    <tag k="name" v="Highgate Farm"/>
  </way>
  <way id="47159263" version="7" timestamp="2023-11-11T10:26:54Z" changeset="143893477" uid="9451067" user="b-jazz-bot">
    <nd ref="601166859"/>
    <nd ref="601166870"/>
    <nd ref="601166869"/>
    <nd ref="1311552479"/>
    <nd ref="601166866"/>
    <nd ref="601166865"/>
    <nd ref="601166863"/>
    <nd ref="601166861"/>
    <nd ref="601166859"/>
    <tag k="addr:city" v="Cambridge"/>
    <tag k="addr:postcode" v="CB24 5LT"/>
    <tag k="addr:street" v="Earith Road"/>
    <tag k="addr:village" v="Willingham"/>
    <tag k="area" v="yes"/>
    <tag k="name" v="Roseberry Tourist Park"/>
    <tag k="phone" v="+44 1954 260346"/>
    <tag k="tourism" v="caravan_site"/>
    <tag k="website" v="https://www.roseberrytouristpark.co.uk/"/>
  </way>
  <way id="145779804" version="9" timestamp="2024-07-15T22:33:09Z" changeset="153991674" uid="21425661" user="CjMalone">
    <nd ref="1591271576"/>
    <nd ref="1591271564"/>
    <nd ref="1591271601"/>
    <nd ref="6352179630"/>
    <nd ref="1591271605"/>
    <nd ref="1591271603"/>
    <nd ref="1591271584"/>
    <nd ref="1591271580"/>
    <nd ref="1591271576"/>
    <tag k="addr:city" v="Cambridge"/>
    <tag k="addr:housenumber" v="4"/>
    <tag k="addr:place" v="Willingham"/>
    <tag k="addr:postcode" v="CB24 5ES"/>
    <tag k="addr:street" v="High Street"/>
    <tag k="brand" v="Co-op Food"/>
    <tag k="brand:wikidata" v="Q3277439"/>
    <tag k="building" v="yes"/>
    <tag k="check_date" v="2024-07-15"/>
    <tag k="check_date:opening_hours" v="2024-07-15"/>
    <tag k="fhrs:id" v="596414"/>
    <tag k="name" v="Co-op Food"/>
    <tag k="opening_hours" v="Mo-Su 07:00-22:00"/>
    <tag k="operator" v="The Co-operative Group"/>
    <tag k="operator:wikidata" v="Q117202"/>
    <tag k="payment:cash" v="yes"/>
    <tag k="payment:credit_cards" v="yes"/>
    <tag k="payment:debit_cards" v="yes"/>
    <tag k="shop" v="supermarket"/>
    <tag k="website" v="https://www.coop.co.uk/store-finder/CB24-5ES/12-high-street"/>
  </way>
  <way id="195196997" version="1" timestamp="2012-12-08T21:34:34Z" changeset="14206093" uid="1115271" user="craigdstn">
    <nd ref="2056711168"/>
    <nd ref="2056711098"/>
    <nd ref="2056711108"/>
    <nd ref="2056711165"/>
    <nd ref="2056711199"/>
    <nd ref="2056711190"/>
    <nd ref="2056711215"/>
    <nd ref="2056711213"/>
    <nd ref="2056711234"/>
    <nd ref="2056711231"/>
    <nd ref="2056711067"/>
    <nd ref="2056711268"/>
    <nd ref="2056711095"/>
    <nd ref="2056711262"/>
    <nd ref="2056711126"/>
    <nd ref="2056711076"/>
    <nd ref="2056711078"/>
    <nd ref="2056711174"/>
    <nd ref="2056711211"/>
    <nd ref="2056711111"/>
    <nd ref="2056711249"/>
    <nd ref="2056711105"/>
    <nd ref="2056711259"/>
    <nd ref="2056711135"/>
    <nd ref="2056711080"/>
    <nd ref="2056711168"/>
    <tag k="addr:postcode" v="CB24 5LH"/>
    <tag k="addr:street" v="Fen End"/>
    <tag k="building" v="terrace"/>
    <tag k="name" v="3A - 15"/>
  </way>
  <way id="199653748" version="3" timestamp="2019-01-31T12:54:37Z" changeset="66801100" uid="669183" user="Andy_W">
    <nd ref="148198246"/>
    <nd ref="2096356504"/>
    <nd ref="2096356503"/>
    <nd ref="2096356501"/>
    <nd ref="148198246"/>
    <tag k="addr:city" v="Cambridge"/>
    <tag k="addr:postcode" v="CB24 5LP"/>
    <tag k="addr:street" v="West Fen Road"/>
    <tag k="addr:village" v="Willingham"/>
    <tag k="amenity" v="public_building"/>
    <tag k="building" v="yes"/>
    <tag k="name" v="Ploughman Hall"/>
    <tag k="source" v="survey + bing"/>
  </way>
  <way id="254360277" version="2" timestamp="2019-01-09T12:41:07Z" changeset="66160682" uid="669183" user="Andy_W">
    <nd ref="2601529070"/>
    <nd ref="2601529069"/>
    <nd ref="2601529068"/>
    <nd ref="2380055776"/>
    <nd ref="2601529070"/>
    <tag k="addr:housenumber" v="130"/>
    <tag k="addr:postcode" v="CB24 5HG"/>
    <tag k="addr:street" v="Station Road"/>
    <tag k="building" v="retail"/>
    <tag k="fhrs:id" v="597243"/>
    <tag k="name" v="Bushel Box Farm Shop"/>
    <tag k="shop" v="farm"/>
  </way>
  <way id="284457258" version="3" timestamp="2019-01-31T12:54:38Z" changeset="66801100" uid="669183" user="Andy_W">
    <nd ref="2882009266"/>
    <nd ref="2882009265"/>
    <nd ref="2882009264"/>
    <nd ref="2882009267"/>
    <nd ref="2882009266"/>
    <tag k="addr:city" v="Cambridge"/>
    <tag k="addr:postcode" v="CB24 5LP"/>
    <tag k="addr:street" v="West Fen Road"/>
    <tag k="addr:village" v="Willingham"/>
    <tag k="building" v="yes"/>
    <tag k="name" v="Pavillion"/>
    <tag k="sport" v="multi"/>
  </way>
  <way id="372607643" version="3" timestamp="2024-05-21T11:45:34Z" changeset="151624265" uid="95856" user="john paul jones &amp; gringo">
    <nd ref="3761620535"/>
    <nd ref="3761620536"/>
    <nd ref="4352331564"/>
    <nd ref="4352332204"/>
    <nd ref="2129516493"/>
    <nd ref="2129516476"/>
    <nd ref="2129516544"/>
    <nd ref="2129516491"/>
    <nd ref="2129516436"/>
    <nd ref="3761620537"/>
    <nd ref="4352332203"/>
    <nd ref="4352332202"/>
    <nd ref="4352332201"/>
    <nd ref="3761620535"/>
    <tag k="addr:city" v="Huntingdon"/>
    <tag k="addr:country" v="GB"/>
    <tag k="addr:housename" v="Shelford Farm"/>
    <tag k="addr:postcode" v="PE28 3PS"/>
    <tag k="addr:street" v="Shelford's Road"/>
    <tag k="addr:suburb" v="Willingham"/>
    <tag k="landuse" v="farmyard"/>
    <tag k="name" v="Shelford Farm"/>
  </way>
  <way id="437730466" version="2" timestamp="2019-01-31T12:54:37Z" changeset="66801100" uid="669183" user="Andy_W">
    <nd ref="4355293814"/>
    <nd ref="4355293815"/>
    <nd ref="4355293816"/>
    <nd ref="4355293817"/>
    <nd ref="4355293814"/>
    <tag k="addr:city" v="Cambridge"/>
    <tag k="addr:housename" v="Poplar Farmhouse"/>
    <tag k="addr:postcode" v="CB24 5LP"/>
    <tag k="addr:street" v="West Fen Road"/>
    <tag k="addr:village" v="Willingham"/>
    <tag k="building" v="yes"/>
    <tag k="name" v="Poplar Farm"/>
  </way>
  <way id="437940007" version="4" timestamp="2023-11-03T14:30:32Z" changeset="143577303" uid="242345" user="confusedbuffalo">
    <nd ref="4357207091"/>
    <nd ref="4357207092"/>
    <nd ref="4357207093"/>
    <nd ref="4357207094"/>
    <nd ref="4357207095"/>
    <nd ref="11241999259"/>
    <nd ref="4357207096"/>
    <nd ref="4357207097"/>
    <nd ref="11241999257"/>
    <nd ref="11241999256"/>
    <nd ref="4357207098"/>
    <nd ref="4357207091"/>
    <tag k="addr:city" v="Willingham"/>
    <tag k="addr:postcode" v="CB24 5EU"/>
    <tag k="addr:street" v="Over Road"/>
    <tag k="building" v="retail"/>
    <tag k="building:levels" v="1"/>
    <tag k="name" v="Highgate Country Store"/>
    <tag k="phone" v="+44 1954 260798"/>
    <tag k="website" v="https://www.highgatecountrystore.co.uk/"/>
  </way>
  <way id="437941672" version="2" timestamp="2021-03-01T21:57:09Z" changeset="100232219" uid="10633286" user="Moorit">
    <nd ref="4357221669"/>
    <nd ref="4357221670"/>
    <nd ref="4357221671"/>
    <nd ref="4357221672"/>
    <nd ref="4357221669"/>
    <tag k="addr:street" v="Willingham Road"/>
    <tag k="building" v="commercial"/>
    <tag k="name" v="Alwyns Park"/>
  </way>
  <way id="548142277" version="3" timestamp="2019-03-02T22:01:55Z" changeset="67724609" uid="669183" user="Andy_W">
    <nd ref="5295699189"/>
    <nd ref="5295699190"/>
    <nd ref="5295699191"/>
    <nd ref="5295699192"/>
    <nd ref="5295699193"/>
    <nd ref="5295699194"/>
    <nd ref="5295699195"/>
    <nd ref="5295699196"/>
    <nd ref="5295699197"/>
    <nd ref="5295699198"/>
    <nd ref="5295699199"/>
    <nd ref="5295699200"/>
    <nd ref="5295699201"/>
    <nd ref="5295699202"/>
    <nd ref="5295699203"/>
    <nd ref="5295699189"/>
    <tag k="addr:postcode" v="CB24 5LE"/>
    <tag k="addr:street" v="Thodays Close"/>
    <tag k="building" v="yes"/>
    <tag k="fhrs:id" v="1087280"/>
    <tag k="name" v="Willingham Primary School"/>
  </way>
  <way id="548142285" version="3" timestamp="2023-06-08T17:09:37Z" changeset="137105693" uid="2969887" user="eastender">
    <nd ref="5295700747"/>
    <nd ref="5295700748"/>
    <nd ref="5295700749"/>
    <nd ref="5295700750"/>
    <nd ref="5295700751"/>
    <nd ref="5295700752"/>
    <nd ref="5295700753"/>
    <nd ref="5295700754"/>
    <nd ref="5295700747"/>
    <tag k="addr:city" v="Cambridge"/>
    <tag k="addr:postcode" v="CB24 5HF"/>
    <tag k="addr:street" v="Station Road"/>
    <tag k="addr:village" v="Willingham"/>
    <tag k="building" v="yes"/>
    <tag k="name" v="Willingham Telephone Exchange"/>
    <tag k="operator" v="Openreach"/>
    <tag k="operator:wikidata" v="Q7096543"/>
    <tag k="ref" v="EAWLM"/>
    <tag k="source:addr:postcode" v="code-point_open"/>
    <tag k="telecom" v="exchange"/>
  </way>
  <way id="556139433" version="3" timestamp="2021-10-31T09:29:33Z" changeset="113184702" uid="37121" user="ecrips">
    <nd ref="5364884244"/>
    <nd ref="5364884245"/>
    <nd ref="5364884246"/>
    <nd ref="5364884247"/>
    <nd ref="5364884244"/>
    <tag k="addr:housenumber" v="39"/>
    <tag k="addr:postcode" v="CB24 5JX"/>
    <tag k="addr:street" v="Berrycroft"/>
    <tag k="amenity" v="restaurant"/>
    <tag k="building" v="yes"/>
    <tag k="cuisine" v="fish_and_chips"/>
    <tag k="fhrs:id" v="596347"/>
    <tag k="name" v="Rumbles"/>
  </way>
  <way id="569137851" version="4" timestamp="2019-01-31T12:56:23Z" changeset="66801165" uid="669183" user="Andy_W">
    <nd ref="5474290135"/>
    <nd ref="5474290136"/>
    <nd ref="5474290137"/>
    <nd ref="5474290138"/>
    <nd ref="5474290135"/>
    <tag k="addr:city" v="Cambridge"/>
    <tag k="addr:housenumber" v="9"/>
    <tag k="addr:postcode" v="CB24 5ES"/>
    <tag k="addr:street" v="High Street"/>
    <tag k="addr:village" v="Willingham"/>
    <tag k="amenity" v="pub"/>
    <tag k="building" v="yes"/>
    <tag k="fhrs:id" v="597308"/>
    <tag k="name" v="The Bank Micropub"/>
    <tag k="website" v="http://www.thebankmicropub.co.uk/"/>
  </way>
  <way id="635071343" version="3" timestamp="2023-08-31T15:32:22Z" changeset="140641563" uid="84263" user="Robert Whittaker">
    <nd ref="5991762348"/>
    <nd ref="5991762374"/>
    <nd ref="5991762304"/>
    <nd ref="5991746866"/>
    <nd ref="5991762313"/>
    <nd ref="5991762343"/>
    <nd ref="5991762361"/>
    <nd ref="5991762380"/>
    <nd ref="5991762358"/>
    <nd ref="5991762387"/>
    <nd ref="5991762348"/>
    <tag k="addr:city" v="Cambridge"/>
    <tag k="addr:housenumber" v="25"/>
    <tag k="addr:postcode" v="CB24 5ES"/>
    <tag k="addr:street" v="High Street"/>
    <tag k="addr:village" v="Willingham"/>
    <tag k="building" v="yes"/>
    <tag k="name" v="Willingham Auctions"/>
    <tag k="website" v="https://www.willinghamauctions.com/"/>
  </way>
  <way id="635071347" version="2" timestamp="2019-01-09T13:00:12Z" changeset="66161226" uid="669183" user="Andy_W">
    <nd ref="5991762364"/>
    <nd ref="5991762347"/>
    <nd ref="5991762291"/>
    <nd ref="5991746873"/>
    <nd ref="5991762364"/>
    <tag k="addr:housenumber" v="25"/>
    <tag k="addr:postcode" v="CB24 5ES"/>
    <tag k="addr:street" v="High Street"/>
    <tag k="amenity" v="cafe"/>
    <tag k="building" v="yes"/>
    <tag k="fhrs:id" v="597288"/>
    <tag k="name" v="Willingham Auctions Cafe"/>
  </way>
  <way id="661730323" version="1" timestamp="2019-01-09T12:56:39Z" changeset="66161120" uid="669183" user="Andy_W">
    <nd ref="6195172107"/>
    <nd ref="4357207091"/>
    <nd ref="4357207092"/>
    <nd ref="4357207093"/>
    <nd ref="6195172107"/>
    <tag k="addr:housenumber" v="Unit 1"/>
    <tag k="addr:postcode" v="CB24 5EU"/>
    <tag k="addr:street" v="Willingham Road"/>
    <tag k="building" v="yes"/>
    <tag k="fhrs:id" v="910270"/>
    <tag k="name" v="Willingham Country Butchers"/>
    <tag k="shop" v="butcher"/>
  </way>
  <way id="661733884" version="1" timestamp="2019-01-09T13:09:35Z" changeset="66161536" uid="669183" user="Andy_W">
    <nd ref="6195197670"/>
    <nd ref="6195197671"/>
    <nd ref="6195197672"/>
    <nd ref="6195197673"/>
    <nd ref="6195197670"/>
    <tag k="addr:housenumber" v="17"/>
    <tag k="addr:postcode" v="CB24 5HS"/>
    <tag k="addr:street" v="Church Street"/>
    <tag k="building" v="yes"/>
    <tag k="fhrs:id" v="596354"/>
    <tag k="name" v="Boswells"/>
    <tag k="shop" v="bakery"/>
  </way>
  <way id="661739502" version="1" timestamp="2019-01-09T13:33:23Z" changeset="66162392" uid="669183" user="Andy_W">
    <nd ref="6195249316"/>
    <nd ref="6195249317"/>
    <nd ref="6195249318"/>
    <nd ref="6195249319"/>
    <nd ref="6195249316"/>
    <tag k="addr:housenumber" v="43"/>
    <tag k="addr:postcode" v="CB24 5HS"/>
    <tag k="addr:street" v="Church Street"/>
    <tag k="amenity" v="restaurant"/>
    <tag k="building" v="yes"/>
    <tag k="cuisine" v="indian"/>
    <tag k="fhrs:id" v="597168"/>
    <tag k="name" v="Royal Bengal"/>
  </way>
  <way id="661740178" version="2" timestamp="2024-12-28T13:47:41Z" changeset="160714545" uid="84263" user="Robert Whittaker">
    <nd ref="6195254080"/>
    <nd ref="6195254081"/>
    <nd ref="6195254082"/>
    <nd ref="148198282"/>
    <nd ref="6195254084"/>
    <nd ref="6195255085"/>
    <nd ref="6195254080"/>
    <tag k="addr:housenumber" v="55"/>
    <tag k="addr:postcode" v="CB24 5HS"/>
    <tag k="addr:street" v="Church Street"/>
    <tag k="amenity" v="pub"/>
    <tag k="building" v="yes"/>
    <tag k="fhrs:id" v="596361"/>
    <tag k="name" v="Duke of Wellington"/>
  </way>
  <way id="676921301" version="2" timestamp="2024-12-28T13:46:34Z" changeset="160714464" uid="84263" user="Robert Whittaker">
    <nd ref="148198284"/>
    <nd ref="6338675784"/>
    <nd ref="6338680785"/>
    <nd ref="6338680786"/>
    <nd ref="6338680787"/>
    <nd ref="6338680789"/>
    <nd ref="6338680788"/>
    <nd ref="148198284"/>
    <tag k="addr:city" v="Cambridge"/>
    <tag k="addr:postcode" v="CB24 5HS"/>
    <tag k="addr:street" v="Church Street"/>
    <tag k="addr:village" v="Willingham"/>
    <tag k="amenity" v="library"/>
    <tag k="building" v="yes"/>
    <tag k="internet_access" v="yes"/>
    <tag k="name" v="Willingham Library"/>
    <tag k="operator" v="Cambridgeshire County Council"/>
    <tag k="wheelchair" v="yes"/>
    <tag k="wikidata" v="Q55163468"/>
  </way>
  <way id="741338142" version="2" timestamp="2024-02-06T20:46:54Z" changeset="147151123" uid="10633286" user="Moorit">
    <nd ref="6940179606"/>
    <nd ref="6940179605"/>
    <nd ref="6940179604"/>
    <nd ref="6940179603"/>
    <nd ref="6940179606"/>
    <tag k="addr:housename" v="Regent Court"/>
    <tag k="addr:housenumber" v="31"/>
    <tag k="addr:postcode" v="CB24 5UJ"/>
    <tag k="addr:street" v="Belsars Close"/>
    <tag k="building" v="yes"/>
    <tag k="name" v="Regent Court"/>
  </way>
  <way id="1213407985" version="3" timestamp="2023-11-03T14:30:32Z" changeset="143577303" uid="242345" user="confusedbuffalo">
    <nd ref="11241999262"/>
    <nd ref="11241999264"/>
    <nd ref="11241999265"/>
    <nd ref="11241999263"/>
    <nd ref="11241999262"/>
    <tag k="addr:city" v="Willingham"/>
    <tag k="addr:housename" v="Unit 11, Highgate Farm"/>
    <tag k="addr:postcode" v="CB24 5EU"/>
    <tag k="addr:street" v="Over Mereway"/>
    <tag k="amenity" v="veterinary"/>
    <tag k="building" v="commercial"/>
    <tag k="email" v="info@highgatevet.com"/>
    <tag k="name" v="Highgate Veterinary Clinic"/>
    <tag k="opening_hours" v="Mo-Fr 08:30-18:30; Sa 09:00-12:30"/>
    <tag k="phone" v="+44 1954 620555"/>
    <tag k="website" v="https://www.highgatevet.com"/>
  </way>
  <way id="1272039949" version="1" timestamp="2024-04-12T16:13:02Z" changeset="149918456" uid="669183" user="Andy_W">
    <nd ref="11812153129"/>
    <nd ref="11812153130"/>
    <nd ref="11812153131"/>
    <nd ref="11812153132"/>
    <nd ref="11812153133"/>
    <nd ref="11812153134"/>
    <nd ref="11812153135"/>
    <nd ref="11812153136"/>
    <nd ref="11812153137"/>
    <nd ref="11812153138"/>
    <nd ref="11812153139"/>
    <nd ref="11812153140"/>
    <nd ref="11812153129"/>
    <tag k="addr:city" v="Willingham"/>
    <tag k="addr:postcode" v="CB24 5EU"/>
    <tag k="addr:street" v="Over Road"/>
    <tag k="internet_access" v="no"/>
    <tag k="name" v="Longview"/>
    <tag k="power_supply" v="yes"/>
    <tag k="reservation" v="required"/>
    <tag k="tourism" v="caravan_site"/>
    <tag k="website" v="https://www.campingandcaravanningclub.co.uk/campsites/uk/cambridgeshire/cambridge/longview/"/>
  </way>

</osm>
