<?xml version="1.0" encoding="UTF-8"?>
<osm version="0.6" generator="Overpass API 0.7.62.4 2390de5a">
<note>The data included in this document is from www.openstreetmap.org. The data is made available under ODbL.</note>
<meta osm_base="2025-01-23T15:35:00Z" areas="2024-12-31T00:49:33Z"/>

  <node id="967092626" lat="52.0937888" lon="0.0761047" version="2" timestamp="2019-09-26T15:40:52Z" changeset="74970770" uid="281267" user="smb1001">
    <tag k="addr:housename" v="Graphics House"/>
    <tag k="addr:street" v="High Street"/>
    <tag k="name" v="Ryecroft Data"/>
    <tag k="shop" v="copyshop"/>
    <tag k="source" v="survey (October 2010)"/>
  </node>
  <node id="8998235576" lat="52.0986742" lon="0.0642522" version="4" timestamp="2023-11-16T16:38:01Z" changeset="144103995" uid="13445" user="zorque">
    <tag k="addr:city" v="Royston"/>
    <tag k="addr:postcode" v="SG8 7TG"/>
    <tag k="addr:street" v="Long Lane"/>
    <tag k="addr:suburb" v="Fowlmere"/>
    <tag k="amenity" v="cafe"/>
    <tag k="cuisine" v="coffee_shop;cafe"/>
    <tag k="name" v="El Cafecito"/>
    <tag k="opening_hours" v="Mo-Sa 09:00-16:00; Su 10:00-16:00"/>
    <tag k="outdoor_seating" v="yes"/>
  </node>
  <way id="83140195" version="4" timestamp="2023-11-16T16:38:01Z" changeset="144103995" uid="13445" user="zorque">
    <nd ref="967421495"/>
    <nd ref="967421494"/>
    <nd ref="967421497"/>
    <nd ref="967421496"/>
    <nd ref="967421495"/>
    <tag k="addr:city" v="Royston"/>
    <tag k="addr:postcode" v="SG8 7QN"/>
    <tag k="addr:street" v="Cambridge Road"/>
    <tag k="addr:suburb" v="Fowlmere"/>
    <tag k="building" v="yes"/>
    <tag k="name" v="Fowlmere Telephone Exchange"/>
    <tag k="operator" v="Openreach"/>
    <tag k="operator:wikidata" v="Q7096543"/>
    <tag k="ref" v="EAFOW"/>
    <tag k="replaces" v="node 790565052"/>
    <tag k="source:ofwhatitis" v="survey (June 2010)"/>
    <tag k="source:outline" v="OS Opendata StreetView"/>
    <tag k="telecom" v="exchange"/>
  </way>
  <way id="88762272" version="3" timestamp="2011-02-21T19:59:04Z" changeset="7357505" uid="21502" user="Kevin Steinhardt">
    <nd ref="1030245318"/>
    <nd ref="1030245349"/>
    <nd ref="1030245275"/>
    <nd ref="1030245329"/>
    <nd ref="1030245305"/>
    <nd ref="1030245373"/>
    <nd ref="1030245310"/>
    <nd ref="1030245318"/>
    <tag k="access" v="private"/>
    <tag k="addr:street" v="Green Lane"/>
    <tag k="description" v="*Not* the parish allotments"/>
    <tag k="landuse" v="allotments"/>
    <tag k="name" v="Piggeries"/>
    <tag k="note" v="Northern boundary of site truncated c. February 2011."/>
    <tag k="owner" v="Ken Green"/>
    <tag k="source" v="Bing"/>
  </way>
  <way id="89138428" version="1" timestamp="2010-12-11T21:04:07Z" changeset="6629584" uid="21502" user="Kevin Steinhardt">
    <nd ref="1033991561"/>
    <nd ref="1033991293"/>
    <nd ref="1033991499"/>
    <nd ref="1033991328"/>
    <nd ref="1033991257"/>
    <nd ref="1033991271"/>
    <nd ref="1033991240"/>
    <nd ref="1033991227"/>
    <nd ref="1033991561"/>
    <tag k="addr:housename" v="Dun Ringill"/>
    <tag k="addr:housenumber" v="3"/>
    <tag k="addr:postcode" v="SG8 7TP"/>
    <tag k="addr:street" v="John's Close"/>
    <tag k="addr:village" v="Fowlmere"/>
    <tag k="building" v="house"/>
    <tag k="source:outline" v="Bing"/>
  </way>
  <way id="89138440" version="1" timestamp="2010-12-11T21:04:08Z" changeset="6629584" uid="21502" user="Kevin Steinhardt">
    <nd ref="1033991328"/>
    <nd ref="1033991499"/>
    <nd ref="1033991555"/>
    <nd ref="1033991414"/>
    <nd ref="1033991418"/>
    <nd ref="1033991456"/>
    <nd ref="1033991533"/>
    <nd ref="1033991349"/>
    <nd ref="1033991328"/>
    <tag k="addr:housenumber" v="2"/>
    <tag k="addr:postcode" v="SG8 7TP"/>
    <tag k="addr:street" v="John's Close"/>
    <tag k="addr:village" v="Fowlmere"/>
    <tag k="building" v="house"/>
    <tag k="source:outline" v="Bing"/>
  </way>
  <way id="89138442" version="1" timestamp="2010-12-11T21:04:08Z" changeset="6629584" uid="21502" user="Kevin Steinhardt">
    <nd ref="1033991485"/>
    <nd ref="1033991165"/>
    <nd ref="1033991223"/>
    <nd ref="1033991516"/>
    <nd ref="1033991485"/>
    <tag k="addr:housenumber" v="6"/>
    <tag k="addr:postcode" v="SG8 7TP"/>
    <tag k="addr:street" v="John's Close"/>
    <tag k="addr:village" v="Fowlmere"/>
    <tag k="building" v="house"/>
    <tag k="source:outline" v="Bing"/>
  </way>
  <way id="89138462" version="1" timestamp="2010-12-11T21:04:09Z" changeset="6629584" uid="21502" user="Kevin Steinhardt">
    <nd ref="1033991487"/>
    <nd ref="1033991520"/>
    <nd ref="1033991185"/>
    <nd ref="1033991418"/>
    <nd ref="1033991299"/>
    <nd ref="1033991200"/>
    <nd ref="1033991274"/>
    <nd ref="1033991364"/>
    <nd ref="1033991487"/>
    <tag k="addr:housenumber" v="1"/>
    <tag k="addr:postcode" v="SG8 7TP"/>
    <tag k="addr:street" v="John's Close"/>
    <tag k="addr:village" v="Fowlmere"/>
    <tag k="building" v="house"/>
    <tag k="source:outline" v="Bing"/>
  </way>
  <way id="89138470" version="1" timestamp="2010-12-11T21:04:10Z" changeset="6629584" uid="21502" user="Kevin Steinhardt">
    <nd ref="1033991492"/>
    <nd ref="1033991334"/>
    <nd ref="1033991422"/>
    <nd ref="1033991264"/>
    <nd ref="1033991231"/>
    <nd ref="1033991196"/>
    <nd ref="1033991492"/>
    <tag k="addr:housenumber" v="4"/>
    <tag k="addr:postcode" v="SG8 7TP"/>
    <tag k="addr:street" v="John's Close"/>
    <tag k="addr:village" v="Fowlmere"/>
    <tag k="building" v="house"/>
    <tag k="source:outline" v="Bing"/>
  </way>
  <way id="89138472" version="1" timestamp="2010-12-11T21:04:10Z" changeset="6629584" uid="21502" user="Kevin Steinhardt">
    <nd ref="1033991387"/>
    <nd ref="1033991527"/>
    <nd ref="1033991381"/>
    <nd ref="1033991446"/>
    <nd ref="1033991387"/>
    <tag k="addr:housenumber" v="5"/>
    <tag k="addr:postcode" v="SG8 7TP"/>
    <tag k="addr:street" v="John's Close"/>
    <tag k="addr:village" v="Fowlmere"/>
    <tag k="building" v="house"/>
    <tag k="source:outline" v="Bing"/>
  </way>
  <way id="89143298" version="4" timestamp="2016-07-11T20:41:24Z" changeset="40665568" uid="242345" user="confusedbuffalo">
    <nd ref="1034016257"/>
    <nd ref="1034016242"/>
    <nd ref="1034016260"/>
    <nd ref="1034016239"/>
    <nd ref="1034016246"/>
    <nd ref="1034016252"/>
    <nd ref="1034016241"/>
    <nd ref="1034016248"/>
    <nd ref="1034016259"/>
    <nd ref="1034016257"/>
    <tag k="addr:street" v="Chapel Lane"/>
    <tag k="addr:village" v="Fowlmere"/>
    <tag k="amenity" v="place_of_worship"/>
    <tag k="building" v="church"/>
    <tag k="denomination" v="united_reformed"/>
    <tag k="name" v="Fowlmere &amp; Thriplow United Reform Church"/>
    <tag k="note" v="Outline way replaced node ID 33409767"/>
    <tag k="religion" v="christian"/>
    <tag k="source:name" v="dictaphone"/>
    <tag k="source:outline" v="Bing"/>
  </way>
  <way id="103927281" version="2" timestamp="2022-06-19T18:25:53Z" changeset="122589833" uid="1196017" user="b-holdet">
    <nd ref="1199555255"/>
    <nd ref="1199555254"/>
    <nd ref="1199555262"/>
    <nd ref="1199555246"/>
    <nd ref="1199555228"/>
    <nd ref="1199555293"/>
    <nd ref="1199555255"/>
    <tag k="addr:county" v="Cambridgeshire"/>
    <tag k="addr:street" v="High Street"/>
    <tag k="addr:village" v="Fowlmere"/>
    <tag k="building" v="yes"/>
    <tag k="historic" v="manor"/>
    <tag k="name" v="The Green"/>
    <tag k="note:name" v="Not to be confused with The Green south and east of this manor"/>
    <tag k="source:outline" v="Bing"/>
  </way>
  <way id="155155447" version="4" timestamp="2022-01-14T17:57:56Z" changeset="116157858" uid="7463" user="kesterlester">
    <nd ref="1675806276"/>
    <nd ref="1675806354"/>
    <nd ref="1675806302"/>
    <nd ref="1817006252"/>
    <nd ref="9418773044"/>
    <nd ref="9418773043"/>
    <nd ref="1675806219"/>
    <nd ref="1675806276"/>
    <tag k="addr:housename" v="Fowlmere Pumping Station"/>
    <tag k="addr:postcode" v="SG8 7RT"/>
    <tag k="addr:street" v="Chrishall Road"/>
    <tag k="addr:town" v="Fowlmere"/>
    <tag k="description" v="See also planning applications such as S/1966/16/FL (2016) : &quot;Erection of Nitrate/Disinfection building 2no. tanks: refurbishment of the Heydon Booster extension to internal access road and associated works&quot;.  https://applications.greatercambridgeplanning"/>
    <tag k="landuse" v="industrial"/>
    <tag k="man_made" v="pumping_station"/>
    <tag k="name" v="Fowlmere Pumping Station"/>
    <tag k="operator" v="Cambridge Water Company"/>
    <tag k="substance" v="water"/>
    <tag k="utility" v="water"/>
  </way>
  <way id="418517752" version="3" timestamp="2019-02-04T10:44:08Z" changeset="66899076" uid="5173844" user="ndrw6">
    <nd ref="4189140459"/>
    <nd ref="4189140460"/>
    <nd ref="4189133925"/>
    <nd ref="4189140461"/>
    <nd ref="4189140462"/>
    <nd ref="4189140459"/>
    <tag k="addr:city" v="Cambridge"/>
    <tag k="addr:housename" v="Eaden Cottage"/>
    <tag k="addr:postcode" v="SG8 7SR"/>
    <tag k="addr:street" v="High Street"/>
    <tag k="addr:village" v="Fowlmere"/>
    <tag k="building" v="detached"/>
    <tag k="name" v="Eaden Cottage"/>
  </way>
  <way id="418615745" version="5" timestamp="2023-04-04T04:49:16Z" changeset="134477928" uid="238419" user="HubMiner">
    <nd ref="4189995609"/>
    <nd ref="4189995610"/>
    <nd ref="4189995611"/>
    <nd ref="4189995612"/>
    <nd ref="4189995613"/>
    <nd ref="4189995614"/>
    <nd ref="4189995609"/>
    <tag k="addr:city" v="Cambridge"/>
    <tag k="addr:postcode" v="SG8 7SZ"/>
    <tag k="addr:street" v="Butts Lane"/>
    <tag k="addr:village" v="Fowlmere"/>
    <tag k="amenity" v="pub"/>
    <tag k="building" v="yes"/>
    <tag k="name" v="Queens Head"/>
    <tag k="opening_hours" v="closed"/>
    <tag k="wikidata" v="Q26595745"/>
  </way>
  <way id="418923268" version="4" timestamp="2019-02-04T10:44:08Z" changeset="66899076" uid="5173844" user="ndrw6">
    <nd ref="4191380284"/>
    <nd ref="4191380285"/>
    <nd ref="4191380286"/>
    <nd ref="4191380287"/>
    <nd ref="4191380288"/>
    <nd ref="4191380289"/>
    <nd ref="4191380284"/>
    <tag k="addr:city" v="Cambridge"/>
    <tag k="addr:housename" v="Swan House"/>
    <tag k="addr:postcode" v="SG8 7SR"/>
    <tag k="addr:street" v="High Street"/>
    <tag k="addr:village" v="Fowlmere"/>
    <tag k="amenity" v="restaurant"/>
    <tag k="building" v="yes"/>
    <tag k="contact:phone" v="+44 17632 08006"/>
    <tag k="contact:phone_1" v="+44 17632 09339"/>
    <tag k="cuisine" v="indian"/>
    <tag k="name" v="Sachin's"/>
    <tag k="opening_hours" v="Mo-Th,Su 12:00-14:30,17:00-23:00; Fr-Sa 17:00-23:30"/>
    <tag k="smoking" v="outside"/>
    <tag k="takeaway" v="yes"/>
    <tag k="website" v="http://www.sachinsfowlmere.com/"/>
  </way>
  <way id="418924659" version="8" timestamp="2023-07-15T14:30:02Z" changeset="138547226" uid="9741" user="Tim Holmes">
    <nd ref="4191390586"/>
    <nd ref="4191390587"/>
    <nd ref="4191391189"/>
    <nd ref="4191391190"/>
    <nd ref="8731553899"/>
    <nd ref="8731553823"/>
    <nd ref="4191391191"/>
    <nd ref="8731553931"/>
    <nd ref="8731553945"/>
    <nd ref="8731553870"/>
    <nd ref="4191391192"/>
    <nd ref="4191391193"/>
    <nd ref="8733609597"/>
    <nd ref="4191390586"/>
    <tag k="addr:city" v="Cambridge"/>
    <tag k="addr:housename" v="The Chequers"/>
    <tag k="addr:postcode" v="SG8 7SR"/>
    <tag k="addr:street" v="High Street"/>
    <tag k="addr:village" v="Fowlmere"/>
    <tag k="amenity" v="pub"/>
    <tag k="building" v="yes"/>
    <tag k="contact:email" v="info@thechequersfowlmere.co.uk"/>
    <tag k="internet_access" v="wlan"/>
    <tag k="microbrewery" v="no"/>
    <tag k="name" v="The Chequers"/>
    <tag k="opening_hours" v="Tu-Fr 11:45-15:00,17:00-23:00; Sa 11:45-23:00; Su 11:45-18:00"/>
    <tag k="outdoor_seating" v="yes"/>
    <tag k="payment:american_express" v="yes"/>
    <tag k="payment:apple_pay" v="yes"/>
    <tag k="payment:cash" v="yes"/>
    <tag k="payment:contactless" v="yes"/>
    <tag k="payment:credit_cards" v="yes"/>
    <tag k="phone" v="+44 1763 208558"/>
    <tag k="real_fire" v="yes"/>
    <tag k="smoking" v="outside"/>
    <tag k="toilets" v="yes"/>
    <tag k="website" v="http://thechequersfowlmere.co.uk/"/>
    <tag k="wikidata" v="Q26420970"/>
  </way>
  <way id="728806280" version="5" timestamp="2022-02-17T19:46:56Z" changeset="117535645" uid="242345" user="confusedbuffalo">
    <nd ref="1832649362"/>
    <nd ref="6828076475"/>
    <nd ref="1832649583"/>
    <nd ref="1832649351"/>
    <nd ref="1832649335"/>
    <nd ref="1832649370"/>
    <nd ref="1832649362"/>
    <tag k="addr:city" v="Royston"/>
    <tag k="addr:county" v="Hertfordshire"/>
    <tag k="addr:housename" v="Fowlmere Primary School"/>
    <tag k="addr:postcode" v="SG8 7SL"/>
    <tag k="addr:street" v="The Butts"/>
    <tag k="addr:suburb" v="Fowlmere"/>
    <tag k="amenity" v="school"/>
    <tag k="capacity" v="120"/>
    <tag k="email" v="office@fowlmere.cambs.sch.uk"/>
    <tag k="isced:level" v="1"/>
    <tag k="max_age" v="11"/>
    <tag k="min_age" v="4"/>
    <tag k="name" v="Fowlmere Primary School"/>
    <tag k="operator" v="Cambridgeshire County Council"/>
    <tag k="phone" v="+44 1763 208 203"/>
    <tag k="ref:GB:uprn" v="100091577993"/>
    <tag k="ref:edubase" v="110607"/>
    <tag k="religion" v="none"/>
    <tag k="school:boarding" v="no"/>
    <tag k="school:gender" v="mixed"/>
    <tag k="school:selective" v="no"/>
    <tag k="school:trust" v="no"/>
    <tag k="school:type" v="community"/>
    <tag k="source" v="OS Opendata StreetView"/>
    <tag k="source:name" v="dictaphone"/>
    <tag k="website" v="http://www.fowlmere.cambs.sch.uk/"/>
    <tag k="wikidata" v="Q66223493"/>
  </way>

</osm>
