<?xml version="1.0" encoding="UTF-8"?>
<osm version="0.6" generator="Overpass API 0.7.62.4 2390de5a">
<note>The data included in this document is from www.openstreetmap.org. The data is made available under ODbL.</note>
<meta osm_base="2025-01-21T14:26:30Z" areas="2024-12-31T00:49:33Z"/>

  <node id="3787321259" lat="52.2113434" lon="0.1769658" version="5" timestamp="2024-11-10T20:31:57Z" changeset="158984660" uid="11022773" user="GeoFens">
    <tag k="addr:city" v="Cambridge"/>
    <tag k="addr:housenumber" v="699"/>
    <tag k="addr:postcode" v="CB5 8SQ"/>
    <tag k="addr:street" v="Newmarket Road"/>
    <tag k="brand" v="Seat"/>
    <tag k="brand:wikidata" v="Q188217"/>
    <tag k="name" v="Marshall Seat"/>
    <tag k="operator" v="Marshall"/>
    <tag k="shop" v="car"/>
  </node>
  <node id="3787321272" lat="52.2113196" lon="0.1772321" version="4" timestamp="2024-11-10T20:31:57Z" changeset="158984660" uid="11022773" user="GeoFens">
    <tag k="addr:city" v="Cambridge"/>
    <tag k="addr:housenumber" v="699"/>
    <tag k="addr:postcode" v="CB5 8SQ"/>
    <tag k="addr:street" v="Newmarket Road"/>
    <tag k="brand" v="Nissan"/>
    <tag k="brand:wikidata" v="Q20165"/>
    <tag k="name" v="Marshall Nissan"/>
    <tag k="operator" v="Marshall"/>
    <tag k="shop" v="car"/>
  </node>
  <node id="10780099605" lat="52.2123759" lon="0.1804696" version="3" timestamp="2023-11-19T14:32:19Z" changeset="144210422" uid="16344555" user="HilaryBa">
    <tag k="addr:city" v="Cambridge"/>
    <tag k="addr:housenumber" v="2"/>
    <tag k="addr:postcode" v="CB5 8BX"/>
    <tag k="addr:street" v="Jubilee Square"/>
    <tag k="amenity" v="community_centre"/>
    <tag k="baby_feeding" v="room"/>
    <tag k="description" v="Marleigh Community Centre (and all public open space in Marleigh) is managed by The Land Trust &#x0a;0300 323 0170 (24hrs)&#x0a;log a ticket on https://thelandtrust.zendesk.com/hc/en-gb/requests/new"/>
    <tag k="email" v="marleigh@thelandtrust.org.uk"/>
    <tag k="name" v="Marleigh Community Centre"/>
    <tag k="note" v="log a ticket for a maintenance issue, answer to a question or to provide feedback: https://thelandtrust.zendesk.com/hc/en-gb/requests/new"/>
    <tag k="opening_hours" v="24/7"/>
    <tag k="operator" v="The Land Trust @ Marleigh"/>
    <tag k="operator:type" v="community"/>
    <tag k="website" v="https://v2.hallmaster.co.uk/Scheduler/View/10911?startRoom=0&amp;startView=listWeek&amp;customerView=true"/>
  </node>
  <node id="11246860118" lat="52.2118751" lon="0.1798604" version="1" timestamp="2023-10-07T20:17:24Z" changeset="142283149" uid="1102246" user="jtn20">
    <tag k="addr:city" v="Cambridge"/>
    <tag k="addr:housenumber" v="102"/>
    <tag k="addr:street" v="Marleigh Avenue"/>
    <tag k="leisure" v="fitness_centre"/>
    <tag k="name" v="R3form"/>
    <tag k="sport" v="yoga;pilates;barre"/>
    <tag k="website" v="https://r3formstudio.co.uk/cambridge/"/>
  </node>
  <node id="11932470415" lat="52.2123783" lon="0.1806796" version="3" timestamp="2024-12-13T00:39:39Z" changeset="160227494" uid="1102246" user="jtn20">
    <tag k="addr:city" v="Cambridge"/>
    <tag k="addr:postcode" v="CB5 8BG"/>
    <tag k="addr:street" v="Jubilee Square"/>
    <tag k="amenity" v="cafe"/>
    <tag k="description" v="Italian cafe, gelato, cakes, pizza, deli, and more."/>
    <tag k="fhrs:id" v="1720218"/>
    <tag k="name" v="Salento"/>
    <tag k="opening_hours" v="Mo-Th 08:00-20:00; Fr 08:00-22:00; Sa 09:00-22:00 Su 09:00-19:00"/>
    <tag k="outdoor_seating" v="yes"/>
    <tag k="website" v="https://www.salentosmarleigh.com/"/>
  </node>
  <way id="39749067" version="8" timestamp="2023-07-16T16:09:26Z" changeset="138585276" uid="242345" user="confusedbuffalo">
    <nd ref="476509573"/>
    <nd ref="476509574"/>
    <nd ref="476509575"/>
    <nd ref="476509576"/>
    <nd ref="476509577"/>
    <nd ref="476509578"/>
    <nd ref="476509573"/>
    <tag k="addr:city" v="Cambridge"/>
    <tag k="addr:postcode" v="CB5 8SZ"/>
    <tag k="addr:street" v="Horningsea Road"/>
    <tag k="amenity" v="school"/>
    <tag k="capacity" v="175"/>
    <tag k="isced:level" v="1"/>
    <tag k="max_age" v="11"/>
    <tag k="min_age" v="4"/>
    <tag k="name" v="Fen Ditton Primary School"/>
    <tag k="phone" v="+44 1223 292342"/>
    <tag k="ref:GB:uprn" v="10003196586"/>
    <tag k="ref:edubase" v="145423"/>
    <tag k="ref:edubase:group" v="16031"/>
    <tag k="school:trust" v="yes"/>
    <tag k="school:trust:name" v="Anglian Learning"/>
    <tag k="school:trust:type" v="multi_academy"/>
    <tag k="school:type" v="academy"/>
    <tag k="source" v="Yahoo"/>
    <tag k="website" v="https://www.fenditton.cambs.sch.uk/"/>
    <tag k="wikidata" v="Q66232400"/>
  </way>
  <way id="67191891" version="10" timestamp="2023-11-03T08:23:52Z" changeset="143562757" uid="504708" user="HillWithSmallFields">
    <nd ref="811383160"/>
    <nd ref="811383152"/>
    <nd ref="811383151"/>
    <nd ref="811383158"/>
    <nd ref="811383155"/>
    <nd ref="811383162"/>
    <nd ref="811383157"/>
    <nd ref="2217004271"/>
    <nd ref="811383166"/>
    <nd ref="811383164"/>
    <nd ref="811383156"/>
    <nd ref="811383154"/>
    <nd ref="811383165"/>
    <nd ref="811383160"/>
    <tag k="addr:city" v="Cambridge"/>
    <tag k="addr:postcode" v="CB5 8SU"/>
    <tag k="addr:street" v="Church Street"/>
    <tag k="amenity" v="place_of_worship"/>
    <tag k="building" v="church"/>
    <tag k="denomination" v="anglican"/>
    <tag k="name" v="St Mary the Virgin"/>
    <tag k="ref:dove" v="17028"/>
    <tag k="religion" v="christian"/>
    <tag k="wikidata" v="Q17544398"/>
  </way>
  <way id="141129927" version="4" timestamp="2022-05-05T11:45:02Z" changeset="120585196" uid="281267" user="smb1001">
    <nd ref="1544866949"/>
    <nd ref="1544866736"/>
    <nd ref="1544866821"/>
    <nd ref="2688473647"/>
    <nd ref="1544866588"/>
    <nd ref="1544866949"/>
    <tag k="addr:postcode" v="CB1 9AT"/>
    <tag k="addr:street" v="Newmarket Road"/>
    <tag k="building" v="retail"/>
    <tag k="name" v="Darwin Nurseries &amp; Farm Shop"/>
    <tag k="shop" v="garden_centre"/>
    <tag k="source" v="survey"/>
  </way>
  <way id="180619088" version="5" timestamp="2024-11-10T20:31:57Z" changeset="158984660" uid="11022773" user="GeoFens">
    <nd ref="1910546078"/>
    <nd ref="1910546050"/>
    <nd ref="1910546083"/>
    <nd ref="1910546037"/>
    <nd ref="1910546005"/>
    <nd ref="1910546056"/>
    <nd ref="1910545998"/>
    <nd ref="1910546078"/>
    <tag k="addr:city" v="Cambridge"/>
    <tag k="addr:housenumber" v="699"/>
    <tag k="addr:postcode" v="CB5 8SQ"/>
    <tag k="addr:street" v="Newmarket Road"/>
    <tag k="brand" v="Volvo"/>
    <tag k="brand:wikidata" v="Q215293"/>
    <tag k="building" v="retail"/>
    <tag k="name" v="Marshall Volvo"/>
    <tag k="operator" v="Marshall"/>
    <tag k="shop" v="car"/>
    <tag k="source" v="Bing"/>
  </way>
  <way id="180619190" version="4" timestamp="2019-02-16T11:24:47Z" changeset="67251421" uid="5173844" user="ndrw6">
    <nd ref="1910553429"/>
    <nd ref="1910553461"/>
    <nd ref="1910553424"/>
    <nd ref="1910553448"/>
    <nd ref="1910553471"/>
    <nd ref="1910553412"/>
    <nd ref="1910553429"/>
    <tag k="addr:city" v="Cambridge"/>
    <tag k="addr:housenumber" v="699"/>
    <tag k="addr:postcode" v="CB5 8SQ"/>
    <tag k="addr:street" v="Newmarket Road"/>
    <tag k="building" v="retail"/>
    <tag k="name" v="Marshall Ford"/>
    <tag k="shop" v="car"/>
    <tag k="source" v="Bing"/>
  </way>
  <way id="211713399" version="6" timestamp="2023-05-09T09:58:33Z" changeset="135887433" uid="364" user="Edward">
    <nd ref="2216844561"/>
    <nd ref="2216844520"/>
    <nd ref="2216844560"/>
    <nd ref="2216844512"/>
    <nd ref="2216844510"/>
    <nd ref="2216844576"/>
    <nd ref="2216844561"/>
    <tag k="addr:city" v="Cambridge"/>
    <tag k="addr:housenumber" v="5"/>
    <tag k="addr:postcode" v="CB5 8ST"/>
    <tag k="addr:street" v="High Street"/>
    <tag k="amenity" v="pub"/>
    <tag k="building" v="pub"/>
    <tag k="name" v="Ancient Shepherds"/>
    <tag k="opening_hours" v="Sa 12:00-23:00; Mo-Fr 12:00-15:00,17:00-23:00; Su 12:00-22:00"/>
    <tag k="wikidata" v="Q26450952"/>
  </way>
  <way id="211713419" version="4" timestamp="2022-04-30T22:54:13Z" changeset="120401943" uid="1102246" user="jtn20">
    <nd ref="2216844596"/>
    <nd ref="2216844635"/>
    <nd ref="2216844570"/>
    <nd ref="2216844604"/>
    <nd ref="2216844596"/>
    <tag k="addr:city" v="Cambridge"/>
    <tag k="addr:postcode" v="CB5 8SU"/>
    <tag k="addr:street" v="Church Street"/>
    <tag k="amenity" v="townhall"/>
    <tag k="building" v="yes"/>
    <tag k="inscription" v="Church of England Hall Fen Ditton Erected by Subscription 1913."/>
    <tag k="name" v="Fen Ditton Village Hall"/>
  </way>
  <way id="211724201" version="7" timestamp="2022-03-20T19:50:04Z" changeset="118708720" uid="84263" user="Robert Whittaker">
    <nd ref="2216922709"/>
    <nd ref="2216922580"/>
    <nd ref="2216922733"/>
    <nd ref="2216922412"/>
    <nd ref="2216922360"/>
    <nd ref="2216922285"/>
    <nd ref="2216922643"/>
    <nd ref="2216922307"/>
    <nd ref="2216922709"/>
    <tag k="addr:city" v="Cambridge"/>
    <tag k="addr:housenumber" v="50"/>
    <tag k="addr:postcode" v="CB5 8ST"/>
    <tag k="addr:street" v="High Street"/>
    <tag k="amenity" v="pub"/>
    <tag k="building" v="pub"/>
    <tag k="fhrs:id" v="1432865"/>
    <tag k="name" v="Kings Head"/>
    <tag k="wikidata" v="Q26473110"/>
  </way>
  <way id="211724267" version="2" timestamp="2018-07-11T15:47:49Z" changeset="60621123" uid="6476359" user="NSiecw">
    <nd ref="2216922363"/>
    <nd ref="2216922581"/>
    <nd ref="2216922259"/>
    <nd ref="2216922417"/>
    <nd ref="2216922458"/>
    <nd ref="2216922425"/>
    <nd ref="2216922388"/>
    <nd ref="2216922478"/>
    <nd ref="2216922363"/>
    <tag k="addr:city" v="Cambridge"/>
    <tag k="addr:housename" v="Plough Inn"/>
    <tag k="addr:postcode" v="CB5 8SX"/>
    <tag k="addr:street" v="Green End"/>
    <tag k="building" v="yes"/>
    <tag k="name" v="Plough Inn"/>
  </way>
  <way id="211724278" version="4" timestamp="2018-02-14T15:43:51Z" changeset="56357279" uid="364" user="Edward">
    <nd ref="2216922253"/>
    <nd ref="2216922556"/>
    <nd ref="2216922422"/>
    <nd ref="2216922627"/>
    <nd ref="2216922599"/>
    <nd ref="3145263711"/>
    <nd ref="3145263710"/>
    <nd ref="2216922294"/>
    <nd ref="3145263713"/>
    <nd ref="2216922296"/>
    <nd ref="3145263714"/>
    <nd ref="2216922337"/>
    <nd ref="2216922253"/>
    <tag k="addr:housenumber" v="16"/>
    <tag k="addr:street" v="High Street"/>
    <tag k="building" v="yes"/>
    <tag k="name" v="Rectory"/>
    <tag k="wikidata" v="Q26420303"/>
  </way>
  <way id="305516915" version="2" timestamp="2022-03-20T19:50:04Z" changeset="118708720" uid="84263" user="Robert Whittaker">
    <nd ref="3101566285"/>
    <nd ref="3101566286"/>
    <nd ref="3101566294"/>
    <nd ref="3101566298"/>
    <nd ref="1618889128"/>
    <nd ref="1618889127"/>
    <nd ref="1618889125"/>
    <nd ref="1618889124"/>
    <nd ref="1618889121"/>
    <nd ref="3101566285"/>
    <tag k="addr:postcode" v="CB5 8SX"/>
    <tag k="addr:street" v="Green End"/>
    <tag k="addr:village" v="Fen Ditton"/>
    <tag k="amenity" v="pub"/>
    <tag k="fhrs:id" v="1432852"/>
    <tag k="landuse" v="commercial"/>
    <tag k="name" v="The Plough"/>
    <tag k="source:addr" v="FHRS Open Data"/>
  </way>
  <way id="306146151" version="6" timestamp="2024-11-10T19:02:30Z" changeset="158981719" uid="11022773" user="GeoFens">
    <nd ref="3109761469"/>
    <nd ref="3109761443"/>
    <nd ref="3109761447"/>
    <nd ref="3109761465"/>
    <nd ref="3109761469"/>
    <tag k="addr:city" v="Cambridge"/>
    <tag k="addr:housenumber" v="699"/>
    <tag k="addr:postcode" v="CB5 8SQ"/>
    <tag k="addr:street" v="Newmarket Road"/>
    <tag k="brand" v="Peugeot"/>
    <tag k="brand:wikidata" v="Q6742"/>
    <tag k="building" v="retail"/>
    <tag k="name" v="Marshall Peugeot"/>
    <tag k="operator" v="Marshall"/>
    <tag k="shop" v="car"/>
  </way>
  <way id="306146154" version="5" timestamp="2019-02-16T11:24:53Z" changeset="67251421" uid="5173844" user="ndrw6">
    <nd ref="3109761445"/>
    <nd ref="3109761461"/>
    <nd ref="3109761464"/>
    <nd ref="3109761446"/>
    <nd ref="3109761445"/>
    <tag k="addr:city" v="Cambridge"/>
    <tag k="addr:housenumber" v="699"/>
    <tag k="addr:postcode" v="CB5 8SQ"/>
    <tag k="addr:street" v="Newmarket Road"/>
    <tag k="building" v="retail"/>
    <tag k="name" v="Glyn Hopkin Suzuki"/>
    <tag k="shop" v="car"/>
  </way>
  <way id="306146164" version="3" timestamp="2024-08-30T19:14:42Z" changeset="155988634" uid="1102246" user="jtn20">
    <nd ref="3109761611"/>
    <nd ref="3109761619"/>
    <nd ref="3109761616"/>
    <nd ref="3109761596"/>
    <nd ref="3109761598"/>
    <nd ref="3109761602"/>
    <nd ref="3109761600"/>
    <nd ref="3109761610"/>
    <nd ref="3109761611"/>
    <tag k="addr:city" v="Cambridge"/>
    <tag k="addr:housenumber" v="699"/>
    <tag k="addr:postcode" v="CB5 8SQ"/>
    <tag k="addr:street" v="Newmarket Road"/>
    <tag k="building" v="yes"/>
    <tag k="building:levels" v="2"/>
    <tag k="name" v="Marshall Specialist Vehicles"/>
    <tag k="roof:levels" v="0"/>
  </way>
  <way id="610892182" version="2" timestamp="2019-03-15T20:48:02Z" changeset="68189176" uid="6476359" user="NSiecw">
    <nd ref="5785001062"/>
    <nd ref="5785001061"/>
    <nd ref="5785001060"/>
    <nd ref="5785001063"/>
    <nd ref="5785001062"/>
    <tag k="addr:city" v="Cambridge"/>
    <tag k="addr:housename" v="The Cam"/>
    <tag k="addr:postcode" v="CB5 8TE"/>
    <tag k="addr:street" v="High Ditch Road"/>
    <tag k="building" v="yes"/>
    <tag k="name" v="The Cam"/>
  </way>
  <way id="610892183" version="2" timestamp="2019-03-15T20:48:02Z" changeset="68189176" uid="6476359" user="NSiecw">
    <nd ref="5785001065"/>
    <nd ref="5785001064"/>
    <nd ref="5785001063"/>
    <nd ref="5785001062"/>
    <nd ref="5785001065"/>
    <tag k="addr:city" v="Cambridge"/>
    <tag k="addr:housename" v="The Bumps"/>
    <tag k="addr:postcode" v="CB5 8TE"/>
    <tag k="addr:street" v="High Ditch Road"/>
    <tag k="building" v="yes"/>
    <tag k="name" v="The Bumps"/>
  </way>
  <way id="613862230" version="2" timestamp="2020-04-13T11:06:11Z" changeset="83471897" uid="1287673" user="sloerunner">
    <nd ref="5807354268"/>
    <nd ref="5807354264"/>
    <nd ref="5807354265"/>
    <nd ref="5807354262"/>
    <nd ref="5807354263"/>
    <nd ref="5807354269"/>
    <nd ref="7397803754"/>
    <nd ref="5807354271"/>
    <nd ref="5807354274"/>
    <nd ref="5807354273"/>
    <nd ref="5807354272"/>
    <nd ref="5807354275"/>
    <nd ref="5807354270"/>
    <nd ref="5807354267"/>
    <nd ref="5807354268"/>
    <tag k="addr:postcode" v="CB5 8AA"/>
    <tag k="addr:street" v="Newmarket Road"/>
    <tag k="building" v="yes"/>
    <tag k="name" v="Greenhouse Park Innovation Centre"/>
  </way>

</osm>
