<?xml version="1.0" encoding="UTF-8"?>
<osm version="0.6" generator="Overpass API 0.7.62.4 2390de5a">
<note>The data included in this document is from www.openstreetmap.org. The data is made available under ODbL.</note>
<meta osm_base="2025-01-20T16:24:30Z" areas="2024-12-31T00:49:33Z"/>

  <way id="4372287" version="23" timestamp="2024-08-08T18:51:15Z" changeset="154993360" uid="84263" user="Robert Whittaker">
    <nd ref="1611460757"/>
    <nd ref="1611460754"/>
    <nd ref="1333758409"/>
    <nd ref="1333758403"/>
    <nd ref="1333758408"/>
    <nd ref="1333758298"/>
    <nd ref="11888729375"/>
    <nd ref="26661334"/>
    <nd ref="11652469913"/>
    <nd ref="9197028940"/>
    <nd ref="1611460757"/>
    <tag k="addr:city" v="Cambridge"/>
    <tag k="addr:parentstreet" v="Viking Way"/>
    <tag k="addr:postcode" v="CB23 8DZ"/>
    <tag k="addr:street" v="The Mall"/>
    <tag k="addr:suburb" v="Bar Hill"/>
    <tag k="addr:unit" v="1-4"/>
    <tag k="brand" v="Pets at Home"/>
    <tag k="brand:wikidata" v="Q7179258"/>
    <tag k="building" v="retail"/>
    <tag k="landuse" v="retail"/>
    <tag k="name" v="Pets at Home"/>
    <tag k="shop" v="pet"/>
    <tag k="website" v="https://www.petsathome.com/find-us/locations/pet-care-centre/cambridge-bar-hill"/>
  </way>
  <way id="4372288" version="14" timestamp="2024-08-01T15:36:46Z" changeset="154699968" uid="84263" user="Robert Whittaker">
    <nd ref="26661329"/>
    <nd ref="26661330"/>
    <nd ref="11652469912"/>
    <nd ref="11872719808"/>
    <nd ref="26661327"/>
    <nd ref="11872719831"/>
    <nd ref="26661328"/>
    <nd ref="1621240363"/>
    <nd ref="26661329"/>
    <tag k="addr:city" v="Cambridge"/>
    <tag k="addr:housenumber" v="15-18"/>
    <tag k="addr:postcode" v="CB23 8EL"/>
    <tag k="addr:street" v="Viking Way"/>
    <tag k="addr:suburb" v="Bar Hill"/>
    <tag k="brand" v="Tesco Extra"/>
    <tag k="brand:wikidata" v="Q25172225"/>
    <tag k="brand:wikipedia" v="en:Tesco Extra"/>
    <tag k="building" v="supermarket"/>
    <tag k="fhrs:id" v="596222"/>
    <tag k="landuse" v="retail"/>
    <tag k="name" v="Tesco Extra"/>
    <tag k="operator" v="Tesco Stores Ltd"/>
    <tag k="shop" v="supermarket"/>
    <tag k="source:addr" v="FSA Food Hygiene Ratings Database"/>
    <tag k="website" v="https://www.tesco.com/store-locator/cambridge/15-18-viking-way"/>
    <tag k="wheelchair" v="yes"/>
  </way>
  <way id="4372304" version="13" timestamp="2023-08-31T21:14:55Z" changeset="140654088" uid="5173844" user="ndrw6">
    <nd ref="26661399"/>
    <nd ref="8660712993"/>
    <nd ref="8660712995"/>
    <nd ref="8660712997"/>
    <nd ref="8660712998"/>
    <nd ref="8660712999"/>
    <nd ref="8660713000"/>
    <nd ref="8660712996"/>
    <nd ref="8660712994"/>
    <nd ref="26661402"/>
    <nd ref="26661397"/>
    <nd ref="1402714787"/>
    <nd ref="1402714820"/>
    <nd ref="10180577124"/>
    <nd ref="10180577122"/>
    <nd ref="26661401"/>
    <nd ref="1402714836"/>
    <nd ref="1402714862"/>
    <nd ref="1402714818"/>
    <nd ref="26661400"/>
    <nd ref="1402714841"/>
    <nd ref="1402714774"/>
    <nd ref="26661399"/>
    <tag k="addr:city" v="Cambridge"/>
    <tag k="addr:country" v="GB"/>
    <tag k="addr:postcode" v="CB23 8EU"/>
    <tag k="addr:street" v="Huntingdon Road"/>
    <tag k="addr:suburb" v="Bar Hill"/>
    <tag k="building" v="yes"/>
    <tag k="fhrs:id" v="931018"/>
    <tag k="name" v="Hallmark Hotel Cambridge"/>
    <tag k="operator" v="Hallmark"/>
    <tag k="phone" v="+44 330 028 3400"/>
    <tag k="source:name" v="survey"/>
    <tag k="survey:date" v="2019-07-23"/>
    <tag k="toilets:wheelchair" v="yes"/>
    <tag k="tourism" v="hotel"/>
    <tag k="website" v="http://www.hallmarkhotels.co.uk/hotels/cambridge"/>
    <tag k="wheelchair" v="yes"/>
  </way>
  <way id="148034246" version="14" timestamp="2024-05-08T10:42:52Z" changeset="151048701" uid="742701" user="kerr smith">
    <nd ref="1611460755"/>
    <nd ref="1611460749"/>
    <nd ref="9197028933"/>
    <nd ref="1611460751"/>
    <nd ref="1611460752"/>
    <nd ref="1611460755"/>
    <tag k="addr:city" v="Cambridge"/>
    <tag k="addr:parentstreet" v="Viking Way"/>
    <tag k="addr:postcode" v="CB23 8DZ"/>
    <tag k="addr:street" v="The Mall"/>
    <tag k="addr:suburb" v="Bar Hill"/>
    <tag k="addr:unit" v="12"/>
    <tag k="brand" v="Haart"/>
    <tag k="brand:wikidata" v="Q75006731"/>
    <tag k="building" v="retail"/>
    <tag k="name" v="Haart"/>
    <tag k="office" v="estate_agent"/>
  </way>
  <way id="148034259" version="18" timestamp="2024-05-08T10:42:52Z" changeset="151048701" uid="742701" user="kerr smith">
    <nd ref="5337984055"/>
    <nd ref="5337984052"/>
    <nd ref="9197028935"/>
    <nd ref="1611460766"/>
    <nd ref="1611460760"/>
    <nd ref="5337984055"/>
    <tag k="addr:city" v="Cambridge"/>
    <tag k="addr:parentstreet" v="Viking Way"/>
    <tag k="addr:postcode" v="CB23 8DZ"/>
    <tag k="addr:street" v="The Mall"/>
    <tag k="addr:suburb" v="Bar Hill"/>
    <tag k="addr:unit" v="10"/>
    <tag k="amenity" v="bank"/>
    <tag k="brand" v="The Cambridge Building Society"/>
    <tag k="brand:wikidata" v="Q5025370"/>
    <tag k="building" v="retail"/>
    <tag k="landuse" v="retail"/>
    <tag k="name" v="Cambridge Building Society"/>
    <tag k="website" v="https://www.cambridgebs.co.uk/contact/bar-hill"/>
  </way>
  <way id="148034263" version="18" timestamp="2024-05-08T10:42:52Z" changeset="151048701" uid="742701" user="kerr smith">
    <nd ref="1611460763"/>
    <nd ref="1611460764"/>
    <nd ref="9197028937"/>
    <nd ref="5337984053"/>
    <nd ref="5337984054"/>
    <nd ref="1611460763"/>
    <tag k="addr:city" v="Cambridge"/>
    <tag k="addr:parentstreet" v="Viking Way"/>
    <tag k="addr:postcode" v="CB23 8DZ"/>
    <tag k="addr:street" v="The Mall"/>
    <tag k="addr:suburb" v="Bar Hill"/>
    <tag k="addr:unit" v="8"/>
    <tag k="brand" v="Ladbrokes"/>
    <tag k="brand:wikidata" v="Q1799875"/>
    <tag k="brand:wikipedia" v="en:Ladbrokes Coral"/>
    <tag k="building" v="retail"/>
    <tag k="landuse" v="retail"/>
    <tag k="name" v="Ladbrokes"/>
    <tag k="shop" v="bookmaker"/>
  </way>
  <way id="148034265" version="15" timestamp="2024-12-03T10:00:05Z" changeset="159873798" uid="374342" user="hocu">
    <nd ref="1611460752"/>
    <nd ref="1611460751"/>
    <nd ref="9197028932"/>
    <nd ref="26661332"/>
    <nd ref="11888681168"/>
    <nd ref="11888729369"/>
    <nd ref="26661333"/>
    <nd ref="1611460752"/>
    <tag k="addr:city" v="Cambridge"/>
    <tag k="addr:county" v="Cambridgeshire"/>
    <tag k="addr:housenumber" v="13"/>
    <tag k="addr:parentstreet" v="Viking Way"/>
    <tag k="addr:postcode" v="CB23 8DZ"/>
    <tag k="addr:street" v="The Mall"/>
    <tag k="addr:suburb" v="Bar Hill"/>
    <tag k="addr:unit" v="13"/>
    <tag k="addr:village" v="Bar Hill"/>
    <tag k="amenity" v="restaurant"/>
    <tag k="building" v="retail"/>
    <tag k="cuisine" v="fish_and_chips"/>
    <tag k="fhrs:id" v="1433472"/>
    <tag k="landuse" v="retail"/>
    <tag k="name" v="Churchill's Fish &amp; Chips"/>
    <tag k="source:addr" v="FHRS Open Data"/>
    <tag k="takeaway" v="yes"/>
  </way>
  <way id="148034272" version="16" timestamp="2024-05-08T10:42:52Z" changeset="151048701" uid="742701" user="kerr smith">
    <nd ref="1611460760"/>
    <nd ref="1611460766"/>
    <nd ref="9197028934"/>
    <nd ref="1611460749"/>
    <nd ref="1611460755"/>
    <nd ref="1611460760"/>
    <tag k="addr:city" v="Cambridge"/>
    <tag k="addr:parentstreet" v="Viking Way"/>
    <tag k="addr:postcode" v="CB23 8DZ"/>
    <tag k="addr:street" v="The Mall"/>
    <tag k="addr:suburb" v="Bar Hill"/>
    <tag k="addr:unit" v="11"/>
    <tag k="amenity" v="cafe"/>
    <tag k="brand" v="Costa"/>
    <tag k="brand:wikidata" v="Q608845"/>
    <tag k="brand:wikipedia" v="en:Costa Coffee"/>
    <tag k="building" v="retail"/>
    <tag k="cuisine" v="coffee_shop"/>
    <tag k="fhrs:id" v="597245"/>
    <tag k="landuse" v="retail"/>
    <tag k="name" v="Costa"/>
    <tag k="source:addr" v="FSA Food Hygiene Ratings Database"/>
    <tag k="takeaway" v="yes"/>
  </way>
  <way id="148034558" version="6" timestamp="2023-05-27T10:27:45Z" changeset="136618894" uid="3999" user="BarryMyles">
    <nd ref="1611464528"/>
    <nd ref="1611464459"/>
    <nd ref="1611464543"/>
    <nd ref="1611464494"/>
    <nd ref="1611464482"/>
    <nd ref="1611464497"/>
    <nd ref="1611464528"/>
    <tag k="addr:city" v="Barr Hill"/>
    <tag k="addr:housenumber" v="23"/>
    <tag k="addr:postcode" v="CB23 8EL"/>
    <tag k="addr:street" v="Viking Way"/>
    <tag k="building" v="retail"/>
    <tag k="craft" v="window_construction"/>
    <tag k="name" v="Spectrum Home Improvements"/>
    <tag k="website" v="https://spectrumwindowsanddoors.co.uk/"/>
  </way>
  <way id="148034559" version="11" timestamp="2023-04-28T13:52:42Z" changeset="135470847" uid="84263" user="Robert Whittaker">
    <nd ref="1611464537"/>
    <nd ref="1611464528"/>
    <nd ref="1611464459"/>
    <nd ref="1611464500"/>
    <nd ref="1611464540"/>
    <nd ref="1611464531"/>
    <nd ref="1611464537"/>
    <tag k="addr:city" v="Cambridge"/>
    <tag k="addr:housenumber" v="22"/>
    <tag k="addr:postcode" v="CB23 8EL"/>
    <tag k="addr:street" v="Viking Way"/>
    <tag k="addr:suburb" v="Bar Hill"/>
    <tag k="brand" v="Kwik Fit"/>
    <tag k="brand:wikidata" v="Q958053"/>
    <tag k="brand:wikipedia" v="en:Kwik Fit"/>
    <tag k="building" v="retail"/>
    <tag k="landuse" v="retail"/>
    <tag k="name" v="Kwik Fit"/>
    <tag k="phone" v="+44 1954 789824"/>
    <tag k="shop" v="car_repair"/>
    <tag k="website" v="https://www.kwik-fit.com/locate-a-centre/cambridge-viking-way"/>
  </way>
  <way id="148034561" version="8" timestamp="2023-05-27T10:27:45Z" changeset="136618894" uid="3999" user="BarryMyles">
    <nd ref="1611464486"/>
    <nd ref="1611464520"/>
    <nd ref="1611464524"/>
    <nd ref="1611464522"/>
    <nd ref="1611464492"/>
    <nd ref="1611464534"/>
    <nd ref="1611464486"/>
    <tag k="addr:city" v="Cambridge"/>
    <tag k="addr:housenumber" v="20"/>
    <tag k="addr:postcode" v="CB23 8EL"/>
    <tag k="addr:street" v="Viking Way"/>
    <tag k="addr:suburb" v="Bar Hill"/>
    <tag k="building" v="retail"/>
    <tag k="description" v="Vehicle servicing in Bar Hill. Bar Hill Motors is a reputable family-run garage in Bar Hill, serving clients across the Cambridge area."/>
    <tag k="email" v="info@barhillmotors.co.uk"/>
    <tag k="name" v="Bar Hill Motors"/>
    <tag k="phone" v="+44 1954 781 132"/>
    <tag k="shop" v="car_repair"/>
    <tag k="website" v="https://barhillmotors-cambridge.co.uk/"/>
  </way>
  <way id="148251639" version="8" timestamp="2022-01-21T00:58:41Z" changeset="116407946" uid="2400059" user="Pablo Rodriguez">
    <nd ref="1613505233"/>
    <nd ref="1613505264"/>
    <nd ref="1613505243"/>
    <nd ref="1613505256"/>
    <nd ref="9196994481"/>
    <nd ref="1613505267"/>
    <nd ref="1613505236"/>
    <nd ref="1613505233"/>
    <tag k="addr:city" v="Cambridge"/>
    <tag k="addr:housename" v="Maple Surgery"/>
    <tag k="addr:postcode" v="CB23 8EH"/>
    <tag k="addr:street" v="Hanover Close"/>
    <tag k="addr:suburb" v="Bar Hill"/>
    <tag k="amenity" v="doctors"/>
    <tag k="building" v="public"/>
    <tag k="healthcare" v="clinic"/>
    <tag k="name" v="Bar Hill Health Centre"/>
  </way>
  <way id="148251640" version="6" timestamp="2022-01-21T09:21:42Z" changeset="116420652" uid="2400059" user="Pablo Rodriguez">
    <nd ref="1613505230"/>
    <nd ref="1613505240"/>
    <nd ref="1613505246"/>
    <nd ref="1613505259"/>
    <nd ref="1613505262"/>
    <nd ref="1613505238"/>
    <nd ref="1613505230"/>
    <tag k="addr:housename" v="Bar Hill Dental Clinic"/>
    <tag k="addr:street" v="Hanover Close"/>
    <tag k="amenity" v="dentist"/>
    <tag k="building" v="public"/>
    <tag k="name" v="Bar Hill Dental Clinic"/>
    <tag k="opening_hours" v="Mo-Th 09:00-13:00,14:00-17:00; Fr 09:00-14:00"/>
  </way>
  <way id="148276306" version="5" timestamp="2023-05-27T10:27:45Z" changeset="136618894" uid="3999" user="BarryMyles">
    <nd ref="1613725256"/>
    <nd ref="1613725224"/>
    <nd ref="1613725251"/>
    <nd ref="1613725264"/>
    <nd ref="1613725257"/>
    <nd ref="1613725252"/>
    <nd ref="1613725256"/>
    <tag k="addr:city" v="Barr Hill"/>
    <tag k="addr:housenumber" v="9-10"/>
    <tag k="addr:postcode" v="CB23 8EL"/>
    <tag k="addr:street" v="Viking Way"/>
    <tag k="building" v="industrial"/>
    <tag k="name" v="Victoire Printers"/>
    <tag k="website" v="https://www.victoirepress.com/"/>
  </way>
  <way id="148276307" version="6" timestamp="2023-05-27T10:27:45Z" changeset="136618894" uid="3999" user="BarryMyles">
    <nd ref="1613725244"/>
    <nd ref="1613725250"/>
    <nd ref="1613725246"/>
    <nd ref="1613725247"/>
    <nd ref="1613725245"/>
    <nd ref="1613725263"/>
    <nd ref="1613725244"/>
    <tag k="addr:city" v="Barr Hill"/>
    <tag k="addr:housenumber" v="6"/>
    <tag k="addr:postcode" v="CB23 8EL"/>
    <tag k="addr:street" v="Viking Way"/>
    <tag k="building" v="retail"/>
    <tag k="name" v="Andy's Kars"/>
  </way>
  <way id="148276308" version="10" timestamp="2024-01-16T13:04:19Z" changeset="146323134" uid="10420541" user="Thingummy">
    <nd ref="1613725237"/>
    <nd ref="1613725247"/>
    <nd ref="1613725245"/>
    <nd ref="1613725267"/>
    <nd ref="1613725269"/>
    <nd ref="1613725227"/>
    <nd ref="1613725237"/>
    <tag k="addr:city" v="Cambridge"/>
    <tag k="addr:housenumber" v="5"/>
    <tag k="addr:postcode" v="CB23 8EL"/>
    <tag k="addr:street" v="Viking Way"/>
    <tag k="addr:suburb" v="Bar Hill"/>
    <tag k="building" v="industrial"/>
    <tag k="industrial" v="metal_processing"/>
    <tag k="man_made" v="works"/>
    <tag k="name" v="CB Tool Engineers"/>
    <tag k="website" v="http://www.cbtoolengineers.com/"/>
  </way>
  <way id="148276309" version="6" timestamp="2023-05-27T10:27:45Z" changeset="136618894" uid="3999" user="BarryMyles">
    <nd ref="1613725233"/>
    <nd ref="1613725261"/>
    <nd ref="1613725262"/>
    <nd ref="1613725260"/>
    <nd ref="1613725236"/>
    <nd ref="1613725265"/>
    <nd ref="1613725233"/>
    <tag k="addr:city" v="Barr Hill"/>
    <tag k="addr:housenumber" v="7"/>
    <tag k="addr:postcode" v="CB23 8EL"/>
    <tag k="addr:street" v="Viking Way"/>
    <tag k="building" v="retail"/>
    <tag k="leisure" v="escape_game"/>
    <tag k="name" v="Spy Missions"/>
  </way>
  <way id="148276313" version="2" timestamp="2023-05-27T10:27:45Z" changeset="136618894" uid="3999" user="BarryMyles">
    <nd ref="1613725243"/>
    <nd ref="1613725270"/>
    <nd ref="1613725228"/>
    <nd ref="1613725232"/>
    <nd ref="1613725248"/>
    <nd ref="1613725258"/>
    <nd ref="1613725243"/>
    <tag k="addr:city" v="Barr Hill"/>
    <tag k="addr:postcode" v="CB23 8EL"/>
    <tag k="addr:street" v="Viking Way"/>
    <tag k="building" v="yes"/>
    <tag k="name" v="Crafts Hill Telephone Exchange"/>
    <tag k="operator" v="Openreach"/>
    <tag k="operator:wikidata" v="Q7096543"/>
    <tag k="ref" v="EACFH"/>
    <tag k="telecom" v="exchange"/>
  </way>
  <way id="148276314" version="10" timestamp="2022-01-21T00:58:41Z" changeset="116407946" uid="2400059" user="Pablo Rodriguez">
    <nd ref="1613725255"/>
    <nd ref="1613725253"/>
    <nd ref="1613725240"/>
    <nd ref="1613725235"/>
    <nd ref="1613725262"/>
    <nd ref="1613725261"/>
    <nd ref="1613725255"/>
    <tag k="addr:city" v="Cambridge"/>
    <tag k="addr:housenumber" v="8"/>
    <tag k="addr:postcode" v="CB23 8EL"/>
    <tag k="addr:street" v="Viking Way"/>
    <tag k="addr:suburb" v="Bar Hill"/>
    <tag k="building" v="retail"/>
    <tag k="fhrs:id" v="597051"/>
    <tag k="leisure" v="indoor_play"/>
    <tag k="name" v="Whale Of A Time"/>
    <tag k="source:addr" v="FSA Food Hygiene Ratings Database"/>
    <tag k="url" v="http://www.whaleofatime-cambridge.co.uk/"/>
  </way>
  <way id="148276315" version="6" timestamp="2023-05-28T06:53:05Z" changeset="136644918" uid="322785" user="BCNorwich">
    <nd ref="1613725223"/>
    <nd ref="10931318810"/>
    <nd ref="1613725230"/>
    <nd ref="1613725234"/>
    <nd ref="1613725223"/>
    <tag k="addr:city" v="Barr Hill"/>
    <tag k="addr:housenumber" v="4"/>
    <tag k="addr:postcode" v="CB23 8EL"/>
    <tag k="addr:street" v="Viking Way"/>
    <tag k="building" v="warehouse"/>
    <tag k="name" v="Cambridge Flooring Showroom"/>
    <tag k="shop" v="flooring"/>
  </way>
  <way id="149098303" version="2" timestamp="2023-05-27T10:27:45Z" changeset="136618894" uid="3999" user="BarryMyles">
    <nd ref="1621240378"/>
    <nd ref="10931291602"/>
    <nd ref="1621240385"/>
    <nd ref="1621240387"/>
    <nd ref="1621240373"/>
    <nd ref="1621240351"/>
    <nd ref="1621240378"/>
    <tag k="addr:city" v="Barr Hill"/>
    <tag k="addr:housenumber" v="45"/>
    <tag k="addr:postcode" v="CB23 8EL"/>
    <tag k="addr:street" v="Viking Way"/>
    <tag k="building" v="yes"/>
    <tag k="craft" v="plumber"/>
    <tag k="name" v="IJC Plumbing and Heating"/>
    <tag k="phone" v="+441954782920"/>
  </way>
  <way id="149227652" version="14" timestamp="2024-05-08T10:42:52Z" changeset="151048701" uid="742701" user="kerr smith">
    <nd ref="1622394636"/>
    <nd ref="9197028938"/>
    <nd ref="1611460764"/>
    <nd ref="1611460763"/>
    <nd ref="9434071677"/>
    <nd ref="1622394651"/>
    <nd ref="1622394636"/>
    <tag k="addr:city" v="Cambridge"/>
    <tag k="addr:parentstreet" v="Viking Way"/>
    <tag k="addr:postcode" v="CB23 8DZ"/>
    <tag k="addr:street" v="The Mall"/>
    <tag k="addr:suburb" v="Bar Hill"/>
    <tag k="addr:unit" v="7"/>
    <tag k="brand" v="Card Factory"/>
    <tag k="brand:wikidata" v="Q5038192"/>
    <tag k="brand:wikipedia" v="en:Card Factory"/>
    <tag k="building" v="retail"/>
    <tag k="landuse" v="retail"/>
    <tag k="name" v="Card Factory"/>
    <tag k="shop" v="gift"/>
  </way>
  <way id="149227655" version="12" timestamp="2024-05-08T10:42:52Z" changeset="151048701" uid="742701" user="kerr smith">
    <nd ref="1622394651"/>
    <nd ref="1611460754"/>
    <nd ref="1611460757"/>
    <nd ref="9197028939"/>
    <nd ref="1622394636"/>
    <nd ref="1622394651"/>
    <tag k="addr:city" v="Cambridge"/>
    <tag k="addr:parentstreet" v="Viking Way"/>
    <tag k="addr:postcode" v="CB23 8DZ"/>
    <tag k="addr:street" v="The mall"/>
    <tag k="addr:suburb" v="Bar Hill"/>
    <tag k="addr:unit" v="5-6"/>
    <tag k="building" v="retail"/>
    <tag k="landuse" v="retail"/>
    <tag k="name" v="Choice"/>
    <tag k="shop" v="clothes"/>
  </way>
  <way id="149227658" version="16" timestamp="2024-10-11T10:29:50Z" changeset="157750512" uid="21425661" user="CjMalone">
    <nd ref="5337984055"/>
    <nd ref="5337984054"/>
    <nd ref="5337984053"/>
    <nd ref="9197028936"/>
    <nd ref="5337984052"/>
    <nd ref="5337984055"/>
    <tag k="addr:city" v="Cambridge"/>
    <tag k="addr:parentstreet" v="Viking Way"/>
    <tag k="addr:postcode" v="CB23 8DZ"/>
    <tag k="addr:street" v="The Mall"/>
    <tag k="addr:suburb" v="Bar Hill"/>
    <tag k="addr:unit" v="9"/>
    <tag k="brand" v="Johnsons"/>
    <tag k="brand:wikidata" v="Q6268527"/>
    <tag k="brand:wikipedia" v="en:Johnsons Cleaners UK"/>
    <tag k="building" v="retail"/>
    <tag k="check_date" v="2024-10-11"/>
    <tag k="check_date:opening_hours" v="2024-10-11"/>
    <tag k="landuse" v="retail"/>
    <tag k="name" v="Johnsons"/>
    <tag k="opening_hours" v="Mo-Sa 09:00-18:00"/>
    <tag k="phone" v="+44 1954 782375"/>
    <tag k="shop" v="dry_cleaning"/>
    <tag k="website" v="https://www.johnsoncleaners.com/branch/bar-hill-tesco-extra"/>
  </way>
  <way id="149346442" version="7" timestamp="2022-01-21T00:58:41Z" changeset="116407946" uid="2400059" user="Pablo Rodriguez">
    <nd ref="1623389322"/>
    <nd ref="1623389336"/>
    <nd ref="1623389339"/>
    <nd ref="1623389320"/>
    <nd ref="1623389285"/>
    <nd ref="1623389377"/>
    <nd ref="1623389292"/>
    <nd ref="1623389288"/>
    <nd ref="1623389374"/>
    <nd ref="1623389293"/>
    <nd ref="1623389322"/>
    <tag k="addr:city" v="Cambridge"/>
    <tag k="addr:housename" v="Bar Hill Church Centre"/>
    <tag k="addr:postcode" v="CB23 8EH"/>
    <tag k="addr:street" v="Viking Way"/>
    <tag k="addr:suburb" v="Bar Hill"/>
    <tag k="amenity" v="place_of_worship"/>
    <tag k="building" v="church"/>
    <tag k="denomination" v="ecumenical"/>
    <tag k="name" v="Bar Hill Church"/>
    <tag k="religion" v="christian"/>
    <tag k="website" v="https://www.barhillchurch.org.uk/"/>
    <tag k="wikidata" v="Q105097070"/>
  </way>
  <way id="149346449" version="7" timestamp="2022-01-21T00:58:41Z" changeset="116407946" uid="2400059" user="Pablo Rodriguez">
    <nd ref="1623389344"/>
    <nd ref="1623389306"/>
    <nd ref="1623389315"/>
    <nd ref="1623389319"/>
    <nd ref="1623389350"/>
    <nd ref="1623389349"/>
    <nd ref="1623389297"/>
    <nd ref="1623389355"/>
    <nd ref="1623389311"/>
    <nd ref="1623389358"/>
    <nd ref="1623389344"/>
    <tag k="addr:city" v="Cambridge"/>
    <tag k="addr:housename" v="Bar Hill Parish Council Offices"/>
    <tag k="addr:postcode" v="CB23 8SE"/>
    <tag k="addr:street" v="Hanover Close"/>
    <tag k="addr:suburb" v="Bar Hill"/>
    <tag k="building" v="office"/>
    <tag k="building:levels" v="1"/>
    <tag k="name" v="Bar Hill Parish Council Office"/>
    <tag k="source" v="http://www.barhill.org.uk/pc.php"/>
  </way>
  <way id="155728236" version="6" timestamp="2022-08-26T20:41:48Z" changeset="125422850" uid="6476359" user="NSiecw">
    <nd ref="1680848904"/>
    <nd ref="1680848895"/>
    <nd ref="1680848890"/>
    <nd ref="1680848891"/>
    <nd ref="1680848896"/>
    <nd ref="1680848900"/>
    <nd ref="1680848897"/>
    <nd ref="1680848892"/>
    <nd ref="1680848894"/>
    <nd ref="1680848901"/>
    <nd ref="1680848903"/>
    <nd ref="1680848898"/>
    <nd ref="1680848904"/>
    <tag k="addr:city" v="Cambridge"/>
    <tag k="addr:housename" v="Bar Hill Library"/>
    <tag k="addr:postcode" v="CB23 8DY"/>
    <tag k="addr:street" v="Gladeside"/>
    <tag k="addr:suburb" v="Bar Hill"/>
    <tag k="building" v="public"/>
    <tag k="name" v="Bar Hill Post and Library"/>
    <tag k="source" v="http://www.cambridgeshire.gov.uk/directory_record/3168/bar_hill_library"/>
  </way>
  <way id="235670983" version="7" timestamp="2023-11-11T10:26:59Z" changeset="143893477" uid="9451067" user="b-jazz-bot">
    <nd ref="2437418624"/>
    <nd ref="2437418635"/>
    <nd ref="1176324416"/>
    <nd ref="1176324442"/>
    <nd ref="2437418624"/>
    <tag k="addr:city" v="Cambridge"/>
    <tag k="addr:housenumber" v="15"/>
    <tag k="addr:postcode" v="CB23 8SQ"/>
    <tag k="addr:street" v="Trafalgar Way"/>
    <tag k="addr:suburb" v="Bar Hill"/>
    <tag k="building" v="yes"/>
    <tag k="man_made" v="works"/>
    <tag k="name" v="Oxford Archaeology East"/>
    <tag k="phone" v="+44 1223 850500"/>
    <tag k="website" v="https://www.oxfordarchaeology.com/"/>
  </way>
  <way id="483548996" version="9" timestamp="2023-11-11T10:26:49Z" changeset="143893477" uid="9451067" user="b-jazz-bot">
    <nd ref="4762997006"/>
    <nd ref="4762997008"/>
    <nd ref="4762997009"/>
    <nd ref="4762997007"/>
    <nd ref="4762997006"/>
    <tag k="addr:city" v="Cambridge"/>
    <tag k="addr:housename" v="Ashleys the Barbers"/>
    <tag k="addr:housenumber" v="159"/>
    <tag k="addr:postcode" v="CB23 8TW"/>
    <tag k="addr:street" v="The Spinney"/>
    <tag k="addr:suburb" v="Bar Hill"/>
    <tag k="building" v="garage"/>
    <tag k="building:use" v="commercial"/>
    <tag k="email" v="ash@ashleythebarber.co.uk"/>
    <tag k="name" v="Ashleys the Barbers"/>
    <tag k="opening_hours" v="Mo, We-Fr 09:30-13:30,14:30-17:30; Su off"/>
    <tag k="phone" v="+44 7704135888"/>
    <tag k="shop" v="hairdresser"/>
    <tag k="website" v="https://www.ashleythebarber.co.uk/"/>
  </way>
  <way id="615950256" version="5" timestamp="2023-11-11T10:25:55Z" changeset="143893444" uid="9451067" user="b-jazz-bot">
    <nd ref="5824048641"/>
    <nd ref="5824048642"/>
    <nd ref="5824048643"/>
    <nd ref="5824048644"/>
    <nd ref="5824048641"/>
    <tag k="addr:city" v="Cambridge"/>
    <tag k="addr:housename" v="SPARC Building"/>
    <tag k="addr:postcode" v="CB23 8DY"/>
    <tag k="addr:street" v="Gladeside"/>
    <tag k="addr:suburb" v="Bar Hill"/>
    <tag k="amenity" v="childcare"/>
    <tag k="building" v="yes"/>
    <tag k="email" v="info@buttercupschildcareltd.co.uk"/>
    <tag k="name" v="Buttercups Childcare LTD"/>
    <tag k="opening_hours" v="Mo-Fr 07:30-18:00"/>
    <tag k="operator" v="SPARC"/>
    <tag k="operator:type" v="private"/>
    <tag k="website" v="https://buttercupschildcareltd.co.uk/"/>
  </way>
  <way id="615950257" version="11" timestamp="2023-11-24T15:44:52Z" changeset="144413159" uid="20232466" user="C Roland">
    <nd ref="5824048645"/>
    <nd ref="5824048646"/>
    <nd ref="9126749435"/>
    <nd ref="9126749434"/>
    <nd ref="5824048647"/>
    <nd ref="5824048648"/>
    <nd ref="5824048645"/>
    <tag k="addr:city" v="Cambridge"/>
    <tag k="addr:housename" v="The Farmhouse"/>
    <tag k="addr:postcode" v="CB23 8DY"/>
    <tag k="addr:street" v="Gladeside"/>
    <tag k="addr:suburb" v="Bar Hill"/>
    <tag k="beauty" v="nails;hair;waxing;massage;facials;skin_care"/>
    <tag k="building" v="retail"/>
    <tag k="building:levels" v="2"/>
    <tag k="description" v="The Farmhouse, previously Bar House Farm owned by Chivers &amp; Sons, the jams &amp; preserves manufacturer."/>
    <tag k="name" v="Total Relaxation"/>
    <tag k="not:brand:wikidata" v="Q154037"/>
    <tag k="opening_hours" v="Mo 09:00-16:00; Tu,We 09:00-18:00; Th,Fr 09:00-19:00; Sa 08:30-16:00"/>
    <tag k="phone" v="+44 1954 789 344"/>
    <tag k="roof:shape" v="gabled"/>
    <tag k="shop" v="beauty"/>
    <tag k="website" v="https://www.total-relaxation.co.uk"/>
  </way>
  <way id="743395671" version="2" timestamp="2022-01-21T09:39:15Z" changeset="116421434" uid="2400059" user="Pablo Rodriguez">
    <nd ref="6958367452"/>
    <nd ref="6958367451"/>
    <nd ref="6958367450"/>
    <nd ref="6958367449"/>
    <nd ref="6958367452"/>
    <tag k="addr:city" v="Cambridge"/>
    <tag k="addr:postcode" v="CB23 8TG"/>
    <tag k="addr:street" v="Hillcrest"/>
    <tag k="addr:suburb" v="Bar Hill"/>
    <tag k="building" v="yes"/>
    <tag k="frequency" v="50"/>
    <tag k="gas_insulated" v="yes"/>
    <tag k="name" v="Hillcrest"/>
    <tag k="operator" v="UK Power Networks"/>
    <tag k="power" v="substation"/>
    <tag k="ref" v="L3835 6317F"/>
    <tag k="source" v="survey"/>
    <tag k="source:geometry" v="Maxar"/>
    <tag k="substation" v="minor_distribution"/>
    <tag k="voltage" v="11000"/>
  </way>
  <way id="1176544010" version="1" timestamp="2023-05-27T10:27:45Z" changeset="136618894" uid="3999" user="BarryMyles">
    <nd ref="1621240378"/>
    <nd ref="10931291603"/>
    <nd ref="10931291604"/>
    <nd ref="10931318805"/>
    <nd ref="10931318806"/>
    <nd ref="10931291602"/>
    <nd ref="1621240378"/>
    <tag k="addr:city" v="Barr Hill"/>
    <tag k="addr:housenumber" v="46"/>
    <tag k="addr:postcode" v="CB23 8EL"/>
    <tag k="addr:street" v="Viking Way"/>
    <tag k="building" v="yes"/>
    <tag k="name" v="JH Fitness Academy"/>
    <tag k="office" v="yes"/>
    <tag k="phone" v="+441954782195"/>
    <tag k="website" v="http://jhfitnessacademy.co.uk/"/>
  </way>
  <way id="1176544011" version="1" timestamp="2023-05-27T10:27:45Z" changeset="136618894" uid="3999" user="BarryMyles">
    <nd ref="10931318810"/>
    <nd ref="10931318811"/>
    <nd ref="10931318812"/>
    <nd ref="1613725230"/>
    <nd ref="10931318810"/>
    <tag k="addr:city" v="Barr Hill"/>
    <tag k="addr:housenumber" v="3"/>
    <tag k="addr:postcode" v="CB23 8EL"/>
    <tag k="addr:street" v="Viking Way"/>
    <tag k="building" v="warehouse"/>
    <tag k="name" v="GSG"/>
    <tag k="website" v="https://www.gsgrp.com/"/>
  </way>
  <way id="1176544012" version="2" timestamp="2024-07-17T17:56:50Z" changeset="154069677" uid="9451067" user="b-jazz-bot">
    <nd ref="10931318811"/>
    <nd ref="10931318813"/>
    <nd ref="10931318814"/>
    <nd ref="10931318812"/>
    <nd ref="10931318811"/>
    <tag k="addr:city" v="Barr Hill"/>
    <tag k="addr:housenumber" v="1-2"/>
    <tag k="addr:postcode" v="CB23 8EL"/>
    <tag k="addr:street" v="Viking Way"/>
    <tag k="building" v="warehouse"/>
    <tag k="name" v="Master Auto Glass"/>
    <tag k="phone" v="+441223618400"/>
    <tag k="website" v="https://www.master-auto-glass.com/"/>
  </way>

</osm>
