<?xml version="1.0" encoding="UTF-8"?>
<osm version="0.6" generator="Overpass API 0.7.62.4 2390de5a">
<note>The data included in this document is from www.openstreetmap.org. The data is made available under ODbL.</note>
<meta osm_base="2025-01-23T15:37:01Z" areas="2024-12-31T00:49:33Z"/>

  <way id="5106735" version="7" timestamp="2023-08-09T09:38:08Z" changeset="139650282" uid="242345" user="confusedbuffalo">
    <nd ref="34957192"/>
    <nd ref="1831951896"/>
    <nd ref="1831072362"/>
    <nd ref="34957187"/>
    <nd ref="34957186"/>
    <nd ref="34957167"/>
    <nd ref="1831951887"/>
    <nd ref="34957192"/>
    <tag k="addr:city" v="Royston"/>
    <tag k="addr:county" v="Hertfordshire"/>
    <tag k="addr:housename" v="Meldreth Primary School"/>
    <tag k="addr:postcode" v="SG8 6LA"/>
    <tag k="addr:street" v="High Street"/>
    <tag k="addr:suburb" v="Meldreth"/>
    <tag k="amenity" v="school"/>
    <tag k="capacity" v="210"/>
    <tag k="email" v="office@meldreth.cambs.sch.uk"/>
    <tag k="isced:level" v="1"/>
    <tag k="max_age" v="11"/>
    <tag k="min_age" v="4"/>
    <tag k="name" v="Meldreth Primary School"/>
    <tag k="operator" v="Cambridgeshire County Council"/>
    <tag k="phone" v="+44 1763 260 432"/>
    <tag k="ref:GB:uprn" v="100091611024"/>
    <tag k="ref:edubase" v="110615"/>
    <tag k="school:trust" v="no"/>
    <tag k="school:type" v="community"/>
    <tag k="website" v="http://www.meldreth.cambs.sch.uk/"/>
    <tag k="wikidata" v="Q66223503"/>
  </way>
  <way id="181362969" version="7" timestamp="2023-11-16T16:38:01Z" changeset="144103995" uid="13445" user="zorque">
    <nd ref="1917897029"/>
    <nd ref="1917897025"/>
    <nd ref="1917897028"/>
    <nd ref="1831071820"/>
    <nd ref="1917897041"/>
    <nd ref="1917897026"/>
    <nd ref="1917897005"/>
    <nd ref="1917897017"/>
    <nd ref="1917897015"/>
    <nd ref="1917897027"/>
    <nd ref="1917897039"/>
    <nd ref="1917897030"/>
    <nd ref="1917897013"/>
    <nd ref="1917897047"/>
    <nd ref="1917897021"/>
    <nd ref="1917897029"/>
    <tag k="addr:city" v="Royston"/>
    <tag k="addr:county" v="Hertfordshire"/>
    <tag k="addr:housename" v="Aurora Meldreth Manor School"/>
    <tag k="addr:postcode" v="SG8 6LG"/>
    <tag k="addr:street" v="Fenny Lane"/>
    <tag k="addr:suburb" v="Meldreth"/>
    <tag k="amenity" v="school"/>
    <tag k="capacity" v="50"/>
    <tag k="email" v="meldreth.manor@the-aurora-group.com"/>
    <tag k="isced:level" v="3"/>
    <tag k="max_age" v="19"/>
    <tag k="min_age" v="6"/>
    <tag k="name" v="Aurora Meldreth Manor School"/>
    <tag k="operator" v="The Aurora Group"/>
    <tag k="phone" v="+44 1763 268 000"/>
    <tag k="ref:GB:uprn" v="200000848073"/>
    <tag k="ref:edubase" v="110920"/>
    <tag k="school:boarding" v="yes"/>
    <tag k="school:trust" v="no"/>
    <tag k="school:type" v="special"/>
    <tag k="website" v="https://www.the-aurora-group.com/meldrethmanor"/>
  </way>
  <way id="620677708" version="2" timestamp="2023-11-16T19:00:19Z" changeset="144108706" uid="242345" user="confusedbuffalo">
    <nd ref="5863950463"/>
    <nd ref="5863950462"/>
    <nd ref="5863950461"/>
    <nd ref="5863950459"/>
    <nd ref="5863950458"/>
    <nd ref="5863950460"/>
    <nd ref="5863950463"/>
    <tag k="addr:housenumber" v="3"/>
    <tag k="addr:postcode" v="SG8 6FN"/>
    <tag k="addr:street" v="Old Mill Court"/>
    <tag k="addr:suburb" v="Histon"/>
    <tag k="building" v="yes"/>
  </way>
  <way id="620677886" version="2" timestamp="2020-11-23T23:23:53Z" changeset="94666464" uid="8198058" user="ACarlotti">
    <nd ref="5863952000"/>
    <nd ref="5863951999"/>
    <nd ref="5863951998"/>
    <nd ref="5863951997"/>
    <nd ref="5863952000"/>
    <tag k="addr:housenumber" v="2"/>
    <tag k="addr:street" v="Fenny Lane"/>
    <tag k="building" v="yes"/>
  </way>
  <way id="620677887" version="2" timestamp="2020-11-23T23:23:53Z" changeset="94666464" uid="8198058" user="ACarlotti">
    <nd ref="5863952008"/>
    <nd ref="5863952005"/>
    <nd ref="5863952004"/>
    <nd ref="5863952002"/>
    <nd ref="5863952001"/>
    <nd ref="5863952003"/>
    <nd ref="5863952006"/>
    <nd ref="5863952007"/>
    <nd ref="5863952008"/>
    <tag k="addr:housenumber" v="1"/>
    <tag k="addr:street" v="North End"/>
    <tag k="building" v="yes"/>
  </way>
  <way id="620678034" version="2" timestamp="2021-12-24T15:22:57Z" changeset="115339613" uid="8661831" user="Colin_Jones">
    <nd ref="5863953278"/>
    <nd ref="9364018770"/>
    <nd ref="9364018769"/>
    <nd ref="5863953275"/>
    <nd ref="5863953278"/>
    <tag k="addr:housenumber" v="4"/>
    <tag k="addr:street" v="Bell Close"/>
    <tag k="addr:village" v="Meldreth"/>
    <tag k="building" v="bungalow"/>
  </way>
  <way id="620678036" version="2" timestamp="2021-12-24T15:22:57Z" changeset="115339613" uid="8661831" user="Colin_Jones">
    <nd ref="5863953281"/>
    <nd ref="9364018764"/>
    <nd ref="9364018763"/>
    <nd ref="5863953280"/>
    <nd ref="5863953281"/>
    <tag k="addr:housenumber" v="5"/>
    <tag k="addr:street" v="Bell Close"/>
    <tag k="building" v="house"/>
  </way>
  <way id="620678038" version="2" timestamp="2021-12-24T15:22:57Z" changeset="115339613" uid="8661831" user="Colin_Jones">
    <nd ref="5863953386"/>
    <nd ref="9364018762"/>
    <nd ref="9364018761"/>
    <nd ref="5863953283"/>
    <nd ref="5863953386"/>
    <tag k="addr:housenumber" v="7"/>
    <tag k="addr:street" v="Bell Close"/>
    <tag k="building" v="house"/>
  </way>
  <way id="620678040" version="2" timestamp="2021-12-24T15:22:57Z" changeset="115339613" uid="8661831" user="Colin_Jones">
    <nd ref="5863953398"/>
    <nd ref="9364018759"/>
    <nd ref="5863953395"/>
    <nd ref="5863953396"/>
    <nd ref="5863953397"/>
    <nd ref="9364018760"/>
    <nd ref="5863953398"/>
    <tag k="addr:housenumber" v="10"/>
    <tag k="addr:street" v="Bell Close"/>
    <tag k="addr:village" v="Meldreth"/>
    <tag k="building" v="house"/>
  </way>
  <way id="620678047" version="2" timestamp="2021-12-24T14:58:31Z" changeset="115338991" uid="8661831" user="Colin_Jones">
    <nd ref="5863953426"/>
    <nd ref="5863953425"/>
    <nd ref="5863953424"/>
    <nd ref="5863953423"/>
    <nd ref="9363960810"/>
    <nd ref="5863953426"/>
    <tag k="addr:housenumber" v="27"/>
    <tag k="addr:street" v="Bell Close"/>
    <tag k="addr:village" v="Meldreth"/>
    <tag k="building" v="house"/>
  </way>
  <way id="876362115" version="1" timestamp="2020-11-23T23:23:53Z" changeset="94666464" uid="8198058" user="ACarlotti">
    <nd ref="8156225496"/>
    <nd ref="8156225495"/>
    <nd ref="8156225494"/>
    <nd ref="8156225493"/>
    <nd ref="8156225496"/>
    <tag k="addr:housenumber" v="2"/>
    <tag k="addr:street" v="North End"/>
    <tag k="building" v="yes"/>
  </way>
  <way id="1015076237" version="1" timestamp="2021-12-24T14:58:31Z" changeset="115338991" uid="8661831" user="Colin_Jones">
    <nd ref="9363960735"/>
    <nd ref="9363960734"/>
    <nd ref="9363960733"/>
    <nd ref="9363960732"/>
    <nd ref="9363960735"/>
    <tag k="addr:housenumber" v="13"/>
    <tag k="addr:street" v="Bell Close"/>
    <tag k="addr:village" v="Meldreth"/>
    <tag k="building" v="house"/>
  </way>
  <way id="1015076238" version="1" timestamp="2021-12-24T14:58:31Z" changeset="115338991" uid="8661831" user="Colin_Jones">
    <nd ref="9363960739"/>
    <nd ref="9363960738"/>
    <nd ref="9363960737"/>
    <nd ref="9363960736"/>
    <nd ref="9363960739"/>
    <tag k="addr:housenumber" v="12"/>
    <tag k="addr:street" v="Bell Close"/>
    <tag k="addr:village" v="Meldreth"/>
    <tag k="building" v="house"/>
  </way>
  <way id="1015076239" version="1" timestamp="2021-12-24T14:58:31Z" changeset="115338991" uid="8661831" user="Colin_Jones">
    <nd ref="9363960743"/>
    <nd ref="9363960742"/>
    <nd ref="9363960741"/>
    <nd ref="9363960740"/>
    <nd ref="9363960743"/>
    <tag k="addr:housenumber" v="11"/>
    <tag k="addr:street" v="Bell Close"/>
    <tag k="addr:village" v="Meldreth"/>
    <tag k="building" v="house"/>
  </way>
  <way id="1015076240" version="1" timestamp="2021-12-24T14:58:31Z" changeset="115338991" uid="8661831" user="Colin_Jones">
    <nd ref="9363960749"/>
    <nd ref="9363960748"/>
    <nd ref="9363960747"/>
    <nd ref="9363960746"/>
    <nd ref="9363960749"/>
    <tag k="addr:housenumber" v="31"/>
    <tag k="addr:street" v="Bell Close"/>
    <tag k="addr:village" v="Meldreth"/>
    <tag k="building" v="house"/>
  </way>
  <way id="1015076241" version="1" timestamp="2021-12-24T14:58:31Z" changeset="115338991" uid="8661831" user="Colin_Jones">
    <nd ref="9363960754"/>
    <nd ref="9363960753"/>
    <nd ref="9363960752"/>
    <nd ref="9363960751"/>
    <nd ref="9363960750"/>
    <nd ref="9363960754"/>
    <tag k="addr:housenumber" v="30"/>
    <tag k="addr:street" v="Bell Close"/>
    <tag k="addr:village" v="Meldreth"/>
    <tag k="building" v="house"/>
  </way>
  <way id="1015076242" version="1" timestamp="2021-12-24T14:58:31Z" changeset="115338991" uid="8661831" user="Colin_Jones">
    <nd ref="9363960758"/>
    <nd ref="9363960757"/>
    <nd ref="9363960756"/>
    <nd ref="9363960755"/>
    <nd ref="9363960758"/>
    <tag k="addr:housenumber" v="29"/>
    <tag k="addr:street" v="Bell Close"/>
    <tag k="addr:village" v="Meldreth"/>
    <tag k="building" v="house"/>
  </way>
  <way id="1015076243" version="1" timestamp="2021-12-24T14:58:31Z" changeset="115338991" uid="8661831" user="Colin_Jones">
    <nd ref="9363960763"/>
    <nd ref="9363960762"/>
    <nd ref="9363960761"/>
    <nd ref="9363960760"/>
    <nd ref="9363960759"/>
    <nd ref="9363960763"/>
    <tag k="addr:housenumber" v="26"/>
    <tag k="addr:street" v="Bell Close"/>
    <tag k="addr:village" v="Meldreth"/>
    <tag k="building" v="house"/>
  </way>
  <way id="1015076244" version="1" timestamp="2021-12-24T14:58:31Z" changeset="115338991" uid="8661831" user="Colin_Jones">
    <nd ref="9363960768"/>
    <nd ref="9363960767"/>
    <nd ref="9363960766"/>
    <nd ref="9363960765"/>
    <nd ref="9363960764"/>
    <nd ref="9363960768"/>
    <tag k="addr:housenumber" v="25"/>
    <tag k="addr:street" v="Bell Close"/>
    <tag k="addr:village" v="Meldreth"/>
    <tag k="building" v="house"/>
  </way>
  <way id="1015076245" version="1" timestamp="2021-12-24T14:58:31Z" changeset="115338991" uid="8661831" user="Colin_Jones">
    <nd ref="9363960773"/>
    <nd ref="9363960772"/>
    <nd ref="9363960771"/>
    <nd ref="9363960770"/>
    <nd ref="9363960769"/>
    <nd ref="9363960773"/>
    <tag k="addr:housenumber" v="39"/>
    <tag k="addr:street" v="Bell Close"/>
    <tag k="addr:village" v="Meldreth"/>
    <tag k="building" v="house"/>
  </way>
  <way id="1015076246" version="1" timestamp="2021-12-24T14:58:31Z" changeset="115338991" uid="8661831" user="Colin_Jones">
    <nd ref="9363960777"/>
    <nd ref="9363960776"/>
    <nd ref="9363960775"/>
    <nd ref="9363960774"/>
    <nd ref="9363960777"/>
    <tag k="addr:housenumber" v="34"/>
    <tag k="addr:street" v="Bell Close"/>
    <tag k="addr:village" v="Meldreth"/>
    <tag k="building" v="house"/>
  </way>
  <way id="1015076247" version="1" timestamp="2021-12-24T14:58:31Z" changeset="115338991" uid="8661831" user="Colin_Jones">
    <nd ref="9363960782"/>
    <nd ref="9363960781"/>
    <nd ref="9363960780"/>
    <nd ref="9363960779"/>
    <nd ref="9363960778"/>
    <nd ref="9363960782"/>
    <tag k="addr:housenumber" v="37"/>
    <tag k="addr:street" v="Bell Close"/>
    <tag k="addr:village" v="Meldreth"/>
    <tag k="building" v="house"/>
  </way>
  <way id="1015076248" version="1" timestamp="2021-12-24T14:58:31Z" changeset="115338991" uid="8661831" user="Colin_Jones">
    <nd ref="9363960786"/>
    <nd ref="9363960785"/>
    <nd ref="9363960784"/>
    <nd ref="9363960783"/>
    <nd ref="9363960786"/>
    <tag k="addr:housenumber" v="38"/>
    <tag k="addr:street" v="Bell Close"/>
    <tag k="addr:village" v="Meldreth"/>
    <tag k="building" v="house"/>
  </way>
  <way id="1015076249" version="1" timestamp="2021-12-24T14:58:31Z" changeset="115338991" uid="8661831" user="Colin_Jones">
    <nd ref="9363960790"/>
    <nd ref="9363960789"/>
    <nd ref="9363960788"/>
    <nd ref="9363960787"/>
    <nd ref="9363960790"/>
    <tag k="addr:housenumber" v="35"/>
    <tag k="addr:street" v="Bell Close"/>
    <tag k="addr:village" v="Meldreth"/>
    <tag k="building" v="house"/>
  </way>
  <way id="1015076250" version="1" timestamp="2021-12-24T14:58:31Z" changeset="115338991" uid="8661831" user="Colin_Jones">
    <nd ref="9363960795"/>
    <nd ref="9363960794"/>
    <nd ref="9363960793"/>
    <nd ref="9363960792"/>
    <nd ref="9363960791"/>
    <nd ref="9363960795"/>
    <tag k="addr:housenumber" v="36"/>
    <tag k="addr:street" v="Bell Close"/>
    <tag k="addr:village" v="Meldreth"/>
    <tag k="building" v="house"/>
  </way>
  <way id="1015076251" version="1" timestamp="2021-12-24T14:58:31Z" changeset="115338991" uid="8661831" user="Colin_Jones">
    <nd ref="9363960800"/>
    <nd ref="9363960799"/>
    <nd ref="9363960798"/>
    <nd ref="9363960797"/>
    <nd ref="9363960796"/>
    <nd ref="9363960800"/>
    <tag k="addr:housenumber" v="33"/>
    <tag k="addr:street" v="Bell Close"/>
    <tag k="addr:village" v="Meldreth"/>
    <tag k="building" v="house"/>
  </way>
  <way id="1015076252" version="1" timestamp="2021-12-24T14:58:31Z" changeset="115338991" uid="8661831" user="Colin_Jones">
    <nd ref="9363960804"/>
    <nd ref="9363960803"/>
    <nd ref="9363960802"/>
    <nd ref="9363960801"/>
    <nd ref="9363960804"/>
    <tag k="addr:housenumber" v="32"/>
    <tag k="addr:street" v="Bell Close"/>
    <tag k="addr:village" v="Meldreth"/>
    <tag k="building" v="house"/>
  </way>
  <way id="1015076253" version="1" timestamp="2021-12-24T14:58:31Z" changeset="115338991" uid="8661831" user="Colin_Jones">
    <nd ref="9363960809"/>
    <nd ref="9363960808"/>
    <nd ref="9363960807"/>
    <nd ref="9363960806"/>
    <nd ref="9363960805"/>
    <nd ref="9363960809"/>
    <tag k="addr:housenumber" v="28"/>
    <tag k="addr:street" v="Bell Close"/>
    <tag k="addr:village" v="Meldreth"/>
    <tag k="building" v="house"/>
  </way>
  <way id="1015079849" version="1" timestamp="2021-12-24T15:22:57Z" changeset="115339613" uid="8661831" user="Colin_Jones">
    <nd ref="9364018758"/>
    <nd ref="9364018757"/>
    <nd ref="9364018756"/>
    <nd ref="9364018755"/>
    <nd ref="9364018754"/>
    <nd ref="9364018753"/>
    <nd ref="9364018758"/>
    <tag k="addr:housenumber" v="9"/>
    <tag k="addr:street" v="Bell Close"/>
    <tag k="addr:village" v="Meldreth"/>
    <tag k="building" v="house"/>
  </way>
  <way id="1015079850" version="1" timestamp="2021-12-24T15:22:57Z" changeset="115339613" uid="8661831" user="Colin_Jones">
    <nd ref="9364018762"/>
    <nd ref="5863953385"/>
    <nd ref="5863953284"/>
    <nd ref="9364018761"/>
    <nd ref="9364018762"/>
    <tag k="addr:housenumber" v="8"/>
    <tag k="addr:street" v="Bell Close"/>
    <tag k="building" v="house"/>
  </way>
  <way id="1015079851" version="1" timestamp="2021-12-24T15:22:57Z" changeset="115339613" uid="8661831" user="Colin_Jones">
    <nd ref="9364018764"/>
    <nd ref="5863953282"/>
    <nd ref="5863953279"/>
    <nd ref="9364018763"/>
    <nd ref="9364018764"/>
    <tag k="addr:housenumber" v="6"/>
    <tag k="addr:street" v="Bell Close"/>
    <tag k="building" v="house"/>
  </way>
  <way id="1015079852" version="1" timestamp="2021-12-24T15:22:57Z" changeset="115339613" uid="8661831" user="Colin_Jones">
    <nd ref="9364018766"/>
    <nd ref="5863953277"/>
    <nd ref="5863953276"/>
    <nd ref="9364018765"/>
    <nd ref="9364018766"/>
    <tag k="addr:housenumber" v="1"/>
    <tag k="addr:street" v="Bell Close"/>
    <tag k="addr:village" v="Meldreth"/>
    <tag k="building" v="bungalow"/>
  </way>
  <way id="1015079853" version="1" timestamp="2021-12-24T15:22:57Z" changeset="115339613" uid="8661831" user="Colin_Jones">
    <nd ref="9364018768"/>
    <nd ref="9364018766"/>
    <nd ref="9364018765"/>
    <nd ref="9364018767"/>
    <nd ref="9364018768"/>
    <tag k="addr:housenumber" v="2"/>
    <tag k="addr:street" v="Bell Close"/>
    <tag k="addr:village" v="Meldreth"/>
    <tag k="building" v="bungalow"/>
  </way>
  <way id="1015079854" version="1" timestamp="2021-12-24T15:22:57Z" changeset="115339613" uid="8661831" user="Colin_Jones">
    <nd ref="9364018770"/>
    <nd ref="9364018768"/>
    <nd ref="9364018767"/>
    <nd ref="9364018769"/>
    <nd ref="9364018770"/>
    <tag k="addr:housenumber" v="3"/>
    <tag k="addr:street" v="Bell Close"/>
    <tag k="addr:village" v="Meldreth"/>
    <tag k="building" v="bungalow"/>
  </way>
  <way id="1015079855" version="1" timestamp="2021-12-24T15:22:57Z" changeset="115339613" uid="8661831" user="Colin_Jones">
    <nd ref="9364018772"/>
    <nd ref="9364018782"/>
    <nd ref="9364018781"/>
    <nd ref="9364018771"/>
    <nd ref="9364018772"/>
    <tag k="addr:housenumber" v="16"/>
    <tag k="addr:street" v="Bell Close"/>
    <tag k="addr:village" v="Meldreth"/>
    <tag k="building" v="house"/>
  </way>
  <way id="1015079856" version="1" timestamp="2021-12-24T15:22:57Z" changeset="115339613" uid="8661831" user="Colin_Jones">
    <nd ref="9364018774"/>
    <nd ref="9364018772"/>
    <nd ref="9364018771"/>
    <nd ref="9364018773"/>
    <nd ref="9364018774"/>
    <tag k="addr:housenumber" v="15"/>
    <tag k="addr:street" v="Bell Close"/>
    <tag k="addr:village" v="Meldreth"/>
    <tag k="building" v="house"/>
  </way>
  <way id="1015079857" version="1" timestamp="2021-12-24T15:22:57Z" changeset="115339613" uid="8661831" user="Colin_Jones">
    <nd ref="9364018776"/>
    <nd ref="9364018786"/>
    <nd ref="9364018783"/>
    <nd ref="9364018775"/>
    <nd ref="9364018776"/>
    <tag k="addr:housenumber" v="19"/>
    <tag k="addr:street" v="Bell Close"/>
    <tag k="addr:village" v="Meldreth"/>
    <tag k="building" v="house"/>
  </way>
  <way id="1015079858" version="1" timestamp="2021-12-24T15:22:57Z" changeset="115339613" uid="8661831" user="Colin_Jones">
    <nd ref="9364018778"/>
    <nd ref="9364018776"/>
    <nd ref="9364018775"/>
    <nd ref="9364018777"/>
    <nd ref="9364018778"/>
    <tag k="addr:housenumber" v="18"/>
    <tag k="addr:street" v="Bell Close"/>
    <tag k="addr:village" v="Meldreth"/>
    <tag k="building" v="house"/>
  </way>
  <way id="1015079859" version="1" timestamp="2021-12-24T15:22:57Z" changeset="115339613" uid="8661831" user="Colin_Jones">
    <nd ref="9364018779"/>
    <nd ref="9364018774"/>
    <nd ref="9364018773"/>
    <nd ref="9364018780"/>
    <nd ref="9364018779"/>
    <tag k="addr:housenumber" v="14"/>
    <tag k="addr:street" v="Bell Close"/>
    <tag k="addr:village" v="Meldreth"/>
    <tag k="building" v="house"/>
  </way>
  <way id="1015079860" version="1" timestamp="2021-12-24T15:22:57Z" changeset="115339613" uid="8661831" user="Colin_Jones">
    <nd ref="9364018785"/>
    <nd ref="9364018778"/>
    <nd ref="9364018777"/>
    <nd ref="9364018784"/>
    <nd ref="9364018785"/>
    <tag k="addr:housenumber" v="17"/>
    <tag k="addr:street" v="Bell Close"/>
    <tag k="addr:village" v="Meldreth"/>
    <tag k="building" v="house"/>
  </way>
  <way id="1015079861" version="1" timestamp="2021-12-24T15:22:57Z" changeset="115339613" uid="8661831" user="Colin_Jones">
    <nd ref="9364018790"/>
    <nd ref="9364018789"/>
    <nd ref="9364018788"/>
    <nd ref="9364018787"/>
    <nd ref="9364018790"/>
    <tag k="addr:housenumber" v="20"/>
    <tag k="addr:street" v="Bell Close"/>
    <tag k="addr:village" v="Meldreth"/>
    <tag k="building" v="house"/>
  </way>
  <way id="1015079862" version="1" timestamp="2021-12-24T15:22:57Z" changeset="115339613" uid="8661831" user="Colin_Jones">
    <nd ref="9364018794"/>
    <nd ref="9364018793"/>
    <nd ref="9364018792"/>
    <nd ref="9364018791"/>
    <nd ref="9364018794"/>
    <tag k="addr:housenumber" v="21"/>
    <tag k="addr:street" v="Bell Close"/>
    <tag k="addr:village" v="Meldreth"/>
    <tag k="building" v="house"/>
  </way>
  <way id="1015079863" version="1" timestamp="2021-12-24T15:22:57Z" changeset="115339613" uid="8661831" user="Colin_Jones">
    <nd ref="9364018796"/>
    <nd ref="9364018801"/>
    <nd ref="9364018800"/>
    <nd ref="9364018795"/>
    <nd ref="9364018796"/>
    <tag k="addr:housenumber" v="22"/>
    <tag k="addr:street" v="Bell Close"/>
    <tag k="addr:village" v="Meldreth"/>
    <tag k="building" v="house"/>
  </way>
  <way id="1015079864" version="1" timestamp="2021-12-24T15:22:57Z" changeset="115339613" uid="8661831" user="Colin_Jones">
    <nd ref="9364018798"/>
    <nd ref="9364018796"/>
    <nd ref="9364018795"/>
    <nd ref="9364018797"/>
    <nd ref="9364018798"/>
    <tag k="addr:housenumber" v="23"/>
    <tag k="addr:street" v="Bell Close"/>
    <tag k="addr:village" v="Meldreth"/>
    <tag k="building" v="house"/>
  </way>
  <way id="1015079865" version="1" timestamp="2021-12-24T15:22:57Z" changeset="115339613" uid="8661831" user="Colin_Jones">
    <nd ref="9364018802"/>
    <nd ref="9364018798"/>
    <nd ref="9364018797"/>
    <nd ref="9364018799"/>
    <nd ref="9364018802"/>
    <tag k="addr:housenumber" v="24"/>
    <tag k="addr:street" v="Bell Close"/>
    <tag k="addr:village" v="Meldreth"/>
    <tag k="building" v="house"/>
  </way>
  <way id="1091863242" version="1" timestamp="2022-09-04T14:25:42Z" changeset="125774932" uid="10343046" user="WonderfulSloth">
    <nd ref="5863947300"/>
    <nd ref="5863947304"/>
    <nd ref="9999740887"/>
    <nd ref="9999740888"/>
    <nd ref="9999740889"/>
    <nd ref="5863947300"/>
    <tag k="addr:city" v="Royston"/>
    <tag k="addr:housename" v="Valley Farm"/>
    <tag k="addr:postcode" v="SG8 6JP"/>
    <tag k="addr:street" v="Station Road"/>
    <tag k="building" v="yes"/>
    <tag k="leisure" v="fitness_centre"/>
    <tag k="name" v="OVRLOAD Strength &amp; Conditioning"/>
    <tag k="sport" v="fitness"/>
    <tag k="website" v="https://www.ovrload.co.uk/"/>
  </way>

</osm>
