<?xml version="1.0" encoding="UTF-8"?>
<osm version="0.6" generator="Overpass API 0.7.62.4 2390de5a">
<note>The data included in this document is from www.openstreetmap.org. The data is made available under ODbL.</note>
<meta osm_base="2024-11-27T17:16:02Z" areas="2024-11-27T16:03:35Z"/>

  <way id="227992919" version="5" timestamp="2021-06-15T06:58:47Z" changeset="106375959" uid="13563954" user="LongSnoot">
    <nd ref="2366168053"/>
    <nd ref="2366168055"/>
    <nd ref="2366168057"/>
    <nd ref="2366168059"/>
    <nd ref="2366168061"/>
    <nd ref="2366168063"/>
    <nd ref="2366168065"/>
    <nd ref="2366168068"/>
    <nd ref="2366168070"/>
    <nd ref="2366168072"/>
    <nd ref="2366168074"/>
    <nd ref="2366168076"/>
    <nd ref="2366168078"/>
    <nd ref="2366168080"/>
    <nd ref="2366168082"/>
    <nd ref="2366168085"/>
    <nd ref="2366168087"/>
    <nd ref="2366168089"/>
    <nd ref="2366168091"/>
    <nd ref="2366168035"/>
    <nd ref="2366168093"/>
    <nd ref="2366168095"/>
    <nd ref="2366168097"/>
    <nd ref="2366168099"/>
    <nd ref="2366168100"/>
    <nd ref="2366168101"/>
    <nd ref="2366168102"/>
    <nd ref="2366168103"/>
    <nd ref="2366168053"/>
    <tag k="addr:city" v="Stretham"/>
    <tag k="addr:postcode" v="CB6 3JN"/>
    <tag k="addr:street" v="Wood Lane"/>
    <tag k="building" v="school"/>
    <tag k="name" v="Stretham Primary School"/>
    <tag k="phone" v="+44 1353 649271"/>
    <tag k="website" v="http://www.strethamschool.co.uk/"/>
  </way>
  <way id="231354131" version="5" timestamp="2023-05-03T22:42:00Z" changeset="135678636" uid="3999" user="BarryMyles">
    <nd ref="2397433546"/>
    <nd ref="2397433548"/>
    <nd ref="2397433550"/>
    <nd ref="2397433552"/>
    <nd ref="2397433554"/>
    <nd ref="2397433556"/>
    <nd ref="2397433558"/>
    <nd ref="2397433560"/>
    <nd ref="2397433562"/>
    <nd ref="2397433564"/>
    <nd ref="2397433566"/>
    <nd ref="2397433568"/>
    <nd ref="2397433546"/>
    <tag k="addr:city" v="Stretham"/>
    <tag k="addr:postcode" v="CB6 3XN"/>
    <tag k="addr:street" v="Chapel Lane"/>
    <tag k="building" v="yes"/>
    <tag k="name" v="Stretham Telephone Exchange"/>
    <tag k="operator" v="Openreach"/>
    <tag k="operator:wikidata" v="Q7096543"/>
    <tag k="ref" v="EASRM"/>
    <tag k="telecom" v="exchange"/>
  </way>
  <way id="332552309" version="7" timestamp="2021-06-15T18:15:44Z" changeset="106417246" uid="13563954" user="LongSnoot">
    <nd ref="3396988756"/>
    <nd ref="4440943422"/>
    <nd ref="3396988737"/>
    <nd ref="3396987074"/>
    <nd ref="3396988774"/>
    <nd ref="3396988707"/>
    <nd ref="3396988770"/>
    <nd ref="3396988756"/>
    <tag k="addr:housenumber" v="45"/>
    <tag k="addr:postcode" v="CB6 3JQ"/>
    <tag k="addr:street" v="High Street"/>
    <tag k="building" v="retail"/>
    <tag k="building:levels" v="2"/>
    <tag k="fhrs:id" v="336277"/>
    <tag k="name" v="Stretham Stores"/>
    <tag k="opening_hours" v="Mo-Sa 06:00-20:00; Su 08:00-16:00"/>
    <tag k="roof:levels" v="0"/>
    <tag k="roof:shape" v="gabled"/>
    <tag k="shop" v="convenience"/>
  </way>
  <way id="415288475" version="2" timestamp="2022-06-09T18:13:53Z" changeset="122178344" uid="165" user="Richard">
    <nd ref="29976777"/>
    <nd ref="4163279790"/>
    <nd ref="4163279807"/>
    <nd ref="4163279663"/>
    <nd ref="29976777"/>
    <tag k="addr:postcode" v="CB6 3LU"/>
    <tag k="addr:street" v="Cambridge Road"/>
    <tag k="building" v="yes"/>
    <tag k="disused:amenity" v="pub"/>
    <tag k="name" v="The Lazy Otter"/>
  </way>
  <way id="517344596" version="2" timestamp="2023-08-25T18:13:27Z" changeset="140384030" uid="19332" user="Colin Watson">
    <nd ref="5048617251"/>
    <nd ref="5048617250"/>
    <nd ref="5048617249"/>
    <nd ref="5048617248"/>
    <nd ref="5048617251"/>
    <tag k="addr:housenumber" v="6A"/>
    <tag k="addr:postcode" v="CB6 3JZ"/>
    <tag k="addr:street" v="Newmarket Road"/>
    <tag k="amenity" v="fast_food"/>
    <tag k="building" v="retail"/>
    <tag k="cuisine" v="chinese;fish_and_chips"/>
    <tag k="fhrs:id" v="631861"/>
    <tag k="name" v="Will Wok"/>
    <tag k="opening_hours" v="Tu-Th,Su 16:30-22:00; Fr,Sa 16:00-22:30; PH,Mo off"/>
    <tag k="source" v="survey"/>
    <tag k="source:addr" v="FHRS Open Data"/>
    <tag k="source:geometry" v="Bing"/>
  </way>

</osm>
