<?xml version="1.0" encoding="UTF-8"?>
<osm version="0.6" generator="Overpass API 0.7.62.4 2390de5a">
<note>The data included in this document is from www.openstreetmap.org. The data is made available under ODbL.</note>
<meta osm_base="2025-01-21T14:38:40Z" areas="2024-12-31T00:49:33Z"/>

  <node id="11198393217" lat="52.2284044" lon="-0.0501758" version="2" timestamp="2023-10-23T19:16:54Z" changeset="143032250" uid="5113580" user="Craske">
    <tag k="addr:city" v="Cambridge"/>
    <tag k="addr:housename" v="Unit 5"/>
    <tag k="addr:postcode" v="CB23 4NS"/>
    <tag k="addr:street" v="Knapwell Wood Farm"/>
    <tag k="leisure" v="fitness_centre"/>
    <tag k="name" v="OUTTRAIN"/>
    <tag k="phone" v="+44 1954 716160"/>
    <tag k="sport" v="fitness"/>
    <tag k="website" v="https://www.outtrain.co.uk"/>
  </node>
  <node id="11932816545" lat="52.2285746" lon="-0.0499632" version="1" timestamp="2024-05-25T11:15:04Z" changeset="151806052" uid="5113580" user="Craske">
    <tag k="addr:city" v="Knapwell"/>
    <tag k="addr:housename" v="The Dutch Barn"/>
    <tag k="addr:postcode" v="CB23 4NS"/>
    <tag k="addr:street" v="Knapwell Wood Farm"/>
    <tag k="amenity" v="cafe"/>
    <tag k="cuisine" v="coffee_shop"/>
    <tag k="name" v="The Hatch Coffee House"/>
    <tag k="opening_hours" v="Sa-Su 09:00-11:30"/>
    <tag k="website" v="https://www.instagram.com/thehatch_coffeehouse"/>
  </node>
  <way id="372020957" version="3" timestamp="2023-09-17T19:36:08Z" changeset="141395959" uid="5113580" user="Craske">
    <nd ref="3755598688"/>
    <nd ref="3755598845"/>
    <nd ref="3755598844"/>
    <nd ref="11198393216"/>
    <nd ref="11198393205"/>
    <nd ref="3755598843"/>
    <nd ref="3755598688"/>
    <tag k="addr:city" v="Knapwell"/>
    <tag k="addr:postcode" v="CB23 4NS"/>
    <tag k="addr:street" v="Knapwell Wood Farm"/>
    <tag k="building" v="residential"/>
    <tag k="name" v="Knapwell Wood Farm House"/>
  </way>
  <way id="551190134" version="3" timestamp="2022-09-22T23:27:01Z" changeset="126524515" uid="6476359" user="NSiecw">
    <nd ref="5323224086"/>
    <nd ref="5323224087"/>
    <nd ref="5323224088"/>
    <nd ref="5323224089"/>
    <nd ref="5323224090"/>
    <nd ref="5323224091"/>
    <nd ref="5323224092"/>
    <nd ref="5323224093"/>
    <nd ref="5323224086"/>
    <tag k="addr:city" v="Cambridge"/>
    <tag k="addr:country" v="GB"/>
    <tag k="addr:housename" v="Grange Farm"/>
    <tag k="addr:locality" v="Knapwell"/>
    <tag k="addr:postcode" v="CB23 4NR"/>
    <tag k="addr:street" v="High Street"/>
    <tag k="building" v="commercial"/>
    <tag k="name" v="Grange Farm"/>
    <tag k="operator" v="RSPB"/>
  </way>
  <way id="551190143" version="4" timestamp="2024-12-24T10:16:18Z" changeset="160569353" uid="5173844" user="ndrw6">
    <nd ref="5323224230"/>
    <nd ref="5323224231"/>
    <nd ref="5323224232"/>
    <nd ref="5323224233"/>
    <nd ref="5323224230"/>
    <tag k="addr:city" v="Cambridge"/>
    <tag k="addr:country" v="GB"/>
    <tag k="addr:housenumber" v="19"/>
    <tag k="addr:postcode" v="CB23 4NR"/>
    <tag k="addr:street" v="High Street"/>
    <tag k="addr:village" v="Knapwell"/>
    <tag k="building" v="house"/>
    <tag k="building:levels" v="2"/>
    <tag k="name" v="Manor Cottage"/>
  </way>
  <way id="1132092809" version="3" timestamp="2024-08-03T15:47:38Z" changeset="154779447" uid="669183" user="Andy_W">
    <nd ref="10555768366"/>
    <nd ref="10555768365"/>
    <nd ref="10555768364"/>
    <nd ref="12090583111"/>
    <nd ref="1439119174"/>
    <nd ref="10555768368"/>
    <nd ref="12090583096"/>
    <nd ref="12090583097"/>
    <nd ref="12090583098"/>
    <nd ref="12090583099"/>
    <nd ref="12090583100"/>
    <nd ref="10555768366"/>
    <tag k="addr:city" v="Cambridge"/>
    <tag k="addr:country" v="GB"/>
    <tag k="addr:housename" v="Grange Farm"/>
    <tag k="addr:locality" v="Knapwell"/>
    <tag k="addr:postcode" v="CB23 4NR"/>
    <tag k="addr:street" v="High Street"/>
    <tag k="alt_name" v="Grange Farm"/>
    <tag k="description" v="This is known as Hope Farm by the RSPB but has a &quot;postal name&quot; of Grange Farm."/>
    <tag k="landuse" v="farmyard"/>
    <tag k="name" v="RSPB Hope Farm"/>
    <tag k="operator" v="RSPB"/>
  </way>
  <way id="1208602556" version="2" timestamp="2024-02-15T20:43:01Z" changeset="147507656" uid="5113580" user="Craske">
    <nd ref="11198393201"/>
    <nd ref="11198393202"/>
    <nd ref="11198393203"/>
    <nd ref="11198393204"/>
    <nd ref="11198393201"/>
    <tag k="addr:city" v="Cambridge"/>
    <tag k="addr:postcode" v="CB23 4NS"/>
    <tag k="addr:street" v="Knapwell"/>
    <tag k="building" v="commercial"/>
    <tag k="email" v="hello@chillattheyard.co.uk"/>
    <tag k="leisure" v="sauna"/>
    <tag k="name" v="Chill at the Yard"/>
    <tag k="opening_hours" v="Mo-Su 07:00-21:00"/>
    <tag k="phone" v="+44 7976 294537"/>
    <tag k="website" v="https://www.chillattheyard.co.uk/"/>
  </way>

</osm>
