<?xml version="1.0" encoding="UTF-8"?>
<osm version="0.6" generator="Overpass API 0.7.62.4 2390de5a">
<note>The data included in this document is from www.openstreetmap.org. The data is made available under ODbL.</note>
<meta osm_base="2025-01-23T15:32:00Z" areas="2024-12-31T00:49:33Z"/>

  <node id="26976590" lat="52.2636125" lon="0.1795876" version="11" timestamp="2022-04-24T12:17:51Z" changeset="120121979" uid="1102246" user="jtn20">
    <tag k="addr:postcode" v="CB25 9NN"/>
    <tag k="addr:street" v="Ely Road"/>
    <tag k="amenity" v="restaurant"/>
    <tag k="cuisine" v="indian"/>
    <tag k="fhrs:id" v="1432876"/>
    <tag k="name" v="Indian Kitchen"/>
    <tag k="source:addr" v="FSA Food Hygiene Ratings Database"/>
    <tag k="source:postcode" v="survey"/>
    <tag k="takeaway" v="yes"/>
  </node>
  <node id="474737965" lat="52.2709770" lon="0.1632636" version="3" timestamp="2011-11-05T21:00:16Z" changeset="9750507" uid="2406" user="JeffB">
    <tag k="addr:housenumber" v="82-84"/>
    <tag k="addr:street" v="Green End"/>
    <tag k="building" v="house"/>
    <tag k="name" v="College House"/>
    <tag k="source" v="dictaphone"/>
  </node>
  <node id="474737968" lat="52.2698434" lon="0.1629880" version="3" timestamp="2010-05-01T06:58:47Z" changeset="4571947" uid="2020" user="comsomol">
    <tag k="addr:street" v="Green End"/>
    <tag k="name" v="Hatley's Children's Pit"/>
    <tag k="natural" v="water"/>
    <tag k="operator" v="Waterbeach Angling Club"/>
    <tag k="source" v="dictaphone"/>
  </node>
  <node id="509263045" lat="52.2685526" lon="0.1610730" version="8" timestamp="2017-06-22T08:51:26Z" changeset="49740478" uid="364" user="Edward">
    <tag k="addr:city" v="Landbeach"/>
    <tag k="addr:housename" v="Old Beach Farm"/>
    <tag k="addr:housenumber" v="89"/>
    <tag k="addr:postcode" v="CB25 9FD"/>
    <tag k="addr:street" v="Green End"/>
    <tag k="building" v="house"/>
    <tag k="name" v="Old Beach Farm"/>
    <tag k="source:name" v="survey"/>
    <tag k="wikidata" v="Q26420289"/>
  </node>
  <node id="509263053" lat="52.2687593" lon="0.1613465" version="6" timestamp="2018-01-30T09:49:07Z" changeset="55887879" uid="364" user="Edward">
    <tag k="addr:housenumber" v="91"/>
    <tag k="addr:street" v="Green End"/>
    <tag k="building" v="house"/>
    <tag k="name" v="North Farm"/>
    <tag k="source" v="survey"/>
    <tag k="wikidata" v="Q26473723"/>
  </node>
  <node id="509263066" lat="52.2689804" lon="0.1620452" version="4" timestamp="2018-10-20T21:28:02Z" changeset="63715031" uid="5173844" user="ndrw6">
    <tag k="addr:housenumber" v="40"/>
    <tag k="addr:postcode" v="CB25 9FD"/>
    <tag k="addr:street" v="Green End"/>
    <tag k="source:addr:housenumber" v="survey"/>
  </node>
  <node id="706562652" lat="52.2632117" lon="0.1631207" version="4" timestamp="2011-11-05T17:16:16Z" changeset="9748419" uid="2406" user="JeffB">
    <tag k="addr:housenumber" v="15"/>
    <tag k="addr:street" v="Abrahams Close"/>
    <tag k="source" v="survey"/>
  </node>
  <node id="707990434" lat="52.2669778" lon="0.1621684" version="3" timestamp="2018-10-20T21:28:02Z" changeset="63715031" uid="5173844" user="ndrw6">
    <tag k="addr:housenumber" v="1"/>
    <tag k="addr:postcode" v="CB25 9GD"/>
    <tag k="addr:street" v="Ravensdale"/>
  </node>
  <node id="707990439" lat="52.2669461" lon="0.1617460" version="2" timestamp="2011-11-06T13:19:37Z" changeset="9755062" uid="2406" user="JeffB">
    <tag k="addr:housenumber" v="2"/>
    <tag k="addr:street" v="Ravensdale"/>
    <tag k="name" v="All Saint's Barn"/>
    <tag k="source:name" v="survey"/>
  </node>
  <node id="707990442" lat="52.2666836" lon="0.1620196" version="3" timestamp="2018-10-20T21:28:02Z" changeset="63715031" uid="5173844" user="ndrw6">
    <tag k="addr:housenumber" v="3"/>
    <tag k="addr:postcode" v="CB25 9GD"/>
    <tag k="addr:street" v="Ravensdale"/>
    <tag k="name" v="Church Barn"/>
    <tag k="source:name" v="survey"/>
  </node>
  <node id="707990445" lat="52.2667557" lon="0.1622717" version="3" timestamp="2018-10-20T21:28:02Z" changeset="63715031" uid="5173844" user="ndrw6">
    <tag k="addr:housenumber" v="4"/>
    <tag k="addr:postcode" v="CB25 9GD"/>
    <tag k="addr:street" v="Ravensdale"/>
  </node>
  <node id="708030775" lat="52.2639201" lon="0.1789100" version="3" timestamp="2011-11-05T19:46:20Z" changeset="9749714" uid="2406" user="JeffB">
    <tag k="addr:housenumber" v="147-149"/>
    <tag k="addr:street" v="Waterbeach Road"/>
    <tag k="building" v="house"/>
    <tag k="name" v="Silverwood Lodge"/>
    <tag k="source" v="survey"/>
  </node>
  <node id="708044720" lat="52.2589756" lon="0.1776817" version="3" timestamp="2011-11-06T19:04:50Z" changeset="9758579" uid="2406" user="JeffB">
    <tag k="addr:street" v="Ely Road"/>
    <tag k="building" v="house"/>
    <tag k="name" v="Red Roofs"/>
    <tag k="source" v="survey"/>
  </node>
  <node id="708044733" lat="52.2563454" lon="0.1767338" version="3" timestamp="2010-04-30T20:15:57Z" changeset="4569619" uid="2406" user="JeffB">
    <tag k="addr:street" v="Ely Road"/>
    <tag k="building" v="house"/>
    <tag k="name" v="Hall Farm"/>
    <tag k="source" v="survey"/>
  </node>
  <node id="708044741" lat="52.2561525" lon="0.1764330" version="3" timestamp="2011-11-06T19:28:26Z" changeset="9758579" uid="2406" user="JeffB">
    <tag k="addr:street" v="Ely Road"/>
    <tag k="building" v="house"/>
    <tag k="name" v="Hepworth Farm"/>
    <tag k="source" v="survey"/>
  </node>
  <node id="708044746" lat="52.2554408" lon="0.1761930" version="3" timestamp="2011-11-06T19:28:26Z" changeset="9758579" uid="2406" user="JeffB">
    <tag k="addr:street" v="Ely Road"/>
    <tag k="building" v="house"/>
    <tag k="name" v="Roseleigh Farm"/>
    <tag k="source" v="survey"/>
  </node>
  <node id="708044758" lat="52.2604039" lon="0.1782358" version="2" timestamp="2010-04-30T20:16:06Z" changeset="4569619" uid="2406" user="JeffB">
    <tag k="addr:street" v="Ely Road"/>
    <tag k="building" v="house"/>
    <tag k="name" v="Rose Villa"/>
    <tag k="source" v="survey"/>
  </node>
  <node id="708044763" lat="52.2602669" lon="0.1781913" version="3" timestamp="2011-11-06T19:04:51Z" changeset="9758579" uid="2406" user="JeffB">
    <tag k="addr:street" v="Ely Road"/>
    <tag k="building" v="house"/>
    <tag k="name" v="Rosemead"/>
    <tag k="source" v="survey"/>
  </node>
  <node id="708044778" lat="52.2600362" lon="0.1781071" version="2" timestamp="2010-04-30T20:16:08Z" changeset="4569619" uid="2406" user="JeffB">
    <tag k="addr:street" v="Ely Road"/>
    <tag k="building" v="house"/>
    <tag k="name" v="Banworth"/>
    <tag k="source" v="survey"/>
  </node>
  <node id="708044787" lat="52.2595633" lon="0.1779141" version="2" timestamp="2010-04-30T20:16:04Z" changeset="4569619" uid="2406" user="JeffB">
    <tag k="addr:street" v="Ely Road"/>
    <tag k="building" v="house"/>
    <tag k="name" v="Marylands"/>
    <tag k="source" v="survey"/>
  </node>
  <node id="708044814" lat="52.2591570" lon="0.1777380" version="3" timestamp="2011-11-06T19:04:50Z" changeset="9758579" uid="2406" user="JeffB">
    <tag k="addr:street" v="Ely Road"/>
    <tag k="building" v="house"/>
    <tag k="name" v="The Bungalow"/>
    <tag k="source" v="survey"/>
  </node>
  <node id="708044832" lat="52.2607323" lon="0.1784291" version="2" timestamp="2010-04-30T20:16:06Z" changeset="4569619" uid="2406" user="JeffB">
    <tag k="addr:street" v="Ely Road"/>
    <tag k="building" v="house"/>
    <tag k="name" v="Belle Vue"/>
    <tag k="source" v="survey"/>
  </node>
  <node id="708044844" lat="52.2606108" lon="0.1782932" version="3" timestamp="2011-11-06T19:04:51Z" changeset="9758579" uid="2406" user="JeffB">
    <tag k="addr:street" v="Ely Road"/>
    <tag k="building" v="house"/>
    <tag k="name" v="Camdene, Honeysuckle Croft"/>
    <tag k="source" v="survey"/>
  </node>
  <node id="708075115" lat="52.2580793" lon="0.1772917" version="2" timestamp="2010-04-30T20:16:00Z" changeset="4569619" uid="2406" user="JeffB">
    <tag k="addr:street" v="Ely Road"/>
    <tag k="building" v="house"/>
    <tag k="name" v="Westview, D.G.Coulson"/>
    <tag k="source" v="survey"/>
  </node>
  <node id="708075123" lat="52.2577906" lon="0.1771915" version="2" timestamp="2010-04-30T20:16:05Z" changeset="4569619" uid="2406" user="JeffB">
    <tag k="addr:street" v="Ely Road"/>
    <tag k="building" v="farmhouse"/>
    <tag k="name" v="The Nurseries"/>
    <tag k="source" v="survey"/>
  </node>
  <node id="708088915" lat="52.2556826" lon="0.1755596" version="3" timestamp="2011-11-06T19:53:38Z" changeset="9758884" uid="2406" user="JeffB">
    <tag k="addr:street" v="Ely Road"/>
    <tag k="building" v="house"/>
    <tag k="name" v="Enterprise House"/>
    <tag k="source" v="survey"/>
  </node>
  <node id="708088919" lat="52.2561382" lon="0.1741380" version="3" timestamp="2011-11-06T19:53:38Z" changeset="9758884" uid="2406" user="JeffB">
    <tag k="addr:street" v="Ely Road"/>
    <tag k="building" v="house"/>
    <tag k="name" v="The Hawks"/>
    <tag k="source" v="survey"/>
  </node>
  <node id="708088924" lat="52.2563189" lon="0.1747698" version="3" timestamp="2011-11-06T19:36:54Z" changeset="9758884" uid="2406" user="JeffB">
    <tag k="addr:street" v="Ely Road"/>
    <tag k="building" v="house"/>
    <tag k="name" v="Isas"/>
    <tag k="source" v="survey"/>
  </node>
  <node id="708088930" lat="52.2558858" lon="0.1756181" version="2" timestamp="2010-04-30T20:16:02Z" changeset="4569619" uid="2406" user="JeffB">
    <tag k="addr:street" v="Ely Road"/>
    <tag k="building" v="house"/>
    <tag k="name" v="Nebi Tari"/>
    <tag k="source" v="survey"/>
  </node>
  <node id="708088933" lat="52.2560865" lon="0.1756670" version="3" timestamp="2011-11-06T19:36:54Z" changeset="9758884" uid="2406" user="JeffB">
    <tag k="addr:street" v="Ely Road"/>
    <tag k="building" v="house"/>
    <tag k="name" v="The Retreat"/>
    <tag k="source" v="survey"/>
  </node>
  <node id="708103296" lat="52.2670180" lon="0.1609815" version="2" timestamp="2011-09-26T18:21:59Z" changeset="9404312" uid="2406" user="JeffB">
    <tag k="addr:housenumber" v="63-61"/>
    <tag k="addr:street" v="Green End"/>
    <tag k="building" v="house"/>
  </node>
  <node id="708103303" lat="52.2669532" lon="0.1609935" version="2" timestamp="2011-09-26T18:22:00Z" changeset="9404312" uid="2406" user="JeffB">
    <tag k="addr:housenumber" v="59-57"/>
    <tag k="addr:street" v="Green End"/>
    <tag k="building" v="house"/>
  </node>
  <node id="708103311" lat="52.2668481" lon="0.1610137" version="2" timestamp="2011-09-26T18:21:59Z" changeset="9404312" uid="2406" user="JeffB">
    <tag k="addr:housenumber" v="55-53"/>
    <tag k="addr:street" v="Green End"/>
    <tag k="building" v="house"/>
  </node>
  <node id="708103317" lat="52.2667480" lon="0.1610351" version="2" timestamp="2011-09-26T18:21:59Z" changeset="9404312" uid="2406" user="JeffB">
    <tag k="addr:housenumber" v="49-51"/>
    <tag k="addr:street" v="Green End"/>
    <tag k="building" v="house"/>
  </node>
  <node id="708119955" lat="52.2692222" lon="0.1616523" version="2" timestamp="2011-11-06T13:11:17Z" changeset="9754996" uid="2406" user="JeffB">
    <tag k="addr:housenumber" v="99"/>
    <tag k="addr:street" v="Green End"/>
    <tag k="building" v="house"/>
    <tag k="source:name" v="survey"/>
  </node>
  <node id="708119964" lat="52.2673138" lon="0.1610002" version="2" timestamp="2011-11-06T13:19:36Z" changeset="9755062" uid="2406" user="JeffB">
    <tag k="addr:housenumber" v="65-73"/>
    <tag k="addr:street" v="Green End"/>
    <tag k="building" v="house"/>
  </node>
  <node id="708119969" lat="52.2675765" lon="0.1609252" version="2" timestamp="2011-11-06T13:19:36Z" changeset="9755062" uid="2406" user="JeffB">
    <tag k="addr:housenumber" v="75"/>
    <tag k="addr:street" v="Green End"/>
    <tag k="building" v="house"/>
  </node>
  <node id="708119980" lat="52.2675655" lon="0.1615260" version="2" timestamp="2011-09-26T18:21:59Z" changeset="9404312" uid="2406" user="JeffB">
    <tag k="addr:housenumber" v="18"/>
    <tag k="addr:street" v="Green End"/>
    <tag k="building" v="house"/>
    <tag k="name" v="Widow's Cottage"/>
    <tag k="source:addr:housenumber" v="survey"/>
  </node>
  <node id="708119984" lat="52.2680686" lon="0.1618964" version="2" timestamp="2011-09-26T16:43:04Z" changeset="9403457" uid="2406" user="JeffB">
    <tag k="addr:housenumber" v="30"/>
    <tag k="addr:street" v="Green End"/>
    <tag k="building" v="house"/>
    <tag k="name" v="Clerk's Cottage"/>
    <tag k="source:addr:housenumber" v="survey"/>
  </node>
  <node id="708119986" lat="52.2676476" lon="0.1615984" version="3" timestamp="2011-09-26T18:22:00Z" changeset="9404312" uid="2406" user="JeffB">
    <tag k="addr:housenumber" v="22-20"/>
    <tag k="addr:street" v="Green End"/>
    <tag k="building" v="house"/>
    <tag k="name" v="Duck Cottage, unnamed"/>
    <tag k="source:addr:housenumber" v="survey"/>
  </node>
  <node id="708120009" lat="52.2685232" lon="0.1619967" version="3" timestamp="2012-08-18T10:49:15Z" changeset="12771644" uid="2406" user="JeffB">
    <tag k="addr:housenumber" v="38"/>
    <tag k="addr:street" v="Green End"/>
    <tag k="building" v="house"/>
    <tag k="source:addr:housenumber" v="survey"/>
  </node>
  <node id="709048748" lat="52.2765657" lon="0.1664447" version="1" timestamp="2010-04-27T19:52:43Z" changeset="4544387" uid="2406" user="JeffB">
    <tag k="addr:street" v="Green End"/>
    <tag k="building" v="house"/>
    <tag k="name" v="New Farm Bungalow"/>
    <tag k="source" v="survey"/>
  </node>
  <node id="709048749" lat="52.2768151" lon="0.1666164" version="1" timestamp="2010-04-27T19:52:43Z" changeset="4544387" uid="2406" user="JeffB">
    <tag k="addr:street" v="Green End"/>
    <tag k="building" v="house"/>
    <tag k="name" v="Frith Meadow"/>
    <tag k="source" v="survey"/>
  </node>
  <node id="709051830" lat="52.2638901" lon="0.1623482" version="2" timestamp="2011-11-05T17:16:16Z" changeset="9748419" uid="2406" user="JeffB">
    <tag k="addr:housenumber" v="13,15,17"/>
    <tag k="addr:street" v="High Street"/>
    <tag k="name" v="Cosy Cottages"/>
    <tag k="source" v="survey"/>
  </node>
  <node id="709051843" lat="52.2639968" lon="0.1623502" version="2" timestamp="2011-11-05T17:16:16Z" changeset="9748419" uid="2406" user="JeffB">
    <tag k="addr:housenumber" v="11"/>
    <tag k="addr:street" v="High Street"/>
    <tag k="name" v="Providence Cottages"/>
    <tag k="source" v="survey"/>
  </node>
  <node id="709051853" lat="52.2643752" lon="0.1625473" version="2" timestamp="2011-11-05T17:16:16Z" changeset="9748419" uid="2406" user="JeffB">
    <tag k="addr:housenumber" v="1-3"/>
    <tag k="addr:street" v="High Street"/>
    <tag k="source" v="survey"/>
  </node>
  <node id="709051859" lat="52.2642541" lon="0.1624555" version="2" timestamp="2011-11-05T17:16:16Z" changeset="9748419" uid="2406" user="JeffB">
    <tag k="addr:housenumber" v="5"/>
    <tag k="addr:street" v="High Street"/>
    <tag k="source" v="survey"/>
  </node>
  <node id="709051866" lat="52.2640834" lon="0.1623757" version="2" timestamp="2011-11-05T17:16:16Z" changeset="9748419" uid="2406" user="JeffB">
    <tag k="addr:housenumber" v="7-9"/>
    <tag k="addr:street" v="High Street"/>
    <tag k="source" v="survey"/>
  </node>
  <node id="709051875" lat="52.2632533" lon="0.1624586" version="2" timestamp="2011-11-05T18:08:06Z" changeset="9748891" uid="2406" user="JeffB">
    <tag k="addr:housenumber" v="18A"/>
    <tag k="addr:street" v="High Street"/>
    <tag k="source" v="survey"/>
  </node>
  <node id="709051884" lat="52.2632012" lon="0.1617291" version="1" timestamp="2010-04-27T20:02:49Z" changeset="4544474" uid="2406" user="JeffB">
    <tag k="addr:housenumber" v="16A,16B"/>
    <tag k="addr:street" v="High Street"/>
    <tag k="source" v="survey"/>
  </node>
  <node id="709051894" lat="52.2634777" lon="0.1628102" version="2" timestamp="2011-11-05T17:16:15Z" changeset="9748419" uid="2406" user="JeffB">
    <tag k="addr:housenumber" v="27-29"/>
    <tag k="addr:street" v="High Street"/>
    <tag k="source" v="survey"/>
  </node>
  <node id="709051898" lat="52.2636697" lon="0.1624823" version="4" timestamp="2021-03-07T10:10:23Z" changeset="100567051" uid="8085973" user="Lejun">
    <tag k="addr:housenumber" v="21"/>
    <tag k="addr:street" v="High Street"/>
    <tag k="description" v="modernised in 1620"/>
    <tag k="roof" v="thatched"/>
    <tag k="source" v="survey"/>
    <tag k="wikidata" v="Q26420292"/>
  </node>
  <node id="709051919" lat="52.2638973" lon="0.1619007" version="2" timestamp="2017-06-22T08:51:34Z" changeset="49740478" uid="364" user="Edward">
    <tag k="addr:street" v="High Street"/>
    <tag k="building" v="house"/>
    <tag k="name" v="Worts' Farm"/>
    <tag k="source" v="survey"/>
    <tag k="wikidata" v="Q26589345"/>
  </node>
  <node id="709051927" lat="52.2635344" lon="0.1622608" version="2" timestamp="2011-11-05T18:08:06Z" changeset="9748891" uid="2406" user="JeffB">
    <tag k="addr:street" v="High Street"/>
    <tag k="building" v="shed"/>
    <tag k="name" v="The Granary"/>
    <tag k="source" v="survey"/>
  </node>
  <node id="709055338" lat="52.2631354" lon="0.1629329" version="4" timestamp="2020-01-20T21:44:19Z" changeset="79818634" uid="364" user="Edward">
    <tag k="addr:housenumber" v="35"/>
    <tag k="addr:street" v="High Street"/>
    <tag k="name" v="Plague House"/>
    <tag k="source" v="survey"/>
    <tag k="wikidata" v="Q26420293"/>
  </node>
  <node id="709055345" lat="52.2631458" lon="0.1626913" version="3" timestamp="2011-11-05T18:08:07Z" changeset="9748891" uid="2406" user="JeffB">
    <tag k="addr:housenumber" v="18"/>
    <tag k="addr:street" v="High Street"/>
    <tag k="name" v="The Old Black Bull"/>
    <tag k="source" v="survey"/>
  </node>
  <node id="709055359" lat="52.2629135" lon="0.1627717" version="3" timestamp="2011-11-05T18:08:07Z" changeset="9748891" uid="2406" user="JeffB">
    <tag k="addr:housenumber" v="20A"/>
    <tag k="addr:street" v="High Street"/>
    <tag k="source" v="survey"/>
  </node>
  <node id="709068582" lat="52.2562360" lon="0.1636074" version="3" timestamp="2011-11-06T13:19:36Z" changeset="9755062" uid="2406" user="JeffB">
    <tag k="addr:housenumber" v="138"/>
    <tag k="addr:street" v="High Street"/>
    <tag k="name" v="Melrose"/>
    <tag k="source" v="survey"/>
  </node>
  <node id="709068586" lat="52.2558396" lon="0.1636871" version="2" timestamp="2011-11-05T18:49:48Z" changeset="9748891" uid="2406" user="JeffB">
    <tag k="addr:housenumber" v="146"/>
    <tag k="addr:street" v="High Street"/>
    <tag k="name" v="Farm View"/>
    <tag k="source" v="survey"/>
  </node>
  <node id="709068590" lat="52.2559549" lon="0.1636978" version="2" timestamp="2011-11-05T18:49:48Z" changeset="9748891" uid="2406" user="JeffB">
    <tag k="addr:housenumber" v="144"/>
    <tag k="addr:street" v="High Street"/>
    <tag k="name" v="Lynfield"/>
    <tag k="source" v="survey"/>
  </node>
  <node id="709068594" lat="52.2560432" lon="0.1637461" version="1" timestamp="2010-04-27T20:27:57Z" changeset="4544718" uid="2406" user="JeffB">
    <tag k="addr:housenumber" v="142"/>
    <tag k="addr:street" v="High Street"/>
    <tag k="name" v="Lea Rig"/>
    <tag k="source" v="survey"/>
  </node>
  <node id="709068600" lat="52.2561918" lon="0.1635952" version="2" timestamp="2011-11-05T18:36:23Z" changeset="9748891" uid="2406" user="JeffB">
    <tag k="addr:housenumber" v="140"/>
    <tag k="addr:street" v="High Street"/>
    <tag k="name" v="Carrismere"/>
    <tag k="source" v="survey"/>
  </node>
  <node id="709068604" lat="52.2569975" lon="0.1631325" version="2" timestamp="2011-11-05T18:36:24Z" changeset="9748891" uid="2406" user="JeffB">
    <tag k="addr:housenumber" v="126"/>
    <tag k="addr:street" v="High Street"/>
    <tag k="name" v="Silver Cloud"/>
    <tag k="source" v="survey"/>
  </node>
  <node id="709068614" lat="52.2568941" lon="0.1631694" version="2" timestamp="2011-11-05T18:36:23Z" changeset="9748891" uid="2406" user="JeffB">
    <tag k="addr:housenumber" v="130"/>
    <tag k="addr:street" v="High Street"/>
    <tag k="name" v="Midway"/>
    <tag k="source" v="survey"/>
  </node>
  <node id="709068615" lat="52.2567640" lon="0.1632539" version="3" timestamp="2018-10-20T21:28:03Z" changeset="63715031" uid="5173844" user="ndrw6">
    <tag k="addr:housenumber" v="132"/>
    <tag k="addr:postcode" v="CB25 9FU"/>
    <tag k="addr:street" v="High Street"/>
    <tag k="name" v="Early Sunrise"/>
    <tag k="source" v="survey"/>
  </node>
  <node id="709068616" lat="52.2565534" lon="0.1633974" version="2" timestamp="2011-11-05T18:36:23Z" changeset="9748891" uid="2406" user="JeffB">
    <tag k="addr:housenumber" v="134"/>
    <tag k="addr:street" v="High Street"/>
    <tag k="name" v="Farthings"/>
    <tag k="source" v="survey"/>
  </node>
  <node id="709068619" lat="52.2563798" lon="0.1634577" version="2" timestamp="2011-11-05T18:36:23Z" changeset="9748891" uid="2406" user="JeffB">
    <tag k="addr:housenumber" v="136"/>
    <tag k="addr:street" v="High Street"/>
    <tag k="name" v="Tawny Pipit"/>
    <tag k="source" v="survey"/>
  </node>
  <node id="709068623" lat="52.2580134" lon="0.1628019" version="1" timestamp="2010-04-27T20:28:08Z" changeset="4544718" uid="2406" user="JeffB">
    <tag k="addr:housenumber" v="116"/>
    <tag k="addr:street" v="High Street"/>
    <tag k="source" v="survey"/>
  </node>
  <node id="709068627" lat="52.2577117" lon="0.1627228" version="2" timestamp="2011-11-05T18:36:22Z" changeset="9748891" uid="2406" user="JeffB">
    <tag k="addr:housenumber" v="118"/>
    <tag k="addr:street" v="High Street"/>
    <tag k="name" v="Milbeach House"/>
    <tag k="source" v="survey"/>
  </node>
  <node id="709068631" lat="52.2574487" lon="0.1628449" version="1" timestamp="2010-04-27T20:28:10Z" changeset="4544718" uid="2406" user="JeffB">
    <tag k="addr:housenumber" v="120"/>
    <tag k="addr:street" v="High Street"/>
    <tag k="name" v="Balfron"/>
    <tag k="source" v="survey"/>
  </node>
  <node id="709068633" lat="52.2572602" lon="0.1629702" version="2" timestamp="2011-11-05T18:36:23Z" changeset="9748891" uid="2406" user="JeffB">
    <tag k="addr:housenumber" v="122"/>
    <tag k="addr:street" v="High Street"/>
    <tag k="name" v="Lawson House"/>
    <tag k="source" v="survey"/>
  </node>
  <node id="709068637" lat="52.2571207" lon="0.1631003" version="2" timestamp="2011-11-05T18:36:23Z" changeset="9748891" uid="2406" user="JeffB">
    <tag k="addr:housenumber" v="124"/>
    <tag k="addr:street" v="High Street"/>
    <tag k="name" v="Bracondale"/>
    <tag k="source" v="survey"/>
  </node>
  <node id="709068641" lat="52.2588251" lon="0.1625023" version="2" timestamp="2011-11-06T13:19:35Z" changeset="9755062" uid="2406" user="JeffB">
    <tag k="addr:housenumber" v="104"/>
    <tag k="addr:street" v="High Street"/>
    <tag k="source" v="survey"/>
  </node>
  <node id="709068644" lat="52.2587038" lon="0.1628563" version="2" timestamp="2011-11-05T18:36:24Z" changeset="9748891" uid="2406" user="JeffB">
    <tag k="addr:housenumber" v="106"/>
    <tag k="addr:street" v="High Street"/>
    <tag k="name" v="The Old Mill"/>
    <tag k="source" v="survey"/>
  </node>
  <node id="709068647" lat="52.2585126" lon="0.1624801" version="1" timestamp="2010-04-27T20:28:14Z" changeset="4544718" uid="2406" user="JeffB">
    <tag k="addr:housenumber" v="108"/>
    <tag k="addr:street" v="High Street"/>
    <tag k="source" v="survey"/>
  </node>
  <node id="709068651" lat="52.2584341" lon="0.1629903" version="2" timestamp="2011-11-05T18:36:22Z" changeset="9748891" uid="2406" user="JeffB">
    <tag k="addr:housenumber" v="110-112"/>
    <tag k="addr:street" v="High Street"/>
    <tag k="source" v="survey"/>
  </node>
  <node id="709068654" lat="52.2582342" lon="0.1628073" version="2" timestamp="2011-11-05T18:36:23Z" changeset="9748891" uid="2406" user="JeffB">
    <tag k="addr:housenumber" v="114"/>
    <tag k="addr:street" v="High Street"/>
    <tag k="source" v="survey"/>
  </node>
  <node id="709068657" lat="52.2597478" lon="0.1634867" version="2" timestamp="2011-11-06T13:19:36Z" changeset="9755062" uid="2406" user="JeffB">
    <tag k="addr:housenumber" v="88-90"/>
    <tag k="addr:street" v="High Street"/>
    <tag k="source" v="survey"/>
  </node>
  <node id="709068661" lat="52.2595846" lon="0.1634289" version="2" timestamp="2011-11-05T18:21:01Z" changeset="9748891" uid="2406" user="JeffB">
    <tag k="addr:housenumber" v="92-94"/>
    <tag k="addr:street" v="High Street"/>
    <tag k="source" v="survey"/>
  </node>
  <node id="709068663" lat="52.2594483" lon="0.1633571" version="2" timestamp="2011-11-05T18:21:01Z" changeset="9748891" uid="2406" user="JeffB">
    <tag k="addr:housenumber" v="96-98"/>
    <tag k="addr:street" v="High Street"/>
    <tag k="source" v="survey"/>
  </node>
  <node id="709068667" lat="52.2591269" lon="0.1629850" version="2" timestamp="2011-11-05T18:21:01Z" changeset="9748891" uid="2406" user="JeffB">
    <tag k="addr:housenumber" v="102"/>
    <tag k="addr:street" v="High Street"/>
    <tag k="name" v="The Willows"/>
    <tag k="source" v="survey"/>
  </node>
  <node id="709068671" lat="52.2590090" lon="0.1629395" version="3" timestamp="2011-11-06T13:19:38Z" changeset="9755062" uid="2406" user="JeffB">
    <tag k="addr:housenumber" v="102A"/>
    <tag k="addr:street" v="High Street"/>
    <tag k="source" v="survey"/>
  </node>
  <node id="709068676" lat="52.2606061" lon="0.1632203" version="2" timestamp="2011-11-05T18:21:01Z" changeset="9748891" uid="2406" user="JeffB">
    <tag k="addr:housenumber" v="72"/>
    <tag k="addr:street" v="High Street"/>
    <tag k="name" v="Crooked Birch"/>
    <tag k="source" v="survey"/>
  </node>
  <node id="709068680" lat="52.2604851" lon="0.1631828" version="2" timestamp="2011-11-05T18:21:01Z" changeset="9748891" uid="2406" user="JeffB">
    <tag k="addr:housenumber" v="74"/>
    <tag k="addr:street" v="High Street"/>
    <tag k="name" v="Crooked Birch"/>
    <tag k="source" v="survey"/>
  </node>
  <node id="709068683" lat="52.2603552" lon="0.1635323" version="2" timestamp="2011-11-06T13:19:37Z" changeset="9755062" uid="2406" user="JeffB">
    <tag k="addr:housenumber" v="76"/>
    <tag k="addr:street" v="High Street"/>
    <tag k="name" v="Trinity Hall Cottage"/>
    <tag k="source" v="survey"/>
  </node>
  <node id="709068684" lat="52.2601284" lon="0.1635355" version="2" timestamp="2011-11-05T18:21:01Z" changeset="9748891" uid="2406" user="JeffB">
    <tag k="addr:housenumber" v="80-82"/>
    <tag k="addr:street" v="High Street"/>
    <tag k="source" v="survey"/>
  </node>
  <node id="709068685" lat="52.2599425" lon="0.1634618" version="2" timestamp="2011-11-05T18:21:01Z" changeset="9748891" uid="2406" user="JeffB">
    <tag k="addr:housenumber" v="84-86"/>
    <tag k="addr:street" v="High Street"/>
    <tag k="source" v="survey"/>
  </node>
  <node id="709068708" lat="52.2615152" lon="0.1633102" version="2" timestamp="2011-11-05T18:21:01Z" changeset="9748891" uid="2406" user="JeffB">
    <tag k="addr:housenumber" v="54"/>
    <tag k="addr:street" v="High Street"/>
    <tag k="source" v="survey"/>
  </node>
  <node id="709068725" lat="52.2614134" lon="0.1631727" version="2" timestamp="2011-11-05T18:21:01Z" changeset="9748891" uid="2406" user="JeffB">
    <tag k="addr:housenumber" v="56"/>
    <tag k="addr:street" v="High Street"/>
    <tag k="source" v="survey"/>
  </node>
  <node id="709068739" lat="52.2612530" lon="0.1633826" version="3" timestamp="2018-10-20T21:28:03Z" changeset="63715031" uid="5173844" user="ndrw6">
    <tag k="addr:housenumber" v="60a"/>
    <tag k="addr:postcode" v="CB25 9FT"/>
    <tag k="addr:street" v="High Street"/>
    <tag k="source" v="survey"/>
  </node>
  <node id="709068742" lat="52.2607391" lon="0.1632847" version="2" timestamp="2011-11-05T18:21:01Z" changeset="9748891" uid="2406" user="JeffB">
    <tag k="addr:housenumber" v="70"/>
    <tag k="addr:street" v="High Street"/>
    <tag k="source" v="survey"/>
  </node>
  <node id="709068763" lat="52.2624365" lon="0.1635243" version="2" timestamp="2011-11-05T17:36:57Z" changeset="9748419" uid="2406" user="JeffB">
    <tag k="addr:housenumber" v="45a"/>
    <tag k="addr:street" v="High Street"/>
    <tag k="name" v="Ashley House"/>
    <tag k="source" v="survey"/>
  </node>
  <node id="709068766" lat="52.2622904" lon="0.1635666" version="2" timestamp="2011-11-05T17:36:58Z" changeset="9748419" uid="2406" user="JeffB">
    <tag k="addr:housenumber" v="47"/>
    <tag k="addr:street" v="High Street"/>
    <tag k="name" v="Ashley House"/>
    <tag k="source" v="survey"/>
  </node>
  <node id="709068770" lat="52.2621767" lon="0.1635652" version="3" timestamp="2018-10-20T21:28:03Z" changeset="63715031" uid="5173844" user="ndrw6">
    <tag k="addr:housenumber" v="49"/>
    <tag k="addr:postcode" v="CB25 9FR"/>
    <tag k="addr:street" v="High Street"/>
    <tag k="name" v="Ashley House"/>
    <tag k="source" v="survey"/>
  </node>
  <node id="709068781" lat="52.2620191" lon="0.1636370" version="2" timestamp="2011-11-05T17:36:58Z" changeset="9748419" uid="2406" user="JeffB">
    <tag k="addr:housenumber" v="51"/>
    <tag k="addr:street" v="High Street"/>
    <tag k="name" v="Ashley House"/>
    <tag k="source" v="survey"/>
  </node>
  <node id="709068785" lat="52.2618291" lon="0.1635444" version="4" timestamp="2021-03-25T22:46:24Z" changeset="101747927" uid="145231" user="woodpeck_repair">
    <tag k="addr:housenumber" v="53"/>
    <tag k="addr:street" v="High Street"/>
    <tag k="name" v="Glebe Cottage"/>
    <tag k="source" v="survey"/>
  </node>
  <node id="709068789" lat="52.2629047" lon="0.1630952" version="2" timestamp="2011-11-05T17:16:16Z" changeset="9748419" uid="2406" user="JeffB">
    <tag k="addr:housenumber" v="37"/>
    <tag k="addr:street" v="High Street"/>
    <tag k="source" v="survey"/>
  </node>
  <node id="709068793" lat="52.2627393" lon="0.1631120" version="2" timestamp="2011-11-05T17:16:16Z" changeset="9748419" uid="2406" user="JeffB">
    <tag k="addr:housenumber" v="39"/>
    <tag k="addr:street" v="High Street"/>
    <tag k="source" v="survey"/>
  </node>
  <node id="709068796" lat="52.2625840" lon="0.1632311" version="1" timestamp="2010-04-27T20:28:36Z" changeset="4544718" uid="2406" user="JeffB">
    <tag k="addr:housenumber" v="43"/>
    <tag k="addr:street" v="High Street"/>
    <tag k="source" v="survey"/>
  </node>
  <node id="709068797" lat="52.2624722" lon="0.1632803" version="2" timestamp="2011-11-05T17:36:58Z" changeset="9748419" uid="2406" user="JeffB">
    <tag k="addr:housenumber" v="45"/>
    <tag k="addr:street" v="High Street"/>
    <tag k="name" v="Ashley House"/>
    <tag k="source" v="survey"/>
  </node>
  <node id="709068802" lat="52.2625707" lon="0.1639743" version="2" timestamp="2011-11-05T17:36:59Z" changeset="9748419" uid="2406" user="JeffB">
    <tag k="addr:housenumber" v="43a"/>
    <tag k="addr:street" v="High Street"/>
    <tag k="name" v="Ashley House"/>
    <tag k="source" v="survey"/>
  </node>
  <node id="709068809" lat="52.2628166" lon="0.1622045" version="2" timestamp="2011-11-05T18:08:07Z" changeset="9748891" uid="2406" user="JeffB">
    <tag k="addr:housenumber" v="20"/>
    <tag k="addr:street" v="High Street"/>
    <tag k="source" v="survey"/>
  </node>
  <node id="709068812" lat="52.2627243" lon="0.1628536" version="2" timestamp="2011-11-05T18:08:07Z" changeset="9748891" uid="2406" user="JeffB">
    <tag k="addr:housenumber" v="22-24"/>
    <tag k="addr:street" v="High Street"/>
    <tag k="source" v="survey"/>
  </node>
  <node id="709068816" lat="52.2624920" lon="0.1628019" version="1" timestamp="2010-04-27T20:28:42Z" changeset="4544718" uid="2406" user="JeffB">
    <tag k="addr:housenumber" v="28-32"/>
    <tag k="addr:street" v="High Street"/>
    <tag k="source" v="survey"/>
  </node>
  <node id="709068820" lat="52.2623956" lon="0.1630091" version="3" timestamp="2020-01-20T21:44:18Z" changeset="79818634" uid="364" user="Edward">
    <tag k="addr:housenumber" v="34"/>
    <tag k="addr:street" v="High Street"/>
    <tag k="source" v="survey"/>
    <tag k="wikidata" v="Q26420291"/>
  </node>
  <node id="709079179" lat="52.2600794" lon="0.1643235" version="2" timestamp="2011-11-06T13:19:38Z" changeset="9755062" uid="2406" user="JeffB">
    <tag k="addr:housenumber" v="77"/>
    <tag k="addr:street" v="High Street"/>
    <tag k="source" v="survey"/>
  </node>
  <node id="709079183" lat="52.2598522" lon="0.1639821" version="1" timestamp="2010-04-27T20:41:34Z" changeset="4544854" uid="2406" user="JeffB">
    <tag k="addr:housenumber" v="83"/>
    <tag k="addr:street" v="High Street"/>
    <tag k="source" v="survey"/>
  </node>
  <node id="709079186" lat="52.2596760" lon="0.1640078" version="3" timestamp="2020-01-20T21:44:19Z" changeset="79818634" uid="364" user="Edward">
    <tag k="addr:housenumber" v="85A"/>
    <tag k="addr:street" v="High Street"/>
    <tag k="name" v="The Limes"/>
    <tag k="source" v="survey"/>
    <tag k="wikidata" v="Q26420294"/>
  </node>
  <node id="709079191" lat="52.2594912" lon="0.1639437" version="2" timestamp="2011-11-13T16:20:22Z" changeset="9815542" uid="2406" user="JeffB">
    <tag k="addr:housenumber" v="87"/>
    <tag k="addr:street" v="High Street"/>
    <tag k="name" v="Walnut Farm"/>
    <tag k="source" v="survey"/>
  </node>
  <node id="709079205" lat="52.2610472" lon="0.1640507" version="2" timestamp="2011-11-05T17:36:57Z" changeset="9748419" uid="2406" user="JeffB">
    <tag k="addr:housenumber" v="67"/>
    <tag k="addr:street" v="High Street"/>
    <tag k="name" v="The Orchard"/>
    <tag k="source" v="survey"/>
  </node>
  <node id="709079209" lat="52.2608781" lon="0.1639924" version="2" timestamp="2011-11-05T17:36:58Z" changeset="9748419" uid="2406" user="JeffB">
    <tag k="addr:housenumber" v="69"/>
    <tag k="addr:street" v="High Street"/>
    <tag k="source" v="survey"/>
  </node>
  <node id="709079213" lat="52.2606844" lon="0.1640615" version="2" timestamp="2011-11-05T17:36:57Z" changeset="9748419" uid="2406" user="JeffB">
    <tag k="addr:housenumber" v="71"/>
    <tag k="addr:street" v="High Street"/>
    <tag k="source" v="survey"/>
  </node>
  <node id="709079214" lat="52.2604640" lon="0.1641299" version="2" timestamp="2011-11-05T17:36:58Z" changeset="9748419" uid="2406" user="JeffB">
    <tag k="addr:housenumber" v="73"/>
    <tag k="addr:street" v="High Street"/>
    <tag k="source" v="survey"/>
  </node>
  <node id="709079215" lat="52.2602448" lon="0.1641741" version="2" timestamp="2011-11-05T17:36:57Z" changeset="9748419" uid="2406" user="JeffB">
    <tag k="addr:housenumber" v="75"/>
    <tag k="addr:street" v="High Street"/>
    <tag k="name" v="Limes Farm House"/>
    <tag k="source" v="survey"/>
  </node>
  <node id="709079223" lat="52.2616439" lon="0.1638931" version="2" timestamp="2011-11-05T17:36:58Z" changeset="9748419" uid="2406" user="JeffB">
    <tag k="addr:housenumber" v="55"/>
    <tag k="addr:street" v="High Street"/>
    <tag k="source" v="survey"/>
  </node>
  <node id="709079227" lat="52.2614704" lon="0.1639226" version="2" timestamp="2011-11-05T17:36:58Z" changeset="9748419" uid="2406" user="JeffB">
    <tag k="addr:housenumber" v="57"/>
    <tag k="addr:street" v="High Street"/>
    <tag k="name" v="Glebelands"/>
    <tag k="source" v="survey"/>
  </node>
  <node id="709079233" lat="52.2613353" lon="0.1639615" version="2" timestamp="2011-11-05T17:36:58Z" changeset="9748419" uid="2406" user="JeffB">
    <tag k="addr:housenumber" v="63"/>
    <tag k="addr:street" v="High Street"/>
    <tag k="source" v="survey"/>
  </node>
  <node id="709079237" lat="52.2611921" lon="0.1640360" version="2" timestamp="2011-11-05T17:36:59Z" changeset="9748419" uid="2406" user="JeffB">
    <tag k="addr:housenumber" v="65"/>
    <tag k="addr:street" v="High Street"/>
    <tag k="source" v="survey"/>
  </node>
  <node id="709099840" lat="52.2647433" lon="0.1644711" version="2" timestamp="2011-11-06T13:19:35Z" changeset="9755062" uid="2406" user="JeffB">
    <tag k="addr:housenumber" v="11"/>
    <tag k="addr:street" v="Waterbeach Road"/>
  </node>
  <node id="709099847" lat="52.2643409" lon="0.1638985" version="2" timestamp="2010-04-30T20:19:32Z" changeset="4569653" uid="2406" user="JeffB">
    <tag k="addr:housenumber" v="12"/>
    <tag k="addr:street" v="Waterbeach Road"/>
  </node>
  <node id="709099849" lat="52.2643569" lon="0.1636603" version="1" timestamp="2010-04-27T20:54:44Z" changeset="4545004" uid="2406" user="JeffB">
    <tag k="addr:housenumber" v="4"/>
    <tag k="addr:street" v="Waterbeach Road"/>
    <tag k="name" v="Banworth House"/>
  </node>
  <node id="709099851" lat="52.2644247" lon="0.1631998" version="2" timestamp="2011-11-06T13:19:37Z" changeset="9755062" uid="2406" user="JeffB">
    <tag k="addr:housenumber" v="2"/>
    <tag k="addr:street" v="Waterbeach Road"/>
    <tag k="name" v="Far View Villa"/>
  </node>
  <node id="709099856" lat="52.2644345" lon="0.1628081" version="2" timestamp="2011-11-06T13:19:37Z" changeset="9755062" uid="2406" user="JeffB">
    <tag k="addr:housenumber" v="2a"/>
    <tag k="addr:street" v="Waterbeach Road"/>
    <tag k="name" v="Pear Tree Cottage"/>
  </node>
  <node id="709099869" lat="52.2647564" lon="0.1641653" version="2" timestamp="2011-11-06T13:19:37Z" changeset="9755062" uid="2406" user="JeffB">
    <tag k="addr:housenumber" v="9"/>
    <tag k="addr:street" v="Waterbeach Road"/>
  </node>
  <node id="709103099" lat="52.2643238" lon="0.1656704" version="2" timestamp="2011-10-10T18:41:10Z" changeset="9524404" uid="2406" user="JeffB">
    <tag k="addr:housenumber" v="22-24"/>
    <tag k="addr:street" v="Waterbeach Road"/>
  </node>
  <node id="709103100" lat="52.2642781" lon="0.1658704" version="1" timestamp="2010-04-27T20:58:14Z" changeset="4545037" uid="2406" user="JeffB">
    <tag k="addr:housenumber" v="26-28"/>
    <tag k="addr:street" v="Waterbeach Road"/>
  </node>
  <node id="709103101" lat="52.2642781" lon="0.1660635" version="1" timestamp="2010-04-27T20:58:14Z" changeset="4545037" uid="2406" user="JeffB">
    <tag k="addr:housenumber" v="30-32"/>
    <tag k="addr:street" v="Waterbeach Road"/>
  </node>
  <node id="709103102" lat="52.2642500" lon="0.1662739" version="2" timestamp="2011-10-10T18:41:10Z" changeset="9524404" uid="2406" user="JeffB">
    <tag k="addr:housenumber" v="34-36"/>
    <tag k="addr:street" v="Waterbeach Road"/>
  </node>
  <node id="709103103" lat="52.2642434" lon="0.1664831" version="2" timestamp="2011-10-10T18:41:10Z" changeset="9524404" uid="2406" user="JeffB">
    <tag k="addr:housenumber" v="38-40"/>
    <tag k="addr:street" v="Waterbeach Road"/>
  </node>
  <node id="709103104" lat="52.2647137" lon="0.1648358" version="2" timestamp="2011-11-06T13:19:39Z" changeset="9755062" uid="2406" user="JeffB">
    <tag k="addr:housenumber" v="15"/>
    <tag k="addr:street" v="Waterbeach Road"/>
    <tag k="name" v="Unwins"/>
  </node>
  <node id="709103105" lat="52.2643155" lon="0.1646654" version="2" timestamp="2011-10-24T19:05:12Z" changeset="9646477" uid="2406" user="JeffB">
    <tag k="addr:housenumber" v="14"/>
    <tag k="addr:street" v="Waterbeach Road"/>
  </node>
  <node id="709103107" lat="52.2643189" lon="0.1651071" version="2" timestamp="2011-10-10T18:41:10Z" changeset="9524404" uid="2406" user="JeffB">
    <tag k="addr:housenumber" v="16"/>
    <tag k="addr:street" v="Waterbeach Road"/>
  </node>
  <node id="709103110" lat="52.2643124" lon="0.1652922" version="2" timestamp="2011-10-10T18:41:10Z" changeset="9524404" uid="2406" user="JeffB">
    <tag k="addr:housenumber" v="18"/>
    <tag k="addr:street" v="Waterbeach Road"/>
  </node>
  <node id="709103112" lat="52.2643050" lon="0.1654733" version="2" timestamp="2011-10-10T18:41:10Z" changeset="9524404" uid="2406" user="JeffB">
    <tag k="addr:housenumber" v="20"/>
    <tag k="addr:street" v="Waterbeach Road"/>
  </node>
  <node id="709103114" lat="52.2647694" lon="0.1646910" version="2" timestamp="2011-11-06T13:19:38Z" changeset="9755062" uid="2406" user="JeffB">
    <tag k="addr:housenumber" v="13"/>
    <tag k="addr:street" v="Waterbeach Road"/>
    <tag k="name" v="Vine Cottage"/>
  </node>
  <node id="709111207" lat="52.2641074" lon="0.1766207" version="1" timestamp="2010-04-27T21:11:40Z" changeset="4545153" uid="2406" user="JeffB">
    <tag k="addr:housenumber" v="127"/>
    <tag k="addr:street" v="Waterbeach Road"/>
    <tag k="building" v="house"/>
    <tag k="name" v="Woodlands"/>
    <tag k="source" v="survey"/>
  </node>
  <node id="709111220" lat="52.2641446" lon="0.1762686" version="2" timestamp="2011-11-05T19:40:09Z" changeset="9749714" uid="2406" user="JeffB">
    <tag k="addr:housenumber" v="125"/>
    <tag k="addr:street" v="Waterbeach Road"/>
    <tag k="building" v="house"/>
    <tag k="source" v="survey"/>
  </node>
  <node id="709111232" lat="52.2644051" lon="0.1759589" version="2" timestamp="2011-11-06T13:19:39Z" changeset="9755062" uid="2406" user="JeffB">
    <tag k="addr:housenumber" v="123"/>
    <tag k="addr:street" v="Waterbeach Road"/>
    <tag k="building" v="house"/>
    <tag k="source" v="survey"/>
  </node>
  <node id="709111243" lat="52.2644357" lon="0.1756765" version="1" timestamp="2010-04-27T21:11:41Z" changeset="4545153" uid="2406" user="JeffB">
    <tag k="addr:housenumber" v="121"/>
    <tag k="addr:street" v="Waterbeach Road"/>
    <tag k="building" v="house"/>
    <tag k="source" v="survey"/>
  </node>
  <node id="709111262" lat="52.2640404" lon="0.1783809" version="2" timestamp="2011-11-05T19:46:21Z" changeset="9749714" uid="2406" user="JeffB">
    <tag k="addr:housenumber" v="141"/>
    <tag k="addr:street" v="Waterbeach Road"/>
    <tag k="building" v="house"/>
    <tag k="name" v="The Acorns"/>
    <tag k="source" v="survey"/>
  </node>
  <node id="709111263" lat="52.2640549" lon="0.1781227" version="1" timestamp="2010-04-27T21:11:43Z" changeset="4545153" uid="2406" user="JeffB">
    <tag k="addr:housenumber" v="137-139"/>
    <tag k="addr:street" v="Waterbeach Road"/>
    <tag k="building" v="house"/>
    <tag k="source" v="survey"/>
  </node>
  <node id="709111267" lat="52.2642015" lon="0.1776782" version="2" timestamp="2011-11-06T13:19:38Z" changeset="9755062" uid="2406" user="JeffB">
    <tag k="addr:housenumber" v="133"/>
    <tag k="addr:street" v="Waterbeach Road"/>
    <tag k="building" v="house"/>
    <tag k="source" v="survey"/>
  </node>
  <node id="709111279" lat="52.2641802" lon="0.1773162" version="2" timestamp="2011-11-06T13:19:39Z" changeset="9755062" uid="2406" user="JeffB">
    <tag k="addr:housenumber" v="131"/>
    <tag k="addr:street" v="Waterbeach Road"/>
    <tag k="building" v="house"/>
    <tag k="source" v="survey"/>
  </node>
  <node id="709111285" lat="52.2640752" lon="0.1768104" version="2" timestamp="2011-11-05T19:46:21Z" changeset="9749714" uid="2406" user="JeffB">
    <tag k="addr:housenumber" v="129"/>
    <tag k="addr:street" v="Waterbeach Road"/>
    <tag k="building" v="house"/>
    <tag k="source" v="survey"/>
  </node>
  <node id="709111295" lat="52.2641257" lon="0.1748531" version="2" timestamp="2011-11-05T19:40:10Z" changeset="9749714" uid="2406" user="JeffB">
    <tag k="addr:housenumber" v="117"/>
    <tag k="addr:street" v="Waterbeach Road"/>
    <tag k="source" v="survey"/>
  </node>
  <node id="709111304" lat="52.2641241" lon="0.1745641" version="2" timestamp="2011-11-05T19:40:10Z" changeset="9749714" uid="2406" user="JeffB">
    <tag k="addr:housenumber" v="115"/>
    <tag k="addr:street" v="Waterbeach Road"/>
    <tag k="name" v="The Hermitage"/>
    <tag k="source" v="survey"/>
  </node>
  <node id="709111308" lat="52.2646334" lon="0.1745380" version="3" timestamp="2013-11-22T15:29:26Z" changeset="19056411" uid="38588" user="mentor">
    <tag k="addr:housenumber" v="121A"/>
    <tag k="addr:street" v="Waterbeach Road"/>
    <tag k="building" v="house"/>
    <tag k="name" v="Crossways Farm"/>
  </node>
  <node id="709111320" lat="52.2645933" lon="0.1741745" version="1" timestamp="2010-04-27T21:11:45Z" changeset="4545153" uid="2406" user="JeffB">
    <tag k="addr:housenumber" v="200-219"/>
    <tag k="addr:street" v="Waterbeach Road"/>
    <tag k="source" v="survey"/>
  </node>
  <node id="709111349" lat="52.2639443" lon="0.1785834" version="2" timestamp="2011-11-05T19:46:21Z" changeset="9749714" uid="2406" user="JeffB">
    <tag k="addr:housenumber" v="143"/>
    <tag k="addr:street" v="Waterbeach Road"/>
    <tag k="building" v="house"/>
    <tag k="name" v="Russell Lodge"/>
    <tag k="source" v="survey"/>
  </node>
  <node id="709111360" lat="52.2641142" lon="0.1738184" version="2" timestamp="2011-11-05T19:40:10Z" changeset="9749714" uid="2406" user="JeffB">
    <tag k="addr:housenumber" v="107"/>
    <tag k="addr:street" v="Waterbeach Road"/>
    <tag k="source" v="survey"/>
  </node>
  <node id="709111371" lat="52.2641171" lon="0.1740042" version="2" timestamp="2011-11-05T19:40:10Z" changeset="9749714" uid="2406" user="JeffB">
    <tag k="addr:housenumber" v="109"/>
    <tag k="addr:street" v="Waterbeach Road"/>
    <tag k="source" v="survey"/>
  </node>
  <node id="709111375" lat="52.2641171" lon="0.1742053" version="2" timestamp="2011-11-05T19:40:10Z" changeset="9749714" uid="2406" user="JeffB">
    <tag k="addr:housenumber" v="111"/>
    <tag k="addr:street" v="Waterbeach Road"/>
    <tag k="source" v="survey"/>
  </node>
  <node id="709111377" lat="52.2641179" lon="0.1743603" version="2" timestamp="2011-11-05T19:40:10Z" changeset="9749714" uid="2406" user="JeffB">
    <tag k="addr:housenumber" v="113"/>
    <tag k="addr:street" v="Waterbeach Road"/>
    <tag k="name" v="Crowlands"/>
    <tag k="source" v="survey"/>
  </node>
  <node id="709111379" lat="52.2641356" lon="0.1752065" version="2" timestamp="2011-11-05T19:40:10Z" changeset="9749714" uid="2406" user="JeffB">
    <tag k="addr:housenumber" v="119"/>
    <tag k="addr:street" v="Waterbeach Road"/>
    <tag k="source" v="survey"/>
  </node>
  <node id="709111385" lat="52.2641205" lon="0.1728656" version="1" timestamp="2010-04-27T21:11:50Z" changeset="4545153" uid="2406" user="JeffB">
    <tag k="addr:housenumber" v="97"/>
    <tag k="addr:street" v="Waterbeach Road"/>
    <tag k="source" v="survey"/>
  </node>
  <node id="709111395" lat="52.2641336" lon="0.1730802" version="1" timestamp="2010-04-27T21:11:50Z" changeset="4545153" uid="2406" user="JeffB">
    <tag k="addr:housenumber" v="99"/>
    <tag k="addr:street" v="Waterbeach Road"/>
    <tag k="source" v="survey"/>
  </node>
  <node id="709111400" lat="52.2641205" lon="0.1732518" version="1" timestamp="2010-04-27T21:11:50Z" changeset="4545153" uid="2406" user="JeffB">
    <tag k="addr:housenumber" v="101"/>
    <tag k="addr:street" v="Waterbeach Road"/>
    <tag k="source" v="survey"/>
  </node>
  <node id="709111406" lat="52.2641216" lon="0.1734302" version="2" timestamp="2011-11-05T19:40:09Z" changeset="9749714" uid="2406" user="JeffB">
    <tag k="addr:housenumber" v="103"/>
    <tag k="addr:street" v="Waterbeach Road"/>
    <tag k="source" v="survey"/>
  </node>
  <node id="709111415" lat="52.2641074" lon="0.1736381" version="1" timestamp="2010-04-27T21:11:51Z" changeset="4545153" uid="2406" user="JeffB">
    <tag k="addr:housenumber" v="105"/>
    <tag k="addr:street" v="Waterbeach Road"/>
    <tag k="source" v="survey"/>
  </node>
  <node id="709111430" lat="52.2641615" lon="0.1716397" version="2" timestamp="2011-11-04T21:53:10Z" changeset="9742447" uid="2406" user="JeffB">
    <tag k="addr:housenumber" v="87"/>
    <tag k="addr:street" v="Waterbeach Road"/>
    <tag k="name" v="Springfield"/>
    <tag k="source" v="survey"/>
  </node>
  <node id="709111436" lat="52.2642345" lon="0.1719590" version="2" timestamp="2011-11-05T19:40:10Z" changeset="9749714" uid="2406" user="JeffB">
    <tag k="addr:housenumber" v="89"/>
    <tag k="addr:street" v="Waterbeach Road"/>
    <tag k="name" v="Lyndhurst"/>
    <tag k="source" v="survey"/>
  </node>
  <node id="709111443" lat="52.2642124" lon="0.1721789" version="1" timestamp="2010-04-27T21:11:52Z" changeset="4545153" uid="2406" user="JeffB">
    <tag k="addr:housenumber" v="91"/>
    <tag k="addr:street" v="Waterbeach Road"/>
    <tag k="source" v="survey"/>
  </node>
  <node id="709111448" lat="52.2642256" lon="0.1723935" version="1" timestamp="2010-04-27T21:11:52Z" changeset="4545153" uid="2406" user="JeffB">
    <tag k="addr:housenumber" v="93"/>
    <tag k="addr:street" v="Waterbeach Road"/>
    <tag k="source" v="survey"/>
  </node>
  <node id="709111454" lat="52.2641862" lon="0.1726939" version="1" timestamp="2010-04-27T21:11:52Z" changeset="4545153" uid="2406" user="JeffB">
    <tag k="addr:housenumber" v="95"/>
    <tag k="addr:street" v="Waterbeach Road"/>
    <tag k="source" v="survey"/>
  </node>
  <node id="709111467" lat="52.2644537" lon="0.1704609" version="2" timestamp="2011-11-04T21:53:10Z" changeset="9742447" uid="2406" user="JeffB">
    <tag k="addr:housenumber" v="83"/>
    <tag k="addr:street" v="Waterbeach Road"/>
    <tag k="name" v="Manor House"/>
    <tag k="source" v="survey"/>
  </node>
  <node id="709111480" lat="52.2643002" lon="0.1712656" version="3" timestamp="2018-10-20T21:28:03Z" changeset="63715031" uid="5173844" user="ndrw6">
    <tag k="addr:housenumber" v="85"/>
    <tag k="addr:postcode" v="CB25 9FA"/>
    <tag k="addr:street" v="Waterbeach Road"/>
    <tag k="name" v="Rosemere"/>
    <tag k="source" v="survey"/>
  </node>
  <node id="713925146" lat="52.2640651" lon="0.1647997" version="1" timestamp="2010-04-30T20:19:32Z" changeset="4569653" uid="2406" user="JeffB">
    <tag k="addr:housenumber" v="1"/>
    <tag k="addr:street" v="Matthew Parker Close"/>
    <tag k="building" v="house"/>
    <tag k="source" v="survey"/>
  </node>
  <node id="713925154" lat="52.2643573" lon="0.1642094" version="2" timestamp="2011-10-24T19:05:13Z" changeset="9646477" uid="2406" user="JeffB">
    <tag k="addr:housenumber" v="17"/>
    <tag k="addr:street" v="Matthew Parker Close"/>
    <tag k="building" v="house"/>
    <tag k="source" v="survey"/>
  </node>
  <node id="713925161" lat="52.2640610" lon="0.1641893" version="2" timestamp="2011-10-24T19:05:12Z" changeset="9646477" uid="2406" user="JeffB">
    <tag k="addr:housenumber" v="13"/>
    <tag k="addr:street" v="Matthew Parker Close"/>
    <tag k="building" v="house"/>
    <tag k="name" v="The Retreat"/>
    <tag k="source" v="survey"/>
  </node>
  <node id="1501644886" lat="52.2593811" lon="0.1638685" version="2" timestamp="2018-10-20T21:28:07Z" changeset="63715031" uid="5173844" user="ndrw6">
    <tag k="addr:housenumber" v="2-4"/>
    <tag k="addr:postcode" v="CB25 9GB"/>
    <tag k="addr:street" v="Walnut Close"/>
    <tag k="source" v="survey"/>
  </node>
  <node id="1501644895" lat="52.2593467" lon="0.1640939" version="3" timestamp="2018-10-20T21:28:07Z" changeset="63715031" uid="5173844" user="ndrw6">
    <tag k="addr:housenumber" v="6"/>
    <tag k="addr:postcode" v="CB25 9GB"/>
    <tag k="addr:street" v="Walnut Close"/>
    <tag k="source" v="survey"/>
  </node>
  <node id="1501644896" lat="52.2593188" lon="0.1642710" version="3" timestamp="2018-10-20T21:28:07Z" changeset="63715031" uid="5173844" user="ndrw6">
    <tag k="addr:housenumber" v="8"/>
    <tag k="addr:postcode" v="CB25 9GB"/>
    <tag k="addr:street" v="Walnut Close"/>
    <tag k="source" v="survey"/>
  </node>
  <node id="1501644897" lat="52.2592958" lon="0.1644212" version="3" timestamp="2018-10-20T21:28:07Z" changeset="63715031" uid="5173844" user="ndrw6">
    <tag k="addr:housenumber" v="10"/>
    <tag k="addr:postcode" v="CB25 9GB"/>
    <tag k="addr:street" v="Walnut Close"/>
    <tag k="source" v="survey"/>
  </node>
  <node id="1501644901" lat="52.2592301" lon="0.1648316" version="2" timestamp="2011-11-13T16:24:24Z" changeset="9815783" uid="2406" user="JeffB">
    <tag k="addr:housenumber" v="16"/>
    <tag k="addr:street" v="Walnut Close"/>
    <tag k="source" v="survey"/>
  </node>
  <node id="5223967822" lat="52.2915056" lon="0.1773617" version="2" timestamp="2023-11-11T10:26:35Z" changeset="143893444" uid="9451067" user="b-jazz-bot">
    <tag k="addr:postcode" v="CB25 9PG"/>
    <tag k="addr:street" v="Ely Road"/>
    <tag k="name" v="M&amp;M Motorcycles"/>
    <tag k="shop" v="motorcycle"/>
    <tag k="website" v="https://www.m-mmotorcycles.co.uk/"/>
  </node>
  <node id="8980018714" lat="52.2919428" lon="0.1713910" version="1" timestamp="2021-08-04T14:02:13Z" changeset="109149534" uid="12116568" user="Roman Oleynik">
    <tag k="addr:housename" v="Cambridge Research Park"/>
    <tag k="addr:housenumber" v="7200"/>
    <tag k="addr:street" v="Beach Drive"/>
    <tag k="name" v="CRFS"/>
    <tag k="office" v="it"/>
  </node>
  <way id="56318852" version="3" timestamp="2023-10-07T10:10:57Z" changeset="142262576" uid="2406" user="JeffB">
    <nd ref="706604571"/>
    <nd ref="706604663"/>
    <nd ref="706604672"/>
    <nd ref="706604686"/>
    <nd ref="706604571"/>
    <tag k="addr:housenumber" v="1,3,5"/>
    <tag k="addr:postcode" v="CB25 9GQ"/>
    <tag k="addr:street" v="Chapmans Close"/>
    <tag k="building" v="house"/>
    <tag k="source" v="survey"/>
  </way>
  <way id="56318853" version="2" timestamp="2023-10-07T10:11:19Z" changeset="142262590" uid="2406" user="JeffB">
    <nd ref="706604747"/>
    <nd ref="706604770"/>
    <nd ref="706604808"/>
    <nd ref="706604819"/>
    <nd ref="706604747"/>
    <tag k="addr:housenumber" v="2,4,6"/>
    <tag k="addr:street" v="Chapmans Close"/>
    <tag k="building" v="house"/>
    <tag k="source" v="survey"/>
  </way>
  <way id="56464608" version="4" timestamp="2018-12-30T22:35:08Z" changeset="65899704" uid="364" user="Edward">
    <nd ref="707995935"/>
    <nd ref="2391770718"/>
    <nd ref="707995938"/>
    <nd ref="2391770707"/>
    <nd ref="2391770755"/>
    <nd ref="707995940"/>
    <nd ref="2391770706"/>
    <nd ref="707995943"/>
    <nd ref="707995935"/>
    <tag k="addr:housenumber" v="16"/>
    <tag k="addr:street" v="Green End"/>
    <tag k="building" v="farmhouse"/>
    <tag k="name" v="Manor Farm"/>
    <tag k="source:name" v="survey"/>
    <tag k="wikidata" v="Q26473687"/>
  </way>
  <way id="56696673" version="2" timestamp="2010-04-27T20:44:37Z" changeset="4544892" uid="2406" user="JeffB">
    <nd ref="709084498"/>
    <nd ref="709084513"/>
    <nd ref="709084520"/>
    <nd ref="709084524"/>
    <nd ref="709084498"/>
    <tag k="addr:housenumber" v="2-8 evens"/>
    <tag k="addr:street" v="Spaldings Lane"/>
    <tag k="building" v="house"/>
    <tag k="source" v="survey"/>
  </way>
  <way id="56697301" version="2" timestamp="2018-10-20T21:28:24Z" changeset="63715031" uid="5173844" user="ndrw6">
    <nd ref="709099880"/>
    <nd ref="709099883"/>
    <nd ref="709099885"/>
    <nd ref="709099887"/>
    <nd ref="709099880"/>
    <tag k="addr:housenumber" v="10,12"/>
    <tag k="addr:postcode" v="CB25 9FF"/>
    <tag k="addr:street" v="Spaldings Lane"/>
    <tag k="building" v="house"/>
    <tag k="source" v="survey"/>
  </way>
  <way id="56697302" version="1" timestamp="2010-04-27T20:54:46Z" changeset="4545004" uid="2406" user="JeffB">
    <nd ref="709099890"/>
    <nd ref="709099892"/>
    <nd ref="709099895"/>
    <nd ref="709099897"/>
    <nd ref="709099890"/>
    <tag k="addr:housenumber" v="14,16"/>
    <tag k="addr:street" v="Spaldings Lane"/>
    <tag k="building" v="house"/>
    <tag k="source" v="survey"/>
  </way>
  <way id="131423173" version="3" timestamp="2021-11-19T11:28:59Z" changeset="113986810" uid="364" user="Edward">
    <nd ref="1446389050"/>
    <nd ref="1446389071"/>
    <nd ref="1446389126"/>
    <nd ref="1446389089"/>
    <nd ref="1446389081"/>
    <nd ref="708096356"/>
    <nd ref="1446388945"/>
    <nd ref="1446388988"/>
    <nd ref="1446389102"/>
    <nd ref="1446389121"/>
    <nd ref="1446389050"/>
    <tag k="addr:housenumber" v="12,10,8"/>
    <tag k="addr:street" v="Green End"/>
    <tag k="building" v="residential"/>
    <tag k="name" v="Milton Cottage, Plough Cottage, Oak Cottage"/>
    <tag k="source" v="big"/>
    <tag k="source:addr:housenumber" v="survey"/>
    <tag k="wikidata" v="Q26616218"/>
  </way>
  <way id="131423177" version="2" timestamp="2019-12-16T08:40:27Z" changeset="78462668" uid="322785" user="BCNorwich">
    <nd ref="1446389000"/>
    <nd ref="1446389029"/>
    <nd ref="1446388993"/>
    <nd ref="1446389049"/>
    <nd ref="1446388944"/>
    <nd ref="1446388981"/>
    <nd ref="708096362"/>
    <nd ref="1446389036"/>
    <nd ref="1446389000"/>
    <tag k="addr:housenumber" v="2"/>
    <tag k="addr:street" v="Green End"/>
    <tag k="building" v="house"/>
    <tag k="name" v="The Old School"/>
    <tag k="source" v="bing"/>
    <tag k="source:addr:housenumber" v="survey"/>
  </way>
  <way id="131423186" version="7" timestamp="2021-11-19T11:28:45Z" changeset="113986803" uid="364" user="Edward">
    <nd ref="7059555913"/>
    <nd ref="1446389054"/>
    <nd ref="1446389004"/>
    <nd ref="7059555908"/>
    <nd ref="7059555909"/>
    <nd ref="1446388939"/>
    <nd ref="1446389109"/>
    <nd ref="7059555912"/>
    <nd ref="1446388921"/>
    <nd ref="708096350"/>
    <nd ref="7059555913"/>
    <tag k="addr:housenumber" v="14"/>
    <tag k="addr:street" v="Green End"/>
    <tag k="building" v="house"/>
    <tag k="name" v="The Old Rectory"/>
    <tag k="source" v="bing"/>
    <tag k="source:addr:housenumber" v="survey"/>
    <tag k="wikidata" v="Q17550620"/>
  </way>
  <way id="131423197" version="5" timestamp="2023-11-03T08:23:52Z" changeset="143562757" uid="504708" user="HillWithSmallFields">
    <nd ref="1446389046"/>
    <nd ref="1446389110"/>
    <nd ref="1446389062"/>
    <nd ref="1446388938"/>
    <nd ref="1446389107"/>
    <nd ref="1446389053"/>
    <nd ref="1446389127"/>
    <nd ref="1446389047"/>
    <nd ref="1446388937"/>
    <nd ref="1446388914"/>
    <nd ref="1446389056"/>
    <nd ref="1446389030"/>
    <nd ref="1446389018"/>
    <nd ref="1446389025"/>
    <nd ref="1446389003"/>
    <nd ref="1446389097"/>
    <nd ref="1446389094"/>
    <nd ref="1446389013"/>
    <nd ref="1446389052"/>
    <nd ref="1446388941"/>
    <nd ref="1446389046"/>
    <tag k="addr:street" v="Green End"/>
    <tag k="amenity" v="place_of_worship"/>
    <tag k="building" v="church"/>
    <tag k="denomination" v="anglican"/>
    <tag k="name" v="All Saints (Landbeach Parish Church)"/>
    <tag k="ref:dove" v="15449"/>
    <tag k="religion" v="christian"/>
    <tag k="source" v="bing"/>
    <tag k="source:name" v="local knowledge"/>
    <tag k="wikidata" v="Q17528033"/>
  </way>
  <way id="136003843" version="2" timestamp="2023-09-23T21:58:46Z" changeset="141662416" uid="5173844" user="ndrw6">
    <nd ref="1492567932"/>
    <nd ref="1492568434"/>
    <nd ref="1492568167"/>
    <nd ref="1492568145"/>
    <nd ref="1492567932"/>
    <tag k="addr:housename" v="The Old Orchard"/>
    <tag k="addr:housenumber" v="50a"/>
    <tag k="addr:street" v="High Street"/>
    <tag k="building" v="yes"/>
    <tag k="source" v="survey"/>
  </way>
  <way id="136003846" version="2" timestamp="2023-09-23T21:58:46Z" changeset="141662416" uid="5173844" user="ndrw6">
    <nd ref="1492568266"/>
    <nd ref="11214295975"/>
    <nd ref="11214295974"/>
    <nd ref="1492568110"/>
    <nd ref="1492568266"/>
    <tag k="addr:housenumber" v="50"/>
    <tag k="addr:street" v="High Street"/>
    <tag k="building" v="yes"/>
    <tag k="source" v="survey"/>
  </way>
  <way id="136003859" version="2" timestamp="2023-09-23T21:58:46Z" changeset="141662416" uid="5173844" user="ndrw6">
    <nd ref="1492567889"/>
    <nd ref="1492568094"/>
    <nd ref="1492568353"/>
    <nd ref="1492567948"/>
    <nd ref="1492567889"/>
    <tag k="addr:housenumber" v="38"/>
    <tag k="addr:street" v="High Street"/>
    <tag k="building" v="yes"/>
    <tag k="name" v="Long Acre"/>
    <tag k="source" v="survey"/>
  </way>
  <way id="136003861" version="2" timestamp="2023-09-23T21:58:46Z" changeset="141662416" uid="5173844" user="ndrw6">
    <nd ref="1492568236"/>
    <nd ref="11214295941"/>
    <nd ref="11214295940"/>
    <nd ref="1492568136"/>
    <nd ref="1492568236"/>
    <tag k="addr:housenumber" v="42"/>
    <tag k="addr:street" v="High Street"/>
    <tag k="building" v="yes"/>
    <tag k="source" v="survey"/>
  </way>
  <way id="136003863" version="2" timestamp="2023-09-23T21:58:46Z" changeset="141662416" uid="5173844" user="ndrw6">
    <nd ref="1492568170"/>
    <nd ref="1492567887"/>
    <nd ref="1492568233"/>
    <nd ref="1492568260"/>
    <nd ref="1492568296"/>
    <nd ref="1492567905"/>
    <nd ref="1492568170"/>
    <tag k="addr:housenumber" v="52"/>
    <tag k="addr:street" v="High Street"/>
    <tag k="building" v="yes"/>
    <tag k="name" v="The Old Post Office"/>
    <tag k="source" v="survey"/>
  </way>
  <way id="136018896" version="3" timestamp="2021-03-09T02:21:39Z" changeset="100668458" uid="5173844" user="ndrw6">
    <nd ref="1492719833"/>
    <nd ref="1492719751"/>
    <nd ref="1492719727"/>
    <nd ref="1492719717"/>
    <nd ref="1492719885"/>
    <nd ref="1492719904"/>
    <nd ref="1492719676"/>
    <nd ref="1492719682"/>
    <nd ref="1492719833"/>
    <tag k="addr:housename" v="Rothwell"/>
    <tag k="addr:street" v="Ely Road"/>
    <tag k="building" v="house"/>
    <tag k="name" v="Rothwell"/>
    <tag k="source:name" v="survey"/>
  </way>
  <way id="136018900" version="2" timestamp="2011-11-06T13:31:18Z" changeset="9755147" uid="2406" user="JeffB">
    <nd ref="1492719865"/>
    <nd ref="1492719693"/>
    <nd ref="1492719708"/>
    <nd ref="1492719813"/>
    <nd ref="1492719808"/>
    <nd ref="1492719819"/>
    <nd ref="1492719773"/>
    <nd ref="1492719855"/>
    <nd ref="1492719894"/>
    <nd ref="1492719721"/>
    <nd ref="1492719848"/>
    <nd ref="1492719740"/>
    <nd ref="1492719865"/>
    <tag k="addr:housename" v="Newfield"/>
    <tag k="addr:street" v="Ely Road"/>
    <tag k="building" v="yes"/>
    <tag k="name" v="Newfield"/>
  </way>
  <way id="136018903" version="3" timestamp="2021-03-09T02:21:39Z" changeset="100668458" uid="5173844" user="ndrw6">
    <nd ref="1492719830"/>
    <nd ref="1492719823"/>
    <nd ref="1492719842"/>
    <nd ref="1492719820"/>
    <nd ref="1492719771"/>
    <nd ref="1492719793"/>
    <nd ref="1492719830"/>
    <tag k="addr:housename" v="Beechenhurst"/>
    <tag k="addr:street" v="Ely Road"/>
    <tag k="building" v="house"/>
    <tag k="name" v="Beechenhurst"/>
    <tag k="source:name" v="survey"/>
  </way>
  <way id="136018904" version="3" timestamp="2021-03-09T02:21:39Z" changeset="100668458" uid="5173844" user="ndrw6">
    <nd ref="1492719892"/>
    <nd ref="1492719687"/>
    <nd ref="1492719659"/>
    <nd ref="1492719703"/>
    <nd ref="1492719760"/>
    <nd ref="1492719716"/>
    <nd ref="1492719902"/>
    <nd ref="1492719778"/>
    <nd ref="1492719791"/>
    <nd ref="1492719895"/>
    <nd ref="1492719869"/>
    <nd ref="1492719905"/>
    <nd ref="1492719891"/>
    <nd ref="1492719730"/>
    <nd ref="1492719685"/>
    <nd ref="1492719759"/>
    <nd ref="1492719720"/>
    <nd ref="1492719892"/>
    <tag k="addr:housename" v="Pleasant View"/>
    <tag k="addr:street" v="Ely Road"/>
    <tag k="building" v="house"/>
    <tag k="name" v="Pleasant View"/>
    <tag k="source:name" v="survey"/>
  </way>
  <way id="136018908" version="3" timestamp="2021-03-09T02:21:39Z" changeset="100668458" uid="5173844" user="ndrw6">
    <nd ref="1492719678"/>
    <nd ref="1492719783"/>
    <nd ref="1492719838"/>
    <nd ref="1492719707"/>
    <nd ref="1492719843"/>
    <nd ref="1492719672"/>
    <nd ref="1492719691"/>
    <nd ref="1492719906"/>
    <nd ref="1492719893"/>
    <nd ref="1492719738"/>
    <nd ref="1492719678"/>
    <tag k="addr:housename" v="Kuteer"/>
    <tag k="addr:street" v="Ely Road"/>
    <tag k="building" v="house"/>
    <tag k="name" v="Kuteer"/>
    <tag k="source:name" v="survey"/>
  </way>
  <way id="136018912" version="2" timestamp="2011-11-06T13:31:19Z" changeset="9755147" uid="2406" user="JeffB">
    <nd ref="1492719681"/>
    <nd ref="1492719757"/>
    <nd ref="1492719857"/>
    <nd ref="1492719866"/>
    <nd ref="1492719655"/>
    <nd ref="1492719862"/>
    <nd ref="1492719729"/>
    <nd ref="1492719812"/>
    <nd ref="1492719681"/>
    <tag k="addr:housename" v="Sandalwood"/>
    <tag k="addr:street" v="Ely Road"/>
    <tag k="building" v="yes"/>
    <tag k="name" v="Sandalwood"/>
  </way>
  <way id="136021415" version="3" timestamp="2016-01-24T22:19:41Z" changeset="36785600" uid="3551499" user="gek999">
    <nd ref="1492747452"/>
    <nd ref="1492747451"/>
    <nd ref="1492747477"/>
    <nd ref="1492747455"/>
    <nd ref="1492747411"/>
    <nd ref="1492747440"/>
    <nd ref="1492747428"/>
    <nd ref="1492747416"/>
    <nd ref="1492747467"/>
    <nd ref="1492747464"/>
    <nd ref="1492747460"/>
    <nd ref="1492747449"/>
    <nd ref="1492747435"/>
    <nd ref="1492747485"/>
    <nd ref="1492747472"/>
    <nd ref="1492747489"/>
    <nd ref="1492747483"/>
    <nd ref="1492747458"/>
    <nd ref="1492747438"/>
    <nd ref="1492747414"/>
    <nd ref="1492747421"/>
    <nd ref="1492747457"/>
    <nd ref="1492747475"/>
    <nd ref="1492747478"/>
    <nd ref="1492747429"/>
    <nd ref="1492747419"/>
    <nd ref="1492747476"/>
    <nd ref="1492747410"/>
    <nd ref="1492747433"/>
    <nd ref="1492747424"/>
    <nd ref="1492747436"/>
    <nd ref="1492747442"/>
    <nd ref="1492747441"/>
    <nd ref="1492747448"/>
    <nd ref="1492747453"/>
    <nd ref="1492747479"/>
    <nd ref="1492747484"/>
    <nd ref="1492747465"/>
    <nd ref="1492747432"/>
    <nd ref="1492747480"/>
    <nd ref="1492747437"/>
    <nd ref="1492747452"/>
    <tag k="addr:city" v="Cambridge"/>
    <tag k="addr:housenumber" v="9000"/>
    <tag k="addr:postcode" v="CB25 9TL"/>
    <tag k="addr:street" v="Cambridge Research Park"/>
    <tag k="building" v="commercial"/>
    <tag k="contact:phone" v="+44 1223 876000"/>
    <tag k="contact:twitter" v="@SepuraPLC"/>
    <tag k="contact:website" v="http://www.sepura.com/"/>
    <tag k="name" v="Sepura plc"/>
    <tag k="office" v="telecommunication"/>
  </way>
  <way id="136104729" version="3" timestamp="2024-03-06T15:41:48Z" changeset="148301377" uid="2406" user="JeffB">
    <nd ref="1493482405"/>
    <nd ref="1493482532"/>
    <nd ref="1493482440"/>
    <nd ref="1493482485"/>
    <nd ref="1493482474"/>
    <nd ref="1493482495"/>
    <nd ref="1493482482"/>
    <nd ref="11697818792"/>
    <nd ref="1493482432"/>
    <nd ref="1493482405"/>
    <tag k="addr:postcode" v="CB25 9NN"/>
    <tag k="addr:street" v="Ely Road"/>
    <tag k="building" v="house"/>
    <tag k="name" v="Montrose House"/>
    <tag k="note" v="was Willowdene until 2001"/>
    <tag k="source" v="survey"/>
  </way>
  <way id="1210431184" version="1" timestamp="2023-09-23T21:58:46Z" changeset="141662416" uid="5173844" user="ndrw6">
    <nd ref="11214295941"/>
    <nd ref="1492568386"/>
    <nd ref="1492568163"/>
    <nd ref="11214295940"/>
    <nd ref="11214295941"/>
    <tag k="addr:housenumber" v="40"/>
    <tag k="addr:street" v="High Street"/>
    <tag k="building" v="yes"/>
    <tag k="source" v="survey"/>
  </way>
  <way id="1210431193" version="1" timestamp="2023-09-23T21:58:46Z" changeset="141662416" uid="5173844" user="ndrw6">
    <nd ref="11214295971"/>
    <nd ref="1492567938"/>
    <nd ref="1492567945"/>
    <nd ref="11214295970"/>
    <nd ref="11214295971"/>
    <tag k="addr:housenumber" v="44"/>
    <tag k="addr:street" v="High Street"/>
    <tag k="building" v="yes"/>
    <tag k="source" v="survey"/>
  </way>
  <way id="1210431194" version="1" timestamp="2023-09-23T21:58:46Z" changeset="141662416" uid="5173844" user="ndrw6">
    <nd ref="11214295973"/>
    <nd ref="11214295971"/>
    <nd ref="11214295970"/>
    <nd ref="11214295972"/>
    <nd ref="11214295973"/>
    <tag k="addr:housenumber" v="46"/>
    <tag k="addr:street" v="High Street"/>
    <tag k="building" v="yes"/>
    <tag k="source" v="survey"/>
  </way>
  <way id="1210431195" version="1" timestamp="2023-09-23T21:58:46Z" changeset="141662416" uid="5173844" user="ndrw6">
    <nd ref="11214295975"/>
    <nd ref="11214295973"/>
    <nd ref="11214295972"/>
    <nd ref="11214295974"/>
    <nd ref="11214295975"/>
    <tag k="addr:housenumber" v="48"/>
    <tag k="addr:street" v="High Street"/>
    <tag k="building" v="yes"/>
    <tag k="source" v="survey"/>
  </way>

</osm>
