<?xml version="1.0" encoding="UTF-8"?>
<osm version="0.6" generator="Overpass API 0.7.62.5 1bd436f1">
<note>The data included in this document is from www.openstreetmap.org. The data is made available under ODbL.</note>
<meta osm_base="2025-02-19T00:57:01Z" areas="2025-02-06T02:17:44Z"/>

  <node id="344397209" lat="52.3846883" lon="0.2138757" version="2" timestamp="2019-03-08T00:05:25Z" changeset="67904672" uid="84263" user="Robert Whittaker">
    <tag k="addr:postcode" v="CB6 2JN"/>
    <tag k="addr:street" v="Bedwell Hey Lane"/>
    <tag k="addr:village" v="Witchford"/>
    <tag k="amenity" v="pub"/>
    <tag k="fhrs:id" v="336732"/>
    <tag k="name" v="Witchford Sports &amp; Social Club"/>
    <tag k="source:addr" v="FHRS Open Data"/>
  </node>
  <node id="891050236" lat="52.3810956" lon="0.2065348" version="3" timestamp="2019-03-08T00:05:25Z" changeset="67904672" uid="84263" user="Robert Whittaker">
    <tag k="addr:city" v="Ely"/>
    <tag k="addr:postcode" v="CB6 2JE"/>
    <tag k="addr:street" v="Grunty Fen Road"/>
    <tag k="addr:village" v="Witchford"/>
    <tag k="fhrs:id" v="336733"/>
    <tag k="name" v="The Woodlands Bed &amp; Breakfast"/>
    <tag k="source:addr" v="FHRS Open Data"/>
    <tag k="tourism" v="guest_house"/>
  </node>
  <node id="7836188497" lat="52.3905743" lon="0.2042073" version="1" timestamp="2020-08-23T00:03:50Z" changeset="89795519" uid="5173844" user="ndrw6">
    <tag k="addr:city" v="Ely"/>
    <tag k="addr:housenumber" v="41"/>
    <tag k="addr:postcode" v="CB6 2HY"/>
    <tag k="addr:street" v="Common Road"/>
    <tag k="addr:village" v="Witchford"/>
    <tag k="name" v="Greys of Ely"/>
    <tag k="office" v="company"/>
    <tag k="website" v="https://greysofely.co.uk/"/>
  </node>
  <way id="146224369" version="10" timestamp="2024-11-23T00:52:17Z" changeset="159480122" uid="5173844" user="ndrw6">
    <nd ref="1594978522"/>
    <nd ref="1594978518"/>
    <nd ref="3397000165"/>
    <nd ref="1594978515"/>
    <nd ref="1594978511"/>
    <nd ref="1594978496"/>
    <nd ref="1594978466"/>
    <nd ref="1594978514"/>
    <nd ref="1594978526"/>
    <nd ref="1594978545"/>
    <nd ref="1594978552"/>
    <nd ref="1594978538"/>
    <nd ref="7643135374"/>
    <nd ref="3397000177"/>
    <nd ref="1594978540"/>
    <nd ref="1594978522"/>
    <tag k="addr:city" v="Ely"/>
    <tag k="addr:country" v="GB"/>
    <tag k="addr:postcode" v="CB6 2JA"/>
    <tag k="addr:street" v="Manor Road"/>
    <tag k="addr:village" v="Witchford"/>
    <tag k="amenity" v="school"/>
    <tag k="capacity" v="900"/>
    <tag k="isced:level" v="2"/>
    <tag k="max_age" v="16"/>
    <tag k="min_age" v="11"/>
    <tag k="name" v="Witchford Village College"/>
    <tag k="phone" v="+44 1353 662053"/>
    <tag k="ref:GB:uprn" v="10002596610"/>
    <tag k="ref:edubase" v="137547"/>
    <tag k="ref:edubase:group" v="16402"/>
    <tag k="religion" v="none"/>
    <tag k="school:boarding" v="no"/>
    <tag k="school:gender" v="mixed"/>
    <tag k="school:selective" v="no"/>
    <tag k="school:trust" v="yes"/>
    <tag k="school:trust:name" v="Eastern Learning Alliance"/>
    <tag k="school:trust:type" v="multi_academy"/>
    <tag k="school:type" v="academy"/>
    <tag k="website" v="https://www.witchfordvc.co.uk/"/>
    <tag k="wikidata" v="Q8027929"/>
  </way>
  <way id="146224370" version="12" timestamp="2023-09-28T13:39:33Z" changeset="141865249" uid="37791" user="Fradeve11">
    <nd ref="1594978348"/>
    <nd ref="1594978347"/>
    <nd ref="1594978323"/>
    <nd ref="1594978324"/>
    <nd ref="1594978343"/>
    <nd ref="1594978345"/>
    <nd ref="1594978322"/>
    <nd ref="1594978321"/>
    <nd ref="1594978282"/>
    <nd ref="1594978280"/>
    <nd ref="1594978247"/>
    <nd ref="1594978190"/>
    <nd ref="7643136356"/>
    <nd ref="1594978268"/>
    <nd ref="1594978288"/>
    <nd ref="1594978348"/>
    <tag k="addr:postcode" v="CB6 2HQ"/>
    <tag k="addr:street" v="Main Street"/>
    <tag k="amenity" v="school"/>
    <tag k="capacity" v="315"/>
    <tag k="denomination" v="anglican"/>
    <tag k="diocese" v="Diocese of Ely"/>
    <tag k="fhrs:id" v="336737"/>
    <tag k="isced:level" v="1"/>
    <tag k="max_age" v="11"/>
    <tag k="min_age" v="4"/>
    <tag k="name" v="The Rackham Church of England Primary School"/>
    <tag k="phone" v="+44 1353 662436"/>
    <tag k="ref:GB:uprn" v="10002592995"/>
    <tag k="ref:edubase" v="110807"/>
    <tag k="religion" v="christian"/>
    <tag k="school:trust" v="no"/>
    <tag k="school:type" v="voluntary_controlled"/>
    <tag k="wikidata" v="Q66223629"/>
  </way>
  <way id="818052590" version="2" timestamp="2021-05-03T14:57:35Z" changeset="104064881" uid="281267" user="smb1001">
    <nd ref="7640225851"/>
    <nd ref="7640225850"/>
    <nd ref="7640225849"/>
    <nd ref="7640225848"/>
    <nd ref="7640225851"/>
    <tag k="addr:housenumber" v="3"/>
    <tag k="addr:street" v="Quinton Road"/>
    <tag k="building" v="yes"/>
  </way>
  <way id="818052591" version="2" timestamp="2021-05-03T14:57:35Z" changeset="104064881" uid="281267" user="smb1001">
    <nd ref="7640225855"/>
    <nd ref="7640225852"/>
    <nd ref="7640225853"/>
    <nd ref="7640225854"/>
    <nd ref="7640225855"/>
    <tag k="addr:housenumber" v="1"/>
    <tag k="addr:street" v="Quinton Road"/>
    <tag k="building" v="yes"/>
  </way>
  <way id="818052592" version="3" timestamp="2021-05-03T14:56:12Z" changeset="104064806" uid="281267" user="smb1001">
    <nd ref="7640225856"/>
    <nd ref="7836189956"/>
    <nd ref="7836189955"/>
    <nd ref="7640225857"/>
    <nd ref="7640225856"/>
    <tag k="addr:housenumber" v="10"/>
    <tag k="addr:postcode" v="CB6 2GE"/>
    <tag k="addr:street" v="Quinton Road"/>
    <tag k="building" v="yes"/>
  </way>
  <way id="818052593" version="3" timestamp="2021-05-03T14:56:12Z" changeset="104064806" uid="281267" user="smb1001">
    <nd ref="7640225860"/>
    <nd ref="7836189960"/>
    <nd ref="7836189959"/>
    <nd ref="7640225861"/>
    <nd ref="7640225860"/>
    <tag k="addr:housenumber" v="4"/>
    <tag k="addr:postcode" v="CB6 2GE"/>
    <tag k="addr:street" v="Quinton Road"/>
    <tag k="building" v="yes"/>
  </way>
  <way id="818052594" version="2" timestamp="2021-05-03T14:56:12Z" changeset="104064806" uid="281267" user="smb1001">
    <nd ref="7640225867"/>
    <nd ref="7640225864"/>
    <nd ref="7640225865"/>
    <nd ref="7640225866"/>
    <nd ref="7640225867"/>
    <tag k="addr:housenumber" v="2"/>
    <tag k="addr:postcode" v="CB6 2GE"/>
    <tag k="addr:street" v="Quinton Road"/>
    <tag k="building" v="yes"/>
  </way>
  <way id="818416763" version="2" timestamp="2020-10-20T14:46:02Z" changeset="92775703" uid="9655770" user="Seajays">
    <nd ref="375888598"/>
    <nd ref="5315380513"/>
    <nd ref="8025609593"/>
    <nd ref="8025609592"/>
    <nd ref="5315380514"/>
    <nd ref="5315380515"/>
    <nd ref="375888598"/>
    <tag k="addr:city" v="Ely"/>
    <tag k="addr:housenumber" v="80"/>
    <tag k="addr:postcode" v="CB6 2HQ"/>
    <tag k="addr:street" v="Main Street"/>
    <tag k="addr:village" v="Witchford"/>
    <tag k="amenity" v="pub"/>
    <tag k="building" v="yes"/>
    <tag k="building:levels" v="2"/>
    <tag k="fhrs:id" v="336734"/>
    <tag k="name" v="The Village Inn"/>
    <tag k="source:addr" v="FHRS Open Data"/>
  </way>
  <way id="823084602" version="2" timestamp="2020-08-23T00:03:50Z" changeset="89795519" uid="5173844" user="ndrw6">
    <nd ref="7684667485"/>
    <nd ref="7684667482"/>
    <nd ref="7684667483"/>
    <nd ref="7684667484"/>
    <nd ref="7684667485"/>
    <tag k="addr:city" v="Ely"/>
    <tag k="addr:housenumber" v="208"/>
    <tag k="addr:street" v="Main Street"/>
    <tag k="addr:village" v="Witchford"/>
    <tag k="building" v="house"/>
  </way>
  <way id="823084607" version="3" timestamp="2023-07-03T10:38:46Z" changeset="138058459" uid="281267" user="smb1001">
    <nd ref="7684667500"/>
    <nd ref="7684667538"/>
    <nd ref="7684667535"/>
    <nd ref="7684667499"/>
    <nd ref="7684667500"/>
    <tag k="addr:housenumber" v="8"/>
    <tag k="addr:postcode" v="CB6 2FX"/>
    <tag k="addr:street" v="Skylarks"/>
    <tag k="building" v="house"/>
  </way>
  <way id="823084608" version="3" timestamp="2023-07-03T10:38:46Z" changeset="138058459" uid="281267" user="smb1001">
    <nd ref="7684667502"/>
    <nd ref="7684667534"/>
    <nd ref="7684667533"/>
    <nd ref="7684667501"/>
    <nd ref="7684667502"/>
    <tag k="addr:housenumber" v="10"/>
    <tag k="addr:postcode" v="CB6 2FX"/>
    <tag k="addr:street" v="Skylarks"/>
    <tag k="building" v="house"/>
  </way>
  <way id="823084609" version="3" timestamp="2023-07-03T10:38:46Z" changeset="138058459" uid="281267" user="smb1001">
    <nd ref="7684667504"/>
    <nd ref="7684667529"/>
    <nd ref="7684667528"/>
    <nd ref="7684667503"/>
    <nd ref="7684667504"/>
    <tag k="addr:housenumber" v="12"/>
    <tag k="addr:postcode" v="CB6 2FX"/>
    <tag k="addr:street" v="Skylarks"/>
    <tag k="building" v="house"/>
  </way>
  <way id="823084610" version="3" timestamp="2023-07-03T10:38:46Z" changeset="138058459" uid="281267" user="smb1001">
    <nd ref="7684667506"/>
    <nd ref="7684667517"/>
    <nd ref="7684667516"/>
    <nd ref="7684667505"/>
    <nd ref="7684667506"/>
    <tag k="addr:housenumber" v="1"/>
    <tag k="addr:postcode" v="CB6 2FX"/>
    <tag k="addr:street" v="Skylarks"/>
    <tag k="building" v="house"/>
  </way>
  <way id="823084611" version="3" timestamp="2023-07-03T10:38:46Z" changeset="138058459" uid="281267" user="smb1001">
    <nd ref="7684667508"/>
    <nd ref="7684667521"/>
    <nd ref="7684667520"/>
    <nd ref="7684667507"/>
    <nd ref="7684667508"/>
    <tag k="addr:housenumber" v="3"/>
    <tag k="addr:postcode" v="CB6 2FX"/>
    <tag k="addr:street" v="Skylarks"/>
    <tag k="building" v="house"/>
  </way>
  <way id="823084612" version="3" timestamp="2023-07-03T10:38:46Z" changeset="138058459" uid="281267" user="smb1001">
    <nd ref="7684667510"/>
    <nd ref="7684667525"/>
    <nd ref="7684667524"/>
    <nd ref="7684667509"/>
    <nd ref="7684667510"/>
    <tag k="addr:housenumber" v="5"/>
    <tag k="addr:postcode" v="CB6 2FX"/>
    <tag k="addr:street" v="Skylarks"/>
    <tag k="building" v="house"/>
  </way>
  <way id="823084613" version="3" timestamp="2023-07-03T10:38:46Z" changeset="138058459" uid="281267" user="smb1001">
    <nd ref="7684667514"/>
    <nd ref="7684667513"/>
    <nd ref="7684667512"/>
    <nd ref="7684667511"/>
    <nd ref="7684667514"/>
    <tag k="addr:housenumber" v="13"/>
    <tag k="addr:postcode" v="CB6 2FX"/>
    <tag k="addr:street" v="Skylarks"/>
    <tag k="building" v="house"/>
  </way>
  <way id="823084614" version="3" timestamp="2023-07-03T10:38:46Z" changeset="138058459" uid="281267" user="smb1001">
    <nd ref="7684667518"/>
    <nd ref="7684667506"/>
    <nd ref="7684667505"/>
    <nd ref="7684667515"/>
    <nd ref="7684667518"/>
    <tag k="addr:housenumber" v="2"/>
    <tag k="addr:postcode" v="CB6 2FX"/>
    <tag k="addr:street" v="Skylarks"/>
    <tag k="building" v="house"/>
  </way>
  <way id="823084615" version="3" timestamp="2023-07-03T10:38:46Z" changeset="138058459" uid="281267" user="smb1001">
    <nd ref="7684667522"/>
    <nd ref="7684667508"/>
    <nd ref="7684667507"/>
    <nd ref="7684667519"/>
    <nd ref="7684667522"/>
    <tag k="addr:housenumber" v="4"/>
    <tag k="addr:postcode" v="CB6 2FX"/>
    <tag k="addr:street" v="Skylarks"/>
    <tag k="building" v="house"/>
  </way>
  <way id="823084616" version="3" timestamp="2023-07-03T10:38:46Z" changeset="138058459" uid="281267" user="smb1001">
    <nd ref="7684667526"/>
    <nd ref="7684667510"/>
    <nd ref="7684667509"/>
    <nd ref="7684667523"/>
    <nd ref="7684667526"/>
    <tag k="addr:housenumber" v="6"/>
    <tag k="addr:postcode" v="CB6 2FX"/>
    <tag k="addr:street" v="Skylarks"/>
    <tag k="building" v="house"/>
  </way>
  <way id="823084617" version="3" timestamp="2023-07-03T10:38:46Z" changeset="138058459" uid="281267" user="smb1001">
    <nd ref="7684667530"/>
    <nd ref="7684667504"/>
    <nd ref="7684667503"/>
    <nd ref="7684667527"/>
    <nd ref="7684667530"/>
    <tag k="addr:housenumber" v="11"/>
    <tag k="addr:postcode" v="CB6 2FX"/>
    <tag k="addr:street" v="Skylarks"/>
    <tag k="building" v="house"/>
  </way>
  <way id="823084618" version="3" timestamp="2023-07-03T10:38:46Z" changeset="138058459" uid="281267" user="smb1001">
    <nd ref="7684667531"/>
    <nd ref="7684667502"/>
    <nd ref="7684667501"/>
    <nd ref="7684667532"/>
    <nd ref="7684667531"/>
    <tag k="addr:housenumber" v="9"/>
    <tag k="addr:postcode" v="CB6 2FX"/>
    <tag k="addr:street" v="Skylarks"/>
    <tag k="building" v="house"/>
  </way>
  <way id="823084619" version="3" timestamp="2023-07-03T10:38:46Z" changeset="138058459" uid="281267" user="smb1001">
    <nd ref="7684667537"/>
    <nd ref="7684667500"/>
    <nd ref="7684667499"/>
    <nd ref="7684667536"/>
    <nd ref="7684667537"/>
    <tag k="addr:housenumber" v="7"/>
    <tag k="addr:postcode" v="CB6 2FX"/>
    <tag k="addr:street" v="Skylarks"/>
    <tag k="building" v="house"/>
  </way>
  <way id="823084639" version="2" timestamp="2020-08-23T00:03:50Z" changeset="89795519" uid="5173844" user="ndrw6">
    <nd ref="7684667600"/>
    <nd ref="7684667597"/>
    <nd ref="7684667598"/>
    <nd ref="7684667599"/>
    <nd ref="7684667600"/>
    <tag k="addr:city" v="Ely"/>
    <tag k="addr:housenumber" v="200"/>
    <tag k="addr:street" v="Main Street"/>
    <tag k="addr:village" v="Witchford"/>
    <tag k="building" v="house"/>
  </way>
  <way id="823084640" version="2" timestamp="2020-08-23T00:03:50Z" changeset="89795519" uid="5173844" user="ndrw6">
    <nd ref="7684667604"/>
    <nd ref="7684667601"/>
    <nd ref="7684667602"/>
    <nd ref="7684667603"/>
    <nd ref="7684667604"/>
    <tag k="addr:city" v="Ely"/>
    <tag k="addr:housenumber" v="202a"/>
    <tag k="addr:street" v="Main Street"/>
    <tag k="addr:village" v="Witchford"/>
    <tag k="building" v="house"/>
  </way>
  <way id="839763747" version="2" timestamp="2021-05-03T14:56:12Z" changeset="104064806" uid="281267" user="smb1001">
    <nd ref="7836188544"/>
    <nd ref="7836188545"/>
    <nd ref="7836188553"/>
    <nd ref="7836188552"/>
    <nd ref="7836188549"/>
    <nd ref="7836188548"/>
    <nd ref="7836188547"/>
    <nd ref="7836188550"/>
    <nd ref="7836188551"/>
    <nd ref="7836188554"/>
    <nd ref="7836188546"/>
    <nd ref="7836188541"/>
    <nd ref="7836188542"/>
    <nd ref="7836188543"/>
    <nd ref="7836188544"/>
    <tag k="addr:housenumber" v="39"/>
    <tag k="addr:street" v="Common Road"/>
    <tag k="building" v="yes"/>
  </way>
  <way id="839763777" version="2" timestamp="2021-05-03T14:56:12Z" changeset="104064806" uid="281267" user="smb1001">
    <nd ref="7836189952"/>
    <nd ref="7640225859"/>
    <nd ref="7640225858"/>
    <nd ref="7836189951"/>
    <nd ref="7836189952"/>
    <tag k="addr:housenumber" v="16"/>
    <tag k="addr:postcode" v="CB6 2GE"/>
    <tag k="addr:street" v="Quinton Road"/>
    <tag k="building" v="yes"/>
  </way>
  <way id="839763778" version="2" timestamp="2021-05-03T14:56:12Z" changeset="104064806" uid="281267" user="smb1001">
    <nd ref="7836189954"/>
    <nd ref="7836189952"/>
    <nd ref="7836189951"/>
    <nd ref="7836189953"/>
    <nd ref="7836189954"/>
    <tag k="addr:housenumber" v="14"/>
    <tag k="addr:postcode" v="CB6 2GE"/>
    <tag k="addr:street" v="Quinton Road"/>
    <tag k="building" v="yes"/>
  </way>
  <way id="839763779" version="2" timestamp="2021-05-03T14:56:12Z" changeset="104064806" uid="281267" user="smb1001">
    <nd ref="7836189956"/>
    <nd ref="7836189954"/>
    <nd ref="7836189953"/>
    <nd ref="7836189955"/>
    <nd ref="7836189956"/>
    <tag k="addr:housenumber" v="12"/>
    <tag k="addr:postcode" v="CB6 2GE"/>
    <tag k="addr:street" v="Quinton Road"/>
    <tag k="building" v="yes"/>
  </way>
  <way id="839763780" version="2" timestamp="2021-05-03T14:56:12Z" changeset="104064806" uid="281267" user="smb1001">
    <nd ref="7836189958"/>
    <nd ref="7640225863"/>
    <nd ref="7640225862"/>
    <nd ref="7836189957"/>
    <nd ref="7836189958"/>
    <tag k="addr:housenumber" v="8"/>
    <tag k="addr:postcode" v="CB6 2GE"/>
    <tag k="addr:street" v="Quinton Road"/>
    <tag k="building" v="yes"/>
  </way>
  <way id="839763781" version="2" timestamp="2021-05-03T14:56:12Z" changeset="104064806" uid="281267" user="smb1001">
    <nd ref="7836189960"/>
    <nd ref="7836189958"/>
    <nd ref="7836189957"/>
    <nd ref="7836189959"/>
    <nd ref="7836189960"/>
    <tag k="addr:housenumber" v="6"/>
    <tag k="addr:postcode" v="CB6 2GE"/>
    <tag k="addr:street" v="Quinton Road"/>
    <tag k="building" v="yes"/>
  </way>
  <way id="839763785" version="1" timestamp="2020-08-23T00:03:50Z" changeset="89795519" uid="5173844" user="ndrw6">
    <nd ref="7836189993"/>
    <nd ref="7836189990"/>
    <nd ref="7836189991"/>
    <nd ref="7836189992"/>
    <nd ref="7836189993"/>
    <tag k="addr:housenumber" v="2"/>
    <tag k="addr:street" v="Granary End"/>
    <tag k="building" v="house"/>
  </way>
  <way id="839763786" version="1" timestamp="2020-08-23T00:03:50Z" changeset="89795519" uid="5173844" user="ndrw6">
    <nd ref="7836189997"/>
    <nd ref="7836189994"/>
    <nd ref="7836189995"/>
    <nd ref="7836189996"/>
    <nd ref="7836189997"/>
    <tag k="addr:housenumber" v="1"/>
    <tag k="addr:street" v="Granary End"/>
    <tag k="building" v="house"/>
  </way>
  <way id="861091226" version="2" timestamp="2020-10-20T15:44:47Z" changeset="92778373" uid="9655770" user="Seajays">
    <nd ref="8025609597"/>
    <nd ref="891050650"/>
    <nd ref="8025609598"/>
    <nd ref="8025609599"/>
    <nd ref="8025609600"/>
    <nd ref="8025609597"/>
    <tag k="addr:city" v="Witchford"/>
    <tag k="addr:street" v="Main Street"/>
    <tag k="amenity" v="fast_food"/>
    <tag k="building" v="yes"/>
    <tag k="cuisine" v="chinese"/>
    <tag k="name" v="Wichford Chinese Foods Take Away"/>
  </way>

</osm>
