<?xml version="1.0" encoding="UTF-8"?>
<osm version="0.6" generator="Overpass API 0.7.62.5 1bd436f1">
<note>The data included in this document is from www.openstreetmap.org. The data is made available under ODbL.</note>
<meta osm_base="2025-02-19T00:59:51Z" areas="2025-02-06T02:17:44Z"/>

  <way id="335055465" version="3" timestamp="2024-05-12T10:07:29Z" changeset="151217460" uid="95856" user="john paul jones &amp; gringo">
    <nd ref="3421840613"/>
    <nd ref="3421840614"/>
    <nd ref="3421840615"/>
    <nd ref="3421840616"/>
    <nd ref="3421840617"/>
    <nd ref="3421840618"/>
    <nd ref="3421840619"/>
    <nd ref="3421840620"/>
    <nd ref="3421840621"/>
    <nd ref="3421840613"/>
    <tag k="addr:city" v="Huntingdon"/>
    <tag k="addr:country" v="GB"/>
    <tag k="addr:housename" v="Magpie Farm"/>
    <tag k="addr:postcode" v="PE28 0TS"/>
    <tag k="addr:street" v="Stocking Lane"/>
    <tag k="addr:suburb" v="Easton"/>
    <tag k="landuse" v="farmyard"/>
    <tag k="name" v="Magpie Farm"/>
  </way>
  <way id="335055466" version="3" timestamp="2024-05-12T10:07:29Z" changeset="151217460" uid="95856" user="john paul jones &amp; gringo">
    <nd ref="3421840622"/>
    <nd ref="3421840623"/>
    <nd ref="3421840624"/>
    <nd ref="3421840625"/>
    <nd ref="3421840622"/>
    <tag k="addr:city" v="Huntingdon"/>
    <tag k="addr:country" v="GB"/>
    <tag k="addr:housename" v="Easton Lodge Farm"/>
    <tag k="addr:postcode" v="PE28 0TS"/>
    <tag k="addr:street" v="Stocking Lane"/>
    <tag k="addr:suburb" v="Easton"/>
    <tag k="landuse" v="farmyard"/>
    <tag k="name" v="Easton Lodge Farm"/>
  </way>
  <way id="451359364" version="2" timestamp="2024-05-12T10:07:29Z" changeset="151217460" uid="95856" user="john paul jones &amp; gringo">
    <nd ref="4481867009"/>
    <nd ref="4481867010"/>
    <nd ref="4481867011"/>
    <nd ref="4481867012"/>
    <nd ref="4481867013"/>
    <nd ref="4481867014"/>
    <nd ref="4481867009"/>
    <tag k="addr:city" v="Huntingdon"/>
    <tag k="addr:country" v="GB"/>
    <tag k="addr:housename" v="Easton Lodge Farm Bungalow"/>
    <tag k="addr:postcode" v="PE28 0TS"/>
    <tag k="addr:street" v="Stocking Lane"/>
    <tag k="addr:suburb" v="Easton"/>
    <tag k="building" v="house"/>
    <tag k="name" v="Easton Lodge Farm Bungalow"/>
  </way>

</osm>
