<?xml version="1.0" encoding="UTF-8"?>
<osm version="0.6" generator="Overpass API 0.7.62.5 1bd436f1">
<note>The data included in this document is from www.openstreetmap.org. The data is made available under ODbL.</note>
<meta osm_base="2025-02-19T01:06:02Z" areas="2025-02-06T02:17:44Z"/>

  <way id="548155680" version="2" timestamp="2024-12-11T08:18:14Z" changeset="160157707" uid="10633286" user="Moorit">
    <nd ref="5295784334"/>
    <nd ref="5295784335"/>
    <nd ref="5295784336"/>
    <nd ref="5295784337"/>
    <nd ref="5295784338"/>
    <nd ref="5295784339"/>
    <nd ref="5295784340"/>
    <nd ref="5295784341"/>
    <nd ref="5295784342"/>
    <nd ref="5295784343"/>
    <nd ref="5295784334"/>
    <tag k="addr:housenumber" v="5"/>
    <tag k="addr:street" v="Field Row"/>
    <tag k="building" v="yes"/>
  </way>
  <way id="548155681" version="5" timestamp="2024-12-11T08:18:14Z" changeset="160157707" uid="10633286" user="Moorit">
    <nd ref="5295784344"/>
    <nd ref="9585785411"/>
    <nd ref="9585785410"/>
    <nd ref="5295784347"/>
    <nd ref="5295784344"/>
    <tag k="addr:city" v="Cambridge"/>
    <tag k="addr:housenumber" v="4"/>
    <tag k="addr:postcode" v="CB23 2NH"/>
    <tag k="addr:street" v="Field Row"/>
    <tag k="addr:village" v="Kingston"/>
    <tag k="building" v="yes"/>
  </way>
  <way id="548155682" version="2" timestamp="2024-12-11T08:18:14Z" changeset="160157707" uid="10633286" user="Moorit">
    <nd ref="5295784348"/>
    <nd ref="5295784349"/>
    <nd ref="5295784350"/>
    <nd ref="5295784351"/>
    <nd ref="5295784348"/>
    <tag k="addr:city" v="Cambridge"/>
    <tag k="addr:housenumber" v="2"/>
    <tag k="addr:postcode" v="CB23 2NH"/>
    <tag k="addr:street" v="Field Row"/>
    <tag k="building" v="yes"/>
  </way>
  <way id="548155683" version="2" timestamp="2024-12-11T08:18:14Z" changeset="160157707" uid="10633286" user="Moorit">
    <nd ref="5295784352"/>
    <nd ref="5295784353"/>
    <nd ref="5295784354"/>
    <nd ref="5295784355"/>
    <nd ref="5295784352"/>
    <tag k="addr:city" v="Cambridge"/>
    <tag k="addr:housenumber" v="1"/>
    <tag k="addr:postcode" v="CB23 2NH"/>
    <tag k="addr:street" v="Field Row"/>
    <tag k="building" v="yes"/>
  </way>
  <way id="548155699" version="2" timestamp="2021-08-20T01:32:44Z" changeset="109958531" uid="493595" user="Yorvik Prestigitator">
    <nd ref="5295784421"/>
    <nd ref="5295784427"/>
    <nd ref="5295784428"/>
    <nd ref="5295784429"/>
    <nd ref="5295784424"/>
    <nd ref="5295784421"/>
    <tag k="addr:city" v="Kingston"/>
    <tag k="addr:postcode" v="CB23 2NN"/>
    <tag k="addr:street" v="The Green"/>
    <tag k="amenity" v="community_centre"/>
    <tag k="building" v="public"/>
    <tag k="community_centre" v="village_hall"/>
    <tag k="name" v="Kingston Village Hall"/>
  </way>
  <way id="548155701" version="3" timestamp="2024-03-07T22:32:39Z" changeset="148362590" uid="5173844" user="ndrw6">
    <nd ref="5295784436"/>
    <nd ref="5295784437"/>
    <nd ref="5295784438"/>
    <nd ref="5295784439"/>
    <nd ref="5295784440"/>
    <nd ref="5295784441"/>
    <nd ref="5295784442"/>
    <nd ref="11702281794"/>
    <nd ref="11702281793"/>
    <nd ref="11702281792"/>
    <nd ref="11702281791"/>
    <nd ref="5295784443"/>
    <nd ref="5295784436"/>
    <tag k="addr:housenumber" v="The Thatches"/>
    <tag k="addr:street" v="Rectory Lane"/>
    <tag k="building" v="yes"/>
  </way>
  <way id="619868648" version="2" timestamp="2024-02-15T12:32:01Z" changeset="147489400" uid="742701" user="kerr smith">
    <nd ref="5857162279"/>
    <nd ref="5857162276"/>
    <nd ref="5857162277"/>
    <nd ref="5857162278"/>
    <nd ref="5857162279"/>
    <tag k="addr:housename" v="Lyndhurst"/>
    <tag k="addr:housenumber" v="6"/>
    <tag k="addr:postcode" v="CB23 1HT"/>
    <tag k="addr:street" v="Kingston Road"/>
    <tag k="building" v="yes"/>
  </way>
  <way id="1041181060" version="2" timestamp="2024-12-11T08:18:14Z" changeset="160157707" uid="10633286" user="Moorit">
    <nd ref="9585785411"/>
    <nd ref="5295784345"/>
    <nd ref="5295784346"/>
    <nd ref="9585785410"/>
    <nd ref="9585785411"/>
    <tag k="addr:city" v="Cambridge"/>
    <tag k="addr:housenumber" v="3"/>
    <tag k="addr:postcode" v="CB23 2NH"/>
    <tag k="addr:street" v="Field Row"/>
    <tag k="addr:village" v="Kingston"/>
    <tag k="building" v="yes"/>
  </way>
  <way id="1136434651" version="4" timestamp="2024-02-16T14:48:27Z" changeset="147535584" uid="742701" user="kerr smith">
    <nd ref="10593959373"/>
    <nd ref="10593959365"/>
    <nd ref="10593959364"/>
    <nd ref="10593959363"/>
    <nd ref="11630583155"/>
    <nd ref="11630583156"/>
    <nd ref="10593959361"/>
    <nd ref="10593959360"/>
    <nd ref="11630583154"/>
    <nd ref="10593959370"/>
    <nd ref="10593959371"/>
    <nd ref="10593959367"/>
    <nd ref="10593959366"/>
    <nd ref="10593959368"/>
    <nd ref="10593959369"/>
    <nd ref="10593959372"/>
    <nd ref="10593959373"/>
    <tag k="addr:housename" v="Armshold Farm"/>
    <tag k="addr:housenumber" v="8"/>
    <tag k="addr:postcode" v="CB23 1HT"/>
    <tag k="addr:street" v="Kingston Road"/>
    <tag k="building" v="yes"/>
    <tag k="note" v="This house appears to be on Tinkers Lane but a local resident explained that technically this house is in the village of Kingston and so has Kingston Road as its street name"/>
  </way>

</osm>
