<?xml version="1.0" encoding="UTF-8"?>
<osm version="0.6" generator="Overpass API 0.7.62.4 2390de5a">
<note>The data included in this document is from www.openstreetmap.org. The data is made available under ODbL.</note>
<meta osm_base="2025-01-21T14:21:20Z" areas="2024-12-31T00:49:33Z"/>

  <node id="312413306" lat="52.4025004" lon="-0.0000578" version="5" timestamp="2024-05-21T10:34:04Z" changeset="151621373" uid="95856" user="john paul jones &amp; gringo">
    <tag k="addr:city" v="Huntingdon"/>
    <tag k="addr:country" v="GB"/>
    <tag k="addr:postcode" v="PE28 3WD"/>
    <tag k="addr:street" v="Warner's Drove"/>
    <tag k="addr:suburb" v="Somersham"/>
    <tag k="landuse" v="farm"/>
    <tag k="name" v="Edwards' &amp; Warner's Farm"/>
    <tag k="note" v="Name given above farm names is N C Dixon, presumably proprietor?"/>
    <tag k="note:retag" v="CS #48756035"/>
  </node>
  <node id="1330405519" lat="52.3825763" lon="-0.0012456" version="13" timestamp="2023-10-19T14:16:20Z" changeset="142818410" uid="4345757" user="JassKurn">
    <tag k="addr:street" v="High Street"/>
    <tag k="brand" v="Tesco Express"/>
    <tag k="brand:wikidata" v="Q98456772"/>
    <tag k="brand:wikipedia" v="en:Tesco"/>
    <tag k="contact:website" v="https://www.tesco.com/store-locator/somersham/89-high-st"/>
    <tag k="name" v="Tesco Express"/>
    <tag k="operator" v="Tesco Stores Ltd"/>
    <tag k="shop" v="convenience"/>
  </node>
  <node id="1596833838" lat="52.3727711" lon="-0.0265132" version="5" timestamp="2024-05-21T10:04:46Z" changeset="151620238" uid="95856" user="john paul jones &amp; gringo">
    <tag k="addr:city" v="Huntingdon"/>
    <tag k="addr:country" v="GB"/>
    <tag k="addr:postcode" v="PE28 3ET"/>
    <tag k="addr:street" v="St. Ives Road"/>
    <tag k="addr:suburb" v="Somersham"/>
    <tag k="landuse" v="farm"/>
    <tag k="name" v="Cuckoo Bridge Farm"/>
    <tag k="note:retag" v="CS #48756035"/>
  </node>
  <node id="1596833849" lat="52.3752450" lon="-0.0274338" version="5" timestamp="2024-05-21T10:04:46Z" changeset="151620238" uid="95856" user="john paul jones &amp; gringo">
    <tag k="addr:city" v="Huntingdon"/>
    <tag k="addr:country" v="GB"/>
    <tag k="addr:postcode" v="PE28 3ET"/>
    <tag k="addr:street" v="St. Ives Road"/>
    <tag k="addr:suburb" v="Somersham"/>
    <tag k="landuse" v="farm"/>
    <tag k="name" v="Hillside Farm"/>
    <tag k="note:retag" v="CS #48756035"/>
  </node>
  <node id="1596833850" lat="52.3783595" lon="-0.0244844" version="4" timestamp="2024-05-21T10:04:46Z" changeset="151620238" uid="95856" user="john paul jones &amp; gringo">
    <tag k="addr:city" v="Huntingdon"/>
    <tag k="addr:country" v="GB"/>
    <tag k="addr:housename" v="Maureens Farm Shop"/>
    <tag k="addr:postcode" v="PE28 3ET"/>
    <tag k="addr:street" v="St. Ives Road"/>
    <tag k="addr:suburb" v="Somersham"/>
    <tag k="name" v="Maureens Farm Shop"/>
    <tag k="shop" v="farm"/>
  </node>
  <node id="1596833852" lat="52.3790217" lon="-0.0211696" version="6" timestamp="2024-05-21T10:04:46Z" changeset="151620238" uid="95856" user="john paul jones &amp; gringo">
    <tag k="addr:city" v="Huntingdon"/>
    <tag k="addr:country" v="GB"/>
    <tag k="addr:postcode" v="PE28 3ER"/>
    <tag k="addr:street" v="St. Ives Road"/>
    <tag k="addr:suburb" v="Somersham"/>
    <tag k="name" v="Rollins Farm Supplies"/>
    <tag k="note:retag" v="CS #48756035"/>
    <tag k="shop" v="country_store"/>
  </node>
  <node id="7479847885" lat="52.3831126" lon="-0.0021375" version="4" timestamp="2024-05-21T10:27:14Z" changeset="151621134" uid="95856" user="john paul jones &amp; gringo">
    <tag k="addr:city" v="Huntingdon"/>
    <tag k="addr:country" v="GB"/>
    <tag k="addr:housenumber" v="2c"/>
    <tag k="addr:postcode" v="PE28 3EU"/>
    <tag k="addr:street" v="Parkhall Road"/>
    <tag k="addr:suburb" v="Somersham"/>
    <tag k="amenity" v="doctors"/>
    <tag k="email" v="riverport.medicalpractice@nhs.net"/>
    <tag k="healthcare" v="doctor"/>
    <tag k="name" v="Parkhall Surgery"/>
    <tag k="phone" v="+44 1487 740888"/>
    <tag k="website" v="https://www.riverportmedicalpractice.co.uk/"/>
  </node>
  <node id="8168706114" lat="52.3826314" lon="-0.0018933" version="3" timestamp="2024-05-21T10:04:46Z" changeset="151620238" uid="95856" user="john paul jones &amp; gringo">
    <tag k="addr:city" v="Huntingdon"/>
    <tag k="addr:country" v="GB"/>
    <tag k="addr:housenumber" v="97d"/>
    <tag k="addr:postcode" v="PE28 3EE"/>
    <tag k="addr:street" v="High Street"/>
    <tag k="addr:suburb" v="Somersham"/>
    <tag k="name" v="The Village Pet Shop"/>
    <tag k="shop" v="pet"/>
  </node>
  <node id="10848301811" lat="52.3825883" lon="-0.0014696" version="2" timestamp="2024-05-21T10:19:41Z" changeset="151620854" uid="95856" user="john paul jones &amp; gringo">
    <tag k="addr:city" v="Huntingdon"/>
    <tag k="addr:country" v="GB"/>
    <tag k="addr:housenumber" v="93"/>
    <tag k="addr:postcode" v="PE28 3EE"/>
    <tag k="addr:street" v="High Street"/>
    <tag k="addr:suburb" v="Somersham"/>
    <tag k="name" v="Impressions Creative Solutions"/>
    <tag k="shop" v="copyshop"/>
    <tag k="website" v="https://impressionscs.co.uk"/>
  </node>
  <node id="11775666033" lat="52.3826632" lon="-0.0020213" version="2" timestamp="2024-05-21T10:04:46Z" changeset="151620238" uid="95856" user="john paul jones &amp; gringo">
    <tag k="addr:city" v="Huntingdon"/>
    <tag k="addr:country" v="GB"/>
    <tag k="addr:housenumber" v="97"/>
    <tag k="addr:postcode" v="PE28 3EE"/>
    <tag k="addr:street" v="High Street"/>
    <tag k="addr:suburb" v="Somersham"/>
    <tag k="amenity" v="cafe"/>
    <tag k="email" v="Olivescoffeeshop@gmail.com"/>
    <tag k="name" v="Olive's"/>
    <tag k="outdoor_seating" v="no"/>
    <tag k="phone" v="+44 1487 842000"/>
    <tag k="website" v="https://www.olivescoffeeshop.com"/>
  </node>
  <way id="61558184" version="3" timestamp="2024-05-03T00:25:45Z" changeset="150815433" uid="21226027" user="DorneyLake123">
    <nd ref="767842178"/>
    <nd ref="767842179"/>
    <nd ref="767842180"/>
    <nd ref="767842181"/>
    <nd ref="767842178"/>
    <tag k="addr:city" v="Somersham"/>
    <tag k="addr:country" v="GB"/>
    <tag k="addr:street" v="St. Ives Road"/>
    <tag k="amenity" v="pub"/>
    <tag k="building" v="yes"/>
    <tag k="name" v="The Windmill"/>
  </way>
  <way id="101892898" version="6" timestamp="2024-05-23T09:31:14Z" changeset="151712992" uid="95856" user="john paul jones &amp; gringo">
    <nd ref="1176324135"/>
    <nd ref="1176324225"/>
    <nd ref="1176324345"/>
    <nd ref="1176324366"/>
    <nd ref="1176324135"/>
    <tag k="addr:city" v="Huntingdon"/>
    <tag k="addr:country" v="GB"/>
    <tag k="addr:postcode" v="PE28 3FL"/>
    <tag k="addr:street" v="Pidley Street Lane"/>
    <tag k="addr:suburb" v="Pidley"/>
    <tag k="landuse" v="plant_nursery"/>
    <tag k="name" v="D'Arcy &amp; Everest"/>
    <tag k="operator" v="Meadowsweet Nursery"/>
  </way>
  <way id="101892902" version="5" timestamp="2024-05-21T10:04:46Z" changeset="151620238" uid="95856" user="john paul jones &amp; gringo">
    <nd ref="1176324325"/>
    <nd ref="1176324127"/>
    <nd ref="1176324153"/>
    <nd ref="1176324264"/>
    <nd ref="4380778605"/>
    <nd ref="4380778604"/>
    <nd ref="1176324299"/>
    <nd ref="1176324397"/>
    <nd ref="1176324325"/>
    <tag k="addr:city" v="Huntingdon"/>
    <tag k="addr:country" v="GB"/>
    <tag k="addr:housename" v="Cuckoo Bridge"/>
    <tag k="addr:postcode" v="PE28 3ET"/>
    <tag k="addr:street" v="St. Ives Road"/>
    <tag k="addr:suburb" v="Somersham"/>
    <tag k="landuse" v="plant_nursery"/>
    <tag k="name" v="Cuckoo Bridge Nursery &amp; Farmshop"/>
    <tag k="phone" v="+44 1487 842665"/>
    <tag k="website" v="www.hargreavesplants.com/"/>
  </way>
  <way id="146411799" version="5" timestamp="2024-05-21T10:04:46Z" changeset="151620238" uid="95856" user="john paul jones &amp; gringo">
    <nd ref="4559497682"/>
    <nd ref="4559497691"/>
    <nd ref="4559497692"/>
    <nd ref="8630283256"/>
    <nd ref="7876291794"/>
    <nd ref="7876291792"/>
    <nd ref="7876291793"/>
    <nd ref="1596833906"/>
    <nd ref="1596833899"/>
    <nd ref="1596833904"/>
    <nd ref="4559497682"/>
    <tag k="addr:city" v="Huntingdon"/>
    <tag k="addr:country" v="GB"/>
    <tag k="addr:postcode" v="PE28 3ET"/>
    <tag k="addr:street" v="St. Ives Road"/>
    <tag k="addr:suburb" v="Somersham"/>
    <tag k="landuse" v="orchard"/>
    <tag k="name" v="The Lawn Orchard"/>
  </way>
  <way id="403037516" version="8" timestamp="2024-09-16T23:22:05Z" changeset="156708621" uid="21226027" user="DorneyLake123">
    <nd ref="4054219297"/>
    <nd ref="4054219291"/>
    <nd ref="4054219296"/>
    <nd ref="4054219299"/>
    <nd ref="4054219294"/>
    <nd ref="4054219292"/>
    <nd ref="4054219290"/>
    <nd ref="4054219293"/>
    <nd ref="4054219298"/>
    <nd ref="4054219289"/>
    <nd ref="4054219297"/>
    <tag k="addr:city" v="Huntingdon"/>
    <tag k="addr:housenumber" v="117"/>
    <tag k="addr:postcode" v="PE28 3EH"/>
    <tag k="addr:street" v="High Street"/>
    <tag k="amenity" v="school"/>
    <tag k="capacity" v="125"/>
    <tag k="fax" v="+44 1487 840966"/>
    <tag k="max_age" v="11"/>
    <tag k="min_age" v="1"/>
    <tag k="name" v="Whitehall School"/>
    <tag k="phone" v="+44 1487 840966"/>
    <tag k="ref:edubase" v="110928"/>
    <tag k="source" v="OS OpenData StreetView;Bing"/>
    <tag k="website" v="https://www.whitehallschool.com/"/>
    <tag k="wikidata" v="Q67150976"/>
  </way>
  <way id="440335572" version="3" timestamp="2024-05-23T09:31:14Z" changeset="151712992" uid="95856" user="john paul jones &amp; gringo">
    <nd ref="4380632501"/>
    <nd ref="4380632502"/>
    <nd ref="4380632503"/>
    <nd ref="4380632504"/>
    <nd ref="4380632505"/>
    <nd ref="4380632506"/>
    <nd ref="4380632507"/>
    <nd ref="4380632508"/>
    <nd ref="4380632501"/>
    <tag k="addr:city" v="Huntingdon"/>
    <tag k="addr:country" v="GB"/>
    <tag k="addr:housename" v="Silks Farm Nursery School"/>
    <tag k="addr:postcode" v="PE28 3ET"/>
    <tag k="addr:street" v="St. Ives Road"/>
    <tag k="addr:suburb" v="Woodhurst"/>
    <tag k="amenity" v="childcare"/>
    <tag k="building" v="yes"/>
    <tag k="name" v="Silks Farm Nursery School"/>
    <tag k="operator" v="Magic Nurseries"/>
    <tag k="phone" v="+44 1487 843525"/>
    <tag k="website" v="www.silksfarm.co.uk/"/>
  </way>
  <way id="460921800" version="2" timestamp="2023-09-28T14:42:16Z" changeset="141867774" uid="10420541" user="Thingummy">
    <nd ref="4565021156"/>
    <nd ref="4565021157"/>
    <nd ref="4565021158"/>
    <nd ref="4565021159"/>
    <nd ref="4565021156"/>
    <tag k="addr:housename" v="Louella"/>
    <tag k="addr:street" v="Parkhall Road"/>
    <tag k="building" v="barn"/>
    <tag k="name" v="l"/>
  </way>
  <way id="809569579" version="2" timestamp="2023-10-18T09:31:28Z" changeset="142753291" uid="10420541" user="Thingummy">
    <nd ref="7569613926"/>
    <nd ref="7569613931"/>
    <nd ref="7569613928"/>
    <nd ref="7569613927"/>
    <nd ref="7569613926"/>
    <tag k="addr:housename" v="East Leigh"/>
    <tag k="addr:street" v="Parkhall Road"/>
    <tag k="building" v="yes"/>
    <tag k="name" v="East Leigh"/>
  </way>
  <way id="809569580" version="2" timestamp="2023-10-18T09:31:28Z" changeset="142753291" uid="10420541" user="Thingummy">
    <nd ref="7569613935"/>
    <nd ref="7569613934"/>
    <nd ref="7569613933"/>
    <nd ref="7569613932"/>
    <nd ref="7569613935"/>
    <tag k="addr:housename" v="Home Leigh"/>
    <tag k="addr:street" v="Parkhall Road"/>
    <tag k="building" v="yes"/>
    <tag k="name" v="Homeleigh"/>
  </way>
  <way id="809569582" version="2" timestamp="2023-10-18T09:31:28Z" changeset="142753291" uid="10420541" user="Thingummy">
    <nd ref="7569613943"/>
    <nd ref="7569613942"/>
    <nd ref="7569613941"/>
    <nd ref="7569613940"/>
    <nd ref="11271264740"/>
    <nd ref="7569613943"/>
    <tag k="addr:housename" v="Rose Brae"/>
    <tag k="addr:street" v="Parkhall Road"/>
    <tag k="building" v="semidetached_house"/>
    <tag k="name" v="Rosedale  Cottage"/>
  </way>
  <way id="809581489" version="4" timestamp="2024-05-21T10:04:46Z" changeset="151620238" uid="95856" user="john paul jones &amp; gringo">
    <nd ref="7569725410"/>
    <nd ref="7569725406"/>
    <nd ref="7569725405"/>
    <nd ref="7569725407"/>
    <nd ref="7569725408"/>
    <nd ref="7569725409"/>
    <nd ref="7569725403"/>
    <nd ref="7569725404"/>
    <nd ref="7569725410"/>
    <tag k="addr:city" v="Huntingdon"/>
    <tag k="addr:country" v="GB"/>
    <tag k="addr:postcode" v="PE28 3EE"/>
    <tag k="addr:street" v="High Street"/>
    <tag k="addr:suburb" v="Somersham"/>
    <tag k="building" v="yes"/>
    <tag k="name" v="Somersham Telephone Exchange"/>
    <tag k="operator" v="Openreach"/>
    <tag k="operator:wikidata" v="Q7096543"/>
    <tag k="ref" v="EMSOSHM"/>
    <tag k="telecom" v="exchange"/>
  </way>
  <way id="844359186" version="4" timestamp="2024-05-21T10:19:41Z" changeset="151620854" uid="95856" user="john paul jones &amp; gringo">
    <nd ref="7876272083"/>
    <nd ref="7932221547"/>
    <nd ref="7876272084"/>
    <nd ref="7876291785"/>
    <nd ref="7876291786"/>
    <nd ref="7876291787"/>
    <nd ref="7876291788"/>
    <nd ref="7876291789"/>
    <nd ref="7876291790"/>
    <nd ref="7876291791"/>
    <nd ref="7876272083"/>
    <tag k="addr:city" v="Huntingdon"/>
    <tag k="addr:country" v="GB"/>
    <tag k="addr:postcode" v="PE28 3ET"/>
    <tag k="addr:street" v="St. Ives Road"/>
    <tag k="addr:suburb" v="Somersham"/>
    <tag k="landuse" v="farmyard"/>
    <tag k="name" v="Park Farm"/>
  </way>
  <way id="1216430980" version="1" timestamp="2023-10-18T09:31:28Z" changeset="142753291" uid="10420541" user="Thingummy">
    <nd ref="11271264738"/>
    <nd ref="7569613943"/>
    <nd ref="11271264740"/>
    <nd ref="7569613940"/>
    <nd ref="11271264739"/>
    <nd ref="11271264738"/>
    <tag k="addr:housename" v="Wren Cottage"/>
    <tag k="addr:street" v="Parkhall Road"/>
    <tag k="building" v="semidetached_house"/>
    <tag k="name" v="Rosaleigh"/>
  </way>

</osm>
