<?xml version="1.0" encoding="UTF-8"?>
<osm version="0.6" generator="Overpass API 0.7.62.4 2390de5a">
<note>The data included in this document is from www.openstreetmap.org. The data is made available under ODbL.</note>
<meta osm_base="2025-01-21T14:19:16Z" areas="2024-12-31T00:49:33Z"/>

  <node id="2636516644" lat="52.2467795" lon="0.2227594" version="2" timestamp="2019-03-25T06:56:39Z" changeset="68495119" uid="9451067" user="b-jazz-bot">
    <tag k="addr:city" v="East Cambridgeshire"/>
    <tag k="addr:housename" v="Fields Of LodeStar"/>
    <tag k="addr:housenumber" v="Lode Fen"/>
    <tag k="addr:postcode" v="CB25 9HE"/>
    <tag k="addr:street" v="Lode"/>
    <tag k="name" v="LodeStar Festival"/>
    <tag k="note" v="Annual LodeStar Festival and Venue"/>
    <tag k="phone" v="+44 1223813318"/>
    <tag k="website" v="https://www.lodestarfestival.com/"/>
    <tag k="wheelchair" v="limited"/>
  </node>
  <way id="166615673" version="5" timestamp="2019-03-25T06:56:52Z" changeset="68495122" uid="9451067" user="b-jazz-bot">
    <nd ref="3871230418"/>
    <nd ref="3871230419"/>
    <nd ref="3871230420"/>
    <nd ref="3871230421"/>
    <nd ref="3871230422"/>
    <nd ref="3871230423"/>
    <nd ref="3871230424"/>
    <nd ref="3871230425"/>
    <nd ref="3871230426"/>
    <nd ref="1780522558"/>
    <nd ref="1780522486"/>
    <nd ref="1780522423"/>
    <nd ref="3871230414"/>
    <nd ref="3871230415"/>
    <nd ref="3871230416"/>
    <nd ref="3871230417"/>
    <nd ref="1780522637"/>
    <nd ref="1780522636"/>
    <nd ref="1780522372"/>
    <nd ref="3871230418"/>
    <tag k="addr:city" v="Cambridge"/>
    <tag k="addr:housename" v="Willow Farm"/>
    <tag k="addr:postcode" v="CB25 9HF"/>
    <tag k="addr:street" v="Lode"/>
    <tag k="building" v="farm"/>
    <tag k="description" v="Supplier of our own organic vegetables to the people of Cambridgeshire and surrounding villages. Home of CSA Cambridge CropShare."/>
    <tag k="identity" v="transition_initiative"/>
    <tag k="name" v="Waterland Organics (Willow Farm)"/>
    <tag k="organic" v="only"/>
    <tag k="regional" v="only"/>
    <tag k="website" v="https://www.waterlandorganics.com/"/>
  </way>

</osm>
