<?xml version="1.0" encoding="UTF-8"?>
<osm version="0.6" generator="Overpass API 0.7.62.4 2390de5a">
<note>The data included in this document is from www.openstreetmap.org. The data is made available under ODbL.</note>
<meta osm_base="2025-01-20T16:25:28Z" areas="2024-12-31T00:49:33Z"/>

  <node id="9027165010" lat="52.2519280" lon="0.1067682" version="1" timestamp="2021-08-22T23:09:04Z" changeset="110081683" uid="64091" user="jong">
    <tag k="addr:housenumber" v="2"/>
    <tag k="addr:postcode" v="CB24 9JD"/>
    <tag k="addr:street" v="High Street"/>
    <tag k="building" v="retail"/>
    <tag k="female" v="no"/>
    <tag k="male" v="yes"/>
    <tag k="name" v="Histon Barbershop"/>
    <tag k="opening_hours" v="Mo 09:30-17:30; Tu 09:30-19:00; We-Fr 09:30-17:30; Sa 08:30-16:30"/>
    <tag k="shop" v="hairdresser"/>
    <tag k="unisex" v="no"/>
    <tag k="wheelchair" v="no"/>
  </node>
  <way id="93084061" version="7" timestamp="2023-09-11T12:45:28Z" changeset="141111208" uid="64091" user="jong">
    <nd ref="1078975499"/>
    <nd ref="1078975513"/>
    <nd ref="1078975482"/>
    <nd ref="1078975480"/>
    <nd ref="1078975331"/>
    <nd ref="1078975151"/>
    <nd ref="1078975462"/>
    <nd ref="1078975182"/>
    <nd ref="1104606665"/>
    <nd ref="1104606634"/>
    <nd ref="1078975499"/>
    <tag k="addr:city" v="Histon"/>
    <tag k="addr:housenumber" v="22"/>
    <tag k="addr:postcode" v="CB24 9JD"/>
    <tag k="addr:street" v="High Street"/>
    <tag k="amenity" v="place_of_worship"/>
    <tag k="building" v="church"/>
    <tag k="check_date" v="2023-09-11"/>
    <tag k="denomination" v="methodist"/>
    <tag k="fhrs:id" v="597328"/>
    <tag k="name" v="Histon Methodist Church"/>
    <tag k="religion" v="christian"/>
    <tag k="website" v="http://www.cambridgemethodistcircuit.org.uk/churchesHiston.htm"/>
  </way>
  <way id="95224355" version="12" timestamp="2023-09-11T12:44:05Z" changeset="141111051" uid="64091" user="jong">
    <nd ref="1104606557"/>
    <nd ref="25612566"/>
    <nd ref="1104606525"/>
    <nd ref="1104606593"/>
    <nd ref="25612455"/>
    <nd ref="1104606557"/>
    <tag k="addr:housenumber" v="30"/>
    <tag k="addr:postcode" v="CB24 9JD"/>
    <tag k="addr:street" v="High Street"/>
    <tag k="brand" v="Tesco Express"/>
    <tag k="brand:wikidata" v="Q98456772"/>
    <tag k="brand:wikipedia" v="en:Tesco"/>
    <tag k="building" v="retail"/>
    <tag k="building:levels" v="1"/>
    <tag k="contact:website" v="https://www.tesco.com/store-locator/cambridge/30-high-st"/>
    <tag k="fhrs:id" v="997422"/>
    <tag k="name" v="Tesco Express"/>
    <tag k="opening_hours" v="PH,Mo-Su 06:00-23:00"/>
    <tag k="operator" v="Tesco Stores Ltd"/>
    <tag k="roof:levels" v="0"/>
    <tag k="shop" v="convenience"/>
    <tag k="source" v="bing"/>
  </way>
  <way id="95941893" version="3" timestamp="2020-01-02T21:27:06Z" changeset="79131168" uid="4948143" user="doublah">
    <nd ref="1111639170"/>
    <nd ref="1111639956"/>
    <nd ref="1111640163"/>
    <nd ref="1111639794"/>
    <nd ref="1111639859"/>
    <nd ref="1111640550"/>
    <nd ref="1111640804"/>
    <nd ref="1111639170"/>
    <tag k="addr:housenumber" v="15-17"/>
    <tag k="addr:postcode" v="CB24 9JD"/>
    <tag k="addr:street" v="High Street"/>
    <tag k="amenity" v="bank"/>
    <tag k="brand" v="Barclays"/>
    <tag k="brand:wikidata" v="Q245343"/>
    <tag k="brand:wikipedia" v="en:Barclays"/>
    <tag k="building" v="yes"/>
    <tag k="name" v="Barclays"/>
    <tag k="operator" v="Barclays"/>
  </way>
  <way id="95941903" version="6" timestamp="2024-02-25T20:10:15Z" changeset="147906587" uid="1882988" user="Raretrack">
    <nd ref="1111639330"/>
    <nd ref="1111640170"/>
    <nd ref="1111640081"/>
    <nd ref="1111639195"/>
    <nd ref="1111639614"/>
    <nd ref="1111639869"/>
    <nd ref="1111639061"/>
    <nd ref="1111639060"/>
    <nd ref="1111640002"/>
    <nd ref="1111639111"/>
    <nd ref="1111639197"/>
    <nd ref="1111639936"/>
    <nd ref="1111639769"/>
    <nd ref="1111639857"/>
    <nd ref="1111639169"/>
    <nd ref="1111639330"/>
    <tag k="addr:city" v="Histon"/>
    <tag k="addr:housenumber" v="1"/>
    <tag k="addr:postcode" v="CB24 9LG"/>
    <tag k="addr:street" v="High Street"/>
    <tag k="amenity" v="pub"/>
    <tag k="building" v="pub"/>
    <tag k="check_date:opening_hours" v="2024-02-25"/>
    <tag k="contact:email" v="histon@heartwoodinns.com"/>
    <tag k="contact:phone" v="+44 1223 209010"/>
    <tag k="contact:website" v="https://boothiston.com/"/>
    <tag k="name" v="The Boot"/>
    <tag k="opening_hours" v="Mo-Sa 12:00-23:00; Su 12:00-22:00"/>
    <tag k="opening_hours:url" v="https://boothiston.com/"/>
    <tag k="operator" v="Heartwood Inns"/>
    <tag k="operator:website" v="https://heartwoodinns.com/"/>
    <tag k="source:opening_hours" v="website"/>
    <tag k="wikidata" v="Q26616194"/>
  </way>
  <way id="95941914" version="6" timestamp="2019-03-21T02:51:33Z" changeset="68359311" uid="9451067" user="b-jazz-bot">
    <nd ref="1111639125"/>
    <nd ref="1111639096"/>
    <nd ref="1111640400"/>
    <nd ref="1111640441"/>
    <nd ref="1111639980"/>
    <nd ref="1111639916"/>
    <nd ref="1111640239"/>
    <nd ref="1111639931"/>
    <nd ref="1111639405"/>
    <nd ref="1111640331"/>
    <nd ref="1111639443"/>
    <nd ref="1111639125"/>
    <tag k="addr:city" v="Histon"/>
    <tag k="addr:housenumber" v="27"/>
    <tag k="addr:postcode" v="CB24 9JD"/>
    <tag k="addr:street" v="High Street"/>
    <tag k="amenity" v="pub"/>
    <tag k="building" v="pub"/>
    <tag k="fhrs:id" v="997422"/>
    <tag k="name" v="Red Lion"/>
    <tag k="website" v="https://theredlionhiston.co.uk/"/>
  </way>
  <way id="95941934" version="9" timestamp="2024-01-23T18:17:30Z" changeset="146603456" uid="84263" user="Robert Whittaker">
    <nd ref="1111640265"/>
    <nd ref="1104606591"/>
    <nd ref="1104606642"/>
    <nd ref="1104606674"/>
    <nd ref="1111640513"/>
    <nd ref="1111640265"/>
    <tag k="addr:city" v="Cambridge"/>
    <tag k="addr:housenumber" v="6"/>
    <tag k="addr:postcode" v="CB24 9JE"/>
    <tag k="addr:street" v="School Hill"/>
    <tag k="addr:village" v="Histon"/>
    <tag k="amenity" v="bank"/>
    <tag k="brand" v="The Cambridge Building Society"/>
    <tag k="brand:wikidata" v="Q5025370"/>
    <tag k="building" v="yes"/>
    <tag k="name" v="The Cambridge Building Society"/>
    <tag k="website" v="https://www.cambridgebs.co.uk/contact/histon"/>
  </way>
  <way id="95941942" version="6" timestamp="2023-09-11T12:43:10Z" changeset="141111051" uid="64091" user="jong">
    <nd ref="1111640265"/>
    <nd ref="1111640513"/>
    <nd ref="1104606589"/>
    <nd ref="10040707145"/>
    <nd ref="1104606500"/>
    <nd ref="1111640265"/>
    <tag k="addr:city" v="Cambridge"/>
    <tag k="addr:housenumber" v="4"/>
    <tag k="addr:postcode" v="CB24 9JE"/>
    <tag k="addr:street" v="School Hill"/>
    <tag k="addr:village" v="Histon"/>
    <tag k="amenity" v="restaurant"/>
    <tag k="building" v="yes"/>
    <tag k="cuisine" v="indian"/>
    <tag k="name" v="The Indian Ocean"/>
    <tag k="opening_hours" v="Tu-Su 17:00-22:00"/>
    <tag k="phone" v="+44 1223232466"/>
    <tag k="website" v="https://www.theindianoceanonline.co.uk/"/>
  </way>
  <way id="95941951" version="3" timestamp="2024-06-20T12:18:15Z" changeset="152942362" uid="455230" user="jfowkes">
    <nd ref="1111639182"/>
    <nd ref="1111639972"/>
    <nd ref="1111639185"/>
    <nd ref="1111639774"/>
    <nd ref="1111639618"/>
    <nd ref="1111639182"/>
    <tag k="addr:city" v="Histon"/>
    <tag k="addr:housenumber" v="9"/>
    <tag k="addr:postcode" v="CB24 9JD"/>
    <tag k="addr:street" v="High Street"/>
    <tag k="building" v="commercial"/>
    <tag k="name" v="Hawkins &amp; Associates"/>
  </way>
  <way id="96886057" version="3" timestamp="2023-09-11T12:44:53Z" changeset="141111177" uid="64091" user="jong">
    <nd ref="1122619233"/>
    <nd ref="1122619159"/>
    <nd ref="1111640411"/>
    <nd ref="1122619283"/>
    <nd ref="1122619245"/>
    <nd ref="1122619266"/>
    <nd ref="1122619236"/>
    <nd ref="1122619233"/>
    <tag k="addr:housenumber" v="28a"/>
    <tag k="addr:postcode" v="CB24 9JD"/>
    <tag k="addr:street" v="High Street"/>
    <tag k="building" v="yes"/>
    <tag k="female:signed" v="no"/>
    <tag k="male:signed" v="no"/>
    <tag k="name" v="Bechecomber's Hair"/>
    <tag k="shop" v="hairdresser"/>
  </way>
  <way id="96886059" version="11" timestamp="2023-09-20T12:33:36Z" changeset="141511721" uid="64091" user="jong">
    <nd ref="1122619304"/>
    <nd ref="25612035"/>
    <nd ref="25612115"/>
    <nd ref="1122619279"/>
    <nd ref="1122619304"/>
    <tag k="addr:city" v="Cambridge"/>
    <tag k="addr:housenumber" v="10"/>
    <tag k="addr:postcode" v="CB24 9JE"/>
    <tag k="addr:street" v="School Hill"/>
    <tag k="addr:village" v="Histon"/>
    <tag k="amenity" v="cafe"/>
    <tag k="building" v="yes"/>
    <tag k="name" v="Stir"/>
    <tag k="opening_hours" v="Mo-Fr 07:30-16:00; PH,Sa,Su 08:00-16:00"/>
    <tag k="outdoor_seating" v="yes"/>
  </way>
  <way id="96886062" version="7" timestamp="2023-09-30T18:05:10Z" changeset="141962735" uid="20349582" user="CastelloFruits">
    <nd ref="1122619312"/>
    <nd ref="1122619199"/>
    <nd ref="1111639166"/>
    <nd ref="1111639409"/>
    <nd ref="1111640445"/>
    <nd ref="1122619171"/>
    <nd ref="1122619239"/>
    <nd ref="1122619308"/>
    <nd ref="1122619325"/>
    <nd ref="1122619211"/>
    <nd ref="1122619310"/>
    <nd ref="1122619241"/>
    <nd ref="1122619162"/>
    <nd ref="1122619284"/>
    <nd ref="1122619328"/>
    <nd ref="1122619292"/>
    <nd ref="1122619215"/>
    <nd ref="1122619312"/>
    <tag k="addr:housenumber" v="7"/>
    <tag k="addr:postcode" v="CB24 9JD"/>
    <tag k="addr:street" v="High Street"/>
    <tag k="amenity" v="pub"/>
    <tag k="building" v="pub"/>
    <tag k="check_date:opening_hours" v="2023-09-30"/>
    <tag k="fhrs:id" v="596484"/>
    <tag k="name" v="Barley Mow"/>
    <tag k="opening_hours" v="Mo-Su 12:00-22:00+"/>
  </way>
  <way id="96886065" version="4" timestamp="2021-02-04T11:07:17Z" changeset="98700585" uid="64091" user="jong">
    <nd ref="1122619260"/>
    <nd ref="6788195107"/>
    <nd ref="1122619203"/>
    <nd ref="1122619207"/>
    <nd ref="6788195105"/>
    <nd ref="1122619172"/>
    <nd ref="6788195106"/>
    <nd ref="1122619269"/>
    <nd ref="1122619260"/>
    <tag k="addr:city" v="Cambridge"/>
    <tag k="addr:housenumber" v="2"/>
    <tag k="addr:postcode" v="CB24 9LG"/>
    <tag k="addr:street" v="High Street"/>
    <tag k="addr:village" v="Histon"/>
    <tag k="building" v="yes"/>
    <tag k="name" v="Topiary Tree"/>
    <tag k="opening_hours" v="Tu-Fr 10:00-16:00"/>
    <tag k="phone" v="+44 1223 928084"/>
    <tag k="shop" v="gift"/>
  </way>
  <way id="96886070" version="10" timestamp="2023-09-11T12:42:33Z" changeset="141111051" uid="64091" user="jong">
    <nd ref="1104606591"/>
    <nd ref="10040707141"/>
    <nd ref="1122619304"/>
    <nd ref="1122619279"/>
    <nd ref="1104606642"/>
    <nd ref="1104606591"/>
    <tag k="addr:city" v="Cambridge"/>
    <tag k="addr:housenumber" v="8"/>
    <tag k="addr:postcode" v="CB24 9JE"/>
    <tag k="addr:street" v="School Hill"/>
    <tag k="addr:village" v="Histon"/>
    <tag k="building" v="yes"/>
    <tag k="name" v="Histon Ophthalmic Opticians"/>
    <tag k="opening_hours" v="Mo-Fr 09:00-17:30; Sa 08:20-16:00"/>
    <tag k="operator" v="Spectacular Optometrists"/>
    <tag k="shop" v="optician"/>
  </way>
  <way id="100319354" version="5" timestamp="2023-01-27T00:43:47Z" changeset="131753180" uid="3999" user="BarryMyles">
    <nd ref="1159798186"/>
    <nd ref="1159798138"/>
    <nd ref="1159798209"/>
    <nd ref="1159797695"/>
    <nd ref="1159798171"/>
    <nd ref="1159798039"/>
    <nd ref="1159798186"/>
    <tag k="addr:city" v="Histon"/>
    <tag k="addr:postcode" v="CB24 9JD"/>
    <tag k="addr:street" v="High Street"/>
    <tag k="building" v="yes"/>
    <tag k="name" v="Histon Telephone Exchange"/>
    <tag k="operator" v="Openreach"/>
    <tag k="operator:wikidata" v="Q7096543"/>
    <tag k="ref" v="EAHIS"/>
    <tag k="telecom" v="exchange"/>
  </way>
  <way id="100319382" version="7" timestamp="2023-10-21T10:05:08Z" changeset="142916462" uid="6816132" user="CjMalone">
    <nd ref="1159797925"/>
    <nd ref="1159797807"/>
    <nd ref="1159797934"/>
    <nd ref="1159798317"/>
    <nd ref="1159797579"/>
    <nd ref="1159797778"/>
    <nd ref="1159797992"/>
    <nd ref="1159797925"/>
    <tag k="addr:city" v="Cambridge"/>
    <tag k="addr:housenumber" v="6"/>
    <tag k="addr:postcode" v="CB24 9JD"/>
    <tag k="addr:street" v="High Street"/>
    <tag k="addr:village" v="Histon"/>
    <tag k="amenity" v="post_office"/>
    <tag k="brand" v="Post Office"/>
    <tag k="brand:wikidata" v="Q1783168"/>
    <tag k="building" v="yes"/>
    <tag k="fhrs:id" v="596475"/>
    <tag k="name" v="Histon Post Office"/>
    <tag k="opening_hours" v="Mo-Fr 08:30-17:30; Sa 08:30-13:00"/>
    <tag k="ref:pol_id" v="1262"/>
    <tag k="source:opening_hours" v="pol_branch_list_2018-02"/>
    <tag k="website" v="https://www.postoffice.co.uk/branch-finder/1011138/histon"/>
  </way>
  <way id="122313068" version="3" timestamp="2021-08-26T21:01:39Z" changeset="110307768" uid="14001099" user="richardman">
    <nd ref="1367185399"/>
    <nd ref="1367185471"/>
    <nd ref="1367185463"/>
    <nd ref="1367185460"/>
    <nd ref="1367185399"/>
    <tag k="addr:city" v="Cambridge"/>
    <tag k="addr:housename" v="Pioneer House"/>
    <tag k="addr:postcode" v="CB24 9NL"/>
    <tag k="addr:street" v="Chivers Way"/>
    <tag k="building" v="yes"/>
    <tag k="name" v="Pioneer House"/>
  </way>
  <way id="194976113" version="3" timestamp="2021-08-31T11:59:12Z" changeset="110511023" uid="64091" user="jong">
    <nd ref="2054854169"/>
    <nd ref="2054854367"/>
    <nd ref="2054854479"/>
    <nd ref="2054854079"/>
    <nd ref="2054854249"/>
    <nd ref="2054854319"/>
    <nd ref="2054854169"/>
    <tag k="addr:housenumber" v="19"/>
    <tag k="addr:postcode" v="CB24 9JD"/>
    <tag k="addr:street" v="High Street"/>
    <tag k="building" v="yes"/>
    <tag k="name" v="Tucker Gardner"/>
    <tag k="office" v="estate_agent"/>
  </way>
  <way id="194976160" version="4" timestamp="2024-08-19T12:31:17Z" changeset="155458222" uid="8061502" user="galacticism">
    <nd ref="2054854517"/>
    <nd ref="2054854370"/>
    <nd ref="2054854368"/>
    <nd ref="2054854576"/>
    <nd ref="2054854581"/>
    <nd ref="2054854361"/>
    <nd ref="2054854565"/>
    <nd ref="2054854096"/>
    <nd ref="2054854039"/>
    <nd ref="12120191675"/>
    <nd ref="12120191676"/>
    <nd ref="12120191677"/>
    <nd ref="12120191674"/>
    <nd ref="2054854020"/>
    <nd ref="12120191671"/>
    <nd ref="12120191673"/>
    <nd ref="12120191672"/>
    <nd ref="12120191670"/>
    <nd ref="2054854517"/>
    <tag k="addr:city" v="Cambridge"/>
    <tag k="addr:housenumber" v="20"/>
    <tag k="addr:postcode" v="CB24 9EH"/>
    <tag k="addr:street" v="Park Lane"/>
    <tag k="addr:village" v="Histon"/>
    <tag k="building" v="yes"/>
    <tag k="name" v="Histon Manor"/>
    <tag k="wikidata" v="Q26589612"/>
  </way>
  <way id="194976165" version="2" timestamp="2017-09-05T09:12:35Z" changeset="51742294" uid="281267" user="smb1001">
    <nd ref="2054854313"/>
    <nd ref="2054854586"/>
    <nd ref="2054854255"/>
    <nd ref="2054854446"/>
    <nd ref="2054854409"/>
    <nd ref="2054854248"/>
    <nd ref="2054854163"/>
    <nd ref="2054854113"/>
    <nd ref="2054854195"/>
    <nd ref="2054854086"/>
    <nd ref="2054854051"/>
    <nd ref="2054854482"/>
    <nd ref="2054854449"/>
    <nd ref="2054854191"/>
    <nd ref="2054854182"/>
    <nd ref="2054854339"/>
    <nd ref="2054854342"/>
    <nd ref="2054854424"/>
    <nd ref="2054854328"/>
    <nd ref="2054854119"/>
    <nd ref="2054854362"/>
    <nd ref="2054854181"/>
    <nd ref="2054854554"/>
    <nd ref="2054854313"/>
    <tag k="addr:postcode" v="CB24 9EY"/>
    <tag k="addr:street" v="Clay Street"/>
    <tag k="amenity" v="nursing_home"/>
    <tag k="building" v="yes"/>
    <tag k="name" v="Etheldred House"/>
  </way>
  <way id="195548491" version="2" timestamp="2016-10-29T16:26:49Z" changeset="43268715" uid="16089" user="Ben Harris">
    <nd ref="2059724874"/>
    <nd ref="2059725033"/>
    <nd ref="2059725019"/>
    <nd ref="2059724890"/>
    <nd ref="2059725080"/>
    <nd ref="2059724872"/>
    <nd ref="2059725000"/>
    <nd ref="2059724874"/>
    <tag k="addr:street" v="Station Road"/>
    <tag k="amenity" v="fast_food"/>
    <tag k="building" v="yes"/>
    <tag k="cuisine" v="fish_and_chips"/>
    <tag k="name" v="The Histon Village Fryer"/>
    <tag k="source" v="survey"/>
  </way>
  <way id="195548498" version="2" timestamp="2016-10-29T16:26:48Z" changeset="43268715" uid="16089" user="Ben Harris">
    <nd ref="2059724976"/>
    <nd ref="2059725069"/>
    <nd ref="2059725435"/>
    <nd ref="2059725207"/>
    <nd ref="2059725299"/>
    <nd ref="2059725371"/>
    <nd ref="2059724954"/>
    <nd ref="2059725430"/>
    <nd ref="2059724976"/>
    <tag k="addr:housenumber" v="10a"/>
    <tag k="addr:place" v="Histon"/>
    <tag k="addr:street" v="Station Road"/>
    <tag k="amenity" v="dentist"/>
    <tag k="building" v="yes"/>
    <tag k="name" v="Histon Dental Clinic"/>
    <tag k="phone" v="+44 1223 566121"/>
    <tag k="source" v="survey"/>
  </way>
  <way id="195548503" version="3" timestamp="2023-09-03T19:58:00Z" changeset="140774951" uid="64091" user="jong">
    <nd ref="2059725010"/>
    <nd ref="2059724965"/>
    <nd ref="2059725080"/>
    <nd ref="2059724890"/>
    <nd ref="2059725011"/>
    <nd ref="2059725010"/>
    <tag k="addr:street" v="Station Road"/>
    <tag k="building" v="yes"/>
    <tag k="female" v="yes"/>
    <tag k="male" v="yes"/>
    <tag k="name" v="Anya Lois Hair"/>
    <tag k="phone" v="+44 7708 001289"/>
    <tag k="shop" v="hairdresser"/>
    <tag k="source" v="survey"/>
  </way>
  <way id="195548540" version="2" timestamp="2016-10-29T16:26:49Z" changeset="43268715" uid="16089" user="Ben Harris">
    <nd ref="2059725396"/>
    <nd ref="2059725020"/>
    <nd ref="2059725088"/>
    <nd ref="2059725000"/>
    <nd ref="2059724872"/>
    <nd ref="2059725230"/>
    <nd ref="2059725396"/>
    <tag k="addr:street" v="Station Road"/>
    <tag k="building" v="yes"/>
    <tag k="name" v="Kitchensmiths"/>
    <tag k="shop" v="kitchen"/>
    <tag k="source" v="survey"/>
  </way>
  <way id="197177448" version="5" timestamp="2024-09-14T19:48:54Z" changeset="156625771" uid="5173844" user="ndrw6">
    <nd ref="2074630593"/>
    <nd ref="1368104388"/>
    <nd ref="2074631167"/>
    <nd ref="2074630791"/>
    <nd ref="2074631179"/>
    <nd ref="2074630426"/>
    <nd ref="2074630593"/>
    <tag k="addr:city" v="Cambridge"/>
    <tag k="addr:housenumber" v="68"/>
    <tag k="addr:postcode" v="CB24 9LF"/>
    <tag k="addr:street" v="Station Road"/>
    <tag k="addr:village" v="Histon"/>
    <tag k="amenity" v="dentist"/>
    <tag k="building" v="commercial"/>
    <tag k="contact:email" v="info@histondental.com"/>
    <tag k="contact:phone" v="+441223236799"/>
    <tag k="healthcare" v="dentist"/>
    <tag k="name" v="Histon Dental Surgery"/>
    <tag k="opening_hours" v="Mo-Fr 08:30-12:45,13:30-17:00"/>
  </way>
  <way id="197177482" version="4" timestamp="2022-12-10T12:46:28Z" changeset="129932531" uid="6476359" user="NSiecw">
    <nd ref="2074630964"/>
    <nd ref="2074631164"/>
    <nd ref="2074630464"/>
    <nd ref="2074630686"/>
    <nd ref="2074630512"/>
    <nd ref="2074630500"/>
    <nd ref="2074630461"/>
    <nd ref="2074630799"/>
    <nd ref="2074631184"/>
    <nd ref="3231597472"/>
    <nd ref="2074631196"/>
    <nd ref="2074630773"/>
    <nd ref="2074630796"/>
    <nd ref="2074631089"/>
    <nd ref="2074630698"/>
    <nd ref="2074630615"/>
    <nd ref="2074630440"/>
    <nd ref="2074630924"/>
    <nd ref="2074630793"/>
    <nd ref="2074631175"/>
    <nd ref="2074630569"/>
    <nd ref="2074631012"/>
    <nd ref="2074631270"/>
    <nd ref="2074630960"/>
    <nd ref="2074630784"/>
    <nd ref="2074630964"/>
    <tag k="addr:city" v="Cambridge"/>
    <tag k="addr:name" v="Brackenbury Manor"/>
    <tag k="addr:postcode" v="CB24 9YY"/>
    <tag k="addr:street" v="Kay Hitch Way"/>
    <tag k="addr:village" v="Histon"/>
    <tag k="building" v="yes"/>
    <tag k="name" v="Brackenbury Manor"/>
  </way>
  <way id="197525334" version="4" timestamp="2018-10-02T09:24:46Z" changeset="63118151" uid="8662577" user="Nuka_z_lego">
    <nd ref="2077495977"/>
    <nd ref="2077495826"/>
    <nd ref="2077495806"/>
    <nd ref="2077495839"/>
    <nd ref="2077495777"/>
    <nd ref="2077495715"/>
    <nd ref="2077495696"/>
    <nd ref="2077495770"/>
    <nd ref="2077495977"/>
    <tag k="addr:housename" v="Suffron House"/>
    <tag k="addr:housenumber" v="2A"/>
    <tag k="addr:postcode" v="CB24 9LJ"/>
    <tag k="addr:street" v="Saffron Road"/>
    <tag k="building" v="house"/>
    <tag k="name" v="Suffron House"/>
  </way>
  <way id="197525343" version="2" timestamp="2021-05-03T01:22:38Z" changeset="104017107" uid="36606" user="barrybryce">
    <nd ref="2077495871"/>
    <nd ref="2077495980"/>
    <nd ref="2077495965"/>
    <nd ref="2077495742"/>
    <nd ref="2077495716"/>
    <nd ref="2077495999"/>
    <nd ref="2077495835"/>
    <nd ref="2077495960"/>
    <nd ref="2077495871"/>
    <tag k="addr:housenumber" v="22-24"/>
    <tag k="addr:street" v="Saffron Road"/>
    <tag k="building" v="yes"/>
    <tag k="name" v="Histon &amp; Impington Royal British Legion Club"/>
  </way>
  <way id="978128530" version="3" timestamp="2022-09-20T21:59:12Z" changeset="126440658" uid="6476359" user="NSiecw">
    <nd ref="10040707145"/>
    <nd ref="10040707142"/>
    <nd ref="10040707143"/>
    <nd ref="10040707144"/>
    <nd ref="9050812735"/>
    <nd ref="10040707146"/>
    <nd ref="10040707145"/>
    <tag k="addr:city" v="Cambridge"/>
    <tag k="addr:postcode" v="CB24 9JE"/>
    <tag k="addr:street" v="School Hill"/>
    <tag k="addr:village" v="Histon"/>
    <tag k="amenity" v="library"/>
    <tag k="building" v="yes"/>
    <tag k="name" v="Histon Library"/>
  </way>

</osm>
