<?xml version="1.0" encoding="UTF-8"?>
<osm version="0.6" generator="Overpass API 0.7.62.4 2390de5a">
<note>The data included in this document is from www.openstreetmap.org. The data is made available under ODbL.</note>
<meta osm_base="2025-01-21T14:24:23Z" areas="2024-12-31T00:49:33Z"/>

  <node id="1458156270" lat="52.2931040" lon="-0.2545564" version="6" timestamp="2021-09-02T08:21:52Z" changeset="110604200" uid="5173844" user="ndrw6">
    <tag k="addr:city" v="St Neots"/>
    <tag k="addr:housenumber" v="28"/>
    <tag k="addr:postcode" v="PE19 5XA"/>
    <tag k="addr:street" v="High Street"/>
    <tag k="addr:village" v="Buckden"/>
    <tag k="fhrs:id" v="418634"/>
    <tag k="name" v="Day's of Buckden"/>
    <tag k="shop" v="butcher"/>
  </node>
  <node id="1458156273" lat="52.2931790" lon="-0.2547984" version="5" timestamp="2021-09-01T13:40:19Z" changeset="110568769" uid="6816132" user="CjMalone">
    <tag k="addr:city" v="St Neots"/>
    <tag k="addr:housenumber" v="33,35"/>
    <tag k="addr:postcode" v="PE19 5XA"/>
    <tag k="addr:street" v="High Street"/>
    <tag k="addr:village" v="Buckden"/>
    <tag k="amenity" v="pub"/>
    <tag k="fhrs:id" v="1277679"/>
    <tag k="name" v="The Vine"/>
  </node>
  <node id="1459346369" lat="52.2934273" lon="-0.2543915" version="7" timestamp="2024-09-16T18:43:36Z" changeset="156701170" uid="21425661" user="CjMalone">
    <tag k="addr:city" v="St Neots"/>
    <tag k="addr:postcode" v="PE19 5XA"/>
    <tag k="addr:street" v="High Street"/>
    <tag k="brand" v="One Stop"/>
    <tag k="brand:wikidata" v="Q65954217"/>
    <tag k="check_date" v="2023-05-30"/>
    <tag k="name" v="One Stop"/>
    <tag k="shop" v="convenience"/>
  </node>
  <node id="1459346370" lat="52.2935083" lon="-0.2545945" version="6" timestamp="2021-09-01T13:40:19Z" changeset="110568769" uid="6816132" user="CjMalone">
    <tag k="addr:city" v="St Neots"/>
    <tag k="addr:housenumber" v="37"/>
    <tag k="addr:postcode" v="PE19 5XA"/>
    <tag k="addr:street" v="High Street"/>
    <tag k="addr:village" v="Buckden"/>
    <tag k="fhrs:id" v="341518"/>
    <tag k="name" v="The George"/>
    <tag k="tourism" v="hotel"/>
    <tag k="wikidata" v="Q26423394"/>
  </node>
  <node id="1459346372" lat="52.2937384" lon="-0.2541930" version="4" timestamp="2021-09-01T13:40:19Z" changeset="110568769" uid="6816132" user="CjMalone">
    <tag k="addr:city" v="St Neots"/>
    <tag k="addr:housenumber" v="46"/>
    <tag k="addr:postcode" v="PE19 5XA"/>
    <tag k="addr:street" v="High Street"/>
    <tag k="addr:village" v="Buckden"/>
    <tag k="fhrs:id" v="908386"/>
    <tag k="name" v="The Lion"/>
    <tag k="tourism" v="hotel"/>
    <tag k="wikidata" v="Q26596435"/>
  </node>
  <node id="1460376230" lat="52.2932864" lon="-0.2473512" version="4" timestamp="2022-07-16T16:09:28Z" changeset="123694679" uid="242345" user="confusedbuffalo">
    <tag k="addr:city" v="St Neots"/>
    <tag k="addr:housenumber" v="2"/>
    <tag k="addr:postcode" v="PE19 5SU"/>
    <tag k="addr:street" v="Hunts End"/>
    <tag k="name" v="Buckden Nisa"/>
    <tag k="payment:cash" v="yes"/>
    <tag k="payment:credit_cards" v="yes"/>
    <tag k="payment:debit_cards" v="yes"/>
    <tag k="shop" v="convenience"/>
  </node>
  <node id="1460376232" lat="52.2931474" lon="-0.2475866" version="4" timestamp="2022-07-16T16:09:28Z" changeset="123694679" uid="242345" user="confusedbuffalo">
    <tag k="addr:city" v="St Neots"/>
    <tag k="addr:housenumber" v="8"/>
    <tag k="addr:postcode" v="PE19 5SU"/>
    <tag k="addr:street" v="Hunts End"/>
    <tag k="amenity" v="pharmacy"/>
    <tag k="healthcare" v="pharmacy"/>
    <tag k="name" v="Buckden Pharmacy"/>
  </node>
  <node id="1460376242" lat="52.3012117" lon="-0.2325920" version="5" timestamp="2024-04-04T10:54:39Z" changeset="149564284" uid="95856" user="john paul jones &amp; gringo">
    <tag k="addr:city" v="St Neots"/>
    <tag k="addr:country" v="GB"/>
    <tag k="addr:housename" v="Lodge Farm"/>
    <tag k="addr:postcode" v="PE19 5UH"/>
    <tag k="addr:street" v="Brampton Road"/>
    <tag k="addr:suburb" v="Buckden"/>
    <tag k="landuse" v="farm"/>
    <tag k="name" v="Lodge Farm, Buckden"/>
    <tag k="nohousenumber" v="yes"/>
    <tag k="note:retag" v="CS #48756035"/>
  </node>
  <node id="1460376247" lat="52.2931921" lon="-0.2475001" version="3" timestamp="2021-09-01T13:40:19Z" changeset="110568769" uid="6816132" user="CjMalone">
    <tag k="addr:city" v="St Neots"/>
    <tag k="addr:housenumber" v="6"/>
    <tag k="addr:postcode" v="PE19 5SU"/>
    <tag k="addr:street" v="Hunts End"/>
    <tag k="addr:village" v="Buckden"/>
    <tag k="amenity" v="fast_food"/>
    <tag k="cuisine" v="chinese"/>
    <tag k="fhrs:id" v="371846"/>
    <tag k="name" v="Sunflower House"/>
  </node>
  <node id="1460376253" lat="52.2932401" lon="-0.2474297" version="4" timestamp="2022-07-16T16:09:28Z" changeset="123694679" uid="242345" user="confusedbuffalo">
    <tag k="addr:city" v="St Neots"/>
    <tag k="addr:housenumber" v="4"/>
    <tag k="addr:postcode" v="PE19 5SU"/>
    <tag k="addr:street" v="Hunts End"/>
    <tag k="name" v="Barber on the Green"/>
    <tag k="payment:cash" v="yes"/>
    <tag k="payment:credit_cards" v="yes"/>
    <tag k="payment:debit_cards" v="yes"/>
    <tag k="shop" v="hairdresser"/>
  </node>
  <node id="2278130470" lat="52.2933095" lon="-0.2544674" version="2" timestamp="2022-07-16T16:09:28Z" changeset="123694679" uid="242345" user="confusedbuffalo">
    <tag k="addr:city" v="St Neots"/>
    <tag k="addr:housenumber" v="32"/>
    <tag k="addr:postcode" v="PE19 5XA"/>
    <tag k="addr:street" v="High Street"/>
    <tag k="name" v="Tangles Hair Studio"/>
    <tag k="shop" v="hairdresser"/>
  </node>
  <node id="2278130472" lat="52.2933521" lon="-0.2544460" version="2" timestamp="2022-07-16T16:09:28Z" changeset="123694679" uid="242345" user="confusedbuffalo">
    <tag k="addr:city" v="St Neots"/>
    <tag k="addr:housenumber" v="34"/>
    <tag k="addr:postcode" v="PE19 5XA"/>
    <tag k="addr:street" v="High Street"/>
    <tag k="name" v="Susan Peter's"/>
    <tag k="shop" v="shoes"/>
  </node>
  <node id="4312470971" lat="52.3031577" lon="-0.2531023" version="2" timestamp="2024-04-04T10:54:39Z" changeset="149564284" uid="95856" user="john paul jones &amp; gringo">
    <tag k="addr:city" v="St Neots"/>
    <tag k="addr:country" v="GB"/>
    <tag k="addr:postcode" v="PE19 5UQ"/>
    <tag k="addr:street" v="Great North Road"/>
    <tag k="addr:suburb" v="Buckden"/>
    <tag k="name" v="Park Farm"/>
    <tag k="place" v="farm"/>
  </node>
  <node id="4316278102" lat="52.2897440" lon="-0.2581480" version="2" timestamp="2024-04-04T11:00:16Z" changeset="149564455" uid="95856" user="john paul jones &amp; gringo">
    <tag k="addr:city" v="St Neots"/>
    <tag k="addr:country" v="GB"/>
    <tag k="addr:postcode" v="PE19 5XJ"/>
    <tag k="addr:street" v="Great North Road"/>
    <tag k="addr:suburb" v="Buckden"/>
    <tag k="name" v="Westfield Farm"/>
    <tag k="place" v="farm"/>
  </node>
  <node id="9652728561" lat="52.2918377" lon="-0.2467276" version="2" timestamp="2024-04-04T10:54:39Z" changeset="149564284" uid="95856" user="john paul jones &amp; gringo">
    <tag k="addr:city" v="St Neots"/>
    <tag k="addr:country" v="GB"/>
    <tag k="addr:postcode" v="PE19 5UY"/>
    <tag k="addr:street" v="Burberry Road"/>
    <tag k="addr:suburb" v="Buckden"/>
    <tag k="amenity" v="bar"/>
    <tag k="name" v="Bucken Village Club"/>
    <tag k="phone" v="+44 1480 810096"/>
    <tag k="website" v="https://www.buckdenvillageclub.co.uk"/>
  </node>
  <way id="128216409" version="14" timestamp="2023-09-04T18:50:26Z" changeset="140819337" uid="242345" user="confusedbuffalo">
    <nd ref="1417413175"/>
    <nd ref="1417413172"/>
    <nd ref="2277111319"/>
    <nd ref="1417413177"/>
    <nd ref="1417413178"/>
    <nd ref="8316531975"/>
    <nd ref="8316532008"/>
    <nd ref="1417413169"/>
    <nd ref="2275868637"/>
    <nd ref="8316531944"/>
    <nd ref="2277111988"/>
    <nd ref="1417413167"/>
    <nd ref="1417413160"/>
    <nd ref="1417413158"/>
    <nd ref="1417413151"/>
    <nd ref="1417413147"/>
    <nd ref="1417413142"/>
    <nd ref="1417413146"/>
    <nd ref="8316531941"/>
    <nd ref="1417413153"/>
    <nd ref="1417413175"/>
    <tag k="addr:city" v="St Neots"/>
    <tag k="addr:postcode" v="PE19 5TT"/>
    <tag k="addr:street" v="School Lane"/>
    <tag k="addr:village" v="Buckden"/>
    <tag k="amenity" v="school"/>
    <tag k="capacity" v="350"/>
    <tag k="denomination" v="anglican"/>
    <tag k="diocese" v="Diocese of Ely"/>
    <tag k="fhrs:id" v="341109"/>
    <tag k="isced:level" v="1"/>
    <tag k="max_age" v="11"/>
    <tag k="min_age" v="5"/>
    <tag k="name" v="Buckden C of E Primary School"/>
    <tag k="operator" v="Cambridgeshire County Council"/>
    <tag k="operator:wikidata" v="Q5025648"/>
    <tag k="phone" v="+44 1480 810241"/>
    <tag k="ref:GB:uprn" v="10000146069"/>
    <tag k="ref:edubase" v="137639"/>
    <tag k="ref:edubase:group" v="2484"/>
    <tag k="religion" v="christian"/>
    <tag k="school:trust" v="yes"/>
    <tag k="school:trust:name" v="Buckden Church of England Primary Academy"/>
    <tag k="school:trust:type" v="single_academy"/>
    <tag k="school:type" v="academy"/>
    <tag k="website" v="https://www.buckdenschool.co.uk/"/>
    <tag k="wikidata" v="Q66229363"/>
  </way>
  <way id="218464314" version="3" timestamp="2021-09-01T13:40:19Z" changeset="110568769" uid="6816132" user="CjMalone">
    <nd ref="2277111587"/>
    <nd ref="2277112332"/>
    <nd ref="2277112267"/>
    <nd ref="2277113062"/>
    <nd ref="2277111509"/>
    <nd ref="2277112124"/>
    <nd ref="2277111367"/>
    <nd ref="2277111765"/>
    <nd ref="2277111587"/>
    <tag k="addr:city" v="St Neots"/>
    <tag k="addr:housenumber" v="16"/>
    <tag k="addr:postcode" v="PE19 5SS"/>
    <tag k="addr:street" v="Mill Road"/>
    <tag k="addr:village" v="Buckden"/>
    <tag k="amenity" v="kindergarten"/>
    <tag k="building" v="yes"/>
    <tag k="fhrs:id" v="341114"/>
    <tag k="name" v="Buckden Day Nursery"/>
  </way>
  <way id="361438340" version="4" timestamp="2024-04-04T11:00:16Z" changeset="149564455" uid="95856" user="john paul jones &amp; gringo">
    <nd ref="3659129399"/>
    <nd ref="1521242734"/>
    <nd ref="1521242730"/>
    <nd ref="1521242572"/>
    <nd ref="1521242677"/>
    <nd ref="3659129400"/>
    <nd ref="3659129401"/>
    <nd ref="9161304492"/>
    <nd ref="9161304493"/>
    <nd ref="3659129399"/>
    <tag k="addr:city" v="St Neots"/>
    <tag k="addr:country" v="GB"/>
    <tag k="addr:postcode" v="PE19 5YN"/>
    <tag k="addr:street" v="Perry Road"/>
    <tag k="addr:suburb" v="Perry"/>
    <tag k="man_made" v="water_works"/>
    <tag k="name" v="Pumping Station"/>
  </way>
  <way id="373190753" version="3" timestamp="2024-04-04T11:09:34Z" changeset="149564791" uid="95856" user="john paul jones &amp; gringo">
    <nd ref="3767029053"/>
    <nd ref="3767029054"/>
    <nd ref="3767029055"/>
    <nd ref="3767029056"/>
    <nd ref="3767029053"/>
    <tag k="addr:city" v="St Neots"/>
    <tag k="addr:country" v="GB"/>
    <tag k="addr:postcode" v="PE19 5WX"/>
    <tag k="addr:street" v="Mill Road"/>
    <tag k="addr:suburb" v="Buckden"/>
    <tag k="landuse" v="farmyard"/>
    <tag k="name" v="Margetts Farm"/>
  </way>
  <way id="373193355" version="3" timestamp="2024-04-04T11:09:34Z" changeset="149564791" uid="95856" user="john paul jones &amp; gringo">
    <nd ref="3767047194"/>
    <nd ref="3767047195"/>
    <nd ref="3767047196"/>
    <nd ref="3767047197"/>
    <nd ref="3767047194"/>
    <tag k="addr:city" v="St Neots"/>
    <tag k="addr:country" v="GB"/>
    <tag k="addr:postcode" v="PE19 5QZ"/>
    <tag k="addr:street" v="Leadens Lane"/>
    <tag k="addr:suburb" v="Buckden"/>
    <tag k="landuse" v="farmyard"/>
    <tag k="name" v="Martins Farm"/>
  </way>
  <way id="388390908" version="4" timestamp="2024-04-04T11:00:16Z" changeset="149564455" uid="95856" user="john paul jones &amp; gringo">
    <nd ref="3915953371"/>
    <nd ref="7951153568"/>
    <nd ref="3915953372"/>
    <nd ref="3915953373"/>
    <nd ref="3915953374"/>
    <nd ref="3915953375"/>
    <nd ref="3915953376"/>
    <nd ref="3915953377"/>
    <nd ref="3915953378"/>
    <nd ref="3915953371"/>
    <tag k="addr:city" v="St Neots"/>
    <tag k="addr:country" v="GB"/>
    <tag k="addr:postcode" v="PE19 5XH"/>
    <tag k="addr:street" v="Perry Road"/>
    <tag k="addr:suburb" v="Buckden"/>
    <tag k="landuse" v="farmyard"/>
    <tag k="name" v="Shooters Hollow Farm"/>
  </way>
  <way id="430505428" version="4" timestamp="2024-04-04T10:54:39Z" changeset="149564284" uid="95856" user="john paul jones &amp; gringo">
    <nd ref="4297716244"/>
    <nd ref="4297716251"/>
    <nd ref="4297776565"/>
    <nd ref="9023861815"/>
    <nd ref="9023861816"/>
    <nd ref="9023861817"/>
    <nd ref="9023861818"/>
    <nd ref="9023861819"/>
    <nd ref="4297776584"/>
    <nd ref="4297776792"/>
    <nd ref="4297776793"/>
    <nd ref="4297716406"/>
    <nd ref="4297776585"/>
    <nd ref="4297716239"/>
    <nd ref="4297716244"/>
    <tag k="addr:city" v="St Neots"/>
    <tag k="addr:country" v="GB"/>
    <tag k="addr:postcode" v="PE19 5UH"/>
    <tag k="addr:street" v="Buckden Road"/>
    <tag k="addr:suburb" v="Brampton"/>
    <tag k="landuse" v="farmyard"/>
    <tag k="name" v="Station Farm"/>
  </way>

</osm>
