<?xml version="1.0" encoding="UTF-8"?>
<osm version="0.6" generator="Overpass API 0.7.62.4 2390de5a">
<note>The data included in this document is from www.openstreetmap.org. The data is made available under ODbL.</note>
<meta osm_base="2025-01-21T14:39:45Z" areas="2024-12-31T00:49:33Z"/>

  <way id="146628801" version="2" timestamp="2016-07-28T12:59:47Z" changeset="41085331" uid="2983218" user="LovenOutdoors">
    <nd ref="1598971496"/>
    <nd ref="1598971577"/>
    <nd ref="1598971544"/>
    <nd ref="1598971700"/>
    <nd ref="1598971480"/>
    <nd ref="1598971684"/>
    <nd ref="1598971558"/>
    <nd ref="1598971442"/>
    <nd ref="1598971496"/>
    <tag k="addr:city" v="Papworth St Agnes"/>
    <tag k="addr:housename" v="Papworth Manor"/>
    <tag k="addr:postcode" v="CB23 3QU"/>
    <tag k="addr:street" v="The Main Road"/>
    <tag k="building" v="house"/>
    <tag k="name" v="Papworth Manor"/>
  </way>
  <way id="146628815" version="5" timestamp="2022-06-21T12:40:32Z" changeset="122667148" uid="8774347" user="Misa_zumba">
    <nd ref="1598971680"/>
    <nd ref="1598971522"/>
    <nd ref="1598971582"/>
    <nd ref="1598971597"/>
    <nd ref="1598971419"/>
    <nd ref="1598971431"/>
    <nd ref="1598971697"/>
    <nd ref="1598971598"/>
    <nd ref="1598971626"/>
    <nd ref="1598971622"/>
    <nd ref="1598971515"/>
    <nd ref="1598971528"/>
    <nd ref="1598971524"/>
    <nd ref="1598971498"/>
    <nd ref="1598971579"/>
    <nd ref="1598971621"/>
    <nd ref="1598971468"/>
    <nd ref="1598971647"/>
    <nd ref="1598971678"/>
    <nd ref="1598971530"/>
    <nd ref="1598971680"/>
    <tag k="addr:city" v="Papworth St Agnes"/>
    <tag k="addr:postcode" v="CB23 3QZ"/>
    <tag k="addr:street" v="The Church Lane"/>
    <tag k="amenity" v="place_of_worship"/>
    <tag k="building" v="church"/>
    <tag k="denomination" v="anglican"/>
    <tag k="name" v="St John the Baptist Church"/>
    <tag k="religion" v="christian"/>
    <tag k="wikidata" v="Q7593727"/>
    <tag k="wikipedia" v="en:St John the Baptist's Church, Papworth St Agnes"/>
  </way>
  <way id="344704420" version="2" timestamp="2016-07-28T12:59:47Z" changeset="41085331" uid="2983218" user="LovenOutdoors">
    <nd ref="3514535834"/>
    <nd ref="3514535833"/>
    <nd ref="3514535835"/>
    <nd ref="3514535838"/>
    <nd ref="3514535831"/>
    <nd ref="3514535836"/>
    <nd ref="3514535832"/>
    <nd ref="3514535837"/>
    <nd ref="3514535834"/>
    <tag k="addr:city" v="Papworth St Agnes"/>
    <tag k="addr:housename" v="The Old Rectory"/>
    <tag k="addr:postcode" v="CB23 3QZ"/>
    <tag k="addr:street" v="The Church Lane"/>
    <tag k="building" v="residential"/>
    <tag k="name" v="The Old Rectory"/>
  </way>
  <way id="369539216" version="3" timestamp="2021-08-31T07:04:25Z" changeset="110494720" uid="9196107" user="bashwith">
    <nd ref="1598964649"/>
    <nd ref="9049992614"/>
    <nd ref="4504576158"/>
    <nd ref="4504576159"/>
    <nd ref="3733184274"/>
    <nd ref="1598964588"/>
    <nd ref="1261426573"/>
    <nd ref="1261426595"/>
    <nd ref="1261426645"/>
    <nd ref="3733184281"/>
    <nd ref="3733184275"/>
    <nd ref="4504576112"/>
    <nd ref="4504576113"/>
    <nd ref="1598964649"/>
    <tag k="addr:city" v="Papworth St Agnes"/>
    <tag k="addr:postcode" v="CB23 3QX"/>
    <tag k="addr:street" v="St Ives Road"/>
    <tag k="landuse" v="farmyard"/>
    <tag k="name" v="Hill Farm"/>
  </way>
  <way id="434334777" version="4" timestamp="2024-04-28T17:22:06Z" changeset="150628902" uid="95856" user="john paul jones &amp; gringo">
    <nd ref="4324904392"/>
    <nd ref="4324904393"/>
    <nd ref="4324904394"/>
    <nd ref="4324904395"/>
    <nd ref="4324904392"/>
    <tag k="addr:city" v="Huntingdon"/>
    <tag k="addr:country" v="GB"/>
    <tag k="addr:postcode" v="PE28 9PJ"/>
    <tag k="addr:street" v="Ermine Street"/>
    <tag k="addr:suburb" v="Papworth St Agnes"/>
    <tag k="building" v="yes"/>
    <tag k="name" v="Papworth St Agnes Telephone Exchange"/>
    <tag k="not:addr:postcode" v="CB3 8QU"/>
    <tag k="operator" v="Openreach"/>
    <tag k="operator:wikidata" v="Q7096543"/>
    <tag k="ref" v="EMPAPSA"/>
    <tag k="source:addr:postcode" v="ons_uprn_lookup"/>
    <tag k="telecom" v="exchange"/>
  </way>
  <way id="434336219" version="2" timestamp="2024-04-28T17:22:06Z" changeset="150628902" uid="95856" user="john paul jones &amp; gringo">
    <nd ref="4324920691"/>
    <nd ref="4324920692"/>
    <nd ref="4324920693"/>
    <nd ref="4324920694"/>
    <nd ref="4324920691"/>
    <tag k="addr:city" v="Huntingdon"/>
    <tag k="addr:country" v="GB"/>
    <tag k="addr:postcode" v="PE28 9PA"/>
    <tag k="addr:street" v="Ermine Street"/>
    <tag k="addr:suburb" v="Papworth St Agnes"/>
    <tag k="building" v="house"/>
    <tag k="name" v="Melrose"/>
  </way>
  <way id="453768356" version="1" timestamp="2016-11-16T15:43:14Z" changeset="43702988" uid="2983218" user="LovenOutdoors">
    <nd ref="4504576126"/>
    <nd ref="4504576127"/>
    <nd ref="4504576128"/>
    <nd ref="4504576129"/>
    <nd ref="4504576126"/>
    <tag k="addr:city" v="Papworth St Agnes"/>
    <tag k="addr:housename" v="Hill Farm Cottages"/>
    <tag k="addr:postcode" v="CB23 3QX"/>
    <tag k="addr:street" v="St Ives Road"/>
    <tag k="building" v="terrace"/>
    <tag k="name" v="Hill Farm Cottages"/>
  </way>

</osm>
