<?xml version="1.0" encoding="UTF-8"?>
<osm version="0.6" generator="Overpass API 0.7.62.4 2390de5a">
<note>The data included in this document is from www.openstreetmap.org. The data is made available under ODbL.</note>
<meta osm_base="2024-11-27T17:21:15Z" areas="2024-11-27T10:45:57Z"/>

  <way id="237312170" version="9" timestamp="2024-07-15T22:33:09Z" changeset="153991674" uid="21425661" user="CjMalone">
    <nd ref="30153033"/>
    <nd ref="30153030"/>
    <nd ref="7039647622"/>
    <nd ref="7039647623"/>
    <nd ref="7039647624"/>
    <nd ref="30153033"/>
    <tag k="addr:city" v="Cambridge"/>
    <tag k="addr:housenumber" v="106"/>
    <tag k="addr:postcode" v="CB21 4JT"/>
    <tag k="addr:street" v="High Street"/>
    <tag k="addr:village" v="Linton"/>
    <tag k="brand" v="The Co-operative Food"/>
    <tag k="brand:wikidata" v="Q107617274"/>
    <tag k="building" v="yes"/>
    <tag k="check_date" v="2024-07-15"/>
    <tag k="check_date:opening_hours" v="2024-07-15"/>
    <tag k="fhrs:id" v="596814"/>
    <tag k="name" v="The Co-operative Food"/>
    <tag k="opening_hours" v="Mo-Su 07:00-22:00"/>
    <tag k="operator" v="The Co-operative Group"/>
    <tag k="operator:wikidata" v="Q117202"/>
    <tag k="phone" v="+44 1223 891258"/>
    <tag k="shop" v="supermarket"/>
    <tag k="website" v="https://www.coop.co.uk/store-finder/CB21-4JT/106-high-street"/>
  </way>
  <way id="237312325" version="2" timestamp="2023-02-15T09:30:55Z" changeset="132572515" uid="84263" user="Robert Whittaker">
    <nd ref="2452333463"/>
    <nd ref="2452333465"/>
    <nd ref="2452333467"/>
    <nd ref="2452333469"/>
    <nd ref="2452333462"/>
    <nd ref="2452333463"/>
    <tag k="addr:housename" v="Granta Filling Station"/>
    <tag k="addr:postcode" v="CB21 4NL"/>
    <tag k="addr:street" v="Linton By-Pass"/>
    <tag k="brand" v="Mace"/>
    <tag k="brand:wikidata" v="Q75240338"/>
    <tag k="building" v="yes"/>
    <tag k="name" v="Mace"/>
    <tag k="shop" v="convenience"/>
  </way>
  <way id="478246644" version="2" timestamp="2023-01-28T00:30:39Z" changeset="131792931" uid="3999" user="BarryMyles">
    <nd ref="4714863143"/>
    <nd ref="4714863144"/>
    <nd ref="4714863145"/>
    <nd ref="4714863146"/>
    <nd ref="4714863143"/>
    <tag k="addr:city" v="Linton"/>
    <tag k="addr:postcode" v="CB21 4JF"/>
    <tag k="addr:street" v="Back Road"/>
    <tag k="building" v="yes"/>
    <tag k="name" v="Linton Telephone Exchange"/>
    <tag k="operator" v="Openreach"/>
    <tag k="operator:wikidata" v="Q7096543"/>
    <tag k="ref" v="EALNT"/>
    <tag k="telecom" v="exchange"/>
  </way>
  <way id="752080499" version="2" timestamp="2024-07-07T12:29:38Z" changeset="153660011" uid="493595" user="Yorvik Prestigitator">
    <nd ref="7030278725"/>
    <nd ref="7030278722"/>
    <nd ref="30152989"/>
    <nd ref="7030278723"/>
    <nd ref="7030278724"/>
    <nd ref="7030278725"/>
    <tag k="addr:street" v="Coles Lane"/>
    <tag k="amenity" v="community_centre"/>
    <tag k="building" v="public"/>
    <tag k="community_centre" v="village_hall"/>
    <tag k="name" v="Linton Village Hall"/>
  </way>
  <way id="913805995" version="2" timestamp="2022-02-20T22:14:52Z" changeset="117656759" uid="242345" user="confusedbuffalo">
    <nd ref="2804681048"/>
    <nd ref="2804681020"/>
    <nd ref="2804681006"/>
    <nd ref="2804681063"/>
    <nd ref="2804681058"/>
    <nd ref="2804681053"/>
    <nd ref="2804681059"/>
    <nd ref="2804680199"/>
    <nd ref="2804681040"/>
    <nd ref="2804681044"/>
    <nd ref="2804681007"/>
    <nd ref="2804681038"/>
    <nd ref="2804681018"/>
    <nd ref="2804681033"/>
    <nd ref="2804681048"/>
    <tag k="addr:city" v="Linton"/>
    <tag k="addr:county" v="Cambridgeshire"/>
    <tag k="addr:postcode" v="CB21 4XB"/>
    <tag k="addr:street" v="Wheatsheaf Way"/>
    <tag k="building" v="yes"/>
    <tag k="building:levels" v="1"/>
    <tag k="description" v="Linton Heights Junior School"/>
    <tag k="name" v="Linton Heights Junior School"/>
  </way>
  <relation id="10368501" version="2" timestamp="2021-12-29T21:39:46Z" changeset="115538843" uid="14683432" user="Tawenmund">
    <member type="way" ref="752080547" role="inner"/>
    <member type="way" ref="752080545" role="inner"/>
    <member type="way" ref="752080546" role="inner"/>
    <member type="way" ref="752080548" role="outer"/>
    <tag k="addr:city" v="Linton"/>
    <tag k="addr:housename" v="Symonds House"/>
    <tag k="addr:postcode" v="CB21 4HY"/>
    <tag k="addr:street" v="Symonds Lane"/>
    <tag k="amenity" v="social_facility"/>
    <tag k="building" v="yes"/>
    <tag k="name" v="Symonds House"/>
    <tag k="social_facility" v="nursing_home"/>
    <tag k="social_facility:for" v="senior"/>
    <tag k="type" v="multipolygon"/>
    <tag k="wheelchair" v="yes"/>
  </relation>

</osm>
