<?xml version="1.0" encoding="UTF-8"?>
<osm version="0.6" generator="Overpass API 0.7.62.4 2390de5a">
<note>The data included in this document is from www.openstreetmap.org. The data is made available under ODbL.</note>
<meta osm_base="2025-01-21T14:23:25Z" areas="2024-12-31T00:49:33Z"/>

  <node id="280781350" lat="52.3229362" lon="-0.2071610" version="4" timestamp="2020-11-03T17:06:32Z" changeset="93494738" uid="11022773" user="GeoFens">
    <tag k="addr:city" v="Huntingdon"/>
    <tag k="addr:housename" v="Environment Agency"/>
    <tag k="addr:postcode" v="PE28 4NE"/>
    <tag k="addr:street" v="Bromholme Lane"/>
    <tag k="name" v="Environment Agency (Brampton Office)"/>
    <tag k="office" v="government"/>
    <tag k="opening_hours" v="09:00-17:00"/>
  </node>
  <node id="339777102" lat="52.3235440" lon="-0.2268360" version="10" timestamp="2024-12-14T10:35:45Z" changeset="160274705" uid="95856" user="john paul jones &amp; gringo">
    <tag k="addr:city" v="Huntingdon"/>
    <tag k="addr:housenumber" v="97-97A"/>
    <tag k="addr:postcode" v="PE28 4TQ"/>
    <tag k="addr:street" v="High Street"/>
    <tag k="addr:village" v="Brampton"/>
    <tag k="brand" v="Co-op Food"/>
    <tag k="brand:wikidata" v="Q3277439"/>
    <tag k="brand:wikipedia" v="en:Co-op Food"/>
    <tag k="check_date" v="2024-07-15"/>
    <tag k="check_date:opening_hours" v="2024-07-15"/>
    <tag k="fhrs:id" v="341549"/>
    <tag k="name" v="Co-op Food"/>
    <tag k="opening_hours" v="Mo-Su 07:00-22:00"/>
    <tag k="operator" v="The Co-operative Group"/>
    <tag k="operator:wikidata" v="Q117202"/>
    <tag k="shop" v="supermarket"/>
    <tag k="source:addr" v="FHRS Open Data"/>
    <tag k="website" v="https://www.coop.co.uk/store-finder/PE28-4TQ/97-99-high-street"/>
  </node>
  <node id="1619183052" lat="52.3236535" lon="-0.2270071" version="3" timestamp="2021-09-01T13:40:19Z" changeset="110568769" uid="6816132" user="CjMalone">
    <tag k="addr:city" v="Huntingdon"/>
    <tag k="addr:housenumber" v="99B"/>
    <tag k="addr:postcode" v="PE28 4TQ"/>
    <tag k="addr:street" v="High Street"/>
    <tag k="addr:village" v="Brampton"/>
    <tag k="fhrs:id" v="732640"/>
    <tag k="name" v="Grieves"/>
    <tag k="shop" v="alcohol"/>
  </node>
  <way id="25747130" version="9" timestamp="2024-06-16T00:08:12Z" changeset="152741770" uid="10420541" user="Thingummy">
    <nd ref="280781351"/>
    <nd ref="280781355"/>
    <nd ref="1112895853"/>
    <nd ref="1112895848"/>
    <nd ref="431041800"/>
    <nd ref="280781354"/>
    <nd ref="11984365897"/>
    <nd ref="4398607021"/>
    <nd ref="4398607020"/>
    <nd ref="4398607058"/>
    <nd ref="1236393389"/>
    <nd ref="280781351"/>
    <tag k="addr:city" v="Huntingdon"/>
    <tag k="addr:country" v="GB"/>
    <tag k="addr:postcode" v="PE28 4NE"/>
    <tag k="addr:street" v="Bromholme Lane"/>
    <tag k="addr:suburb" v="Brampton"/>
    <tag k="internet_access" v="wlan"/>
    <tag k="name" v="Willows Caravan Park &amp; Marina"/>
    <tag k="phone" v="+44 1480 437566"/>
    <tag k="sanitary_dump_station" v="yes"/>
    <tag k="seamark:small_craft_facility:category" v="caravan_site"/>
    <tag k="tourism" v="caravan_site"/>
  </way>
  <way id="30721902" version="10" timestamp="2024-05-10T13:02:53Z" changeset="151145575" uid="95856" user="john paul jones &amp; gringo">
    <nd ref="339774569"/>
    <nd ref="339774582"/>
    <nd ref="339774585"/>
    <nd ref="339774562"/>
    <nd ref="9555078161"/>
    <nd ref="9555078154"/>
    <nd ref="9555078160"/>
    <nd ref="339774559"/>
    <nd ref="2810496805"/>
    <nd ref="6296462887"/>
    <nd ref="6296462889"/>
    <nd ref="9555078175"/>
    <nd ref="6296462888"/>
    <nd ref="339774566"/>
    <nd ref="9555078162"/>
    <nd ref="9555078163"/>
    <nd ref="11679123358"/>
    <nd ref="9555078164"/>
    <nd ref="9555078165"/>
    <nd ref="339774569"/>
    <tag k="addr:city" v="Huntingdon"/>
    <tag k="addr:country" v="GB"/>
    <tag k="addr:postcode" v="PE28 4NF"/>
    <tag k="addr:street" v="Buckden Road"/>
    <tag k="addr:suburb" v="Brampton"/>
    <tag k="alt_name" v="Brampton Garden Centre"/>
    <tag k="building" v="retail"/>
    <tag k="building:levels" v="1"/>
    <tag k="name" v="Notcutts Garden Centre"/>
    <tag k="old_name" v="Frosts Garden Centre"/>
    <tag k="operator" v="Notcutts"/>
    <tag k="shop" v="garden_centre"/>
    <tag k="smoking" v="no"/>
    <tag k="source:name" v="local knowledge"/>
    <tag k="website" v="https://www.notcutts.co.uk/garden-centres/brampton"/>
  </way>
  <way id="98824522" version="4" timestamp="2021-09-01T13:40:19Z" changeset="110568769" uid="6816132" user="CjMalone">
    <nd ref="1143144123"/>
    <nd ref="1143144120"/>
    <nd ref="1143144085"/>
    <nd ref="1143144145"/>
    <nd ref="1143144124"/>
    <nd ref="1143144088"/>
    <nd ref="1143144129"/>
    <nd ref="1143144127"/>
    <nd ref="1143144123"/>
    <tag k="addr:city" v="Huntingdon"/>
    <tag k="addr:housename" v="The Black Bull"/>
    <tag k="addr:housenumber" v="25"/>
    <tag k="addr:postcode" v="PE28 4PF"/>
    <tag k="addr:street" v="Church Road"/>
    <tag k="addr:village" v="Brampton"/>
    <tag k="amenity" v="pub"/>
    <tag k="building" v="yes"/>
    <tag k="fhrs:id" v="341472"/>
    <tag k="name" v="The Black Bull"/>
    <tag k="wikidata" v="Q26603791"/>
  </way>
  <way id="98824523" version="8" timestamp="2024-05-10T13:02:53Z" changeset="151145575" uid="95856" user="john paul jones &amp; gringo">
    <nd ref="1143144091"/>
    <nd ref="2411128569"/>
    <nd ref="2411128522"/>
    <nd ref="2411128571"/>
    <nd ref="2411128536"/>
    <nd ref="2411128545"/>
    <nd ref="1143144115"/>
    <nd ref="1143144073"/>
    <nd ref="1143144150"/>
    <nd ref="1143144112"/>
    <nd ref="1143144147"/>
    <nd ref="1143144107"/>
    <nd ref="1143144091"/>
    <tag k="addr:city" v="Huntingdon"/>
    <tag k="addr:country" v="GB"/>
    <tag k="addr:housename" v="St Mary's Church"/>
    <tag k="addr:postcode" v="PE28 4PF"/>
    <tag k="addr:street" v="Church Road"/>
    <tag k="addr:suburb" v="Brampton"/>
    <tag k="amenity" v="place_of_worship"/>
    <tag k="building" v="yes"/>
    <tag k="denomination" v="anglican"/>
    <tag k="name" v="St Mary's Church"/>
    <tag k="note" v="church with tower"/>
    <tag k="ref:dove" v="15859"/>
    <tag k="religion" v="christian"/>
    <tag k="wikidata" v="Q17527965"/>
  </way>
  <way id="105700180" version="7" timestamp="2024-12-24T10:23:35Z" changeset="160569593" uid="90142" user="andy mackey">
    <nd ref="1217297607"/>
    <nd ref="5799734088"/>
    <nd ref="5799734087"/>
    <nd ref="1217297612"/>
    <nd ref="1217297621"/>
    <nd ref="1217297609"/>
    <nd ref="1217297607"/>
    <tag k="addr:city" v="Huntingdon"/>
    <tag k="addr:country" v="GB"/>
    <tag k="addr:postcode" v="PE28 4PA"/>
    <tag k="addr:street" v="Huntingdon Road"/>
    <tag k="addr:suburb" v="Brampton"/>
    <tag k="building" v="yes"/>
    <tag k="name" v="Pepys House"/>
    <tag k="wikidata" v="Q17527976"/>
  </way>
  <way id="112992373" version="6" timestamp="2024-05-31T07:44:47Z" changeset="152066616" uid="1802093" user="Paul Berry">
    <nd ref="280781356"/>
    <nd ref="11236842384"/>
    <nd ref="11236842383"/>
    <nd ref="1282877775"/>
    <nd ref="11236842382"/>
    <nd ref="11236842381"/>
    <nd ref="11236842386"/>
    <nd ref="11236842385"/>
    <nd ref="11236842398"/>
    <nd ref="1282877674"/>
    <nd ref="1282877601"/>
    <nd ref="1282877656"/>
    <nd ref="1282877616"/>
    <nd ref="1282877732"/>
    <nd ref="1282877670"/>
    <nd ref="1282877701"/>
    <nd ref="1282877571"/>
    <nd ref="280781356"/>
    <tag k="addr:city" v="Huntingdon"/>
    <tag k="addr:country" v="GB"/>
    <tag k="addr:postcode" v="PE28 4NE"/>
    <tag k="addr:street" v="Bromholme Lane"/>
    <tag k="addr:suburb" v="Brampton"/>
    <tag k="amenity" v="pub;restaurant"/>
    <tag k="building" v="yes"/>
    <tag k="heritage" v="2"/>
    <tag k="heritage:operator" v="he"/>
    <tag k="heritage:ref" v="1130217"/>
    <tag k="man_made" v="watermill"/>
    <tag k="name" v="The Brampton Mill"/>
    <tag k="official_name" v="Mill House"/>
    <tag k="smoking" v="outside"/>
    <tag k="website" v="https://www.thebramptonmill.co.uk/"/>
  </way>
  <way id="128444805" version="9" timestamp="2024-09-03T10:18:48Z" changeset="156135122" uid="21425661" user="CjMalone">
    <nd ref="1419482029"/>
    <nd ref="1419482049"/>
    <nd ref="1419482000"/>
    <nd ref="1419481988"/>
    <nd ref="1419482010"/>
    <nd ref="1419482007"/>
    <nd ref="1419482029"/>
    <tag k="addr:city" v="Huntingdon"/>
    <tag k="addr:country" v="GB"/>
    <tag k="addr:postcode" v="PE28 4NQ"/>
    <tag k="addr:street" v="Great North Road"/>
    <tag k="amenity" v="fast_food"/>
    <tag k="brand" v="McDonald's"/>
    <tag k="brand:wikidata" v="Q38076"/>
    <tag k="brand:wikipedia" v="en:McDonald's"/>
    <tag k="building" v="yes"/>
    <tag k="check_date" v="2024-08-31"/>
    <tag k="cuisine" v="burger"/>
    <tag k="drive_through" v="yes"/>
    <tag k="fhrs:id" v="341370"/>
    <tag k="internet_access" v="wlan"/>
    <tag k="name" v="McDonald's"/>
    <tag k="phone" v="+44 1480 810599"/>
    <tag k="self_service" v="yes"/>
    <tag k="source" v="Bing;survey"/>
    <tag k="takeaway" v="yes"/>
    <tag k="website" v="https://www.mcdonalds.com/gb/en-gb/location/brampton/brampton-hut---huntingdon/great-north-road/8260873.html"/>
  </way>
  <way id="343912713" version="5" timestamp="2024-05-10T13:33:34Z" changeset="151147046" uid="95856" user="john paul jones &amp; gringo">
    <nd ref="3506973675"/>
    <nd ref="3506973676"/>
    <nd ref="3506973677"/>
    <nd ref="4312376317"/>
    <nd ref="3506973678"/>
    <nd ref="3506973679"/>
    <nd ref="3506973675"/>
    <tag k="addr:city" v="Huntingdon"/>
    <tag k="addr:country" v="GB"/>
    <tag k="addr:postcode" v="PE28 4NL"/>
    <tag k="addr:street" v="Thrapston Road"/>
    <tag k="addr:suburb" v="Brampton"/>
    <tag k="landuse" v="farmyard"/>
    <tag k="name" v="Nursery Farm"/>
  </way>
  <way id="370457711" version="5" timestamp="2024-05-12T12:17:20Z" changeset="151222620" uid="95856" user="john paul jones &amp; gringo">
    <nd ref="3741548306"/>
    <nd ref="4312463118"/>
    <nd ref="4312463123"/>
    <nd ref="4312463122"/>
    <nd ref="3741548309"/>
    <nd ref="9023861724"/>
    <nd ref="9023861718"/>
    <nd ref="3741548310"/>
    <nd ref="3741548311"/>
    <nd ref="3741548312"/>
    <nd ref="3741548313"/>
    <nd ref="3741548314"/>
    <nd ref="4605290731"/>
    <nd ref="3741548306"/>
    <tag k="addr:city" v="Huntingdon"/>
    <tag k="addr:country" v="GB"/>
    <tag k="addr:housename" v="Woodhatch Farm"/>
    <tag k="addr:postcode" v="PE28 4NJ"/>
    <tag k="addr:street" v="Thrapston Road"/>
    <tag k="addr:suburb" v="Brampton"/>
    <tag k="landuse" v="industrial"/>
    <tag k="name" v="Ellington Recycling Centre"/>
    <tag k="website" v="https://www.mickgeorge.co.uk/contact-us/site-locations/"/>
  </way>
  <way id="388386966" version="4" timestamp="2024-05-10T13:36:22Z" changeset="151147173" uid="95856" user="john paul jones &amp; gringo">
    <nd ref="3915927427"/>
    <nd ref="3915927428"/>
    <nd ref="3915927429"/>
    <nd ref="9023861769"/>
    <nd ref="3915927430"/>
    <nd ref="3915927427"/>
    <tag k="addr:city" v="Huntingdon"/>
    <tag k="addr:country" v="GB"/>
    <tag k="addr:postcode" v="PE28 4NQ"/>
    <tag k="addr:street" v="Great North Road"/>
    <tag k="addr:suburb" v="Brampton"/>
    <tag k="landuse" v="farmyard"/>
    <tag k="name" v="Rectory Farm"/>
  </way>
  <way id="388386967" version="4" timestamp="2024-05-12T12:17:20Z" changeset="151222620" uid="95856" user="john paul jones &amp; gringo">
    <nd ref="3915927431"/>
    <nd ref="3915927436"/>
    <nd ref="3915927437"/>
    <nd ref="3915927438"/>
    <nd ref="3915927439"/>
    <nd ref="9023861730"/>
    <nd ref="9023861745"/>
    <nd ref="9023861746"/>
    <nd ref="9023861747"/>
    <nd ref="9023861748"/>
    <nd ref="9023861749"/>
    <nd ref="9023861750"/>
    <nd ref="9023861751"/>
    <nd ref="9023861744"/>
    <nd ref="9023861743"/>
    <nd ref="9023861742"/>
    <nd ref="9023861741"/>
    <nd ref="9023861740"/>
    <nd ref="9023861739"/>
    <nd ref="9023861738"/>
    <nd ref="9023861737"/>
    <nd ref="9023861736"/>
    <nd ref="9023861732"/>
    <nd ref="9023861733"/>
    <nd ref="9023861735"/>
    <nd ref="9023861734"/>
    <nd ref="3915927446"/>
    <nd ref="3915927445"/>
    <nd ref="3915927444"/>
    <nd ref="3915927443"/>
    <nd ref="3915927442"/>
    <nd ref="3915927441"/>
    <nd ref="3915927440"/>
    <nd ref="9023861731"/>
    <nd ref="3915927435"/>
    <nd ref="3915927431"/>
    <tag k="addr:city" v="Huntingdon"/>
    <tag k="addr:country" v="GB"/>
    <tag k="addr:postcode" v="PE28 4NJ"/>
    <tag k="addr:street" v="Thrapston Road"/>
    <tag k="addr:suburb" v="Brampton"/>
    <tag k="alt_name" v="High Harthay Shooting Ground"/>
    <tag k="email" v="info@highharthay.co.uk"/>
    <tag k="landuse" v="recreation_ground"/>
    <tag k="name" v="High Harthay Outdoor Pursuits"/>
    <tag k="phone" v="+44 7793 148726"/>
    <tag k="website" v="https://www.highharthay.co.uk"/>
  </way>
  <way id="388386978" version="7" timestamp="2024-05-10T13:36:22Z" changeset="151147173" uid="95856" user="john paul jones &amp; gringo">
    <nd ref="4312416334"/>
    <nd ref="3915927977"/>
    <nd ref="3915927978"/>
    <nd ref="3915927980"/>
    <nd ref="3915927981"/>
    <nd ref="3915927982"/>
    <nd ref="3915936975"/>
    <nd ref="3915936976"/>
    <nd ref="4584118079"/>
    <nd ref="4312416334"/>
    <tag k="addr:city" v="Huntingdon"/>
    <tag k="addr:country" v="GB"/>
    <tag k="addr:postcode" v="PE28 0DB"/>
    <tag k="addr:street" v="Grafham Road"/>
    <tag k="addr:suburb" v="Brampton"/>
    <tag k="landuse" v="farmyard"/>
    <tag k="name" v="Lodge Farm"/>
  </way>
  <way id="430505418" version="2" timestamp="2024-04-04T10:54:39Z" changeset="149564284" uid="95856" user="john paul jones &amp; gringo">
    <nd ref="4297716034"/>
    <nd ref="4297716035"/>
    <nd ref="4297716036"/>
    <nd ref="4297716037"/>
    <nd ref="4297716038"/>
    <nd ref="4297716039"/>
    <nd ref="4297716040"/>
    <nd ref="4297716041"/>
    <nd ref="4297716042"/>
    <nd ref="4297716043"/>
    <nd ref="4297716044"/>
    <nd ref="4297716045"/>
    <nd ref="4297716046"/>
    <nd ref="4297716047"/>
    <nd ref="4297716048"/>
    <nd ref="4297716049"/>
    <nd ref="4297716050"/>
    <nd ref="4297716051"/>
    <nd ref="4297716052"/>
    <nd ref="4297716053"/>
    <nd ref="4297716054"/>
    <nd ref="4297716062"/>
    <nd ref="4297716261"/>
    <nd ref="4297716260"/>
    <nd ref="4297716056"/>
    <nd ref="4297716057"/>
    <nd ref="4297716058"/>
    <nd ref="4297716059"/>
    <nd ref="4297716253"/>
    <nd ref="4297716060"/>
    <nd ref="4297716061"/>
    <nd ref="4297716034"/>
    <tag k="addr:city" v="Huntingdon"/>
    <tag k="addr:country" v="GB"/>
    <tag k="addr:housename" v="Station Farm"/>
    <tag k="addr:postcode" v="PE28 4NF"/>
    <tag k="addr:street" v="Brampton Road"/>
    <tag k="addr:suburb" v="Brampton"/>
    <tag k="area" v="yes"/>
    <tag k="landuse" v="landfill"/>
    <tag k="name" v="Buckden Landfill"/>
  </way>
  <way id="430505428" version="4" timestamp="2024-04-04T10:54:39Z" changeset="149564284" uid="95856" user="john paul jones &amp; gringo">
    <nd ref="4297716244"/>
    <nd ref="4297716251"/>
    <nd ref="4297776565"/>
    <nd ref="9023861815"/>
    <nd ref="9023861816"/>
    <nd ref="9023861817"/>
    <nd ref="9023861818"/>
    <nd ref="9023861819"/>
    <nd ref="4297776584"/>
    <nd ref="4297776792"/>
    <nd ref="4297776793"/>
    <nd ref="4297716406"/>
    <nd ref="4297776585"/>
    <nd ref="4297716239"/>
    <nd ref="4297716244"/>
    <tag k="addr:city" v="St Neots"/>
    <tag k="addr:country" v="GB"/>
    <tag k="addr:postcode" v="PE19 5UH"/>
    <tag k="addr:street" v="Buckden Road"/>
    <tag k="addr:suburb" v="Brampton"/>
    <tag k="landuse" v="farmyard"/>
    <tag k="name" v="Station Farm"/>
  </way>
  <way id="430561215" version="3" timestamp="2016-08-08T14:13:14Z" changeset="41325453" uid="2983218" user="LovenOutdoors">
    <nd ref="4298298724"/>
    <nd ref="4298298725"/>
    <nd ref="4298298726"/>
    <nd ref="4298298727"/>
    <nd ref="4298298728"/>
    <nd ref="4298298729"/>
    <nd ref="4298298730"/>
    <nd ref="4298298724"/>
    <tag k="addr:city" v="Brampton"/>
    <tag k="addr:street" v="River Lane (bridleway)"/>
    <tag k="man_made" v="wastewater_plant"/>
    <tag k="name" v="Waste Water Plant"/>
  </way>
  <way id="432079549" version="3" timestamp="2024-05-12T12:17:20Z" changeset="151222620" uid="95856" user="john paul jones &amp; gringo">
    <nd ref="4312463104"/>
    <nd ref="4312463105"/>
    <nd ref="4312463106"/>
    <nd ref="4312463107"/>
    <nd ref="4312463104"/>
    <tag k="addr:city" v="Huntingdon"/>
    <tag k="addr:country" v="GB"/>
    <tag k="addr:housename" v="Low Harthay"/>
    <tag k="addr:postcode" v="PE28 4NJ"/>
    <tag k="addr:street" v="Thrapston Road"/>
    <tag k="addr:suburb" v="Brampton"/>
    <tag k="building" v="house"/>
    <tag k="name" v="Low Harthay"/>
  </way>
  <way id="438419727" version="5" timestamp="2024-05-10T13:33:34Z" changeset="151147046" uid="95856" user="john paul jones &amp; gringo">
    <nd ref="6651606720"/>
    <nd ref="339774700"/>
    <nd ref="9668450000"/>
    <nd ref="4361652571"/>
    <nd ref="4361652572"/>
    <nd ref="4361652573"/>
    <nd ref="4361652574"/>
    <nd ref="4361652575"/>
    <nd ref="4361654115"/>
    <nd ref="728660754"/>
    <nd ref="4361652576"/>
    <nd ref="6651606720"/>
    <tag k="addr:city" v="Huntingdon"/>
    <tag k="addr:country" v="GB"/>
    <tag k="addr:housename" v="Park Farm"/>
    <tag k="addr:postcode" v="PE28 4RN"/>
    <tag k="addr:street" v="Park Road"/>
    <tag k="addr:suburb" v="Brampton"/>
    <tag k="landuse" v="farmyard"/>
    <tag k="name" v="Park Farm"/>
  </way>
  <way id="442170457" version="3" timestamp="2024-05-10T13:02:53Z" changeset="151145575" uid="95856" user="john paul jones &amp; gringo">
    <nd ref="339774979"/>
    <nd ref="2810496811"/>
    <nd ref="7264439301"/>
    <nd ref="2810496810"/>
    <nd ref="4398607073"/>
    <nd ref="339774979"/>
    <tag k="addr:city" v="Huntingdon"/>
    <tag k="addr:country" v="GB"/>
    <tag k="addr:housenumber" v="2"/>
    <tag k="addr:postcode" v="PE28 4PU"/>
    <tag k="addr:street" v="River Lane"/>
    <tag k="addr:suburb" v="Brampton"/>
    <tag k="landuse" v="plant_nursery"/>
    <tag k="name" v="Riverlane Nurseries"/>
  </way>
  <way id="613161894" version="3" timestamp="2022-08-01T06:12:24Z" changeset="124327337" uid="322785" user="BCNorwich">
    <nd ref="5802538717"/>
    <nd ref="9923802523"/>
    <nd ref="9923802522"/>
    <nd ref="9923802521"/>
    <nd ref="9923340955"/>
    <nd ref="5802538714"/>
    <nd ref="5802538715"/>
    <nd ref="9923802525"/>
    <nd ref="9923802524"/>
    <nd ref="5802538716"/>
    <nd ref="5802538717"/>
    <tag k="addr:city" v="Huntingdon"/>
    <tag k="addr:country" v="GB"/>
    <tag k="addr:housenumber" v="40"/>
    <tag k="addr:postcode" v="PE28 4RH"/>
    <tag k="addr:street" v="The Green"/>
    <tag k="amenity" v="restaurant"/>
    <tag k="building" v="yes"/>
    <tag k="name" v="Hare on the Green"/>
    <tag k="website" v="https://hareonthegreen.co.uk/"/>
  </way>
  <way id="613162146" version="3" timestamp="2024-08-10T20:11:24Z" changeset="155077267" uid="95856" user="john paul jones &amp; gringo">
    <nd ref="5802539992"/>
    <nd ref="5802539991"/>
    <nd ref="5802539990"/>
    <nd ref="5802539989"/>
    <nd ref="5802539992"/>
    <tag k="addr:city" v="Huntingdon"/>
    <tag k="addr:housenumber" v="79"/>
    <tag k="addr:postcode" v="PE28 4TQ"/>
    <tag k="addr:street" v="High Street"/>
    <tag k="addr:suburb" v="Brampton"/>
    <tag k="amenity" v="cafe"/>
    <tag k="building" v="yes"/>
    <tag k="cuisine" v="coffee_shop"/>
    <tag k="name" v="The Willows"/>
    <tag k="opening_hours" v="We,Th 10:00-16:00; Fr,Sa 10:00-15:00"/>
    <tag k="outdoor_seating" v="yes"/>
    <tag k="phone" v="+44 1480 353372"/>
    <tag k="website" v="https://www.facebook.com/people/The-Willows/100049553061681/"/>
  </way>
  <way id="631863222" version="6" timestamp="2024-05-10T13:36:22Z" changeset="151147173" uid="95856" user="john paul jones &amp; gringo">
    <nd ref="5966406369"/>
    <nd ref="5966406368"/>
    <nd ref="5966406370"/>
    <nd ref="5966406371"/>
    <nd ref="8462646218"/>
    <nd ref="8462646219"/>
    <nd ref="5966406372"/>
    <nd ref="5966406369"/>
    <tag k="addr:city" v="Huntingdon"/>
    <tag k="addr:country" v="GB"/>
    <tag k="addr:county" v="Cambridgeshire"/>
    <tag k="addr:housename" v="Brampton Hut"/>
    <tag k="addr:postcode" v="PE28 4NQ"/>
    <tag k="addr:street" v="Great North Road"/>
    <tag k="addr:suburb" v="Brampton"/>
    <tag k="addr:unit" v="5"/>
    <tag k="addr:village" v="Brampton"/>
    <tag k="amenity" v="fast_food"/>
    <tag k="brand" v="Subway"/>
    <tag k="brand:wikidata" v="Q244457"/>
    <tag k="brand:wikipedia" v="en:Subway (restaurant)"/>
    <tag k="building" v="yes"/>
    <tag k="contact:website" v="https://restaurants.subway.com/united-kingdom/en/huntingdon/unit-5-brampton-hut-services"/>
    <tag k="cuisine" v="sandwich"/>
    <tag k="fhrs:id" v="1243448"/>
    <tag k="name" v="Subway"/>
    <tag k="takeaway" v="yes"/>
  </way>
  <way id="695567219" version="3" timestamp="2024-05-10T13:02:53Z" changeset="151145575" uid="95856" user="john paul jones &amp; gringo">
    <nd ref="6531555162"/>
    <nd ref="6531555161"/>
    <nd ref="6531555160"/>
    <nd ref="6531555159"/>
    <nd ref="6531555162"/>
    <tag k="addr:city" v="Huntingdon"/>
    <tag k="addr:country" v="GB"/>
    <tag k="addr:county" v="Cambridgeshire"/>
    <tag k="addr:housenumber" v="18"/>
    <tag k="addr:postcode" v="PE28 4PS"/>
    <tag k="addr:street" v="Buckden Road"/>
    <tag k="addr:suburb" v="Brampton"/>
    <tag k="addr:village" v="Brampton"/>
    <tag k="building" v="residential"/>
    <tag k="disused:amenity" v="pub"/>
    <tag k="disused:operator" v="Bossco Taverns Ltd"/>
    <tag k="name" v="The Dragoon"/>
    <tag k="social_facility" v="shelter"/>
    <tag k="social_facility:for" v="refugee"/>
  </way>
  <way id="823820384" version="6" timestamp="2024-05-10T13:02:53Z" changeset="151145575" uid="95856" user="john paul jones &amp; gringo">
    <nd ref="339774948"/>
    <nd ref="3936164109"/>
    <nd ref="339774970"/>
    <nd ref="7691671380"/>
    <nd ref="7691671430"/>
    <nd ref="7691671421"/>
    <nd ref="7691671376"/>
    <nd ref="7691671429"/>
    <nd ref="7691671428"/>
    <nd ref="7691671425"/>
    <nd ref="7691671424"/>
    <nd ref="7691671423"/>
    <nd ref="7691671407"/>
    <nd ref="7691671422"/>
    <nd ref="9590446530"/>
    <nd ref="339774975"/>
    <nd ref="3936168029"/>
    <nd ref="6355403677"/>
    <nd ref="3936168031"/>
    <nd ref="9129343978"/>
    <nd ref="9129343979"/>
    <nd ref="3936168036"/>
    <nd ref="7754393627"/>
    <nd ref="339774945"/>
    <nd ref="339774948"/>
    <tag k="addr:city" v="Huntingdon"/>
    <tag k="addr:country" v="GB"/>
    <tag k="addr:postcode" v="PE28 4GZ"/>
    <tag k="addr:street" v="Badger Way"/>
    <tag k="addr:suburb" v="Brampton"/>
    <tag k="name" v="Sarazen Gardens"/>
    <tag k="operator" v="Cala Homes"/>
    <tag k="place" v="neighbourhood"/>
    <tag k="website" v="https://www.cala.co.uk/homes-for-sale/north-home-counties/sarazen-gardens/site-plan"/>
  </way>
  <relation id="3729855" version="8" timestamp="2024-05-10T13:33:34Z" changeset="151147046" uid="95856" user="john paul jones &amp; gringo">
    <member type="way" ref="30721855" role="outer"/>
    <member type="way" ref="30721853" role="outer"/>
    <member type="way" ref="30721877" role="inner"/>
    <tag k="addr:city" v="Huntingdon"/>
    <tag k="addr:country" v="GB"/>
    <tag k="addr:postcode" v="PE28 4NF"/>
    <tag k="addr:street" v="Buckden Road"/>
    <tag k="addr:suburb" v="Brampton"/>
    <tag k="description" v="18 hole Par 71"/>
    <tag k="golf:course" v="18_hole"/>
    <tag k="golf:par" v="71"/>
    <tag k="leisure" v="golf_course"/>
    <tag k="name" v="Brampton Park Golf Club"/>
    <tag k="phone" v="+44 1480 434705"/>
    <tag k="phone_1" v=";+44 1480 434700"/>
    <tag k="type" v="multipolygon"/>
    <tag k="website" v="https://www.bramptonparkgc.co.uk/"/>
  </relation>

</osm>
