<?xml version="1.0" encoding="UTF-8"?>
<osm version="0.6" generator="Overpass API 0.7.62.4 2390de5a">
<note>The data included in this document is from www.openstreetmap.org. The data is made available under ODbL.</note>
<meta osm_base="2025-01-23T15:31:00Z" areas="2024-12-31T00:49:33Z"/>

  <way id="372606825" version="6" timestamp="2024-10-23T23:08:11Z" changeset="158274208" uid="10420541" user="Thingummy">
    <nd ref="3761610834"/>
    <nd ref="8345372476"/>
    <nd ref="3761610836"/>
    <nd ref="3761610837"/>
    <nd ref="3761610838"/>
    <nd ref="3761610839"/>
    <nd ref="3761610834"/>
    <tag k="addr:city" v="Ely"/>
    <tag k="addr:housename" v="The Anchor Inn"/>
    <tag k="addr:place" v="Sutton Gault"/>
    <tag k="addr:postcode" v="CB6 2BD"/>
    <tag k="addr:street" v="Bury Lane"/>
    <tag k="amenity" v="pub"/>
    <tag k="building" v="yes"/>
    <tag k="fhrs:id" v="505774"/>
    <tag k="fixme" v="I think it reopened. ?opening hours"/>
    <tag k="name" v="The Anchor Inn"/>
    <tag k="opening_hours:covid19" v="closed"/>
    <tag k="website" v="http://anchor-inn-restaurant.co.uk/"/>
  </way>
  <way id="637876963" version="3" timestamp="2022-07-25T22:20:44Z" changeset="124070927" uid="11849721" user="prmartinuk">
    <nd ref="7589113711"/>
    <nd ref="6012775344"/>
    <nd ref="6012775341"/>
    <nd ref="7589113712"/>
    <nd ref="7589113711"/>
    <tag k="addr:city" v="Ely"/>
    <tag k="addr:housenumber" v="164"/>
    <tag k="addr:postcode" v="CB6 2NR"/>
    <tag k="addr:street" v="High Street"/>
    <tag k="building" v="house"/>
  </way>
  <way id="778337386" version="3" timestamp="2022-07-25T22:20:44Z" changeset="124070927" uid="11849721" user="prmartinuk">
    <nd ref="7589113710"/>
    <nd ref="7264325023"/>
    <nd ref="7264325024"/>
    <nd ref="9910501266"/>
    <nd ref="9910501267"/>
    <nd ref="7589113709"/>
    <nd ref="7589113710"/>
    <tag k="addr:city" v="Ely"/>
    <tag k="addr:housenumber" v="166"/>
    <tag k="addr:postcode" v="CB6 2NR"/>
    <tag k="addr:street" v="High Street"/>
    <tag k="building" v="house"/>
  </way>
  <way id="812519850" version="2" timestamp="2022-07-25T22:20:44Z" changeset="124070927" uid="11849721" user="prmartinuk">
    <nd ref="7589113709"/>
    <nd ref="7264325025"/>
    <nd ref="7264325026"/>
    <nd ref="7589113710"/>
    <nd ref="7589113709"/>
    <tag k="addr:city" v="Ely"/>
    <tag k="addr:housenumber" v="168"/>
    <tag k="addr:postcode" v="CB6 2NR"/>
    <tag k="addr:street" v="High Street"/>
    <tag k="building" v="house"/>
  </way>
  <way id="812519851" version="2" timestamp="2022-07-25T22:20:44Z" changeset="124070927" uid="11849721" user="prmartinuk">
    <nd ref="7589113712"/>
    <nd ref="6012775342"/>
    <nd ref="6012775343"/>
    <nd ref="7589113711"/>
    <nd ref="7589113712"/>
    <tag k="addr:city" v="Ely"/>
    <tag k="addr:housenumber" v="162"/>
    <tag k="addr:postcode" v="CB6 2NR"/>
    <tag k="addr:street" v="High Street"/>
    <tag k="building" v="house"/>
  </way>
  <way id="812519906" version="5" timestamp="2022-11-06T16:06:51Z" changeset="128561520" uid="2204553" user="ells1231">
    <nd ref="7589113925"/>
    <nd ref="7589113921"/>
    <nd ref="7589113920"/>
    <nd ref="7589113924"/>
    <nd ref="7589113923"/>
    <nd ref="7589113922"/>
    <nd ref="7589113925"/>
    <tag k="addr:housenumber" v="115"/>
    <tag k="addr:street" v="The Row"/>
    <tag k="building" v="detached"/>
    <tag k="building:levels" v="2"/>
    <tag k="roof:levels" v="0"/>
  </way>
  <way id="812573642" version="1" timestamp="2020-06-03T14:12:03Z" changeset="86140752" uid="5173844" user="ndrw6">
    <nd ref="7589672956"/>
    <nd ref="7589672953"/>
    <nd ref="7589672951"/>
    <nd ref="7589672952"/>
    <nd ref="7589672954"/>
    <nd ref="7589672955"/>
    <nd ref="7589672956"/>
    <tag k="addr:city" v="Ely"/>
    <tag k="addr:housenumber" v="128"/>
    <tag k="addr:postcode" v="CB6 2NW"/>
    <tag k="addr:street" v="High Street"/>
    <tag k="addr:village" v="Sutton"/>
    <tag k="amenity" v="pub"/>
    <tag k="building" v="yes"/>
    <tag k="fhrs:id" v="336725"/>
    <tag k="name" v="The Chequers"/>
    <tag k="source:addr" v="FHRS Open Data"/>
  </way>
  <way id="814359027" version="2" timestamp="2023-03-20T00:11:05Z" changeset="133877905" uid="3999" user="BarryMyles">
    <nd ref="7607087409"/>
    <nd ref="7607087406"/>
    <nd ref="7607087407"/>
    <nd ref="10747233561"/>
    <nd ref="10747233560"/>
    <nd ref="7607087408"/>
    <nd ref="10747233558"/>
    <nd ref="10747233559"/>
    <nd ref="7607087409"/>
    <tag k="addr:city" v="Sutton"/>
    <tag k="addr:postcode" v="CB6 2QF"/>
    <tag k="addr:street" v="Churchill Close"/>
    <tag k="building" v="yes"/>
    <tag k="name" v="Sutton Telephone Exchange"/>
    <tag k="operator" v="Openreach"/>
    <tag k="operator:wikidata" v="Q7096543"/>
    <tag k="ref" v="EASUT"/>
    <tag k="telecom" v="exchange"/>
  </way>
  <way id="814913221" version="2" timestamp="2023-06-05T21:46:39Z" changeset="136990525" uid="486701" user="eteb3">
    <nd ref="7612027259"/>
    <nd ref="7612027256"/>
    <nd ref="7612027257"/>
    <nd ref="7612027258"/>
    <nd ref="7612027259"/>
    <tag k="addr:housenumber" v="7"/>
    <tag k="addr:street" v="Church Lane"/>
    <tag k="building" v="yes"/>
    <tag k="name" v="St. Andrew's Vicarage"/>
  </way>
  <way id="909172778" version="2" timestamp="2022-03-20T15:06:24Z" changeset="118699465" uid="11022773" user="GeoFens">
    <nd ref="8441639780"/>
    <nd ref="8441639782"/>
    <nd ref="8441639783"/>
    <nd ref="8441639784"/>
    <nd ref="8441639780"/>
    <tag k="addr:city" v="Sutton"/>
    <tag k="addr:housename" v="Unit 2"/>
    <tag k="addr:housenumber" v="21"/>
    <tag k="addr:postcode" v="CB6 2QD"/>
    <tag k="addr:street" v="Ely Road"/>
    <tag k="amenity" v="fast_food"/>
    <tag k="building" v="yes"/>
    <tag k="cuisine" v="fish_and_chips"/>
    <tag k="drive_through" v="no"/>
    <tag k="name" v="Rumbles Fish Bar"/>
    <tag k="opening_hours" v="Mo-Sa 11:00-22:00"/>
    <tag k="phone" v="+441353 523104"/>
    <tag k="website" v="https://www.rumblessutton.co.uk"/>
  </way>

</osm>
