<?xml version="1.0" encoding="UTF-8"?>
<osm version="0.6" generator="Overpass API 0.7.62.4 2390de5a">
<note>The data included in this document is from www.openstreetmap.org. The data is made available under ODbL.</note>
<meta osm_base="2025-01-20T15:57:59Z" areas="2024-12-31T00:49:33Z"/>

  <way id="231913021" version="5" timestamp="2024-05-19T18:57:52Z" changeset="151547779" uid="95856" user="john paul jones &amp; gringo">
    <nd ref="2402386680"/>
    <nd ref="946213604"/>
    <nd ref="2402386683"/>
    <nd ref="2402386632"/>
    <nd ref="2402386606"/>
    <nd ref="2402386531"/>
    <nd ref="2402386680"/>
    <tag k="addr:city" v="Huntingdon"/>
    <tag k="addr:country" v="GB"/>
    <tag k="addr:housenumber" v="73"/>
    <tag k="addr:postcode" v="PE28 2TA"/>
    <tag k="addr:street" v="High Street"/>
    <tag k="addr:suburb" v="Warboys"/>
    <tag k="amenity" v="place_of_worship"/>
    <tag k="building" v="church"/>
    <tag k="denomination" v="baptist"/>
    <tag k="name" v="Grace Baptist Church"/>
    <tag k="phone" v="+44 1487 823405"/>
    <tag k="religion" v="christian"/>
    <tag k="website" v="http://warboysgracebaptist.org"/>
    <tag k="wheelchair" v="yes"/>
  </way>
  <way id="396407969" version="6" timestamp="2024-05-19T18:24:59Z" changeset="151546646" uid="95856" user="john paul jones &amp; gringo">
    <nd ref="3992131615"/>
    <nd ref="3992131616"/>
    <nd ref="3992131617"/>
    <nd ref="3992131618"/>
    <nd ref="3992131615"/>
    <tag k="addr:city" v="Huntingdon"/>
    <tag k="addr:country" v="GB"/>
    <tag k="addr:housenumber" v="4"/>
    <tag k="addr:postcode" v="PE28 2SH"/>
    <tag k="addr:street" v="Warboys Airfield Industrial Estate"/>
    <tag k="addr:suburb" v="Warboys"/>
    <tag k="building" v="yes"/>
    <tag k="name" v="DS Smith"/>
  </way>
  <way id="440734932" version="4" timestamp="2024-05-19T18:24:59Z" changeset="151546646" uid="95856" user="john paul jones &amp; gringo">
    <nd ref="4385111000"/>
    <nd ref="4385111001"/>
    <nd ref="4385111002"/>
    <nd ref="4385111003"/>
    <nd ref="4385111000"/>
    <tag k="addr:city" v="Huntingdon"/>
    <tag k="addr:country" v="GB"/>
    <tag k="addr:housename" v="Lancaster House"/>
    <tag k="addr:postcode" v="PE28 2SH"/>
    <tag k="addr:street" v="Warboys Airfield Industrial Estate"/>
    <tag k="addr:suburb" v="Warboys"/>
    <tag k="building" v="commercial"/>
    <tag k="name" v="Lancaster House"/>
  </way>
  <way id="440734933" version="5" timestamp="2024-05-19T18:24:59Z" changeset="151546646" uid="95856" user="john paul jones &amp; gringo">
    <nd ref="4385111004"/>
    <nd ref="6631020867"/>
    <nd ref="6631020868"/>
    <nd ref="4385111005"/>
    <nd ref="6631020861"/>
    <nd ref="6631020862"/>
    <nd ref="6631020863"/>
    <nd ref="6631020864"/>
    <nd ref="4385111006"/>
    <nd ref="4385111007"/>
    <nd ref="6631020865"/>
    <nd ref="6631020866"/>
    <nd ref="4385111004"/>
    <tag k="addr:city" v="Huntingdon"/>
    <tag k="addr:country" v="GB"/>
    <tag k="addr:housenumber" v="9"/>
    <tag k="addr:postcode" v="PE28 2SH"/>
    <tag k="addr:street" v="Warboys Airfield Industrial Estate"/>
    <tag k="addr:suburb" v="Warboys"/>
    <tag k="building" v="yes"/>
    <tag k="name" v="Barracudas"/>
    <tag k="office" v="yes"/>
  </way>
  <way id="440734935" version="6" timestamp="2024-05-19T18:24:59Z" changeset="151546646" uid="95856" user="john paul jones &amp; gringo">
    <nd ref="4385111016"/>
    <nd ref="4385111017"/>
    <nd ref="4385111018"/>
    <nd ref="4385111019"/>
    <nd ref="4385111020"/>
    <nd ref="4385111021"/>
    <nd ref="4385111016"/>
    <tag k="addr:city" v="Huntingdon"/>
    <tag k="addr:country" v="GB"/>
    <tag k="addr:housename" v="Dyers Patio Centre"/>
    <tag k="addr:housenumber" v="12"/>
    <tag k="addr:postcode" v="PE28 2SH"/>
    <tag k="addr:street" v="Warboys Airfield Industrial Estate"/>
    <tag k="addr:suburb" v="Warboys"/>
    <tag k="building" v="yes"/>
    <tag k="name" v="Dyers Patio Centre"/>
    <tag k="phone" v="+44 1487 822556"/>
    <tag k="shop" v="doityourself"/>
    <tag k="website" v="http://www.dyersofwarboys.co.uk/"/>
  </way>
  <way id="440734937" version="4" timestamp="2024-05-19T18:24:59Z" changeset="151546646" uid="95856" user="john paul jones &amp; gringo">
    <nd ref="4385111026"/>
    <nd ref="4385111027"/>
    <nd ref="4385111028"/>
    <nd ref="4385111029"/>
    <nd ref="4385111026"/>
    <tag k="addr:city" v="Huntingdon"/>
    <tag k="addr:country" v="GB"/>
    <tag k="addr:housename" v="Huntingdon Coachworks"/>
    <tag k="addr:postcode" v="PE28 2SH"/>
    <tag k="addr:street" v="Warboys Airfield Industrial Estate"/>
    <tag k="addr:suburb" v="Warboys"/>
    <tag k="building" v="commercial"/>
    <tag k="name" v="Huntingdon Coachworks"/>
  </way>
  <way id="440752715" version="4" timestamp="2024-05-19T18:24:59Z" changeset="151546646" uid="95856" user="john paul jones &amp; gringo">
    <nd ref="4385266008"/>
    <nd ref="4385266009"/>
    <nd ref="4385266010"/>
    <nd ref="4385266011"/>
    <nd ref="4385266008"/>
    <tag k="addr:city" v="Huntingdon"/>
    <tag k="addr:country" v="GB"/>
    <tag k="addr:housename" v="Arnolds Car Sales"/>
    <tag k="addr:postcode" v="PE28 2SS"/>
    <tag k="addr:street" v="New Road"/>
    <tag k="addr:suburb" v="Warboys"/>
    <tag k="building" v="yes"/>
    <tag k="name" v="Arnolds Car Sales"/>
    <tag k="second_hand" v="only"/>
    <tag k="shop" v="car"/>
  </way>
  <way id="440753737" version="3" timestamp="2024-05-19T19:04:30Z" changeset="151548002" uid="95856" user="john paul jones &amp; gringo">
    <nd ref="4385292548"/>
    <nd ref="4385292549"/>
    <nd ref="4385292550"/>
    <nd ref="4385292551"/>
    <nd ref="4385292548"/>
    <tag k="addr:city" v="Huntingdon"/>
    <tag k="addr:country" v="GB"/>
    <tag k="addr:housename" v="J Singh Transport"/>
    <tag k="addr:postcode" v="PE28 2RJ"/>
    <tag k="addr:street" v="Church Road"/>
    <tag k="addr:suburb" v="Warboys"/>
    <tag k="building" v="commercial"/>
    <tag k="name" v="J Singh Transport"/>
  </way>
  <way id="440757801" version="2" timestamp="2024-05-19T18:57:52Z" changeset="151547779" uid="95856" user="john paul jones &amp; gringo">
    <nd ref="4385342162"/>
    <nd ref="4385342163"/>
    <nd ref="4385342164"/>
    <nd ref="4385342165"/>
    <nd ref="4385342166"/>
    <nd ref="4385342167"/>
    <nd ref="4385342168"/>
    <nd ref="4385342169"/>
    <nd ref="4385342170"/>
    <nd ref="4385342171"/>
    <nd ref="4385342172"/>
    <nd ref="4385342173"/>
    <nd ref="4385342162"/>
    <tag k="addr:city" v="Huntingdon"/>
    <tag k="addr:country" v="GB"/>
    <tag k="addr:housename" v="Fenton Field Farm"/>
    <tag k="addr:postcode" v="PE28 2SE"/>
    <tag k="addr:street" v="Bencroft Lane"/>
    <tag k="addr:suburb" v="Warboys"/>
    <tag k="building" v="house"/>
    <tag k="name" v="Fenton Field Farm"/>
  </way>
  <way id="730150766" version="2" timestamp="2024-05-19T18:57:52Z" changeset="151547779" uid="95856" user="john paul jones &amp; gringo">
    <nd ref="946213496"/>
    <nd ref="6840119885"/>
    <nd ref="6840119888"/>
    <nd ref="6840119886"/>
    <nd ref="6840043883"/>
    <nd ref="6840119889"/>
    <nd ref="6840119887"/>
    <nd ref="6840043884"/>
    <nd ref="946213496"/>
    <tag k="addr:city" v="Huntingdon"/>
    <tag k="addr:country" v="GB"/>
    <tag k="addr:housenumber" v="70"/>
    <tag k="addr:postcode" v="PE28 2SB"/>
    <tag k="addr:street" v="Mill Green"/>
    <tag k="addr:suburb" v="Warboys"/>
    <tag k="amenity" v="pub"/>
    <tag k="building" v="yes"/>
    <tag k="name" v="The Royal Oak"/>
  </way>
  <way id="806568017" version="5" timestamp="2024-04-21T06:55:43Z" changeset="150288831" uid="6816132" user="CjMalone">
    <nd ref="7542523853"/>
    <nd ref="5754039528"/>
    <nd ref="5754039521"/>
    <nd ref="5754039522"/>
    <nd ref="5754039523"/>
    <nd ref="5754039524"/>
    <nd ref="5754039525"/>
    <nd ref="7542523861"/>
    <nd ref="7542523853"/>
    <tag k="addr:city" v="Huntingdon"/>
    <tag k="addr:country" v="GB"/>
    <tag k="addr:housenumber" v="2,4"/>
    <tag k="addr:postcode" v="PE28 2SA"/>
    <tag k="addr:street" v="Mill Green"/>
    <tag k="brand" v="Spar"/>
    <tag k="brand:wikidata" v="Q610492"/>
    <tag k="brand:wikipedia" v="en:SPAR (retailer)"/>
    <tag k="building" v="retail"/>
    <tag k="fhrs:id" v="521913"/>
    <tag k="name" v="Spar"/>
    <tag k="operator" v="Spar"/>
    <tag k="shop" v="convenience"/>
    <tag k="website" v="https://www.spar.co.uk/store-locator/afb60910-spar-warboys/"/>
  </way>
  <way id="941979854" version="3" timestamp="2024-05-23T09:47:07Z" changeset="151713586" uid="95856" user="john paul jones &amp; gringo">
    <nd ref="8723091071"/>
    <nd ref="8723091072"/>
    <nd ref="8723091073"/>
    <nd ref="8723091074"/>
    <nd ref="8723091071"/>
    <tag k="addr:city" v="Huntingdon"/>
    <tag k="addr:country" v="GB"/>
    <tag k="addr:housename" v="Synergen House"/>
    <tag k="addr:postcode" v="PE28 2TX"/>
    <tag k="addr:street" v="Station Road"/>
    <tag k="addr:suburb" v="Warboys"/>
    <tag k="amenity" v="recycling"/>
    <tag k="building" v="commercial"/>
    <tag k="description" v="Woodford Recycling Services Ltd provide comprehensive skip hire, waste management and recycling services across Cambridge, Huntingdon, Peterborough and the surrounding areas. We aim to process 100% of all waste collected at our state of the art materials"/>
    <tag k="email" v="info@woodfordrecycling.co.uk"/>
    <tag k="name" v="Woodford Recycling Services Ltd"/>
    <tag k="opening_hours" v="Mo-Fr 08:00-17:00"/>
    <tag k="operator" v="Woodford Recycling"/>
    <tag k="operator:type" v="private"/>
    <tag k="recycling_type" v="centre"/>
    <tag k="website" v="https://www.woodfordrecycling.co.uk"/>
  </way>

</osm>
