<?xml version="1.0" encoding="UTF-8"?>
<osm version="0.6" generator="Overpass API 0.7.62.4 2390de5a">
<note>The data included in this document is from www.openstreetmap.org. The data is made available under ODbL.</note>
<meta osm_base="2025-01-21T14:26:30Z" areas="2024-12-31T00:49:33Z"/>

  <node id="31934734" lat="52.2853404" lon="0.1252036" version="9" timestamp="2021-07-17T08:57:07Z" changeset="108151237" uid="8556624" user="nylon_overboard">
    <tag k="addr:housenumber" v="297"/>
    <tag k="addr:postcode" v="CB24 8QP"/>
    <tag k="addr:street" v="High Street"/>
    <tag k="amenity" v="pub"/>
    <tag k="contact:phone" v="+44 1954 488201"/>
    <tag k="food" v="yes"/>
    <tag k="name" v="The Chequers"/>
    <tag k="real_ale" v="yes"/>
    <tag k="source" v="survey"/>
    <tag k="website" v="http://chequers-cottenham.co.uk/"/>
    <tag k="wikidata" v="Q26420227"/>
  </node>
  <node id="243633744" lat="52.2875819" lon="0.1250989" version="8" timestamp="2023-10-19T14:00:21Z" changeset="142817683" uid="4345757" user="JassKurn">
    <tag k="addr:city" v="Cottenham"/>
    <tag k="addr:housenumber" v="222"/>
    <tag k="addr:postcode" v="CB24 8RZ"/>
    <tag k="addr:street" v="High Street"/>
    <tag k="amenity" v="pharmacy"/>
    <tag k="brand" v="Well Pharmacy"/>
    <tag k="brand:wikidata" v="Q7726524"/>
    <tag k="brand:wikipedia" v="en:Well Pharmacy"/>
    <tag k="dispensing" v="yes"/>
    <tag k="drive_through" v="no"/>
    <tag k="healthcare" v="pharmacy"/>
    <tag k="name" v="Well Pharmacy"/>
    <tag k="opening_hours" v="Mo-Fr 09:00-18:00; Sa 09:00-13:00"/>
    <tag k="website" v="https://finder.well.co.uk/store/cottenham-high-street"/>
  </node>
  <node id="243633748" lat="52.2862281" lon="0.1263564" version="10" timestamp="2024-07-15T22:33:06Z" changeset="153991674" uid="21425661" user="CjMalone">
    <tag k="addr:city" v="Cottenham"/>
    <tag k="addr:housenumber" v="273"/>
    <tag k="addr:postcode" v="CB24 8QP"/>
    <tag k="addr:street" v="High Street"/>
    <tag k="brand" v="Co-op Food"/>
    <tag k="brand:wikidata" v="Q3277439"/>
    <tag k="check_date" v="2024-07-15"/>
    <tag k="check_date:opening_hours" v="2024-07-15"/>
    <tag k="fhrs:id" v="596535"/>
    <tag k="name" v="Co-op Food"/>
    <tag k="opening_hours" v="Mo-Su 07:00-22:00"/>
    <tag k="operator" v="The Co-operative Group"/>
    <tag k="operator:wikidata" v="Q117202"/>
    <tag k="shop" v="supermarket"/>
    <tag k="website" v="https://www.coop.co.uk/store-finder/CB24-8QP/273-high-street"/>
  </node>
  <node id="243633855" lat="52.2899871" lon="0.1254554" version="4" timestamp="2023-10-08T18:24:00Z" changeset="142316073" uid="20349582" user="CastelloFruits">
    <tag k="addr:postcode" v="CB24 8RX"/>
    <tag k="addr:street" v="High Street"/>
    <tag k="amenity" v="fire_station"/>
    <tag k="name" v="Cottenham Fire Station"/>
  </node>
  <node id="243633865" lat="52.2883975" lon="0.1242862" version="9" timestamp="2023-10-08T18:17:10Z" changeset="142315488" uid="20349582" user="CastelloFruits">
    <tag k="addr:housenumber" v="210"/>
    <tag k="addr:postcode" v="CB24 8RZ"/>
    <tag k="addr:street" v="High Street"/>
    <tag k="name" v="Cottenham Tyre and Auto Centre"/>
    <tag k="opening_hours" v="Mo-Fr 08:30-12:30,13:00-17:30"/>
    <tag k="shop" v="car_repair"/>
  </node>
  <node id="259237541" lat="52.2863596" lon="0.1258956" version="5" timestamp="2019-10-09T20:37:53Z" changeset="75482493" uid="3432400" user="GinaroZ">
    <tag k="addr:housenumber" v="250a"/>
    <tag k="addr:postcode" v="CB24 8RZ"/>
    <tag k="addr:street" v="High Street"/>
    <tag k="amenity" v="community_centre"/>
    <tag k="name" v="Cottenham Community Centre"/>
  </node>
  <node id="998725085" lat="52.2856105" lon="0.1251492" version="6" timestamp="2023-09-30T09:46:26Z" changeset="141943693" uid="20349582" user="CastelloFruits">
    <tag k="addr:housenumber" v="272-274"/>
    <tag k="addr:postcode" v="CB24 8RZ"/>
    <tag k="addr:street" v="High Street"/>
    <tag k="amenity" v="fast_food"/>
    <tag k="check_date:opening_hours" v="2023-09-30"/>
    <tag k="contact:phone" v="+44 1954 250004"/>
    <tag k="cuisine" v="fish_and_chips"/>
    <tag k="description" v="Take away serving Fish-and-Chips, and Chinese."/>
    <tag k="name" v="Cottenham Fish Shop"/>
    <tag k="opening_hours:signed" v="no"/>
  </node>
  <node id="998742141" lat="52.2882862" lon="0.1247847" version="9" timestamp="2024-07-13T16:46:40Z" changeset="153901734" uid="20349582" user="CastelloFruits">
    <tag k="addr:city" v="Cambridge"/>
    <tag k="addr:housenumber" v="215"/>
    <tag k="addr:postcode" v="CB24 8QP"/>
    <tag k="addr:street" v="High Street"/>
    <tag k="amenity" v="restaurant"/>
    <tag k="contact:phone" v="+44 1954 250257"/>
    <tag k="cuisine" v="indian"/>
    <tag k="description" v="Ever since Curry Palace won the Inaugural ARTA Champion trophy, the name has become a favourite amongst local and visiting foodies alike. An Indian restaurant in Cambridge, Curry Palace is in business for almost two decades now and growing in popularity."/>
    <tag k="name" v="Curry Palace"/>
    <tag k="opening_hours" v="Mo-Su 17:00-23:00"/>
    <tag k="phone" v="+44 195 425 0257"/>
    <tag k="website" v="https://www.currypalacecottenham.com/"/>
  </node>
  <node id="2009683468" lat="52.2869784" lon="0.1256572" version="3" timestamp="2023-08-12T10:07:00Z" changeset="139780949" uid="185577" user="dpm">
    <tag k="addr:housenumber" v="234"/>
    <tag k="addr:postcode" v="CB24 8RZ"/>
    <tag k="addr:street" v="High Street"/>
    <tag k="name" v="Baked"/>
    <tag k="operator" v="Barkers Bakery"/>
    <tag k="shop" v="bakery"/>
    <tag k="source" v="bing"/>
  </node>
  <node id="2009683474" lat="52.2869019" lon="0.1257422" version="3" timestamp="2023-10-08T18:12:12Z" changeset="142315488" uid="20349582" user="CastelloFruits">
    <tag k="addr:housenumber" v="238"/>
    <tag k="addr:postcode" v="CB24 8RZ"/>
    <tag k="addr:street" v="High Street"/>
    <tag k="lawyer" v="solicitor"/>
    <tag k="name" v="King &amp; Co"/>
    <tag k="office" v="lawyer"/>
    <tag k="opening_hours" v="Mo-Fr 09:00-13:00,14:00-16:00, Mo-Th 16:00-17:00"/>
    <tag k="source" v="bing"/>
  </node>
  <node id="2009683481" lat="52.2869376" lon="0.1257082" version="4" timestamp="2024-01-23T18:17:30Z" changeset="146603456" uid="84263" user="Robert Whittaker">
    <tag k="addr:housenumber" v="236"/>
    <tag k="addr:postcode" v="CB24 8RZ"/>
    <tag k="addr:street" v="High Street"/>
    <tag k="amenity" v="bank"/>
    <tag k="brand" v="The Cambridge Building Society"/>
    <tag k="brand:wikidata" v="Q5025370"/>
    <tag k="name" v="Cambridge Building Society"/>
    <tag k="source" v="bing"/>
    <tag k="website" v="https://www.cambridgebs.co.uk/contact/cottenham"/>
  </node>
  <node id="2027846862" lat="52.2880322" lon="0.1246332" version="3" timestamp="2023-09-27T13:38:58Z" changeset="141820738" uid="20349582" user="CastelloFruits">
    <tag k="addr:housenumber" v="216a"/>
    <tag k="addr:postcode" v="CB24 8RZ"/>
    <tag k="addr:street" v="High Street"/>
    <tag k="name" v="Les Ward"/>
    <tag k="opening_hours" v="Mo-We 07:00-17:30, Fr,Sa 07:00-18:00, Sa 07:00-16:00"/>
    <tag k="shop" v="greengrocer"/>
  </node>
  <node id="2027846867" lat="52.2856663" lon="0.1252140" version="5" timestamp="2023-10-08T18:06:29Z" changeset="142315488" uid="20349582" user="CastelloFruits">
    <tag k="addr:housenumber" v="270"/>
    <tag k="addr:postcode" v="CB24 8RZ"/>
    <tag k="addr:street" v="High Street"/>
    <tag k="male" v="yes"/>
    <tag k="name" v="Cottenham Barbers"/>
    <tag k="opening_hours" v="Mo,We 09:30-17:30; Th 09:30-19:30; Fr 09:30-18:00; Sa 08:30-16:00"/>
    <tag k="shop" v="hairdresser"/>
  </node>
  <node id="2028004289" lat="52.2896580" lon="0.1249095" version="1" timestamp="2012-11-23T13:18:22Z" changeset="13998656" uid="281267" user="smb1001">
    <tag k="addr:housenumber" v="182"/>
    <tag k="addr:postcode" v="CB24 8RX"/>
    <tag k="addr:street" v="High Street"/>
    <tag k="name" v="The Screen Co"/>
  </node>
  <node id="2028004305" lat="52.2855605" lon="0.1250101" version="1" timestamp="2012-11-23T13:18:23Z" changeset="13998656" uid="281267" user="smb1001">
    <tag k="addr:housenumber" v="276"/>
    <tag k="addr:postcode" v="CB24 8RZ"/>
    <tag k="addr:street" v="High Street"/>
    <tag k="name" v="Cottenham Cutz"/>
    <tag k="shop" v="hairdresser"/>
  </node>
  <node id="3995703523" lat="52.2897928" lon="0.1294068" version="1" timestamp="2016-02-08T16:01:08Z" changeset="37082853" uid="463360" user="John-O">
    <tag k="addr:city" v="Cottenham"/>
    <tag k="addr:housename" v="Unit 9a"/>
    <tag k="addr:postcode" v="CB24 8RE"/>
    <tag k="addr:street" v="The Maltings"/>
    <tag k="man_made" v="works"/>
    <tag k="name" v="Reboot Cambridge CIC"/>
    <tag k="phone" v="+44 1954 253302"/>
    <tag k="website" v="http://rebootcambridge.org.uk/"/>
  </node>
  <node id="11110239657" lat="52.2820843" lon="0.1260370" version="3" timestamp="2023-10-09T13:14:55Z" changeset="142349751" uid="37791" user="Fradeve11">
    <tag k="addr:city" v="Cambridge"/>
    <tag k="addr:postcode" v="CB24 8UA"/>
    <tag k="addr:street" v="High Street"/>
    <tag k="addr:village" v="Cottenham"/>
    <tag k="amenity" v="school"/>
    <tag k="capacity" v="130"/>
    <tag k="isced:level" v="2;3"/>
    <tag k="max_age" v="19"/>
    <tag k="min_age" v="11"/>
    <tag k="name" v="The Centre School"/>
    <tag k="operator" v="Astrea"/>
    <tag k="phone" v="+44 1954 288789"/>
    <tag k="ref:GB:uprn" v="100091421303"/>
    <tag k="ref:edubase" v="137594"/>
    <tag k="ref:edubase:group" v="16104"/>
    <tag k="school:trust" v="yes"/>
    <tag k="school:trust:name" v="Astrea Academy Trust"/>
    <tag k="school:trust:type" v="multi_academy"/>
    <tag k="school:type" v="academy"/>
    <tag k="website" v="https://www.astreacentreschool.org/"/>
  </node>
  <way id="136451199" version="11" timestamp="2022-09-24T15:26:00Z" changeset="126586099" uid="6476359" user="NSiecw">
    <nd ref="1496679872"/>
    <nd ref="1496679877"/>
    <nd ref="2158781066"/>
    <nd ref="1657845782"/>
    <nd ref="1496679879"/>
    <nd ref="459495278"/>
    <nd ref="2020392223"/>
    <nd ref="1657772363"/>
    <nd ref="1496679872"/>
    <tag k="addr:city" v="Cambridge"/>
    <tag k="addr:postcode" v="CB24 8TA"/>
    <tag k="addr:street" v="Lambs Lane"/>
    <tag k="addr:village" v="Cottenham"/>
    <tag k="amenity" v="school"/>
    <tag k="capacity" v="600"/>
    <tag k="fhrs:id" v="1015343"/>
    <tag k="isced:level" v="1"/>
    <tag k="max_age" v="11"/>
    <tag k="min_age" v="5"/>
    <tag k="name" v="Cottenham Primary School"/>
    <tag k="phone" v="+44 1954 250227"/>
    <tag k="ref:GB:uprn" v="200001054708"/>
    <tag k="ref:edubase" v="110604"/>
    <tag k="religion" v="none"/>
    <tag k="school:boarding" v="no"/>
    <tag k="school:gender" v="mixed"/>
    <tag k="school:selective" v="no"/>
    <tag k="school:trust" v="no"/>
    <tag k="school:type" v="community"/>
    <tag k="website" v="https://www.cottenhamprimary.co.uk/"/>
    <tag k="wikidata" v="Q66223489"/>
  </way>
  <way id="136452047" version="5" timestamp="2023-09-30T09:59:54Z" changeset="141943693" uid="20349582" user="CastelloFruits">
    <nd ref="1496687614"/>
    <nd ref="1496687610"/>
    <nd ref="1496687606"/>
    <nd ref="1496687608"/>
    <nd ref="1496687607"/>
    <nd ref="1496687612"/>
    <nd ref="1496687614"/>
    <tag k="addr:housename" v="Lewis House"/>
    <tag k="addr:housenumber" v="188"/>
    <tag k="addr:postcode" v="CB24 8SE"/>
    <tag k="addr:street" v="High Street"/>
    <tag k="amenity" v="doctors"/>
    <tag k="building" v="yes"/>
    <tag k="name" v="Cottenham Medical Practice"/>
    <tag k="opening_hours" v="Mo-Fr 08:45-13:00,14:30-18:00"/>
    <tag k="phone" v="+44 1954 250079"/>
    <tag k="wikidata" v="Q26604164"/>
  </way>
  <way id="136453316" version="4" timestamp="2018-04-02T21:54:32Z" changeset="57753535" uid="5173844" user="ndrw6">
    <nd ref="1496694046"/>
    <nd ref="1496694043"/>
    <nd ref="1496694040"/>
    <nd ref="1496694042"/>
    <nd ref="1496694057"/>
    <nd ref="1496694052"/>
    <nd ref="1496694041"/>
    <nd ref="1496694054"/>
    <nd ref="1496694046"/>
    <tag k="addr:city" v="Cottenham"/>
    <tag k="addr:housenumber" v="42"/>
    <tag k="addr:postcode" v="CB24 8QU"/>
    <tag k="addr:street" v="Telegraph Street"/>
    <tag k="amenity" v="doctors"/>
    <tag k="building" v="yes"/>
    <tag k="name" v="Telegraph Street Surgery"/>
    <tag k="phone" v="+44 1954 251180"/>
    <tag k="source" v="bing"/>
  </way>
  <way id="136453728" version="5" timestamp="2021-03-01T20:00:19Z" changeset="100228305" uid="74238" user="Gareth McCaughan">
    <nd ref="1496697631"/>
    <nd ref="1496697641"/>
    <nd ref="1496697630"/>
    <nd ref="2024709706"/>
    <nd ref="1496697632"/>
    <nd ref="1496697631"/>
    <tag k="addr:housenumber" v="40"/>
    <tag k="addr:postcode" v="CB24 8QY"/>
    <tag k="addr:street" v="Margett Street"/>
    <tag k="amenity" v="dentist"/>
    <tag k="building" v="yes"/>
    <tag k="name" v="Wiese &amp; Associates"/>
    <tag k="opening_hours" v="Mo-Fr 09:00-13:00, Mo-Sa 14:00-17:30"/>
    <tag k="phone" v="+44 1954 251696"/>
  </way>
  <way id="136454651" version="5" timestamp="2022-09-24T15:26:00Z" changeset="126586099" uid="6476359" user="NSiecw">
    <nd ref="4551165992"/>
    <nd ref="1496704971"/>
    <nd ref="4551165283"/>
    <nd ref="4551165287"/>
    <nd ref="4551165989"/>
    <nd ref="4551165284"/>
    <nd ref="1496704972"/>
    <nd ref="4551165286"/>
    <nd ref="4551165288"/>
    <nd ref="4551165993"/>
    <nd ref="4551165992"/>
    <tag k="addr:city" v="Cambridge"/>
    <tag k="addr:locality" v="King George’s Playing Field"/>
    <tag k="addr:postcode" v="CB24 8TB"/>
    <tag k="addr:street" v="Lambs Lane"/>
    <tag k="addr:village" v="Cottenham"/>
    <tag k="amenity" v="kindergarten"/>
    <tag k="building" v="yes"/>
    <tag k="fhrs:id" v="597147"/>
    <tag k="name" v="Ladybird Pre-School"/>
    <tag k="phone" v="+44 1954 250891"/>
  </way>
  <way id="136454927" version="3" timestamp="2022-11-20T15:36:45Z" changeset="129160715" uid="281267" user="smb1001">
    <nd ref="1496709176"/>
    <nd ref="1496709171"/>
    <nd ref="1496709173"/>
    <nd ref="1496709167"/>
    <nd ref="1496709176"/>
    <tag k="addr:housenumber" v="198"/>
    <tag k="addr:postcode" v="CB24 8RX"/>
    <tag k="addr:street" v="High Street"/>
    <tag k="amenity" v="bar"/>
    <tag k="building" v="yes"/>
    <tag k="name" v="Cottenham Club"/>
  </way>
  <way id="136455450" version="9" timestamp="2023-10-31T21:00:15Z" changeset="143442649" uid="1418967" user="RAC_UK">
    <nd ref="1496713345"/>
    <nd ref="1496713343"/>
    <nd ref="2024709149"/>
    <nd ref="2020489469"/>
    <nd ref="2024709058"/>
    <nd ref="1496713342"/>
    <nd ref="2024709029"/>
    <nd ref="1496713344"/>
    <nd ref="1496713345"/>
    <tag k="addr:city" v="Cottenham"/>
    <tag k="addr:country" v="GB"/>
    <tag k="addr:housenumber" v="184"/>
    <tag k="addr:postcode" v="CB24 8RX"/>
    <tag k="addr:street" v="High Street"/>
    <tag k="amenity" v="place_of_worship"/>
    <tag k="denomination" v="salvation_army"/>
    <tag k="email" v="cottenham@salvationarmy.org.uk"/>
    <tag k="name" v="Cottenham Salvation Army"/>
    <tag k="phone" v="+44 1954 252 419"/>
    <tag k="religion" v="christian"/>
    <tag k="website" v="https://www.salvationarmy.org.uk/cottenham"/>
  </way>
  <way id="136455489" version="6" timestamp="2022-08-14T21:28:13Z" changeset="124904263" uid="74238" user="Gareth McCaughan">
    <nd ref="1496713587"/>
    <nd ref="1496713585"/>
    <nd ref="1496713584"/>
    <nd ref="1496713586"/>
    <nd ref="1496713587"/>
    <tag k="addr:postcode" v="CB24 8QY"/>
    <tag k="addr:street" v="Margett Street"/>
    <tag k="amenity" v="library"/>
    <tag k="building" v="yes"/>
    <tag k="name" v="Cottenham Library"/>
    <tag k="opening_hours" v="Mo 13:00-18:00; Tu 10:00-17:00; We 10:00-13:00; Th 10:00-17:00; Sa 10:00-13:00"/>
    <tag k="phone" v="+44 345 045 5225"/>
    <tag k="wikidata" v="Q55163438"/>
  </way>
  <way id="137030033" version="6" timestamp="2023-10-06T21:44:38Z" changeset="142249658" uid="10420541" user="Thingummy">
    <nd ref="1503213340"/>
    <nd ref="1503213030"/>
    <nd ref="1503213244"/>
    <nd ref="1503213230"/>
    <nd ref="1503213276"/>
    <nd ref="11244709766"/>
    <nd ref="1503213311"/>
    <nd ref="1503213241"/>
    <nd ref="1503213012"/>
    <nd ref="9253548282"/>
    <nd ref="1503213046"/>
    <nd ref="1503213347"/>
    <nd ref="1503212970"/>
    <nd ref="1503213090"/>
    <nd ref="1503213005"/>
    <nd ref="1503212953"/>
    <nd ref="1503213073"/>
    <nd ref="1503212922"/>
    <nd ref="1503213081"/>
    <nd ref="1503213319"/>
    <nd ref="1503213265"/>
    <nd ref="1503213349"/>
    <nd ref="1503213373"/>
    <nd ref="1503213042"/>
    <nd ref="1503213136"/>
    <nd ref="1503212966"/>
    <nd ref="1503213313"/>
    <nd ref="1503213368"/>
    <nd ref="1503213197"/>
    <nd ref="1503213324"/>
    <nd ref="1503213258"/>
    <nd ref="1503213342"/>
    <nd ref="1503213186"/>
    <nd ref="1503213251"/>
    <nd ref="1503213393"/>
    <nd ref="1503213168"/>
    <nd ref="1503213235"/>
    <nd ref="1503213023"/>
    <nd ref="1503212967"/>
    <nd ref="1503213226"/>
    <nd ref="1503213340"/>
    <tag k="addr:city" v="Cambridge"/>
    <tag k="addr:postcode" v="CB24 8UA"/>
    <tag k="addr:street" v="High Street"/>
    <tag k="addr:village" v="Cottenham"/>
    <tag k="amenity" v="school"/>
    <tag k="building" v="school"/>
    <tag k="capacity" v="900"/>
    <tag k="isced:level" v="2"/>
    <tag k="max_age" v="16"/>
    <tag k="min_age" v="11"/>
    <tag k="name" v="Cottenham Village College"/>
    <tag k="phone" v="+44 1954 288944"/>
    <tag k="ref:GB:uprn" v="100091421303"/>
    <tag k="ref:edubase" v="137434"/>
    <tag k="ref:edubase:group" v="16104"/>
    <tag k="school:trust" v="yes"/>
    <tag k="school:trust:name" v="Astrea Academy Trust"/>
    <tag k="school:trust:type" v="multi_academy"/>
    <tag k="school:type" v="academy"/>
    <tag k="website" v="https://www.astreacottenham.org/"/>
    <tag k="wikidata" v="Q5175572"/>
    <tag k="wikipedia" v="en:Cottenham Village College"/>
  </way>
  <way id="150038121" version="2" timestamp="2012-11-23T13:18:28Z" changeset="13998656" uid="281267" user="smb1001">
    <nd ref="1629751097"/>
    <nd ref="1629751109"/>
    <nd ref="1629751150"/>
    <nd ref="1629751110"/>
    <nd ref="1629751093"/>
    <nd ref="1629751152"/>
    <nd ref="1629751149"/>
    <nd ref="1629751147"/>
    <nd ref="1629751136"/>
    <nd ref="1629751145"/>
    <nd ref="1629751133"/>
    <nd ref="1629751130"/>
    <nd ref="1629751096"/>
    <nd ref="1629751097"/>
    <tag k="addr:housenumber" v="205-207"/>
    <tag k="addr:street" v="High Street"/>
    <tag k="building" v="yes"/>
    <tag k="name" v="The Old Bank"/>
  </way>
  <way id="150045708" version="2" timestamp="2021-01-13T21:20:31Z" changeset="97464729" uid="185577" user="dpm">
    <nd ref="1629821617"/>
    <nd ref="1629821552"/>
    <nd ref="1629821532"/>
    <nd ref="1629821586"/>
    <nd ref="1629821610"/>
    <nd ref="1629821606"/>
    <nd ref="1629821617"/>
    <tag k="addr:city" v="Cottenham"/>
    <tag k="addr:housenumber" v="283-287"/>
    <tag k="addr:postcode" v="CB24 8QP"/>
    <tag k="addr:street" v="High Street"/>
    <tag k="building" v="yes"/>
    <tag k="name" v="S. S. Gawthroup and Sons"/>
    <tag k="shop" v="butcher"/>
  </way>
  <way id="152899009" version="2" timestamp="2022-11-20T15:36:45Z" changeset="129160715" uid="281267" user="smb1001">
    <nd ref="1656712720"/>
    <nd ref="1656712725"/>
    <nd ref="1656712735"/>
    <nd ref="1656712737"/>
    <nd ref="1656712736"/>
    <nd ref="1656712730"/>
    <nd ref="1656712720"/>
    <tag k="addr:housenumber" v="73"/>
    <tag k="addr:postcode" v="CB24 8SD"/>
    <tag k="addr:street" v="High Street"/>
    <tag k="amenity" v="pub"/>
    <tag k="building" v="yes"/>
    <tag k="name" v="Jolly Millers"/>
  </way>
  <way id="152901525" version="4" timestamp="2024-08-26T19:31:14Z" changeset="155799544" uid="21425661" user="CjMalone">
    <nd ref="1656732839"/>
    <nd ref="1656732845"/>
    <nd ref="1656732859"/>
    <nd ref="1656732848"/>
    <nd ref="1656732820"/>
    <nd ref="1656732879"/>
    <nd ref="1656732872"/>
    <nd ref="1656732839"/>
    <tag k="addr:housenumber" v="50"/>
    <tag k="addr:postcode" v="CB24 8SA"/>
    <tag k="addr:street" v="High Street"/>
    <tag k="brand" v="Travis Perkins"/>
    <tag k="brand:wikidata" v="Q2450664"/>
    <tag k="building" v="shop"/>
    <tag k="check_date" v="2024-08-26"/>
    <tag k="check_date:opening_hours" v="2024-08-26"/>
    <tag k="name" v="Travis Perkins"/>
    <tag k="opening_hours" v="Mo-Fr 07:30-17:00; Sa 08:00-12:00; Su closed"/>
    <tag k="shop" v="trade"/>
    <tag k="source" v="bing, survey"/>
    <tag k="website" v="https://www.travisperkins.co.uk/branch-locator/9271"/>
  </way>
  <way id="186654401" version="2" timestamp="2012-11-26T13:32:57Z" changeset="14044836" uid="281267" user="smb1001">
    <nd ref="1973967734"/>
    <nd ref="1973967709"/>
    <nd ref="1973967778"/>
    <nd ref="1973967652"/>
    <nd ref="1973967693"/>
    <nd ref="1973967711"/>
    <nd ref="1973967653"/>
    <nd ref="1973967706"/>
    <nd ref="1973967734"/>
    <tag k="addr:housenumber" v="62-64"/>
    <tag k="addr:street" v="High Street"/>
    <tag k="building" v="yes"/>
    <tag k="name" v="B&amp;C Motors"/>
    <tag k="shop" v="car_repair"/>
    <tag k="source" v="Bing"/>
  </way>
  <way id="188100558" version="3" timestamp="2023-01-04T15:22:28Z" changeset="130871654" uid="3999" user="BarryMyles">
    <nd ref="1987262979"/>
    <nd ref="1987263488"/>
    <nd ref="1987263620"/>
    <nd ref="1987263319"/>
    <nd ref="1987263461"/>
    <nd ref="1987263798"/>
    <nd ref="1987262979"/>
    <tag k="addr:city" v="Cottenham"/>
    <tag k="addr:postcode" v="CB24 8QS"/>
    <tag k="addr:street" v="Denmark Road"/>
    <tag k="building" v="yes"/>
    <tag k="name" v="Cottenham Telephone Exchange"/>
    <tag k="operator" v="Openreach"/>
    <tag k="operator:wikidata" v="Q7096543"/>
    <tag k="ref" v="EACTM"/>
    <tag k="telecom" v="exchange"/>
  </way>
  <way id="190337333" version="4" timestamp="2022-11-20T15:36:45Z" changeset="129160715" uid="281267" user="smb1001">
    <nd ref="2009557740"/>
    <nd ref="2009557745"/>
    <nd ref="2024709531"/>
    <nd ref="2009557747"/>
    <nd ref="2024710072"/>
    <nd ref="2009557743"/>
    <nd ref="2009557740"/>
    <tag k="addr:housenumber" v="69"/>
    <tag k="addr:postcode" v="CB24 8QY"/>
    <tag k="addr:street" v="Margett Street"/>
    <tag k="amenity" v="pub"/>
    <tag k="building" v="yes"/>
    <tag k="name" v="Waggon and Horses"/>
    <tag k="source" v="bing"/>
  </way>
  <way id="190346183" version="7" timestamp="2023-10-20T16:57:14Z" changeset="142879617" uid="6816132" user="CjMalone">
    <nd ref="2009643093"/>
    <nd ref="2009643091"/>
    <nd ref="2009643084"/>
    <nd ref="2009643081"/>
    <nd ref="2009643085"/>
    <nd ref="2009643093"/>
    <tag k="addr:city" v="Cambridge"/>
    <tag k="addr:housenumber" v="145"/>
    <tag k="addr:postcode" v="CB24 8SD"/>
    <tag k="addr:street" v="High Street"/>
    <tag k="addr:village" v="Cottenham"/>
    <tag k="brand" v="Premier Express"/>
    <tag k="brand:wikidata" v="Q7240340"/>
    <tag k="building" v="yes"/>
    <tag k="name" v="Premier Express"/>
    <tag k="opening_hours" v="Mo-Fr 06:30-17:30; Sa 07:00-16:00; Su 07:00-13:00"/>
    <tag k="shop" v="convenience"/>
    <tag k="source" v="bing"/>
  </way>
  <way id="191561546" version="3" timestamp="2023-11-03T14:30:32Z" changeset="143577303" uid="242345" user="confusedbuffalo">
    <nd ref="2021466331"/>
    <nd ref="2021466456"/>
    <nd ref="2021466329"/>
    <nd ref="2021465722"/>
    <nd ref="2021466331"/>
    <tag k="addr:city" v="Cottenham"/>
    <tag k="addr:housenumber" v="105"/>
    <tag k="addr:postcode" v="CB24 8SD"/>
    <tag k="addr:street" v="High Street"/>
    <tag k="building" v="yes"/>
    <tag k="name" v="The Furniture Makers"/>
    <tag k="phone" v="+44 1954 250122"/>
    <tag k="shop" v="furniture"/>
    <tag k="website" v="https://thefurnituremakerscambridge.co.uk/"/>
  </way>
  <way id="191561586" version="2" timestamp="2012-11-26T13:32:57Z" changeset="14044836" uid="281267" user="smb1001">
    <nd ref="2021466281"/>
    <nd ref="2021466111"/>
    <nd ref="2021465989"/>
    <nd ref="2021465920"/>
    <nd ref="2021466337"/>
    <nd ref="2021466326"/>
    <nd ref="2021466281"/>
    <tag k="addr:housenumber" v="25"/>
    <tag k="addr:postcode" v="CB24 8SA"/>
    <tag k="addr:street" v="High Street"/>
    <tag k="building" v="yes"/>
    <tag k="name" v="Screens &amp; Graphics"/>
  </way>
  <way id="191561591" version="4" timestamp="2023-09-28T17:33:58Z" changeset="141874727" uid="20349582" user="CastelloFruits">
    <nd ref="2021466266"/>
    <nd ref="2034737670"/>
    <nd ref="2021466095"/>
    <nd ref="2021466080"/>
    <nd ref="2021466266"/>
    <tag k="addr:housenumber" v="131"/>
    <tag k="addr:street" v="High Street"/>
    <tag k="building" v="yes"/>
    <tag k="female" v="yes"/>
    <tag k="male" v="yes"/>
    <tag k="name" v="Sarah Jane Hairdressing"/>
    <tag k="opening_hours" v="Tu-Fr 09:00-17:00; Sa 08:00-13:00"/>
    <tag k="shop" v="hairdresser"/>
  </way>
  <way id="191562744" version="2" timestamp="2012-11-26T13:32:54Z" changeset="14044836" uid="281267" user="smb1001">
    <nd ref="2021475197"/>
    <nd ref="2021475315"/>
    <nd ref="2021475089"/>
    <nd ref="2021475359"/>
    <nd ref="2021475155"/>
    <nd ref="2021475197"/>
    <tag k="addr:housenumber" v="76"/>
    <tag k="addr:postcode" v="CB24 8SD"/>
    <tag k="addr:street" v="High Street"/>
    <tag k="building" v="yes"/>
    <tag k="name" v="Church End Carpet &amp; Vinyl Centre"/>
  </way>
  <way id="191562773" version="3" timestamp="2020-06-28T21:11:28Z" changeset="87261443" uid="74238" user="Gareth McCaughan">
    <nd ref="2021474845"/>
    <nd ref="2021475285"/>
    <nd ref="2021474885"/>
    <nd ref="2021474859"/>
    <nd ref="2021474845"/>
    <tag k="addr:housenumber" v="66"/>
    <tag k="addr:postcode" v="CB24 8SA"/>
    <tag k="addr:street" v="High Street"/>
    <tag k="amenity" v="veterinary"/>
    <tag k="building" v="yes"/>
    <tag k="name" v="Village Vet"/>
  </way>
  <way id="192941381" version="1" timestamp="2012-11-26T14:34:42Z" changeset="14045489" uid="281267" user="smb1001">
    <nd ref="2034737662"/>
    <nd ref="2034737648"/>
    <nd ref="2034737663"/>
    <nd ref="2021465659"/>
    <nd ref="2021465691"/>
    <nd ref="2034737665"/>
    <nd ref="2034737646"/>
    <nd ref="2034737655"/>
    <nd ref="2034737657"/>
    <nd ref="2034737662"/>
    <tag k="addr:housenumber" v="121"/>
    <tag k="addr:postcode" v="CB24 8SD"/>
    <tag k="addr:street" v="High Street"/>
    <tag k="building" v="yes"/>
    <tag k="name" v="British Legion Hall"/>
  </way>
  <way id="398619087" version="14" timestamp="2025-01-19T22:07:47Z" changeset="161542040" uid="5173844" user="ndrw6">
    <nd ref="12516989584"/>
    <nd ref="4013616993"/>
    <nd ref="7802162007"/>
    <nd ref="11244793051"/>
    <nd ref="233005688"/>
    <nd ref="11244709767"/>
    <nd ref="9253548294"/>
    <nd ref="9253548298"/>
    <nd ref="7802162008"/>
    <nd ref="4013616989"/>
    <nd ref="12516989593"/>
    <nd ref="12516989586"/>
    <nd ref="12516989592"/>
    <nd ref="12516989591"/>
    <nd ref="12516989590"/>
    <nd ref="12516989589"/>
    <nd ref="12516989585"/>
    <nd ref="12516989584"/>
    <tag k="addr:city" v="Cambridge"/>
    <tag k="addr:postcode" v="CB24 8UA"/>
    <tag k="addr:street" v="High Street"/>
    <tag k="addr:village" v="Cottenham"/>
    <tag k="amenity" v="school"/>
    <tag k="capacity" v="900"/>
    <tag k="fixme" v="Need to know which uildings are which school or not school or sports centre owned. Als entrance points to each amenity/building"/>
    <tag k="isced:level" v="2"/>
    <tag k="max_age" v="16"/>
    <tag k="min_age" v="11"/>
    <tag k="name" v="Cottenham Village College"/>
    <tag k="phone" v="+44 1954 288944"/>
    <tag k="ref:GB:uprn" v="100091421303"/>
    <tag k="ref:edubase" v="137434"/>
    <tag k="ref:edubase:group" v="16104"/>
    <tag k="school:trust" v="yes"/>
    <tag k="school:trust:name" v="Astrea Academy Trust"/>
    <tag k="school:trust:type" v="multi_academy"/>
    <tag k="school:type" v="academy"/>
    <tag k="website" v="https://www.astreacottenham.org/"/>
    <tag k="wikidata" v="Q5175572"/>
    <tag k="wikipedia" v="en:Cottenham Village College"/>
  </way>
  <way id="459208317" version="5" timestamp="2023-09-28T15:16:23Z" changeset="141869176" uid="20349582" user="CastelloFruits">
    <nd ref="4551165992"/>
    <nd ref="4551165993"/>
    <nd ref="4551165990"/>
    <nd ref="1657772363"/>
    <nd ref="1496704973"/>
    <nd ref="248534818"/>
    <nd ref="4551165992"/>
    <tag k="addr:city" v="Cambridge"/>
    <tag k="addr:housename" v="Cottenham Village Hall"/>
    <tag k="addr:postcode" v="CB24 8TB"/>
    <tag k="addr:street" v="Lambs Lane"/>
    <tag k="addr:village" v="Cottenham"/>
    <tag k="building" v="government"/>
    <tag k="building:levels" v="2"/>
    <tag k="fhrs:id" v="596849"/>
    <tag k="name" v="Cottenham Village Hall"/>
    <tag k="phone" v="+44 1954 250873"/>
    <tag k="source:addr:postcode" v="FSA Food Hygiene Ratings Database"/>
  </way>
  <way id="891318742" version="4" timestamp="2023-08-12T14:19:40Z" changeset="139789870" uid="185577" user="dpm">
    <nd ref="8284340862"/>
    <nd ref="8284340863"/>
    <nd ref="8284340864"/>
    <nd ref="8284340865"/>
    <nd ref="8284340866"/>
    <nd ref="8284340867"/>
    <nd ref="8284340868"/>
    <nd ref="8284340869"/>
    <nd ref="8284340870"/>
    <nd ref="8284340871"/>
    <nd ref="8284340862"/>
    <tag k="addr:city" v="Cambridge"/>
    <tag k="addr:postcode" v="CB24 8PS"/>
    <tag k="addr:street" v="Twenty Pence Road"/>
    <tag k="building" v="commercial"/>
    <tag k="man_made" v="works"/>
    <tag k="name" v="Cosworth Electronics Ltd"/>
  </way>
  <way id="894918897" version="3" timestamp="2021-02-12T09:58:18Z" changeset="99165889" uid="84263" user="Robert Whittaker">
    <nd ref="8318565567"/>
    <nd ref="8318565568"/>
    <nd ref="8318565569"/>
    <nd ref="8318565570"/>
    <nd ref="8318565567"/>
    <tag k="addr:city" v="Cottenham"/>
    <tag k="addr:housename" v="Cuckoo Hill Farm"/>
    <tag k="addr:postcode" v="CB24 8TW"/>
    <tag k="addr:street" v="Oakington Road"/>
    <tag k="building" v="retail"/>
    <tag k="name" v="The Longhorn Farmshop"/>
    <tag k="shop" v="butcher"/>
  </way>
  <way id="993882544" version="3" timestamp="2023-09-28T15:18:07Z" changeset="141869176" uid="20349582" user="CastelloFruits">
    <nd ref="9182345302"/>
    <nd ref="9182345303"/>
    <nd ref="9182345304"/>
    <nd ref="9182345305"/>
    <nd ref="9182345302"/>
    <tag k="addr:city" v="Cambridge"/>
    <tag k="addr:housename" v="Chestnut Nursery, Recreation Ground"/>
    <tag k="addr:street" v="Lambs Lane"/>
    <tag k="addr:village" v="Cottenham"/>
    <tag k="building" v="kindergarten"/>
    <tag k="building:levels" v="1"/>
    <tag k="name" v="Chestnut Nursery"/>
  </way>
  <way id="1115734363" version="2" timestamp="2023-10-05T07:15:43Z" changeset="142175006" uid="20349582" user="CastelloFruits">
    <nd ref="10204104902"/>
    <nd ref="1508868316"/>
    <nd ref="1508868322"/>
    <nd ref="1508868308"/>
    <nd ref="1508868343"/>
    <nd ref="1508868310"/>
    <nd ref="1508868292"/>
    <nd ref="1508868327"/>
    <nd ref="10204104902"/>
    <tag k="addr:housenumber" v="212"/>
    <tag k="addr:postcode" v="CB24 8RZ"/>
    <tag k="addr:street" v="High Street"/>
    <tag k="amenity" v="pub"/>
    <tag k="building" v="yes"/>
    <tag k="name" v="The Hop Bind"/>
    <tag k="opening_hours" v="Mo 16:00-22:30; Tu-Th 15:00-23:00; Fr 15:00-23:30; Sa 12:00-23:30; Su 12:00-22:00"/>
  </way>
  <way id="1124855769" version="3" timestamp="2023-02-06T20:15:16Z" changeset="132174352" uid="2969887" user="eastender">
    <nd ref="10286458257"/>
    <nd ref="10286458254"/>
    <nd ref="10286458252"/>
    <nd ref="10286458251"/>
    <nd ref="10286458250"/>
    <nd ref="10286458253"/>
    <nd ref="10286458255"/>
    <nd ref="10286458256"/>
    <nd ref="10286458257"/>
    <tag k="addr:city" v="Cambridge"/>
    <tag k="addr:housename" v="Radio Test House"/>
    <tag k="addr:postcode" v="CB24 8PS"/>
    <tag k="addr:street" v="Twenty Pence Road"/>
    <tag k="building" v="commercial"/>
    <tag k="building:levels" v="1"/>
    <tag k="name" v="dB Technology (Cambridge) Ltd"/>
  </way>
  <way id="1195565182" version="1" timestamp="2023-08-07T10:04:46Z" changeset="139556087" uid="6476359" user="NSiecw">
    <nd ref="11096751882"/>
    <nd ref="11096751883"/>
    <nd ref="2025027114"/>
    <nd ref="2025027100"/>
    <nd ref="11096751880"/>
    <nd ref="11096751882"/>
    <tag k="addr:city" v="Cambridge"/>
    <tag k="addr:housenumber" v="1"/>
    <tag k="addr:postcode" v="CB24 8RD"/>
    <tag k="addr:street" v="Manor Farm Court"/>
    <tag k="addr:village" v="Cottenham"/>
    <tag k="building" v="house"/>
    <tag k="name" v="Westbourn"/>
  </way>
  <way id="1195565183" version="1" timestamp="2023-08-07T10:04:46Z" changeset="139556087" uid="6476359" user="NSiecw">
    <nd ref="2025026758"/>
    <nd ref="2025025494"/>
    <nd ref="2025027372"/>
    <nd ref="2025027306"/>
    <nd ref="11096751883"/>
    <nd ref="11096751882"/>
    <nd ref="2025026758"/>
    <tag k="addr:city" v="Cambridge"/>
    <tag k="addr:housenumber" v="2"/>
    <tag k="addr:postcode" v="CB24 8RD"/>
    <tag k="addr:street" v="Manor Farm Court"/>
    <tag k="addr:village" v="Cottenham"/>
    <tag k="building" v="house"/>
    <tag k="name" v="The Court House"/>
  </way>
  <way id="1195565184" version="1" timestamp="2023-08-07T10:04:46Z" changeset="139556087" uid="6476359" user="NSiecw">
    <nd ref="11096751885"/>
    <nd ref="2025027431"/>
    <nd ref="2025025613"/>
    <nd ref="2025026455"/>
    <nd ref="2025026159"/>
    <nd ref="11096751881"/>
    <nd ref="2025026281"/>
    <nd ref="2025026256"/>
    <nd ref="2025025809"/>
    <nd ref="11096751884"/>
    <nd ref="11096751885"/>
    <tag k="addr:city" v="Cambridge"/>
    <tag k="addr:housenumber" v="4"/>
    <tag k="addr:postcode" v="CB24 8RD"/>
    <tag k="addr:street" v="Manor Farm Court"/>
    <tag k="addr:village" v="Cottenham"/>
    <tag k="building" v="house"/>
    <tag k="name" v="Millers Croft"/>
  </way>
  <way id="1195565185" version="1" timestamp="2023-08-07T10:04:46Z" changeset="139556087" uid="6476359" user="NSiecw">
    <nd ref="11096751885"/>
    <nd ref="11096751884"/>
    <nd ref="2025026914"/>
    <nd ref="2025025935"/>
    <nd ref="2025026688"/>
    <nd ref="2025025564"/>
    <nd ref="11096751885"/>
    <tag k="addr:city" v="Cambridge"/>
    <tag k="addr:housenumber" v="3"/>
    <tag k="addr:postcode" v="CB24 8RD"/>
    <tag k="addr:street" v="Manor Farm Court"/>
    <tag k="addr:village" v="Cottenham"/>
    <tag k="building" v="house"/>
    <tag k="name" v="Manor Farm Court"/>
  </way>
  <way id="1339882216" version="1" timestamp="2024-12-03T17:01:39Z" changeset="159889615" uid="669183" user="Andy_W">
    <nd ref="1973967653"/>
    <nd ref="1973967706"/>
    <nd ref="12394219350"/>
    <nd ref="12394219349"/>
    <nd ref="1973967653"/>
    <tag k="addr:city" v="Cottenham"/>
    <tag k="addr:housenumber" v="62"/>
    <tag k="addr:postcode" v="CB24 8SA"/>
    <tag k="addr:street" v="High Street"/>
    <tag k="amenity" v="car_rental"/>
    <tag k="branch" v="Cottenham Branch"/>
    <tag k="brand" v="Enterprise"/>
    <tag k="brand:wikidata" v="Q17085454"/>
    <tag k="name" v="Enterprise"/>
    <tag k="official_name" v="Enterprise Rent-A-Car"/>
    <tag k="opening_hours" v="Mo-Fr 08:00-18:00; Sa 08:00-13:00"/>
    <tag k="payment:credit_cards" v="yes"/>
    <tag k="payment:debit_cards" v="yes"/>
    <tag k="phone" v="+44 1223 234400"/>
  </way>

</osm>
