<?xml version="1.0" encoding="UTF-8"?>
<osm version="0.6" generator="Overpass API 0.7.62.4 2390de5a">
<note>The data included in this document is from www.openstreetmap.org. The data is made available under ODbL.</note>
<meta osm_base="2025-01-21T14:38:40Z" areas="2024-12-31T00:49:33Z"/>

  <node id="1925551190" lat="52.1849912" lon="0.0113092" version="3" timestamp="2018-12-30T22:35:11Z" changeset="65899704" uid="364" user="Edward">
    <tag k="addr:postcode" v="CB23 7DU"/>
    <tag k="addr:street" v="West Street"/>
    <tag k="amenity" v="library"/>
    <tag k="name" v="Comberton Library"/>
    <tag k="wikidata" v="Q55163437"/>
  </node>
  <way id="8113788" version="17" timestamp="2023-09-02T18:19:48Z" changeset="140731226" uid="242345" user="confusedbuffalo">
    <nd ref="1268298966"/>
    <nd ref="9779285975"/>
    <nd ref="60851139"/>
    <nd ref="9779285984"/>
    <nd ref="7417001099"/>
    <nd ref="60851140"/>
    <nd ref="8694052557"/>
    <nd ref="3428778582"/>
    <nd ref="60851141"/>
    <nd ref="1028212977"/>
    <nd ref="8694052556"/>
    <nd ref="8694052555"/>
    <nd ref="1028213000"/>
    <nd ref="8694052552"/>
    <nd ref="728856762"/>
    <nd ref="60851142"/>
    <nd ref="60851143"/>
    <nd ref="7416997270"/>
    <nd ref="7416997271"/>
    <nd ref="7416997272"/>
    <nd ref="7416997273"/>
    <nd ref="1268298966"/>
    <tag k="addr:postcode" v="CB23 7DU"/>
    <tag k="addr:street" v="West Street"/>
    <tag k="amenity" v="school"/>
    <tag k="capacity" v="1700"/>
    <tag k="isced:level" v="2;3"/>
    <tag k="max_age" v="18"/>
    <tag k="min_age" v="11"/>
    <tag k="name" v="Comberton Village College"/>
    <tag k="phone" v="+44 1223 262503"/>
    <tag k="ref:GB:uprn" v="100091611309"/>
    <tag k="ref:edubase" v="136463"/>
    <tag k="ref:edubase:group" v="2753"/>
    <tag k="school:trust" v="yes"/>
    <tag k="school:trust:name" v="The Cam Academy Trust"/>
    <tag k="school:trust:type" v="multi_academy"/>
    <tag k="school:type" v="academy"/>
    <tag k="start_date" v="1960"/>
    <tag k="website" v="https://www.combertonvc.org/"/>
    <tag k="wikidata" v="Q5150791"/>
    <tag k="wikipedia" v="en:Comberton Village College"/>
  </way>
  <way id="8113881" version="24" timestamp="2024-02-15T11:46:33Z" changeset="147487441" uid="742701" user="kerr smith">
    <nd ref="60851382"/>
    <nd ref="8679717416"/>
    <nd ref="60851075"/>
    <nd ref="8880056881"/>
    <nd ref="60851369"/>
    <nd ref="1771796314"/>
    <nd ref="8880084323"/>
    <nd ref="8880084324"/>
    <nd ref="8880084325"/>
    <nd ref="8880084326"/>
    <nd ref="8880056915"/>
    <nd ref="8887569745"/>
    <nd ref="60851676"/>
    <nd ref="1771796431"/>
    <nd ref="7417058154"/>
    <nd ref="4248094448"/>
    <nd ref="4248094455"/>
    <nd ref="4248094453"/>
    <nd ref="1604158590"/>
    <nd ref="4248094460"/>
    <nd ref="1771801302"/>
    <nd ref="1771801270"/>
    <nd ref="60851370"/>
    <nd ref="60851371"/>
    <nd ref="3673512074"/>
    <nd ref="9001716123"/>
    <nd ref="60851372"/>
    <nd ref="1771796232"/>
    <nd ref="1771796331"/>
    <nd ref="1771796235"/>
    <nd ref="1771796366"/>
    <nd ref="1771796339"/>
    <nd ref="1771796375"/>
    <nd ref="1771796386"/>
    <nd ref="1771796341"/>
    <nd ref="1771796433"/>
    <nd ref="9001701776"/>
    <nd ref="1771796445"/>
    <nd ref="9001701775"/>
    <nd ref="1771796424"/>
    <nd ref="1771796329"/>
    <nd ref="1771796442"/>
    <nd ref="1771796325"/>
    <nd ref="1771796262"/>
    <nd ref="1771796400"/>
    <nd ref="1771796222"/>
    <nd ref="1771796268"/>
    <nd ref="1771796398"/>
    <nd ref="1771796377"/>
    <nd ref="1771796327"/>
    <nd ref="1771796337"/>
    <nd ref="1771796390"/>
    <nd ref="1771796343"/>
    <nd ref="1771796429"/>
    <nd ref="1771796223"/>
    <nd ref="1771796273"/>
    <nd ref="1771796382"/>
    <nd ref="1771796257"/>
    <nd ref="1771796332"/>
    <nd ref="1771796229"/>
    <nd ref="1771796219"/>
    <nd ref="1771796393"/>
    <nd ref="1771796286"/>
    <nd ref="1771796384"/>
    <nd ref="60851373"/>
    <nd ref="1771796436"/>
    <nd ref="1771796276"/>
    <nd ref="1771796388"/>
    <nd ref="1771796395"/>
    <nd ref="1771796320"/>
    <nd ref="1771796274"/>
    <nd ref="1771796318"/>
    <nd ref="9238827588"/>
    <nd ref="1771796443"/>
    <nd ref="1771796438"/>
    <nd ref="1771796373"/>
    <nd ref="1771796312"/>
    <nd ref="1771796336"/>
    <nd ref="10793018085"/>
    <nd ref="1771796434"/>
    <nd ref="9080509247"/>
    <nd ref="1771796397"/>
    <nd ref="1771796404"/>
    <nd ref="8702477635"/>
    <nd ref="1771796264"/>
    <nd ref="8702477628"/>
    <nd ref="1771796402"/>
    <nd ref="8702477634"/>
    <nd ref="7553325507"/>
    <nd ref="60851374"/>
    <nd ref="1771796278"/>
    <nd ref="1771796379"/>
    <nd ref="8702477619"/>
    <nd ref="1771796226"/>
    <nd ref="3673512109"/>
    <nd ref="1771796323"/>
    <nd ref="1771796255"/>
    <nd ref="1771796440"/>
    <nd ref="1771796260"/>
    <nd ref="60851376"/>
    <nd ref="11626635486"/>
    <nd ref="11626635495"/>
    <nd ref="9001716168"/>
    <nd ref="9001716205"/>
    <nd ref="9001716206"/>
    <nd ref="9001716224"/>
    <nd ref="60851377"/>
    <nd ref="9001716225"/>
    <nd ref="9001716231"/>
    <nd ref="8880239709"/>
    <nd ref="8880254503"/>
    <nd ref="8880239708"/>
    <nd ref="8880254504"/>
    <nd ref="8880254505"/>
    <nd ref="60851379"/>
    <nd ref="1771796269"/>
    <nd ref="1771796283"/>
    <nd ref="1771796271"/>
    <nd ref="8880254506"/>
    <nd ref="8880254555"/>
    <nd ref="60851380"/>
    <nd ref="8880239715"/>
    <nd ref="60851381"/>
    <nd ref="8880254561"/>
    <nd ref="8880254419"/>
    <nd ref="8880254418"/>
    <nd ref="8880239716"/>
    <nd ref="8880254562"/>
    <nd ref="8880254560"/>
    <nd ref="60851382"/>
    <tag k="addr:city" v="Cambridge"/>
    <tag k="addr:postcode" v="CB23 2RY"/>
    <tag k="addr:street" v="Comberton Road"/>
    <tag k="addr:village" v="Toft"/>
    <tag k="description" v="18 hole Par 73"/>
    <tag k="email" v="meridian@golfsocieties.com"/>
    <tag k="golf:course" v="18_hole"/>
    <tag k="golf:designer" v="Peter Alliss and Clive Clark"/>
    <tag k="golf:par" v="73"/>
    <tag k="leisure" v="golf_course"/>
    <tag k="name" v="Cambridge Meridian Golf Course"/>
    <tag k="phone" v="+44 1223 264 700"/>
    <tag k="website" v="https://cmgc.co.uk/"/>
  </way>
  <way id="243147367" version="4" timestamp="2023-07-06T20:16:18Z" changeset="138203656" uid="6476359" user="NSiecw">
    <nd ref="2505762424"/>
    <nd ref="2505761981"/>
    <nd ref="2505761984"/>
    <nd ref="2505761753"/>
    <nd ref="2505762311"/>
    <nd ref="2505761720"/>
    <nd ref="2505761973"/>
    <nd ref="2505761961"/>
    <nd ref="2505762424"/>
    <tag k="addr:city" v="Cambridge"/>
    <tag k="addr:housename" v="Cambridge Meridian Golf Club"/>
    <tag k="addr:postcode" v="CB23 2RY"/>
    <tag k="addr:street" v="Comberton Road"/>
    <tag k="addr:village" v="Toft"/>
    <tag k="building" v="yes"/>
    <tag k="golf" v="clubhouse"/>
    <tag k="name" v="Cambridge Meridian Golf Club"/>
  </way>
  <way id="634420928" version="2" timestamp="2022-05-28T14:30:22Z" changeset="121619742" uid="742701" user="kerr smith">
    <nd ref="5987177725"/>
    <nd ref="5987177719"/>
    <nd ref="5987177718"/>
    <nd ref="5987177724"/>
    <nd ref="5987177723"/>
    <nd ref="5987177721"/>
    <nd ref="5987177720"/>
    <nd ref="5987177722"/>
    <nd ref="5987177725"/>
    <tag k="addr:postcode" v="CB23 7DS"/>
    <tag k="addr:street" v="West Street"/>
    <tag k="building" v="yes"/>
    <tag k="name" v="Bennell Farm"/>
  </way>
  <way id="959759971" version="3" timestamp="2023-07-06T20:16:18Z" changeset="138203656" uid="6476359" user="NSiecw">
    <nd ref="8880056890"/>
    <nd ref="8880056899"/>
    <nd ref="8880056898"/>
    <nd ref="8880056897"/>
    <nd ref="8880056896"/>
    <nd ref="8880056895"/>
    <nd ref="8880056894"/>
    <nd ref="8880056893"/>
    <nd ref="8880056892"/>
    <nd ref="8880056891"/>
    <nd ref="8880056890"/>
    <tag k="addr:city" v="Cambridge"/>
    <tag k="addr:housenumber" v="68"/>
    <tag k="addr:postcode" v="CB23 2RY"/>
    <tag k="addr:street" v="Comberton Road"/>
    <tag k="addr:village" v="Toft"/>
    <tag k="building" v="yes"/>
    <tag k="name" v="Compass House"/>
  </way>
  <way id="959759972" version="3" timestamp="2023-07-06T20:16:18Z" changeset="138203656" uid="6476359" user="NSiecw">
    <nd ref="8880056900"/>
    <nd ref="8880056909"/>
    <nd ref="8880056908"/>
    <nd ref="8880056907"/>
    <nd ref="8880056906"/>
    <nd ref="8880056905"/>
    <nd ref="8880056904"/>
    <nd ref="8880056903"/>
    <nd ref="8880056902"/>
    <nd ref="8880056901"/>
    <nd ref="8880056900"/>
    <tag k="addr:city" v="Cambridge"/>
    <tag k="addr:housenumber" v="72"/>
    <tag k="addr:postcode" v="CB23 2RY"/>
    <tag k="addr:street" v="Comberton Road"/>
    <tag k="addr:village" v="Toft"/>
    <tag k="building" v="yes"/>
    <tag k="name" v="Greenwich Court"/>
  </way>
  <way id="959759975" version="3" timestamp="2023-07-06T20:16:18Z" changeset="138203656" uid="6476359" user="NSiecw">
    <nd ref="8880084319"/>
    <nd ref="8880084318"/>
    <nd ref="8880084317"/>
    <nd ref="8880056916"/>
    <nd ref="8880084319"/>
    <tag k="addr:city" v="Cambridge"/>
    <tag k="addr:housenumber" v="70"/>
    <tag k="addr:postcode" v="CB23 2RY"/>
    <tag k="addr:street" v="Comberton Road"/>
    <tag k="addr:village" v="Toft"/>
    <tag k="building" v="yes"/>
    <tag k="name" v="Meridian House"/>
  </way>
  <way id="968419157" version="3" timestamp="2023-04-07T04:34:40Z" changeset="134598715" uid="238419" user="HubMiner">
    <nd ref="8959427726"/>
    <nd ref="8959427725"/>
    <nd ref="9661669929"/>
    <nd ref="8959427724"/>
    <nd ref="8959427723"/>
    <nd ref="8959427722"/>
    <nd ref="8959427721"/>
    <nd ref="8959427726"/>
    <tag k="addr:city" v="Cambridge"/>
    <tag k="addr:housenumber" v="6"/>
    <tag k="addr:postcode" v="CB23 2RL"/>
    <tag k="addr:street" v="High Street"/>
    <tag k="addr:village" v="Toft"/>
    <tag k="building" v="yes"/>
    <tag k="name" v="The Toft Shop"/>
    <tag k="opening_hours" v="Mo,Tu,Th,Fr 07:00-18:00; We 07:00-13:00; Sa 07:30-14:00; Su 07:30-13:00; PH off"/>
    <tag k="origin" v="south_africa"/>
    <tag k="phone" v="+441223262204"/>
    <tag k="shop" v="convenience"/>
    <tag k="website" v="https://www.toftshop.co.uk/"/>
  </way>
  <way id="968419159" version="1" timestamp="2021-07-29T08:58:53Z" changeset="108808872" uid="742701" user="kerr smith">
    <nd ref="8959427739"/>
    <nd ref="8959427738"/>
    <nd ref="8959427737"/>
    <nd ref="8959427736"/>
    <nd ref="8959427739"/>
    <tag k="addr:city" v="Cambridge"/>
    <tag k="addr:housenumber" v="unit 5"/>
    <tag k="addr:postcode" v="CB23 2RL"/>
    <tag k="addr:street" v="The Mount"/>
    <tag k="addr:village" v="Toft"/>
    <tag k="building" v="yes"/>
    <tag k="name" v="C &amp; M Hair &amp; Beauty"/>
    <tag k="phone" v="+441223262822"/>
    <tag k="shop" v="hairdresser"/>
  </way>
  <way id="968419167" version="1" timestamp="2021-07-29T08:58:53Z" changeset="108808872" uid="742701" user="kerr smith">
    <nd ref="8959427796"/>
    <nd ref="8959427795"/>
    <nd ref="8959427794"/>
    <nd ref="8959427793"/>
    <nd ref="8959427796"/>
    <tag k="addr:postcode" v="CB23 2RL"/>
    <tag k="addr:street" v="The Mount, High Street, Toft"/>
    <tag k="building" v="office"/>
    <tag k="name" v="Product Technology Partners Ltd."/>
  </way>
  <relation id="5318992" version="6" timestamp="2021-04-24T19:49:46Z" changeset="103550911" uid="12726626" user="that_guy_aidan">
    <member type="way" ref="344736044" role="outer"/>
    <member type="way" ref="356331749" role="inner"/>
    <tag k="addr:city" v="Cambridge"/>
    <tag k="addr:postcode" v="CB23 7DU"/>
    <tag k="addr:street" v="West Street"/>
    <tag k="addr:village" v="Comberton"/>
    <tag k="building" v="school"/>
    <tag k="building:levels" v="2"/>
    <tag k="name" v="Comberton Village Collage"/>
    <tag k="type" v="multipolygon"/>
  </relation>

</osm>
