<?xml version="1.0" encoding="UTF-8"?>
<osm version="0.6" generator="Overpass API 0.7.62.4 2390de5a">
<note>The data included in this document is from www.openstreetmap.org. The data is made available under ODbL.</note>
<meta osm_base="2025-01-21T14:25:27Z" areas="2024-12-31T00:49:33Z"/>

  <node id="870714365" lat="52.2795367" lon="0.0463445" version="5" timestamp="2022-09-18T14:25:34Z" changeset="126333016" uid="6476359" user="NSiecw">
    <tag k="addr:city" v="Cambridge"/>
    <tag k="addr:housenumber" v="37"/>
    <tag k="addr:postcode" v="CB24 3BP"/>
    <tag k="addr:street" v="High Street"/>
    <tag k="addr:village" v="Longstanton"/>
    <tag k="name" v="Cycle Centric"/>
    <tag k="shop" v="bicycle"/>
    <tag k="website" v="http://www.cyclecentric.com/"/>
  </node>
  <node id="2232546805" lat="52.2797049" lon="0.0464827" version="6" timestamp="2023-11-11T10:26:55Z" changeset="143893477" uid="9451067" user="b-jazz-bot">
    <tag k="addr:city" v="Cambridge"/>
    <tag k="addr:housenumber" v="37A"/>
    <tag k="addr:postcode" v="CB24 3BP"/>
    <tag k="addr:street" v="High Street"/>
    <tag k="addr:village" v="Longstanton"/>
    <tag k="amenity" v="clinic"/>
    <tag k="entrance" v="main"/>
    <tag k="healthcare" v="clinic"/>
    <tag k="name" v="Cygnet"/>
    <tag k="website" v="https://www.cygnetclinic.co.uk/"/>
  </node>
  <node id="2232546807" lat="52.2796722" lon="0.0466202" version="6" timestamp="2023-11-11T10:26:57Z" changeset="143893477" uid="9451067" user="b-jazz-bot">
    <tag k="addr:city" v="Cambridge"/>
    <tag k="addr:housenumber" v="37B"/>
    <tag k="addr:postcode" v="CB24 3BP"/>
    <tag k="addr:street" v="High Street"/>
    <tag k="addr:village" v="Longstanton"/>
    <tag k="amenity" v="dentist"/>
    <tag k="entrance" v="main"/>
    <tag k="name" v="The Village Dental Practice"/>
    <tag k="website" v="https://www.longstanton-dental-practice.co.uk/"/>
  </node>
  <node id="3402729431" lat="52.2839766" lon="0.0438723" version="10" timestamp="2024-07-15T22:33:06Z" changeset="153991674" uid="21425661" user="CjMalone">
    <tag k="addr:city" v="Cambridge"/>
    <tag k="addr:housenumber" v="93"/>
    <tag k="addr:postcode" v="CB24 3BT"/>
    <tag k="addr:street" v="High Street"/>
    <tag k="addr:village" v="Longstanton"/>
    <tag k="brand" v="Co-op Food"/>
    <tag k="brand:wikidata" v="Q3277439"/>
    <tag k="check_date" v="2024-07-15"/>
    <tag k="check_date:opening_hours" v="2024-07-15"/>
    <tag k="fhrs:id" v="1101270"/>
    <tag k="name" v="Co-op Food"/>
    <tag k="opening_hours" v="Mo-Su 07:00-22:00"/>
    <tag k="operator" v="The Co-operative Group"/>
    <tag k="operator:wikidata" v="Q117202"/>
    <tag k="shop" v="supermarket"/>
    <tag k="source" v="survey"/>
    <tag k="website" v="https://www.coop.co.uk/store-finder/CB24-3BT/93-high-street"/>
  </node>
  <node id="5167115548" lat="52.2774496" lon="0.0507045" version="3" timestamp="2022-09-17T23:54:24Z" changeset="126315178" uid="6476359" user="NSiecw">
    <tag k="addr:city" v="Cambridge"/>
    <tag k="addr:postcode" v="CB24 3BU"/>
    <tag k="addr:street" v="Woodside"/>
    <tag k="addr:village" v="Longstanton"/>
    <tag k="internet_access" v="wlan"/>
    <tag k="name" v="The Manor Bed &amp; Breakfast"/>
    <tag k="tourism" v="guest_house"/>
  </node>
  <node id="5324660523" lat="52.2840027" lon="0.0438204" version="4" timestamp="2022-09-18T14:25:34Z" changeset="126333016" uid="6476359" user="NSiecw">
    <tag k="addr:city" v="Cambridge"/>
    <tag k="addr:housenumber" v="95"/>
    <tag k="addr:postcode" v="CB24 3BT"/>
    <tag k="addr:street" v="High Street"/>
    <tag k="addr:village" v="Longstanton"/>
    <tag k="name" v="Sab"/>
    <tag k="office" v="estate_agent"/>
    <tag k="source" v="survey"/>
    <tag k="website" v="https://www.sab.co.uk/en/contacts/2_longstanton"/>
  </node>
  <node id="5324660524" lat="52.2840760" lon="0.0437455" version="5" timestamp="2023-11-11T10:26:19Z" changeset="143893444" uid="9451067" user="b-jazz-bot">
    <tag k="addr:city" v="Cambridge"/>
    <tag k="addr:housenumber" v="97"/>
    <tag k="addr:postcode" v="CB24 3BT"/>
    <tag k="addr:street" v="High Street"/>
    <tag k="addr:village" v="Longstanton"/>
    <tag k="amenity" v="fast_food"/>
    <tag k="cuisine" v="fish_and_chips;burger;chicken;pizza;kebab"/>
    <tag k="entrance" v="yes"/>
    <tag k="name" v="Faroz Kitchen"/>
    <tag k="source" v="survey"/>
    <tag k="website" v="https://faroz.co.uk/"/>
  </node>
  <node id="5324660525" lat="52.2841588" lon="0.0437036" version="4" timestamp="2022-09-18T14:25:34Z" changeset="126333016" uid="6476359" user="NSiecw">
    <tag k="addr:city" v="Cambridge"/>
    <tag k="addr:housenumber" v="99-101"/>
    <tag k="addr:postcode" v="CB24 3BT"/>
    <tag k="addr:street" v="High Street"/>
    <tag k="addr:village" v="Longstanton"/>
    <tag k="amenity" v="childcare"/>
    <tag k="name" v="Bellaclaire Childcare"/>
    <tag k="source" v="survey"/>
    <tag k="website" v="http://www.bellaclaire.co.uk"/>
  </node>
  <node id="5569979752" lat="52.2827062" lon="0.0439623" version="2" timestamp="2020-06-07T18:59:17Z" changeset="86316993" uid="5173844" user="ndrw6">
    <tag k="addr:city" v="Cambridge"/>
    <tag k="addr:housenumber" v="1"/>
    <tag k="addr:postcode" v="CB24 3DW"/>
    <tag k="addr:street" v="Over Road"/>
    <tag k="addr:village" v="Longstanton"/>
    <tag k="name" v="New Marque Specialist Cars"/>
    <tag k="shop" v="car"/>
    <tag k="website" v="https://www.newmarque.co.uk"/>
  </node>
  <node id="5569979753" lat="52.2826368" lon="0.0441458" version="3" timestamp="2023-11-11T10:26:25Z" changeset="143893444" uid="9451067" user="b-jazz-bot">
    <tag k="addr:city" v="Cambridge"/>
    <tag k="addr:housenumber" v="89"/>
    <tag k="addr:postcode" v="CB24 3BS"/>
    <tag k="addr:street" v="High Street"/>
    <tag k="addr:village" v="Longstanton"/>
    <tag k="name" v="Skatz Hair Design"/>
    <tag k="shop" v="hairdresser"/>
    <tag k="website" v="https://skatzhair.co.uk/"/>
  </node>
  <node id="5569979754" lat="52.2791219" lon="0.0471977" version="3" timestamp="2020-06-07T18:59:17Z" changeset="86316993" uid="5173844" user="ndrw6">
    <tag k="addr:city" v="Cambridge"/>
    <tag k="addr:housenumber" v="27"/>
    <tag k="addr:postcode" v="CB24 3BP"/>
    <tag k="addr:street" v="High Street"/>
    <tag k="addr:village" v="Longstanton"/>
    <tag k="amenity" v="veterinary"/>
    <tag k="name" v="Pet Vision"/>
    <tag k="website" v="http://www.pet-vision.co.uk/"/>
  </node>
  <node id="6589923819" lat="52.2823339" lon="0.0447680" version="4" timestamp="2022-09-18T14:25:34Z" changeset="126333016" uid="6476359" user="NSiecw">
    <tag k="addr:city" v="Cambridge"/>
    <tag k="addr:housenumber" v="56"/>
    <tag k="addr:postcode" v="CB24 3BS"/>
    <tag k="addr:street" v="High Street"/>
    <tag k="addr:village" v="Longstanton"/>
    <tag k="amenity" v="fast_food"/>
    <tag k="cuisine" v="chinese"/>
    <tag k="drive_through" v="no"/>
    <tag k="email" v="info@blackbulllongstanton.co.uk"/>
    <tag k="name" v="The Black Bull"/>
    <tag k="opening_hours" v="Mo-Sa 16:30-23:00; Su 16:30-22:30"/>
    <tag k="operator" v="Family run"/>
    <tag k="phone" v="+44 1954 789589"/>
    <tag k="takeaway" v="yes"/>
    <tag k="website" v="https://blackbulllongstanton.co.uk/"/>
  </node>
  <node id="12062799158" lat="52.2841918" lon="0.0459968" version="2" timestamp="2024-08-30T18:42:43Z" changeset="155987562" uid="20644993" user="Resist2020">
    <tag k="addr:city" v="Longstanton"/>
    <tag k="addr:housenumber" v="25"/>
    <tag k="addr:postcode" v="CB24 3ED"/>
    <tag k="addr:street" v="Ladywalk"/>
    <tag k="check_date" v="2024-07-09"/>
    <tag k="currency:GBP" v="yes"/>
    <tag k="currency:XBT" v="yes"/>
    <tag k="delivery" v="yes"/>
    <tag k="delivery:zone" v="UK"/>
    <tag k="description" v="We sell eggs and honey as well as education.&#x0a;&#x0a;Our homesteading educational business is a fun and engaging program that teaches children and families how to care for animals, grow their own food, and live more sustainably."/>
    <tag k="name" v="Bee Happy Farm"/>
    <tag k="organic" v="only"/>
    <tag k="payment:lightning" v="yes"/>
    <tag k="payment:lightning_contactless" v="yes"/>
    <tag k="payment:onchain" v="yes"/>
    <tag k="produce" v="eggs,honey"/>
    <tag k="shop" v="farm"/>
    <tag k="website" v="https://beehappyfarm.co.uk/"/>
  </node>
  <way id="213579633" version="6" timestamp="2024-10-04T17:42:41Z" changeset="157472159" uid="5173844" user="ndrw6">
    <nd ref="2232546819"/>
    <nd ref="2232546817"/>
    <nd ref="2232546813"/>
    <nd ref="2232546815"/>
    <nd ref="2232546819"/>
    <tag k="addr:city" v="Cambridge"/>
    <tag k="addr:housenumber" v="10"/>
    <tag k="addr:postcode" v="CB24 3BP"/>
    <tag k="addr:street" v="High Street"/>
    <tag k="addr:village" v="Longstanton"/>
    <tag k="amenity" v="post_office"/>
    <tag k="building" v="house"/>
    <tag k="name" v="Longstanton Post Office &amp; Stores"/>
    <tag k="shop" v="convenience"/>
  </way>
  <way id="439524416" version="8" timestamp="2024-07-17T17:55:23Z" changeset="154069628" uid="9451067" user="b-jazz-bot">
    <nd ref="4371586843"/>
    <nd ref="4371586845"/>
    <nd ref="4371586846"/>
    <nd ref="4371586848"/>
    <nd ref="7626978429"/>
    <nd ref="7626978414"/>
    <nd ref="4371586852"/>
    <nd ref="7626978315"/>
    <nd ref="4371586853"/>
    <nd ref="4371586854"/>
    <nd ref="4371586855"/>
    <nd ref="8217903777"/>
    <nd ref="4371586843"/>
    <tag k="addr:city" v="Cambridge"/>
    <tag k="addr:country" v="GB"/>
    <tag k="addr:postcode" v="CB24 3DL"/>
    <tag k="addr:street" v="Hatton Park"/>
    <tag k="amenity" v="school"/>
    <tag k="capacity" v="420"/>
    <tag k="isced:level" v="1"/>
    <tag k="max_age" v="11"/>
    <tag k="min_age" v="4"/>
    <tag k="name" v="Hatton Park Primary School"/>
    <tag k="phone" v="+44 1954 273315"/>
    <tag k="ref:GB:uprn" v="10003200759"/>
    <tag k="ref:edubase" v="138993"/>
    <tag k="ref:edubase:group" v="2526"/>
    <tag k="school:trust" v="yes"/>
    <tag k="school:trust:name" v="Meridian Trust"/>
    <tag k="school:trust:type" v="multi_academy"/>
    <tag k="school:type" v="academy"/>
    <tag k="source:addr" v="edubase"/>
    <tag k="source:geometry" v="OS_Open_Map_Local_FunctionalSite"/>
    <tag k="website" v="https://www.hattonparkschool.co.uk/"/>
    <tag k="wikidata" v="Q66229770"/>
  </way>
  <way id="550962204" version="7" timestamp="2024-10-04T17:42:41Z" changeset="157472159" uid="5173844" user="ndrw6">
    <nd ref="5321043748"/>
    <nd ref="5321043749"/>
    <nd ref="5321043750"/>
    <nd ref="5321043751"/>
    <nd ref="5321043752"/>
    <nd ref="5321043753"/>
    <nd ref="5321043754"/>
    <nd ref="5321043755"/>
    <nd ref="5321043748"/>
    <tag k="addr:city" v="Cambridge"/>
    <tag k="addr:housenumber" v="56"/>
    <tag k="addr:postcode" v="CB24 3BS"/>
    <tag k="addr:street" v="High Street"/>
    <tag k="addr:village" v="Longstanton"/>
    <tag k="amenity" v="pub"/>
    <tag k="building" v="commercial"/>
    <tag k="email" v="info@blackbulllongstanton.co.uk"/>
    <tag k="fhrs:id" v="597268"/>
    <tag k="name" v="The Black Bull"/>
    <tag k="phone" v="+44 1954 789589"/>
    <tag k="website" v="https://blackbulllongstanton.co.uk/"/>
  </way>
  <way id="550962219" version="5" timestamp="2024-03-14T15:40:39Z" changeset="148648630" uid="10420541" user="Thingummy">
    <nd ref="5321043834"/>
    <nd ref="5321043835"/>
    <nd ref="5321043836"/>
    <nd ref="5321043837"/>
    <nd ref="5321043838"/>
    <nd ref="5321043839"/>
    <nd ref="5321043840"/>
    <nd ref="5321043841"/>
    <nd ref="5321043834"/>
    <tag k="addr:city" v="Cambridge"/>
    <tag k="addr:flats" v="1-14"/>
    <tag k="addr:housename" v="Drakes Court"/>
    <tag k="addr:postcode" v="CB24 3EP"/>
    <tag k="addr:street" v="High Street"/>
    <tag k="addr:village" v="Longstanton"/>
    <tag k="building" v="apartments"/>
    <tag k="layer" v="1"/>
    <tag k="name" v="Drakes Court"/>
  </way>
  <way id="550962234" version="4" timestamp="2024-10-04T17:42:41Z" changeset="157472159" uid="5173844" user="ndrw6">
    <nd ref="5321043914"/>
    <nd ref="5321043915"/>
    <nd ref="5321043916"/>
    <nd ref="5321043917"/>
    <nd ref="5321043914"/>
    <tag k="addr:city" v="Cambridge"/>
    <tag k="addr:housenumber" v="34"/>
    <tag k="addr:postcode" v="CB24 3BS"/>
    <tag k="addr:street" v="High Street"/>
    <tag k="addr:village" v="Longstanton"/>
    <tag k="amenity" v="veterinary"/>
    <tag k="building" v="commercial"/>
    <tag k="name" v="Village Vet"/>
  </way>
  <way id="550966498" version="3" timestamp="2022-08-29T11:19:53Z" changeset="125518630" uid="6476359" user="NSiecw">
    <nd ref="5321080630"/>
    <nd ref="9983946429"/>
    <nd ref="9983946428"/>
    <nd ref="5321080633"/>
    <nd ref="5321080630"/>
    <tag k="addr:city" v="Cambridge"/>
    <tag k="addr:housename" v="Conrad House"/>
    <tag k="addr:postcode" v="CB24 3GN"/>
    <tag k="addr:street" v="Nelson Crescent"/>
    <tag k="addr:village" v="Longstanton"/>
    <tag k="building" v="house"/>
    <tag k="name" v="Conrad House"/>
  </way>
  <way id="551117953" version="3" timestamp="2020-06-07T18:59:17Z" changeset="86316993" uid="5173844" user="ndrw6">
    <nd ref="5322493472"/>
    <nd ref="5322493473"/>
    <nd ref="5322493474"/>
    <nd ref="5322493475"/>
    <nd ref="5322493472"/>
    <tag k="addr:city" v="Cambridge"/>
    <tag k="addr:housename" v="Village Institute"/>
    <tag k="addr:housenumber" v="24"/>
    <tag k="addr:postcode" v="CB24 3BS"/>
    <tag k="addr:street" v="High Street"/>
    <tag k="addr:village" v="Longstanton"/>
    <tag k="building" v="yes"/>
    <tag k="building:levels" v="0"/>
    <tag k="description" v="Social Centre and Parish Council Office"/>
    <tag k="name" v="Village Institute"/>
  </way>
  <way id="551117991" version="3" timestamp="2022-09-04T17:24:14Z" changeset="125781980" uid="6476359" user="NSiecw">
    <nd ref="5322493846"/>
    <nd ref="5322493847"/>
    <nd ref="10000063498"/>
    <nd ref="5322493848"/>
    <nd ref="5322493849"/>
    <nd ref="5322493846"/>
    <tag k="addr:city" v="Cambridge"/>
    <tag k="addr:housename" v="Longstanton Branch Surgery"/>
    <tag k="addr:postcode" v="CB24 3EG"/>
    <tag k="addr:street" v="Magdalene Close"/>
    <tag k="addr:village" v="Longstanton"/>
    <tag k="amenity" v="doctors"/>
    <tag k="building" v="yes"/>
    <tag k="healthcare" v="doctor"/>
    <tag k="name" v="Longstanton Branch Surgery"/>
    <tag k="opening_hours" v="Mo-Fr 08:30-13:00"/>
    <tag k="operator" v="Willingham Medical Practice"/>
  </way>
  <way id="551117992" version="2" timestamp="2022-09-04T17:24:14Z" changeset="125781980" uid="6476359" user="NSiecw">
    <nd ref="5322493850"/>
    <nd ref="5322493851"/>
    <nd ref="10000063499"/>
    <nd ref="5322493852"/>
    <nd ref="5322493853"/>
    <nd ref="5322493850"/>
    <tag k="addr:city" v="Cambridge"/>
    <tag k="addr:housename" v="Cadet Center"/>
    <tag k="addr:postcode" v="CB24 3EG"/>
    <tag k="addr:street" v="Magdalene Close"/>
    <tag k="addr:village" v="Longstanton"/>
    <tag k="building" v="yes"/>
    <tag k="name" v="Cadet Center"/>
  </way>
  <way id="1089924587" version="2" timestamp="2022-08-29T11:19:53Z" changeset="125518630" uid="6476359" user="NSiecw">
    <nd ref="9983946429"/>
    <nd ref="5321080631"/>
    <nd ref="5321080632"/>
    <nd ref="9983946428"/>
    <nd ref="9983946429"/>
    <tag k="addr:city" v="Cambridge"/>
    <tag k="addr:housename" v="Pheonix House"/>
    <tag k="addr:postcode" v="CB24 3GN"/>
    <tag k="addr:street" v="Nelson Crescent"/>
    <tag k="addr:village" v="Longstanton"/>
    <tag k="building" v="house"/>
    <tag k="name" v="Pheonix House"/>
  </way>

</osm>
