<?xml version="1.0" encoding="UTF-8"?>
<osm version="0.6" generator="Overpass API 0.7.62.4 2390de5a">
<note>The data included in this document is from www.openstreetmap.org. The data is made available under ODbL.</note>
<meta osm_base="2025-01-21T14:23:25Z" areas="2024-12-31T00:49:33Z"/>

  <node id="280781336" lat="52.3339811" lon="-0.1880560" version="13" timestamp="2023-10-13T07:36:19Z" changeset="142509765" uid="616774" user="mueschel">
    <tag k="addr:city" v="Huntingdon"/>
    <tag k="addr:housenumber" v="72A"/>
    <tag k="addr:postcode" v="PE29 3EZ"/>
    <tag k="addr:street" v="Ermine Street"/>
    <tag k="amenity" v="pharmacy"/>
    <tag k="dispensing" v="yes"/>
    <tag k="healthcare" v="pharmacy"/>
    <tag k="name" v="Wellbeing Pharmacy"/>
    <tag k="ref" v="WP038"/>
    <tag k="ref:GB:nhs_ods" v="FX693"/>
    <tag k="website" v="https://wellbeing-pharmacy.co.uk/"/>
  </node>
  <node id="283152180" lat="52.3454821" lon="-0.1757718" version="5" timestamp="2024-06-01T18:32:06Z" changeset="152134469" uid="84263" user="Robert Whittaker">
    <tag k="addr:city" v="Huntingdon"/>
    <tag k="addr:housenumber" v="4"/>
    <tag k="addr:postcode" v="PE29 7HN"/>
    <tag k="addr:street" v="Oak Drive"/>
    <tag k="amenity" v="post_office"/>
    <tag k="fhrs:id" v="709488"/>
    <tag k="name" v="Oak Tree News and Post Office"/>
    <tag k="source:addr" v="FHRS Open Data"/>
  </node>
  <node id="283152181" lat="52.3452523" lon="-0.1757277" version="8" timestamp="2024-08-27T15:10:39Z" changeset="155836988" uid="2400059" user="Pablo Rodriguez">
    <tag k="addr:city" v="Huntingdon"/>
    <tag k="addr:housenumber" v="2"/>
    <tag k="addr:postcode" v="PE29 7HN"/>
    <tag k="addr:street" v="Oak Drive"/>
    <tag k="amenity" v="cafe"/>
    <tag k="fhrs:id" v="1497337"/>
    <tag k="name" v="Dessert Central"/>
    <tag k="outdoor_seating" v="no"/>
    <tag k="source:addr" v="FHRS Open Data"/>
    <tag k="takeaway" v="yes"/>
  </node>
  <node id="283152183" lat="52.3455867" lon="-0.1757924" version="9" timestamp="2024-01-02T12:17:01Z" changeset="145795572" uid="10420541" user="Thingummy">
    <tag k="addr:city" v="Huntingdon"/>
    <tag k="addr:country" v="GB"/>
    <tag k="addr:county" v="Cambridgeshire"/>
    <tag k="addr:housenumber" v="5"/>
    <tag k="addr:postcode" v="PE29 7HN"/>
    <tag k="addr:street" v="Oak Drive"/>
    <tag k="brand" v="Premier"/>
    <tag k="brand:wikidata" v="Q7240340"/>
    <tag k="brand:wikipedia" v="en:Premier Stores"/>
    <tag k="fhrs:id" v="340964"/>
    <tag k="name" v="Premier"/>
    <tag k="shop" v="convenience"/>
    <tag k="website" v="https://www.premier-stores.co.uk/our-stores/premier-supermarket-4"/>
  </node>
  <node id="283152184" lat="52.3453292" lon="-0.1757441" version="4" timestamp="2024-06-01T18:32:06Z" changeset="152134469" uid="84263" user="Robert Whittaker">
    <tag k="addr:city" v="Huntingdon"/>
    <tag k="addr:housenumber" v="3"/>
    <tag k="addr:postcode" v="PE29 7HN"/>
    <tag k="addr:street" v="Oak Drive"/>
    <tag k="amenity" v="fast_food"/>
    <tag k="fhrs:id" v="341221"/>
    <tag k="name" v="Tony's Takeaway"/>
    <tag k="source:addr" v="FHRS Open Data"/>
  </node>
  <node id="283152417" lat="52.3451097" lon="-0.1745491" version="2" timestamp="2021-08-31T22:33:50Z" changeset="110534603" uid="6816132" user="CjMalone">
    <tag k="addr:city" v="Huntingdon"/>
    <tag k="addr:country" v="GB"/>
    <tag k="addr:county" v="Cambridgeshire"/>
    <tag k="addr:postcode" v="PE29 7LB"/>
    <tag k="addr:street" v="Sapley Square"/>
    <tag k="amenity" v="pub"/>
    <tag k="fhrs:id" v="1226328"/>
    <tag k="name" v="Golden Knight"/>
  </node>
  <node id="283152418" lat="52.3454886" lon="-0.1756602" version="7" timestamp="2024-06-01T18:32:35Z" changeset="152134480" uid="84263" user="Robert Whittaker">
    <tag k="addr:city" v="Huntingdon"/>
    <tag k="addr:postcode" v="PE29 7HN"/>
    <tag k="addr:street" v="Oak Drive"/>
    <tag k="amenity" v="cafe"/>
    <tag k="level" v="1"/>
    <tag k="name" v="Maple Centre Cafe"/>
  </node>
  <node id="306468148" lat="52.3296614" lon="-0.1822969" version="9" timestamp="2023-10-19T14:00:25Z" changeset="142817683" uid="4345757" user="JassKurn">
    <tag k="addr:city" v="Huntingdon"/>
    <tag k="addr:country" v="GB"/>
    <tag k="addr:county" v="Cambridgeshire"/>
    <tag k="addr:housenumber" v="41"/>
    <tag k="addr:postcode" v="PE29 3AQ"/>
    <tag k="addr:street" v="High Street"/>
    <tag k="amenity" v="cafe"/>
    <tag k="brand" v="Costa"/>
    <tag k="brand:wikidata" v="Q608845"/>
    <tag k="brand:wikipedia" v="en:Costa Coffee"/>
    <tag k="cuisine" v="coffee_shop"/>
    <tag k="fhrs:id" v="340989"/>
    <tag k="level" v="0"/>
    <tag k="name" v="Costa"/>
    <tag k="operator" v="Costa Coffee"/>
    <tag k="takeaway" v="yes"/>
  </node>
  <node id="306474049" lat="52.3298560" lon="-0.1823118" version="10" timestamp="2024-09-03T19:47:48Z" changeset="156157798" uid="21425661" user="CjMalone">
    <tag k="addr:city" v="Huntingdon"/>
    <tag k="addr:postcode" v="PE29 3NE"/>
    <tag k="addr:street" v="High Street"/>
    <tag k="amenity" v="bank"/>
    <tag k="atm" v="yes"/>
    <tag k="brand" v="Nationwide"/>
    <tag k="brand:wikidata" v="Q846735"/>
    <tag k="brand:wikipedia" v="en:Nationwide Building Society"/>
    <tag k="check_date" v="2024-09-02"/>
    <tag k="check_date:opening_hours" v="2024-09-02"/>
    <tag k="name" v="Nationwide"/>
    <tag k="opening_hours" v="Mo-Tu 09:00-16:30; We 10:00-16:30; Th-Fr 09:00-16:30; Sa 09:00-12:00; Su closed"/>
    <tag k="operator" v="Nationwide"/>
    <tag k="phone" v="+44 345 266 1051"/>
    <tag k="source:addr:postcode" v="ons_uprn_lookup"/>
    <tag k="website" v="https://www.nationwide.co.uk/branches/huntingdon/131-high-street"/>
  </node>
  <node id="306474088" lat="52.3293179" lon="-0.1814275" version="3" timestamp="2021-08-31T22:33:50Z" changeset="110534603" uid="6816132" user="CjMalone">
    <tag k="addr:city" v="Huntingdon"/>
    <tag k="addr:country" v="GB"/>
    <tag k="addr:county" v="Cambridgeshire"/>
    <tag k="addr:housenumber" v="139"/>
    <tag k="addr:postcode" v="PE29 3NF"/>
    <tag k="addr:street" v="High Street"/>
    <tag k="amenity" v="pub"/>
    <tag k="fhrs:id" v="865383"/>
    <tag k="name" v="Three Tuns"/>
    <tag k="wikidata" v="Q26421495"/>
  </node>
  <node id="306474109" lat="52.3301759" lon="-0.1841877" version="3" timestamp="2023-10-23T21:28:03Z" changeset="143036963" uid="6816132" user="CjMalone">
    <tag k="addr:city" v="Huntingdon"/>
    <tag k="addr:country" v="GB"/>
    <tag k="addr:county" v="Cambridgeshire"/>
    <tag k="addr:postcode" v="PE29 3NJ"/>
    <tag k="addr:street" v="Market Hill"/>
    <tag k="amenity" v="pub"/>
    <tag k="fhrs:id" v="764360"/>
    <tag k="name" v="Market Inn"/>
    <tag k="operator" v="Stonegate"/>
    <tag k="operator:wikidata" v="Q7619176"/>
    <tag k="website" v="https://www.craftunionpubs.com/market-inn-huntingdon"/>
  </node>
  <node id="306474251" lat="52.3311799" lon="-0.1835014" version="8" timestamp="2023-10-19T14:00:25Z" changeset="142817683" uid="4345757" user="JassKurn">
    <tag k="addr:city" v="Huntingdon"/>
    <tag k="addr:country" v="GB"/>
    <tag k="addr:county" v="Cambridgeshire"/>
    <tag k="addr:housenumber" v="1"/>
    <tag k="addr:postcode" v="PE29 3LF"/>
    <tag k="addr:street" v="Grammar School Walk"/>
    <tag k="amenity" v="fast_food"/>
    <tag k="brand" v="Domino's"/>
    <tag k="brand:wikidata" v="Q839466"/>
    <tag k="brand:wikipedia" v="en:Domino's Pizza"/>
    <tag k="contact:website" v="https://www.dominos.co.uk/pizza-near-me/huntingdon/1-grammar-school-walk"/>
    <tag k="cuisine" v="pizza"/>
    <tag k="fhrs:id" v="341497"/>
    <tag k="name" v="Domino's"/>
    <tag k="operator" v="Domino's Pizza"/>
    <tag k="takeaway" v="yes"/>
  </node>
  <node id="814662207" lat="52.3304361" lon="-0.1828927" version="7" timestamp="2024-08-28T13:04:31Z" changeset="155879632" uid="21425661" user="CjMalone">
    <tag k="addr:city" v="Huntingdon"/>
    <tag k="addr:housenumber" v="122-123"/>
    <tag k="addr:postcode" v="PE29 3LG"/>
    <tag k="addr:street" v="High Street"/>
    <tag k="amenity" v="post_office"/>
    <tag k="brand" v="Post Office"/>
    <tag k="brand:wikidata" v="Q1783168"/>
    <tag k="name" v="Huntingdon Post Office"/>
    <tag k="operator" v="WH Smith"/>
    <tag k="ref:pol_id" v="114547"/>
    <tag k="source:ref:pol_id" v="pol_branch_list_2022‑05‑27"/>
    <tag k="website" v="https://www.postoffice.co.uk/branch-finder/3912302/huntingdon"/>
  </node>
  <node id="814662210" lat="52.3301247" lon="-0.1870776" version="4" timestamp="2020-03-09T15:53:41Z" changeset="81971547" uid="90943" user="chris_debian">
    <tag k="addr:city" v="Huntingdon"/>
    <tag k="addr:housenumber" v="11"/>
    <tag k="addr:postcode" v="PE29 3BD"/>
    <tag k="addr:street" v="George Street"/>
    <tag k="amenity" v="dentist"/>
    <tag k="healthcare" v="dentist"/>
    <tag k="healthcare:speciality" v="dentist"/>
    <tag k="name" v="Wensleydale Dental Practice"/>
  </node>
  <node id="1106397141" lat="52.3305671" lon="-0.1821570" version="8" timestamp="2023-10-19T14:00:38Z" changeset="142817683" uid="4345757" user="JassKurn">
    <tag k="addr:city" v="Huntingdon"/>
    <tag k="addr:country" v="GB"/>
    <tag k="addr:county" v="Cambridgeshire"/>
    <tag k="addr:housenumber" v="12"/>
    <tag k="addr:postcode" v="PE29 3LJ"/>
    <tag k="addr:street" v="Chequers Court"/>
    <tag k="amenity" v="fast_food"/>
    <tag k="brand" v="Subway"/>
    <tag k="brand:wikidata" v="Q244457"/>
    <tag k="brand:wikipedia" v="en:Subway (restaurant)"/>
    <tag k="contact:website" v="https://restaurants.subway.com/united-kingdom/en/huntingdon/12-chequers-court"/>
    <tag k="cuisine" v="sandwich"/>
    <tag k="delivery" v="yes"/>
    <tag k="fhrs:id" v="764370"/>
    <tag k="name" v="Subway"/>
    <tag k="takeaway" v="yes"/>
  </node>
  <node id="1233079674" lat="52.3409876" lon="-0.1871696" version="3" timestamp="2023-05-16T14:21:31Z" changeset="136171984" uid="13750939" user="FortQuake">
    <tag k="addr:city" v="Huntingdon"/>
    <tag k="addr:housenumber" v="7"/>
    <tag k="addr:street" v="The Bridge Centre"/>
    <tag k="brand" v="Motor Parts Direct"/>
    <tag k="brand:wikidata" v="Q115287506"/>
    <tag k="name" v="Motor Parts Direct"/>
    <tag k="shop" v="car_parts"/>
  </node>
  <node id="1327167350" lat="52.3467867" lon="-0.1839798" version="4" timestamp="2021-01-14T10:36:43Z" changeset="97489876" uid="4159741" user="Michal1979">
    <tag k="addr:city" v="Huntingdon"/>
    <tag k="addr:housenumber" v="16"/>
    <tag k="addr:postcode" v="PE29 7EJ"/>
    <tag k="addr:street" v="Clifton Road"/>
    <tag k="name" v="Plumb-it"/>
    <tag k="opening_hours" v="08:30-16:00"/>
    <tag k="payment:cash" v="yes"/>
    <tag k="payment:debit_cards" v="yes"/>
    <tag k="phone" v="+441480450700"/>
    <tag k="shop" v="doityourself"/>
    <tag k="website" v="https://www.plumb-it.net/"/>
  </node>
  <node id="1327167389" lat="52.3449099" lon="-0.1816529" version="5" timestamp="2024-01-24T21:14:22Z" changeset="146647711" uid="6816132" user="CjMalone">
    <tag k="addr:city" v="Huntingdon"/>
    <tag k="addr:housename" v="Unit 2 Cirrus Court"/>
    <tag k="addr:postcode" v="PE29 7DL"/>
    <tag k="addr:street" v="Glebe Road"/>
    <tag k="brand" v="Wolseley"/>
    <tag k="brand:wikidata" v="Q8030423"/>
    <tag k="name" v="Wolseley"/>
    <tag k="shop" v="trade"/>
    <tag k="trade" v="plumbing"/>
    <tag k="website" v="https://www.wolseley.co.uk/branch/huntingdon/"/>
  </node>
  <node id="1845622027" lat="52.3279666" lon="-0.1777085" version="2" timestamp="2022-07-16T16:11:59Z" changeset="123694741" uid="242345" user="confusedbuffalo">
    <tag k="addr:city" v="Huntingdon"/>
    <tag k="addr:housename" v="Riverside House"/>
    <tag k="addr:housenumber" v="160"/>
    <tag k="addr:postcode" v="PE29 3SG"/>
    <tag k="addr:street" v="High Street"/>
    <tag k="building" v="office"/>
    <tag k="name" v="web2market"/>
  </node>
  <node id="1867553633" lat="52.3455105" lon="-0.1763917" version="9" timestamp="2022-01-09T19:07:02Z" changeset="115954680" uid="11022773" user="GeoFens">
    <tag k="addr:city" v="Huntingdon"/>
    <tag k="addr:housenumber" v="1"/>
    <tag k="addr:postcode" v="PE29 7HN"/>
    <tag k="addr:street" v="Oak Drive"/>
    <tag k="amenity" v="pharmacy"/>
    <tag k="dispensing" v="yes"/>
    <tag k="healthcare" v="pharmacy"/>
    <tag k="name" v="Acorn"/>
    <tag k="phone" v="+44 1480 458822"/>
    <tag k="source" v="local knowledge;flyer"/>
    <tag k="website" v="acorn.pharmacy@nhs.net"/>
  </node>
  <node id="2980061640" lat="52.3309061" lon="-0.1846780" version="9" timestamp="2024-02-19T15:49:32Z" changeset="147656579" uid="6816132" user="CjMalone">
    <tag k="addr:city" v="Huntingdon"/>
    <tag k="addr:housenumber" v="105"/>
    <tag k="addr:postcode" v="PE29 3LB"/>
    <tag k="addr:street" v="High Street"/>
    <tag k="amenity" v="restaurant"/>
    <tag k="brand" v="PizzaExpress"/>
    <tag k="brand:wikidata" v="Q662845"/>
    <tag k="brand:wikipedia" v="en:PizzaExpress"/>
    <tag k="cuisine" v="pizza"/>
    <tag k="name" v="PizzaExpress"/>
    <tag k="opening_hours" v="Mo-Su 11:30-23:00"/>
    <tag k="smoking" v="outside"/>
    <tag k="website" v="https://www.pizzaexpress.com/huntingdon-high-street"/>
    <tag k="wheelchair" v="yes"/>
  </node>
  <node id="3683561627" lat="52.3451883" lon="-0.1764049" version="7" timestamp="2022-01-09T19:07:02Z" changeset="115954680" uid="11022773" user="GeoFens">
    <tag k="addr:housenumber" v="1"/>
    <tag k="addr:street" v="Oak Drive"/>
    <tag k="amenity" v="dentist"/>
    <tag k="healthcare" v="dentist"/>
    <tag k="name" v="Anchor Dental Care"/>
    <tag k="nhs" v="yes"/>
    <tag k="phone" v="+44 1480 418 558"/>
  </node>
  <node id="4314921340" lat="52.3305242" lon="-0.1869901" version="9" timestamp="2023-10-19T14:25:42Z" changeset="142818835" uid="4345757" user="JassKurn">
    <tag k="addr:city" v="Huntingdon"/>
    <tag k="addr:country" v="GB"/>
    <tag k="addr:county" v="Cambridgeshire"/>
    <tag k="addr:housename" v="Sandford House"/>
    <tag k="addr:postcode" v="PE29 3BD"/>
    <tag k="addr:street" v="George Street"/>
    <tag k="amenity" v="pub"/>
    <tag k="brand" v="Wetherspoon"/>
    <tag k="brand:wikidata" v="Q6109362"/>
    <tag k="brand:wikipedia" v="en:Wetherspoons"/>
    <tag k="contact:website" v="https://www.jdwetherspoon.com/pubs/all-pubs/england/cambridgeshire/sandford-house-huntingdon"/>
    <tag k="fhrs:id" v="908385"/>
    <tag k="name" v="Sandford House"/>
    <tag k="opening_hours" v="Mo-Fr 07:00-24:00; Sa-Su 00:00-01:00,07:00-24:00"/>
    <tag k="smoking" v="outside"/>
  </node>
  <node id="4596093392" lat="52.3301773" lon="-0.1896246" version="3" timestamp="2022-06-02T19:45:06Z" changeset="121866398" uid="10420541" user="Thingummy">
    <tag k="addr:housenumber" v="3"/>
    <tag k="addr:street" v="Brampton Road"/>
    <tag k="amenity" v="dentist"/>
    <tag k="healthcare" v="dentist"/>
    <tag k="healthcare:speciality" v="dentist;orthodontics;clinic"/>
    <tag k="name" v="Huntingdon Dental Care"/>
    <tag k="note" v="NHS and Private"/>
  </node>
  <node id="5066955253" lat="52.3307964" lon="-0.1812357" version="9" timestamp="2024-05-30T11:09:51Z" changeset="152029268" uid="10420541" user="Thingummy">
    <tag k="addr:city" v="Huntingdon"/>
    <tag k="addr:housenumber" v="13"/>
    <tag k="addr:postcode" v="PE29 3FG"/>
    <tag k="addr:street" v="St Germain Walk"/>
    <tag k="amenity" v="cafe"/>
    <tag k="brand" v="Costa"/>
    <tag k="brand:wikidata" v="Q608845"/>
    <tag k="brand:wikipedia" v="en:Costa Coffee"/>
    <tag k="cuisine" v="coffee_shop"/>
    <tag k="fhrs:id" v="1002380"/>
    <tag k="name" v="Costa"/>
    <tag k="takeaway" v="yes"/>
  </node>
  <node id="5066955258" lat="52.3308891" lon="-0.1814117" version="7" timestamp="2024-05-30T11:09:51Z" changeset="152029268" uid="10420541" user="Thingummy">
    <tag k="addr:city" v="Huntingdon"/>
    <tag k="addr:country" v="GB"/>
    <tag k="addr:county" v="Cambridgeshire"/>
    <tag k="addr:housenumber" v="11"/>
    <tag k="addr:postcode" v="PE29 3FG"/>
    <tag k="addr:street" v="St Germain Walk"/>
    <tag k="brand" v="TK Maxx"/>
    <tag k="brand:wikidata" v="Q23823668"/>
    <tag k="brand:wikipedia" v="en:TK Maxx"/>
    <tag k="fhrs:id" v="1007659"/>
    <tag k="name" v="TK Maxx"/>
    <tag k="shop" v="department_store"/>
  </node>
  <node id="5282182287" lat="52.3382244" lon="-0.1904833" version="5" timestamp="2021-08-31T22:33:50Z" changeset="110534603" uid="6816132" user="CjMalone">
    <tag k="addr:city" v="Huntingdon"/>
    <tag k="addr:country" v="GB"/>
    <tag k="addr:county" v="Cambridgeshire"/>
    <tag k="addr:housename" v="Huntingdon Business Centre"/>
    <tag k="addr:postcode" v="PE29 6HQ"/>
    <tag k="addr:street" v="Stukeley Road"/>
    <tag k="addr:unit" v="15,15A"/>
    <tag k="cuisine" v="polish"/>
    <tag k="fhrs:id" v="457463"/>
    <tag k="name" v="Eunice Artisan Bakery"/>
    <tag k="operator" v="Eunice Artisan Bakery Ltd"/>
    <tag k="shop" v="bakery"/>
    <tag k="website" v="https://bakeryeunice.co.uk/"/>
  </node>
  <node id="5326456528" lat="52.3301749" lon="-0.1828094" version="9" timestamp="2023-10-19T14:38:26Z" changeset="142819514" uid="4345757" user="JassKurn">
    <tag k="addr:city" v="Huntingdon"/>
    <tag k="addr:country" v="GB"/>
    <tag k="addr:county" v="Cambridgeshire"/>
    <tag k="addr:housenumber" v="123b"/>
    <tag k="addr:postcode" v="PE29 3LG"/>
    <tag k="addr:street" v="High Street"/>
    <tag k="amenity" v="fast_food"/>
    <tag k="brand" v="Greggs"/>
    <tag k="brand:wikidata" v="Q3403981"/>
    <tag k="brand:wikipedia" v="en:Greggs"/>
    <tag k="contact:website" v="https://www.greggs.co.uk/shop-finder?shop-code=0797"/>
    <tag k="cuisine" v="sandwich;bakery"/>
    <tag k="fhrs:id" v="341404"/>
    <tag k="name" v="Greggs"/>
    <tag k="takeaway" v="yes"/>
  </node>
  <node id="5326456531" lat="52.3301026" lon="-0.1826229" version="9" timestamp="2024-08-15T18:42:00Z" changeset="155296903" uid="84263" user="Robert Whittaker">
    <tag k="addr:city" v="Huntingdon"/>
    <tag k="addr:postcode" v="PE29 3NE"/>
    <tag k="addr:street" v="High Street"/>
    <tag k="brand" v="Shoe Zone"/>
    <tag k="brand:wikidata" v="Q7500016"/>
    <tag k="brand:wikipedia" v="en:Shoe Zone"/>
    <tag k="contact:website" v="https://www.shoezone.com/Stores/Huntingdon-1160"/>
    <tag k="name" v="Shoe Zone"/>
    <tag k="shop" v="shoes"/>
    <tag k="source:addr:postcode" v="ons_uprn_lookup"/>
  </node>
  <node id="5326458334" lat="52.3296867" lon="-0.1818989" version="6" timestamp="2023-11-03T15:31:40Z" changeset="143580004" uid="6816132" user="CjMalone">
    <tag k="addr:city" v="Huntingdon"/>
    <tag k="addr:housenumber" v="135"/>
    <tag k="addr:postcode" v="PE29 3NF"/>
    <tag k="addr:street" v="High Street"/>
    <tag k="brand" v="British Heart Foundation"/>
    <tag k="brand:wikidata" v="Q4970039"/>
    <tag k="brand:wikipedia" v="en:British Heart Foundation"/>
    <tag k="name" v="British Heart Foundation"/>
    <tag k="shop" v="charity"/>
    <tag k="website" v="https://www.bhf.org.uk/what-we-do/find-bhf-near-you/huntingdon-furniture-electrical-store"/>
  </node>
  <node id="5790263639" lat="52.3307908" lon="-0.1854084" version="3" timestamp="2021-08-31T22:33:50Z" changeset="110534603" uid="6816132" user="CjMalone">
    <tag k="addr:city" v="Huntingdon"/>
    <tag k="addr:country" v="GB"/>
    <tag k="addr:county" v="Cambridgeshire"/>
    <tag k="addr:housenumber" v="112"/>
    <tag k="addr:postcode" v="PE29 3LD"/>
    <tag k="addr:street" v="High Street"/>
    <tag k="fhrs:id" v="1196801"/>
    <tag k="name" v="Nectar"/>
    <tag k="operator" v="Nectar Huntingdon Ltd"/>
    <tag k="shop" v="convenience"/>
  </node>
  <node id="5790321053" lat="52.3307465" lon="-0.1843603" version="7" timestamp="2024-08-28T17:17:59Z" changeset="155891697" uid="21425661" user="CjMalone">
    <tag k="addr:city" v="Huntingdon"/>
    <tag k="addr:country" v="GB"/>
    <tag k="addr:county" v="Cambridgeshire"/>
    <tag k="addr:housenumber" v="108"/>
    <tag k="addr:postcode" v="PE29 3LD"/>
    <tag k="addr:street" v="High Street"/>
    <tag k="brand" v="Savers"/>
    <tag k="brand:wikidata" v="Q7428189"/>
    <tag k="brand:wikipedia" v="en:Savers (UK retailer)"/>
    <tag k="check_date" v="2024-08-28"/>
    <tag k="check_date:opening_hours" v="2024-08-28"/>
    <tag k="fhrs:id" v="504833"/>
    <tag k="name" v="Savers"/>
    <tag k="official_name" v="Savers Health &amp; Beauty"/>
    <tag k="opening_hours" v="Mo-Th 08:30-17:30; Fr-Sa 08:30-18:00; Su 10:00-16:00"/>
    <tag k="phone" v="+44 1480 457372"/>
    <tag k="shop" v="chemist"/>
  </node>
  <node id="5790321054" lat="52.3307195" lon="-0.1842879" version="3" timestamp="2023-08-20T11:05:57Z" changeset="140127603" uid="13001300" user="simonc11">
    <tag k="addr:city" v="Huntingdon"/>
    <tag k="addr:country" v="GB"/>
    <tag k="addr:county" v="Cambridgeshire"/>
    <tag k="addr:housenumber" v="109"/>
    <tag k="addr:postcode" v="PE29 3LD"/>
    <tag k="addr:street" v="High Street"/>
    <tag k="amenity" v="cafe"/>
    <tag k="fhrs:id" v="1060896"/>
    <tag k="name" v="Rosamunds"/>
    <tag k="wikidata" v="Q26421493"/>
  </node>
  <node id="5790321057" lat="52.3304187" lon="-0.1834872" version="2" timestamp="2021-08-31T22:33:50Z" changeset="110534603" uid="6816132" user="CjMalone">
    <tag k="addr:city" v="Huntingdon"/>
    <tag k="addr:country" v="GB"/>
    <tag k="addr:county" v="Cambridgeshire"/>
    <tag k="addr:housenumber" v="115"/>
    <tag k="addr:postcode" v="PE29 3LD"/>
    <tag k="addr:street" v="High Street"/>
    <tag k="fhrs:id" v="830966"/>
    <tag k="name" v="Grosik"/>
    <tag k="operator" v="Grosik Sklep Ltd"/>
    <tag k="shop" v="convenience"/>
  </node>
  <node id="5790640760" lat="52.3307719" lon="-0.1819088" version="7" timestamp="2024-08-23T16:44:17Z" changeset="155662841" uid="21425661" user="CjMalone">
    <tag k="addr:city" v="Huntingdon"/>
    <tag k="addr:country" v="GB"/>
    <tag k="addr:county" v="Cambridgeshire"/>
    <tag k="addr:housenumber" v="35"/>
    <tag k="addr:postcode" v="PE29 3LZ"/>
    <tag k="addr:street" v="Chequers Court"/>
    <tag k="amenity" v="cafe"/>
    <tag k="brand" v="Caffè Nero"/>
    <tag k="brand:wikidata" v="Q675808"/>
    <tag k="brand:wikipedia" v="en:Caffè Nero"/>
    <tag k="check_date" v="2024-08-22"/>
    <tag k="check_date:opening_hours" v="2024-08-22"/>
    <tag k="cuisine" v="coffee_shop"/>
    <tag k="fhrs:id" v="1051130"/>
    <tag k="name" v="Caffè Nero"/>
    <tag k="opening_hours" v="Mo-Sa 07:30-18:00; Su 08:30-17:30"/>
    <tag k="takeaway" v="yes"/>
    <tag k="website" v="https://www.caffenero.com/uk/stores/huntingdon/"/>
  </node>
  <node id="6292657436" lat="52.3287369" lon="-0.1809490" version="6" timestamp="2024-05-03T06:22:08Z" changeset="150821216" uid="7705798" user="MVEMJSUNP">
    <tag k="addr:city" v="Huntingdon"/>
    <tag k="addr:housenumber" v="22"/>
    <tag k="addr:postcode" v="PE29 3TA"/>
    <tag k="addr:street" v="High Street"/>
    <tag k="amenity" v="fast_food"/>
    <tag k="cuisine" v="fish_and_chips"/>
    <tag k="name" v="Barney's Place"/>
    <tag k="opening_hours" v="Su 16:00-22:00l; Mo-Th 11:30-14:30, 16:00-22:00; Fr-Sa 11:30-22:00"/>
    <tag k="phone" v="01480 437775"/>
  </node>
  <node id="6292657438" lat="52.3293252" lon="-0.1819006" version="8" timestamp="2023-10-23T17:45:00Z" changeset="143029056" uid="6816132" user="CjMalone">
    <tag k="addr:city" v="Huntingdon"/>
    <tag k="addr:housenumber" v="35"/>
    <tag k="addr:postcode" v="PE29 3AQ"/>
    <tag k="addr:street" v="High Street"/>
    <tag k="brand" v="Cash Converters"/>
    <tag k="brand:wikidata" v="Q5048645"/>
    <tag k="brand:wikipedia" v="en:Cash Converters"/>
    <tag k="name" v="Cash Converters"/>
    <tag k="opening_hours" v="Mo-Sa 10:00-17:30"/>
    <tag k="phone" v="+44 1480 450939"/>
    <tag k="shop" v="pawnbroker"/>
    <tag k="website" v="https://www.cashconverters.co.uk/stores/huntingdon"/>
  </node>
  <node id="7425333301" lat="52.3525948" lon="-0.1806533" version="3" timestamp="2022-08-11T13:02:08Z" changeset="124775707" uid="3475996" user="bobbob101">
    <tag k="addr:city" v="Huntingdon"/>
    <tag k="addr:country" v="GB"/>
    <tag k="addr:county" v="Cambridgeshire"/>
    <tag k="addr:housename" v="Tesco"/>
    <tag k="addr:postcode" v="PE28 2LA"/>
    <tag k="addr:street" v="Abbots Ripton Road"/>
    <tag k="amenity" v="cafe"/>
    <tag k="brand" v="Harris + Hoole"/>
    <tag k="brand:wikidata" v="Q19903306"/>
    <tag k="cuisine" v="coffee_shop"/>
    <tag k="fhrs:id" v="696988"/>
    <tag k="name" v="Harris + Hoole"/>
    <tag k="operator" v="Harris &amp; Hoole Ltd"/>
    <tag k="takeaway" v="yes"/>
  </node>
  <node id="7462853188" lat="52.3303759" lon="-0.1824605" version="4" timestamp="2023-01-09T14:25:53Z" changeset="131057356" uid="84263" user="Robert Whittaker">
    <tag k="addr:city" v="Huntingdon"/>
    <tag k="addr:country" v="GB"/>
    <tag k="addr:county" v="Cambridgeshire"/>
    <tag k="addr:housenumber" v="2"/>
    <tag k="addr:postcode" v="PE29 3LJ"/>
    <tag k="addr:street" v="Chequers Court"/>
    <tag k="brand" v="Grape Tree"/>
    <tag k="brand:wikidata" v="Q87071497"/>
    <tag k="fhrs:id" v="774028"/>
    <tag k="name" v="Grape Tree"/>
    <tag k="shop" v="health_food"/>
    <tag k="website" v="https://www.grapetree.co.uk/stores/locator/store/l/huntingdon/chequers-court/3423724"/>
  </node>
  <node id="7876616689" lat="52.3307950" lon="-0.1822428" version="5" timestamp="2023-10-19T14:52:36Z" changeset="142820318" uid="4345757" user="JassKurn">
    <tag k="addr:city" v="Huntingdon"/>
    <tag k="addr:country" v="GB"/>
    <tag k="addr:county" v="Cambridgeshire"/>
    <tag k="addr:housenumber" v="20-24"/>
    <tag k="addr:postcode" v="PE29 3LN"/>
    <tag k="addr:street" v="Chequers Court"/>
    <tag k="brand" v="Holland &amp; Barrett"/>
    <tag k="brand:wikidata" v="Q5880870"/>
    <tag k="brand:wikipedia" v="en:Holland &amp; Barrett"/>
    <tag k="fhrs:id" v="1051166"/>
    <tag k="name" v="Holland &amp; Barrett"/>
    <tag k="shop" v="health_food"/>
  </node>
  <node id="7876616694" lat="52.3313606" lon="-0.1858383" version="2" timestamp="2021-08-31T22:33:50Z" changeset="110534603" uid="6816132" user="CjMalone">
    <tag k="addr:city" v="Huntingdon"/>
    <tag k="addr:country" v="GB"/>
    <tag k="addr:county" v="Cambridgeshire"/>
    <tag k="addr:housenumber" v="57"/>
    <tag k="addr:postcode" v="PE29 3DN"/>
    <tag k="addr:street" v="High Street"/>
    <tag k="amenity" v="fast_food"/>
    <tag k="cuisine" v="chicken"/>
    <tag k="fhrs:id" v="1051139"/>
    <tag k="name" v="Chicken Spot"/>
  </node>
  <node id="7876616700" lat="52.3300115" lon="-0.1825244" version="5" timestamp="2024-08-15T18:42:00Z" changeset="155296903" uid="84263" user="Robert Whittaker">
    <tag k="addr:city" v="Huntingdon"/>
    <tag k="addr:postcode" v="PE29 3NE"/>
    <tag k="addr:street" v="High Street"/>
    <tag k="brand" v="Game"/>
    <tag k="brand:wikidata" v="Q5519813"/>
    <tag k="brand:wikipedia" v="en:Game (retailer)"/>
    <tag k="name" v="Game"/>
    <tag k="shop" v="video_games"/>
    <tag k="source:addr:postcode" v="ons_uprn_lookup"/>
  </node>
  <node id="7876616701" lat="52.3299722" lon="-0.1824614" version="5" timestamp="2024-08-15T18:42:00Z" changeset="155296903" uid="84263" user="Robert Whittaker">
    <tag k="addr:city" v="Huntingdon"/>
    <tag k="addr:postcode" v="PE29 3NE"/>
    <tag k="addr:street" v="High Street"/>
    <tag k="brand" v="Specsavers"/>
    <tag k="brand:wikidata" v="Q2000610"/>
    <tag k="brand:wikipedia" v="en:Specsavers"/>
    <tag k="contact:website" v="https://www.specsavers.co.uk/stores/huntingdon"/>
    <tag k="name" v="Specsavers"/>
    <tag k="shop" v="optician"/>
    <tag k="source:addr:postcode" v="ons_uprn_lookup"/>
  </node>
  <node id="7876616703" lat="52.3302706" lon="-0.1829683" version="4" timestamp="2023-09-20T12:33:36Z" changeset="141511720" uid="10420541" user="Thingummy">
    <tag k="addr:city" v="Huntingdon"/>
    <tag k="addr:country" v="GB"/>
    <tag k="addr:county" v="Cambridgeshire"/>
    <tag k="addr:housenumber" v="123"/>
    <tag k="addr:postcode" v="PE29 3LG"/>
    <tag k="addr:street" v="High Street"/>
    <tag k="amenity" v="restaurant"/>
    <tag k="bar" v="yes"/>
    <tag k="brand" v="Lounges"/>
    <tag k="brand:wikidata" v="Q114313933"/>
    <tag k="cuisine" v="british"/>
    <tag k="fhrs:id" v="1196800"/>
    <tag k="name" v="Olmo Lounge"/>
    <tag k="website" v="https://thelounges.co.uk/olmo/"/>
  </node>
  <node id="8834912621" lat="52.3410823" lon="-0.1937732" version="2" timestamp="2021-10-02T15:28:27Z" changeset="112005533" uid="11022773" user="GeoFens">
    <tag k="addr:city" v="Huntingdon"/>
    <tag k="addr:housenumber" v="9"/>
    <tag k="addr:postcode" v="PE29 6EB"/>
    <tag k="addr:street" v="St Margarets Way"/>
    <tag k="amenity" v="cafe"/>
    <tag k="fhrs:id" v="341512"/>
    <tag k="name" v="Cafe Pausa"/>
    <tag k="source:addr" v="FHRS Open Data"/>
  </node>
  <node id="9037227913" lat="52.3299109" lon="-0.1823618" version="5" timestamp="2024-08-15T18:42:00Z" changeset="155296903" uid="84263" user="Robert Whittaker">
    <tag k="addr:city" v="Huntingdon"/>
    <tag k="addr:postcode" v="PE29 3NE"/>
    <tag k="addr:street" v="High Street"/>
    <tag k="brand" v="TaxAssist Accountants"/>
    <tag k="brand:wikidata" v="Q122459380"/>
    <tag k="name" v="TaxAssist"/>
    <tag k="office" v="accountant"/>
    <tag k="source:addr:postcode" v="ons_uprn_lookup"/>
    <tag k="website" v="https://www.taxassist.co.uk/accountants/huntingdon"/>
  </node>
  <node id="9037227914" lat="52.3300412" lon="-0.1825830" version="6" timestamp="2024-08-29T13:40:32Z" changeset="155929668" uid="21425661" user="CjMalone">
    <tag k="addr:city" v="Huntingdon"/>
    <tag k="addr:postcode" v="PE29 3NE"/>
    <tag k="addr:street" v="High Street"/>
    <tag k="brand" v="The Salvation Army"/>
    <tag k="brand:wikidata" v="Q188307"/>
    <tag k="check_date" v="2024-08-20"/>
    <tag k="name" v="The Salvation Army"/>
    <tag k="shop" v="charity"/>
    <tag k="source:addr:postcode" v="ons_uprn_lookup"/>
    <tag k="website" v="https://www.salvationarmy.org.uk/huntingdon-charity-shop"/>
  </node>
  <node id="9051911433" lat="52.3295557" lon="-0.1818564" version="4" timestamp="2023-10-19T14:52:40Z" changeset="142820318" uid="4345757" user="JassKurn">
    <tag k="addr:city" v="Huntingdon"/>
    <tag k="addr:housenumber" v="135"/>
    <tag k="addr:postcode" v="PE29 3NF"/>
    <tag k="addr:street" v="High Street"/>
    <tag k="brand" v="Bonmarché"/>
    <tag k="brand:wikidata" v="Q4942146"/>
    <tag k="brand:wikipedia" v="en:Bonmarché"/>
    <tag k="name" v="Bonmarché"/>
    <tag k="shop" v="clothes"/>
  </node>
  <node id="9258526616" lat="52.3411667" lon="-0.1870587" version="3" timestamp="2023-10-19T14:52:41Z" changeset="142820318" uid="4345757" user="JassKurn">
    <tag k="addr:city" v="Huntingdon"/>
    <tag k="addr:housenumber" v="8"/>
    <tag k="addr:street" v="The Bridge Centre"/>
    <tag k="brand" v="Dulux Paints"/>
    <tag k="brand:wikidata" v="Q50921"/>
    <tag k="brand:wikipedia" v="en:Dulux"/>
    <tag k="name" v="Dulux Paints"/>
    <tag k="shop" v="paint"/>
  </node>
  <node id="10962303095" lat="52.3304112" lon="-0.1842354" version="2" timestamp="2023-06-23T12:21:32Z" changeset="137686776" uid="10420541" user="Thingummy">
    <tag k="addr:city" v="Huntingdon"/>
    <tag k="addr:street" v="Market Hill"/>
    <tag k="amenity" v="events_venue"/>
    <tag k="email" v="town.council@huntingdontown.gov.uk"/>
    <tag k="name" v="Assembly Rooms"/>
    <tag k="operator" v="Huntingdon Town Council"/>
    <tag k="postal_code" v="PE29 3PJ"/>
  </node>
  <node id="10964927186" lat="52.3428681" lon="-0.1959344" version="4" timestamp="2023-10-19T14:57:56Z" changeset="142820593" uid="4345757" user="JassKurn">
    <tag k="addr:city" v="Huntingdon"/>
    <tag k="addr:postcode" v="PE29 6HG"/>
    <tag k="addr:street" v="Stukeley Road"/>
    <tag k="amenity" v="fuel"/>
    <tag k="brand" v="Shell"/>
    <tag k="brand:wikidata" v="Q110716465"/>
    <tag k="brand:wikipedia" v="en:Royal Dutch Shell"/>
    <tag k="fuel:diesel" v="yes"/>
    <tag k="fuel:octane_95" v="yes"/>
    <tag k="fuel:octane_98" v="yes"/>
    <tag k="name" v="Shell"/>
    <tag k="opening_hours" v="0:00-23:59"/>
    <tag k="phone" v="+44 1480 432160"/>
    <tag k="ref:navads" v="NVDS353_10018941"/>
    <tag k="website" v="https://find.shell.com/gb/fuel/10018941-shell-huntingdon"/>
  </node>
  <node id="11478703523" lat="52.3454446" lon="-0.1756502" version="5" timestamp="2024-06-01T18:32:35Z" changeset="152134480" uid="84263" user="Robert Whittaker">
    <tag k="addr:city" v="Huntingdon"/>
    <tag k="addr:country" v="GB"/>
    <tag k="addr:housenumber" v="6"/>
    <tag k="addr:postcode" v="PE29 7HN"/>
    <tag k="addr:street" v="Oak Drive"/>
    <tag k="amenity" v="community_centre"/>
    <tag k="name" v="The Maple Centre"/>
    <tag k="note" v="Able carpark across bridge PE29 7LB"/>
    <tag k="website" v="https://huntsforum.org.uk/about-the-centre/"/>
    <tag k="wheelchair" v="yes"/>
    <tag k="wheelchair:description" v="see website for parking"/>
  </node>
  <node id="11729997399" lat="52.3425132" lon="-0.1901014" version="1" timestamp="2024-03-14T07:46:31Z" changeset="148626594" uid="322785" user="BCNorwich">
    <tag k="addr:city" v="Huntingdon"/>
    <tag k="addr:housename" v="Cinch Storage Unit 4-6"/>
    <tag k="addr:postcode" v="PE29 6ED"/>
    <tag k="addr:street" v="St Margarets Way"/>
    <tag k="name" v="The Car Edition"/>
    <tag k="shop" v="car"/>
  </node>
  <node id="11832677069" lat="52.3303988" lon="-0.1821838" version="2" timestamp="2024-09-24T14:12:51Z" changeset="157041882" uid="84263" user="Robert Whittaker">
    <tag k="addr:street" v="Chequers Court"/>
    <tag k="brand" v="Vision Express"/>
    <tag k="brand:wikidata" v="Q7936150"/>
    <tag k="name" v="Vision Express"/>
    <tag k="shop" v="optician"/>
  </node>
  <node id="11875788518" lat="52.3287891" lon="-0.1810101" version="1" timestamp="2024-05-03T06:22:08Z" changeset="150821216" uid="7705798" user="MVEMJSUNP">
    <tag k="addr:city" v="Huntingdon"/>
    <tag k="addr:housenumber" v="23"/>
    <tag k="addr:postcode" v="PE29 3TA"/>
    <tag k="addr:street" v="High Street"/>
    <tag k="amenity" v="restaurant"/>
    <tag k="cuisine" v="chinese"/>
    <tag k="name" v="Golden City"/>
    <tag k="opening_hours" v="Mo-Su 12:00-22:00"/>
    <tag k="phone" v="01480 411088"/>
    <tag k="website" v="https://golden-citychinese.co.uk/"/>
  </node>
  <way id="25747236" version="15" timestamp="2024-09-17T00:25:52Z" changeset="156709402" uid="21226027" user="DorneyLake123">
    <nd ref="6001061840"/>
    <nd ref="6001061948"/>
    <nd ref="6398569332"/>
    <nd ref="6001061949"/>
    <nd ref="6001061856"/>
    <nd ref="6001061855"/>
    <nd ref="6001061953"/>
    <nd ref="6001061950"/>
    <nd ref="6001061971"/>
    <nd ref="6403637008"/>
    <nd ref="6403637010"/>
    <nd ref="6398637374"/>
    <nd ref="6001061970"/>
    <nd ref="280779606"/>
    <nd ref="6001061854"/>
    <nd ref="6403637004"/>
    <nd ref="6001061853"/>
    <nd ref="6398619355"/>
    <nd ref="6001061852"/>
    <nd ref="6398619362"/>
    <nd ref="6403631164"/>
    <nd ref="6001061851"/>
    <nd ref="6398619372"/>
    <nd ref="6001061850"/>
    <nd ref="6001061849"/>
    <nd ref="6001061848"/>
    <nd ref="6001061847"/>
    <nd ref="6001061846"/>
    <nd ref="6001061845"/>
    <nd ref="6001061844"/>
    <nd ref="6001061843"/>
    <nd ref="6001061842"/>
    <nd ref="6001061841"/>
    <nd ref="5328302963"/>
    <nd ref="6403636742"/>
    <nd ref="5328302962"/>
    <nd ref="6001061837"/>
    <nd ref="6403636775"/>
    <nd ref="6403636770"/>
    <nd ref="6398619888"/>
    <nd ref="6398619917"/>
    <nd ref="6403636768"/>
    <nd ref="280781051"/>
    <nd ref="6398612393"/>
    <nd ref="280781059"/>
    <nd ref="6398612392"/>
    <nd ref="6398612391"/>
    <nd ref="280781060"/>
    <nd ref="6398612390"/>
    <nd ref="280778862"/>
    <nd ref="6398612389"/>
    <nd ref="6398612388"/>
    <nd ref="2411085482"/>
    <nd ref="6398612387"/>
    <nd ref="6398612450"/>
    <nd ref="1143926852"/>
    <nd ref="2411085541"/>
    <nd ref="2411085578"/>
    <nd ref="6398612449"/>
    <nd ref="6001061861"/>
    <nd ref="280780298"/>
    <nd ref="6001061862"/>
    <nd ref="6001061798"/>
    <nd ref="280780279"/>
    <nd ref="6001061799"/>
    <nd ref="280780278"/>
    <nd ref="6001061892"/>
    <nd ref="6001061895"/>
    <nd ref="6001061863"/>
    <nd ref="6398569342"/>
    <nd ref="6001061838"/>
    <nd ref="6001061839"/>
    <nd ref="6001061945"/>
    <nd ref="6398569330"/>
    <nd ref="6001061946"/>
    <nd ref="6001061840"/>
    <tag k="addr:city" v="Huntingdon"/>
    <tag k="addr:postcode" v="PE29 3BN"/>
    <tag k="addr:street" v="Brampton Road"/>
    <tag k="amenity" v="school"/>
    <tag k="capacity" v="2005"/>
    <tag k="isced:level" v="2;3"/>
    <tag k="max_age" v="18"/>
    <tag k="min_age" v="11"/>
    <tag k="name" v="Hinchingbrooke School"/>
    <tag k="ref:edubase" v="137475"/>
    <tag k="wikidata" v="Q5765732"/>
    <tag k="wikipedia" v="en:Hinchingbrooke School"/>
  </way>
  <way id="25954460" version="7" timestamp="2022-02-13T15:54:06Z" changeset="117359548" uid="11022773" user="GeoFens">
    <nd ref="283149085"/>
    <nd ref="9502881672"/>
    <nd ref="9502881673"/>
    <nd ref="283150168"/>
    <nd ref="283150167"/>
    <nd ref="9502881671"/>
    <nd ref="283150170"/>
    <nd ref="283149090"/>
    <nd ref="283149085"/>
    <tag k="addr:city" v="Huntingdon"/>
    <tag k="addr:housenumber" v="9"/>
    <tag k="addr:postcode" v="PE29 6EB"/>
    <tag k="addr:street" v="St Margarets Way"/>
    <tag k="brand" v="Dunelm"/>
    <tag k="brand:wikidata" v="Q5315020"/>
    <tag k="brand:wikipedia" v="en:Dunelm Group"/>
    <tag k="building" v="yes"/>
    <tag k="name" v="Dunelm"/>
    <tag k="shop" v="furniture"/>
    <tag k="source:addr" v="FHRS Open Data"/>
    <tag k="website" v="https://www.dunelm.com/stores/huntingdon"/>
  </way>
  <way id="25954588" version="6" timestamp="2022-09-28T07:51:33Z" changeset="126727289" uid="6816132" user="CjMalone">
    <nd ref="283150533"/>
    <nd ref="283150532"/>
    <nd ref="283150530"/>
    <nd ref="9051538186"/>
    <nd ref="283150529"/>
    <nd ref="283150533"/>
    <tag k="addr:city" v="Huntingdon"/>
    <tag k="addr:postcode" v="PE29 7DZ"/>
    <tag k="addr:street" v="Huntingdon Retail Park"/>
    <tag k="addr:unit" v="A"/>
    <tag k="brand" v="B&amp;Q"/>
    <tag k="brand:wikidata" v="Q707602"/>
    <tag k="brand:wikipedia" v="en:B&amp;Q"/>
    <tag k="building" v="yes"/>
    <tag k="contact:website" v="https://www.diy.com/store/1352"/>
    <tag k="name" v="B&amp;Q"/>
    <tag k="shop" v="doityourself"/>
  </way>
  <way id="27175106" version="8" timestamp="2024-09-16T23:34:07Z" changeset="156708827" uid="21226027" user="DorneyLake123">
    <nd ref="298171646"/>
    <nd ref="1919765569"/>
    <nd ref="298171647"/>
    <nd ref="298171648"/>
    <nd ref="298171623"/>
    <nd ref="298171646"/>
    <tag k="addr:city" v="Huntingdon"/>
    <tag k="addr:postcode" v="PE29 1PE"/>
    <tag k="addr:street" v="Buttsgrove Way"/>
    <tag k="amenity" v="school"/>
    <tag k="capacity" v="420"/>
    <tag k="isced:level" v="1"/>
    <tag k="max_age" v="11"/>
    <tag k="min_age" v="3"/>
    <tag k="name" v="Thongsley Fields Primary and Nursery School"/>
    <tag k="ref:edubase" v="146310"/>
    <tag k="wikidata" v="Q66232739"/>
  </way>
  <way id="103970813" version="3" timestamp="2023-08-13T20:38:22Z" changeset="139843632" uid="90142" user="andy mackey">
    <nd ref="306467538"/>
    <nd ref="306467540"/>
    <nd ref="306467537"/>
    <nd ref="306467535"/>
    <nd ref="301807122"/>
    <nd ref="306467544"/>
    <nd ref="306467538"/>
    <tag k="addr:city" v="Huntingdon"/>
    <tag k="addr:housename" v="Purvis Marine"/>
    <tag k="addr:postcode" v="PE29 3RP"/>
    <tag k="addr:street" v="Hartford Road "/>
    <tag k="building" v="yes"/>
    <tag k="name" v="Purvis Marine (boat yard &amp; hire)"/>
  </way>
  <way id="107160853" version="8" timestamp="2021-10-04T06:59:10Z" changeset="112060583" uid="1352486" user="vmeads">
    <nd ref="8666965971"/>
    <nd ref="8666965970"/>
    <nd ref="1232047922"/>
    <nd ref="8666965988"/>
    <nd ref="8666965987"/>
    <nd ref="9143835869"/>
    <nd ref="1232047923"/>
    <nd ref="1392128740"/>
    <nd ref="8666965986"/>
    <nd ref="8666965985"/>
    <nd ref="1232047931"/>
    <nd ref="1232047935"/>
    <nd ref="1232047939"/>
    <nd ref="1392128748"/>
    <nd ref="8666965984"/>
    <nd ref="8666965983"/>
    <nd ref="8666965982"/>
    <nd ref="8666965981"/>
    <nd ref="1232047946"/>
    <nd ref="1232047947"/>
    <nd ref="8666965980"/>
    <nd ref="8666965979"/>
    <nd ref="9143835870"/>
    <nd ref="1232047951"/>
    <nd ref="1232047956"/>
    <nd ref="1232047960"/>
    <nd ref="1392128761"/>
    <nd ref="1392128766"/>
    <nd ref="8666965978"/>
    <nd ref="8666965977"/>
    <nd ref="8666965976"/>
    <nd ref="8666965975"/>
    <nd ref="8666965974"/>
    <nd ref="8666965973"/>
    <nd ref="1232047892"/>
    <nd ref="8666965972"/>
    <nd ref="8666965971"/>
    <tag k="addr:city" v="Huntingdon"/>
    <tag k="addr:postcode" v="PE29 3PD"/>
    <tag k="addr:street" v="Ambury Road South"/>
    <tag k="building" v="apartments"/>
    <tag k="building:flats" v="57"/>
    <tag k="building:levels" v="3"/>
    <tag k="name" v="Anglian House"/>
  </way>
  <way id="107609397" version="4" timestamp="2024-06-30T11:08:41Z" changeset="153364058" uid="95856" user="john paul jones &amp; gringo">
    <nd ref="1236423990"/>
    <nd ref="1236423993"/>
    <nd ref="1236423992"/>
    <nd ref="1236423983"/>
    <nd ref="1236423994"/>
    <nd ref="1236423980"/>
    <nd ref="1236423991"/>
    <nd ref="1236423978"/>
    <nd ref="1236423990"/>
    <tag k="addr:city" v="Huntingdon"/>
    <tag k="addr:postcode" v="PE29 7AF"/>
    <tag k="addr:street" v="Sallowbush Road"/>
    <tag k="amenity" v="community_centre"/>
    <tag k="building" v="yes"/>
    <tag k="building:levels" v="2"/>
    <tag k="name" v="Huntingdon Youth, Child and Family Centre"/>
    <tag k="opening_hours" v="Mo-We, Fr 09:30-14:30; Th 09:30-13:00"/>
    <tag k="website" v="https://info.cambridgeshire.gov.uk/kb5/cambridgeshire/directory/service.page?id=QgEFkGqyPHA&amp;camcommunitychannel=3-1"/>
  </way>
  <way id="108474461" version="9" timestamp="2024-04-05T14:56:05Z" changeset="149619202" uid="10420541" user="Thingummy">
    <nd ref="1244554698"/>
    <nd ref="1244554721"/>
    <nd ref="11793118159"/>
    <nd ref="11793118160"/>
    <nd ref="11793118158"/>
    <nd ref="11793118157"/>
    <nd ref="11793118161"/>
    <nd ref="11793118156"/>
    <nd ref="1244554711"/>
    <nd ref="11793118162"/>
    <nd ref="1244554705"/>
    <nd ref="11793118154"/>
    <nd ref="11793118155"/>
    <nd ref="11793118165"/>
    <nd ref="1244554719"/>
    <nd ref="1244554713"/>
    <nd ref="1244554716"/>
    <nd ref="1244554724"/>
    <nd ref="1244554695"/>
    <nd ref="1244554698"/>
    <tag k="addr:city" v="Huntingdon"/>
    <tag k="addr:housenumber" v="3"/>
    <tag k="addr:postcode" v="PE29 3TQ"/>
    <tag k="addr:street" v="High street"/>
    <tag k="building" v="hotel"/>
    <tag k="heritage" v="2"/>
    <tag k="heritage:operator" v="english heritage"/>
    <tag k="heritage:ref" v="1161626"/>
    <tag k="hotel" v="yes"/>
    <tag k="name" v="The Old Bridge Hotel"/>
    <tag k="tourism" v="hotel"/>
    <tag k="website" v="https://www.oldbridgehuntingdon.co.uk/"/>
  </way>
  <way id="117726684" version="9" timestamp="2023-11-03T18:38:55Z" changeset="143587010" uid="504708" user="HillWithSmallFields">
    <nd ref="5790248796"/>
    <nd ref="5790248797"/>
    <nd ref="5790248798"/>
    <nd ref="5790248799"/>
    <nd ref="5790248800"/>
    <nd ref="5790248801"/>
    <nd ref="5790248802"/>
    <nd ref="5790248803"/>
    <nd ref="5790248804"/>
    <nd ref="5790248811"/>
    <nd ref="5790248812"/>
    <nd ref="5790248813"/>
    <nd ref="5790248814"/>
    <nd ref="5790248815"/>
    <nd ref="5790248816"/>
    <nd ref="5790248817"/>
    <nd ref="5790248818"/>
    <nd ref="5790248819"/>
    <nd ref="5790248820"/>
    <nd ref="5790248823"/>
    <nd ref="5790248824"/>
    <nd ref="5790248825"/>
    <nd ref="5790248826"/>
    <nd ref="5790248827"/>
    <nd ref="5790248807"/>
    <nd ref="5790248808"/>
    <nd ref="8918554831"/>
    <nd ref="8918554834"/>
    <nd ref="5790248806"/>
    <nd ref="8918554839"/>
    <nd ref="8918554838"/>
    <nd ref="5790248795"/>
    <nd ref="5790248796"/>
    <tag k="addr:street" v="High Street"/>
    <tag k="amenity" v="place_of_worship"/>
    <tag k="building" v="church"/>
    <tag k="denomination" v="anglican"/>
    <tag k="fhrs:id" v="448997"/>
    <tag k="name" v="All Saints"/>
    <tag k="ref:dove" v="10153"/>
    <tag k="religion" v="christian"/>
    <tag k="wikidata" v="Q4729328"/>
  </way>
  <way id="121667960" version="4" timestamp="2024-03-28T08:59:45Z" changeset="149257424" uid="90142" user="andy mackey">
    <nd ref="1361266774"/>
    <nd ref="1361266762"/>
    <nd ref="1361266739"/>
    <nd ref="1361266752"/>
    <nd ref="1361266730"/>
    <nd ref="1361266720"/>
    <nd ref="1361266768"/>
    <nd ref="1361266759"/>
    <nd ref="1361266774"/>
    <tag k="addr:city" v="Huntingdon"/>
    <tag k="addr:postcode" v="PE29 1UL"/>
    <tag k="addr:street" v="Mayfield Road"/>
    <tag k="building" v="public"/>
    <tag k="name" v="Bradbury House..Cambs Therapy Centre"/>
  </way>
  <way id="137219015" version="11" timestamp="2024-04-22T22:51:38Z" changeset="150369039" uid="6816132" user="CjMalone">
    <nd ref="1505222228"/>
    <nd ref="1505222221"/>
    <nd ref="11295258966"/>
    <nd ref="1505222223"/>
    <nd ref="1505222231"/>
    <nd ref="1505222233"/>
    <nd ref="1505222186"/>
    <nd ref="1505222177"/>
    <nd ref="1505222214"/>
    <nd ref="1505222212"/>
    <nd ref="11295258965"/>
    <nd ref="1505222209"/>
    <nd ref="1505222228"/>
    <tag k="addr:city" v="Huntingdon"/>
    <tag k="addr:parentstreet" v="Spittals Way"/>
    <tag k="addr:postcode" v="PE28 2DN"/>
    <tag k="addr:street" v="March Road"/>
    <tag k="addr:village" v="Hartford"/>
    <tag k="amenity" v="fuel"/>
    <tag k="brand" v="BP"/>
    <tag k="brand:wikidata" v="Q152057"/>
    <tag k="brand:wikipedia" v="en:BP"/>
    <tag k="building" v="retail"/>
    <tag k="compressed_air" v="yes"/>
    <tag k="fuel:HGV_diesel" v="yes"/>
    <tag k="fuel:diesel" v="yes"/>
    <tag k="fuel:e10" v="yes"/>
    <tag k="fuel:octane_98" v="yes"/>
    <tag k="layer" v="1"/>
    <tag k="name" v="BP"/>
    <tag k="opening_hours" v="00:00-23:59"/>
    <tag k="operator" v="Motor Fuel Group"/>
    <tag k="operator:website" v="https://www.motorfuelgroup.com/locations/huntingdon-fs532/"/>
    <tag k="operator:wikidata" v="Q107271358"/>
    <tag k="website" v="https://map.bp.com/en-GB/GB/petrol-station/huntingdon/huntingdon-s-stn-fs532/28461"/>
  </way>
  <way id="137219017" version="8" timestamp="2023-10-28T11:36:52Z" changeset="143256719" uid="10420541" user="Thingummy">
    <nd ref="1505222222"/>
    <nd ref="1505222208"/>
    <nd ref="1505222189"/>
    <nd ref="1505222168"/>
    <nd ref="1505222166"/>
    <nd ref="1505222175"/>
    <nd ref="1505222216"/>
    <nd ref="1505222237"/>
    <nd ref="1505222238"/>
    <nd ref="1505222222"/>
    <tag k="addr:city" v="Huntingdon"/>
    <tag k="addr:postcode" v="PE28 2DN"/>
    <tag k="addr:street" v="Spittals Way"/>
    <tag k="compressed_air" v="yes"/>
    <tag k="fuel:diesel" v="yes"/>
    <tag k="fuel:e10" v="yes"/>
    <tag k="fuel:octane_98" v="yes"/>
    <tag k="highway" v="services"/>
    <tag k="name" v="M R H Huntingdon"/>
  </way>
  <way id="149523230" version="3" timestamp="2021-09-01T22:09:31Z" changeset="110586659" uid="11022773" user="GeoFens">
    <nd ref="1624934873"/>
    <nd ref="1624934878"/>
    <nd ref="1622387331"/>
    <nd ref="1622387311"/>
    <nd ref="1624934873"/>
    <tag k="addr:city" v="Huntingdon"/>
    <tag k="addr:housenumber" v="5-6"/>
    <tag k="addr:postcode" v="PE29 6FJ"/>
    <tag k="addr:street" v="Osprey Court"/>
    <tag k="building" v="yes"/>
    <tag k="name" v="Hunts County Bats"/>
    <tag k="phone" v="+44 1480 451234"/>
    <tag k="shop" v="sports"/>
    <tag k="source" v="survey"/>
    <tag k="sport" v="cricket"/>
    <tag k="website" v="https://www.huntscountybats.co.uk"/>
  </way>
  <way id="150714986" version="3" timestamp="2024-09-15T10:02:13Z" changeset="156640563" uid="21425661" user="CjMalone">
    <nd ref="1636015790"/>
    <nd ref="1636015844"/>
    <nd ref="1636015868"/>
    <nd ref="1636015891"/>
    <nd ref="1636015790"/>
    <tag k="addr:city" v="Huntingdon"/>
    <tag k="addr:postcode" v="PE29 6EB"/>
    <tag k="addr:street" v="St Margarets Way"/>
    <tag k="addr:unit" v="Unit B"/>
    <tag k="brand" v="Dreams"/>
    <tag k="brand:wikidata" v="Q5306688"/>
    <tag k="brand:wikipedia" v="en:Dreams (bed retailer)"/>
    <tag k="building" v="yes"/>
    <tag k="check_date" v="2024-09-15"/>
    <tag k="check_date:opening_hours" v="2024-09-15"/>
    <tag k="name" v="Dreams"/>
    <tag k="note" v="Showroom and depot"/>
    <tag k="opening_hours" v="Mo-Fr 10:00-18:00; Sa 09:00-18:00; Su 11:00-17:00"/>
    <tag k="operator" v="Dreams"/>
    <tag k="phone" v="+44 1480 585298"/>
    <tag k="shop" v="bed"/>
    <tag k="website" v="https://www.dreams.co.uk/store/huntingdon"/>
  </way>
  <way id="150714992" version="3" timestamp="2024-12-05T13:49:34Z" changeset="159958197" uid="10420541" user="Thingummy">
    <nd ref="1636015807"/>
    <nd ref="1636015839"/>
    <nd ref="1636015842"/>
    <nd ref="1636015793"/>
    <nd ref="1636015776"/>
    <nd ref="1636015909"/>
    <nd ref="1636015807"/>
    <tag k="addr:city" v="Huntingdon"/>
    <tag k="addr:postcode" v="PE29 6EU"/>
    <tag k="addr:street" v="St Margarets Way"/>
    <tag k="building" v="yes"/>
    <tag k="email" v="info@kloeber.co.uk"/>
    <tag k="name" v="Kloeber"/>
    <tag k="phone" v="+44 1487 740044"/>
    <tag k="shop" v="doors"/>
    <tag k="website" v="https://www.kloeber.co.uk/showrooms/cambridgeshire/"/>
  </way>
  <way id="150714999" version="5" timestamp="2023-03-20T16:15:14Z" changeset="133906122" uid="13750939" user="FortQuake">
    <nd ref="1636015889"/>
    <nd ref="1636015893"/>
    <nd ref="1636015895"/>
    <nd ref="1636015846"/>
    <nd ref="1636015897"/>
    <nd ref="1636015737"/>
    <nd ref="1636015889"/>
    <tag k="addr:city" v="Huntingdon"/>
    <tag k="addr:housenumber" v="22"/>
    <tag k="addr:postcode" v="PE29 6ED"/>
    <tag k="addr:street" v="Stonehill"/>
    <tag k="building" v="industrial"/>
    <tag k="building:levels" v="2"/>
    <tag k="name" v="Encocam Ltd."/>
    <tag k="operator" v="Encocam Ltd."/>
  </way>
  <way id="153336712" version="7" timestamp="2023-08-10T08:19:58Z" changeset="139694196" uid="6816132" user="CjMalone">
    <nd ref="1660414816"/>
    <nd ref="1660414829"/>
    <nd ref="1660414821"/>
    <nd ref="1660414806"/>
    <nd ref="1660414846"/>
    <nd ref="9051538190"/>
    <nd ref="9051538189"/>
    <nd ref="9051538188"/>
    <nd ref="9051538187"/>
    <nd ref="1660414836"/>
    <nd ref="1660414849"/>
    <nd ref="1660414843"/>
    <nd ref="1660414816"/>
    <tag k="addr:city" v="Huntingdon"/>
    <tag k="addr:postcode" v="PE28 2LA"/>
    <tag k="addr:street" v="Abbots Ripton Road"/>
    <tag k="amenity" v="fuel"/>
    <tag k="brand" v="Tesco"/>
    <tag k="brand:wikidata" v="Q487494"/>
    <tag k="brand:wikipedia" v="en:Tesco"/>
    <tag k="building" v="yes"/>
    <tag k="name" v="Tesco"/>
    <tag k="website" v="https://www.tesco.com/store-locator/huntingdon/abbots-ripton-rd/petrol-filling-station"/>
  </way>
  <way id="153336713" version="8" timestamp="2022-08-31T08:35:05Z" changeset="125600988" uid="6816132" user="CjMalone">
    <nd ref="1660414831"/>
    <nd ref="1660414823"/>
    <nd ref="9051538193"/>
    <nd ref="1660414844"/>
    <nd ref="1660414814"/>
    <nd ref="1660414831"/>
    <tag k="addr:city" v="Huntingdon"/>
    <tag k="addr:country" v="GB"/>
    <tag k="addr:county" v="Cambridgeshire"/>
    <tag k="addr:housename" v="Huntingdon Retail Park"/>
    <tag k="addr:postcode" v="PE29 7DZ"/>
    <tag k="addr:street" v="St Peters Road"/>
    <tag k="addr:unit" v="B"/>
    <tag k="brand" v="The Gym"/>
    <tag k="brand:wikidata" v="Q48815022"/>
    <tag k="brand:wikipedia" v="en:The Gym Group"/>
    <tag k="building" v="yes"/>
    <tag k="contact:website" v="https://www.thegymgroup.com/find-a-gym/huntingdon-gyms/huntingdon/"/>
    <tag k="leisure" v="fitness_centre"/>
    <tag k="name" v="The Gym"/>
    <tag k="start_date" v="2022"/>
  </way>
  <way id="173271613" version="6" timestamp="2021-10-02T15:28:27Z" changeset="112005533" uid="11022773" user="GeoFens">
    <nd ref="1841120575"/>
    <nd ref="1841120573"/>
    <nd ref="1841120580"/>
    <nd ref="1841120579"/>
    <nd ref="1841120578"/>
    <nd ref="1841120565"/>
    <nd ref="1841120569"/>
    <nd ref="1841120577"/>
    <nd ref="1841120576"/>
    <nd ref="1841120574"/>
    <nd ref="1841120570"/>
    <nd ref="1841120568"/>
    <nd ref="1841120575"/>
    <tag k="addr:city" v="Huntingdon"/>
    <tag k="addr:postcode" v="PE29 6SY"/>
    <tag k="addr:street" v="Washingley Road"/>
    <tag k="building" v="warehouse"/>
    <tag k="name" v="Amazon Logistics (DCB1)"/>
    <tag k="operator" v="Amazon Logistics"/>
  </way>
  <way id="173802683" version="5" timestamp="2022-07-16T16:11:59Z" changeset="123694741" uid="242345" user="confusedbuffalo">
    <nd ref="1845622027"/>
    <nd ref="1845622029"/>
    <nd ref="1845622028"/>
    <nd ref="1845622030"/>
    <nd ref="1845622027"/>
    <tag k="addr:city" v="Huntingdon"/>
    <tag k="addr:housename" v="Riverside House"/>
    <tag k="addr:housenumber" v="160"/>
    <tag k="addr:postcode" v="PE29 3SG"/>
    <tag k="addr:street" v="High Street"/>
    <tag k="building" v="yes"/>
    <tag k="designation" v="commercial"/>
    <tag k="name" v="web2market"/>
  </way>
  <way id="215120829" version="3" timestamp="2020-03-09T15:53:41Z" changeset="81971547" uid="90943" user="chris_debian">
    <nd ref="2245392562"/>
    <nd ref="2245392555"/>
    <nd ref="2245392544"/>
    <nd ref="2245392553"/>
    <nd ref="2245392562"/>
    <tag k="addr:city" v="Huntingdon"/>
    <tag k="addr:street" v="Nursery Road"/>
    <tag k="brand" v="ATS Euromaster"/>
    <tag k="brand:wikidata" v="Q4654920"/>
    <tag k="brand:wikipedia" v="en:ATS Euromaster"/>
    <tag k="building" v="yes"/>
    <tag k="name" v="ATS Euromaster"/>
    <tag k="shop" v="car_repair"/>
  </way>
  <way id="276173489" version="10" timestamp="2024-06-12T14:44:57Z" changeset="152590920" uid="10420541" user="Thingummy">
    <nd ref="2807961431"/>
    <nd ref="11204864573"/>
    <nd ref="11975581402"/>
    <nd ref="11975581401"/>
    <nd ref="2807961436"/>
    <nd ref="2807961438"/>
    <nd ref="11975581422"/>
    <nd ref="11975581421"/>
    <nd ref="2807961433"/>
    <nd ref="2807961432"/>
    <nd ref="2807961437"/>
    <nd ref="11975581424"/>
    <nd ref="11975581425"/>
    <nd ref="11204864574"/>
    <nd ref="2807961431"/>
    <tag k="addr:city" v="Huntingdon"/>
    <tag k="addr:postcode" v="PE29 3RL"/>
    <tag k="addr:street" v="Nursery Road"/>
    <tag k="amenity" v="doctors"/>
    <tag k="building" v="public"/>
    <tag k="healthcare" v="doctor"/>
    <tag k="name" v="Priory Fields Surgery"/>
    <tag k="opening_hours" v="Mo-Th 08:00-18:00; early Friday"/>
    <tag k="phone" v="+44 1480 413600"/>
    <tag k="website" v="https://www.prioryfieldssurgery.nhs.uk/contact/"/>
  </way>
  <way id="287665559" version="10" timestamp="2023-11-23T17:17:29Z" changeset="144378005" uid="6816132" user="CjMalone">
    <nd ref="2912357227"/>
    <nd ref="2912357226"/>
    <nd ref="2912357221"/>
    <nd ref="2912357224"/>
    <nd ref="2912357227"/>
    <tag k="addr:city" v="Huntingdon"/>
    <tag k="addr:country" v="GB"/>
    <tag k="addr:county" v="Cambridgeshire"/>
    <tag k="addr:housenumber" v="5,6"/>
    <tag k="addr:postcode" v="PE29 3FG"/>
    <tag k="addr:street" v="St Germain Walk"/>
    <tag k="brand" v="Poundland"/>
    <tag k="brand:wikidata" v="Q1434528"/>
    <tag k="brand:wikipedia" v="en:Poundland"/>
    <tag k="building" v="yes"/>
    <tag k="fhrs:id" v="547421"/>
    <tag k="name" v="Poundland"/>
    <tag k="shop" v="variety_store"/>
  </way>
  <way id="295154365" version="4" timestamp="2018-11-06T11:37:44Z" changeset="64227341" uid="5173844" user="ndrw6">
    <nd ref="2988496507"/>
    <nd ref="2988496491"/>
    <nd ref="2988496500"/>
    <nd ref="2988496503"/>
    <nd ref="2988496507"/>
    <tag k="addr:city" v="Huntingdon"/>
    <tag k="addr:housename" v="Atlee Terrace"/>
    <tag k="addr:housenumber" v="5,6,7,8"/>
    <tag k="addr:postcode" v="PE29 1AL"/>
    <tag k="addr:street" v="Buttsgrove Way"/>
    <tag k="building" v="terrace"/>
    <tag k="name" v="Atlee Terrace"/>
  </way>
  <way id="295154366" version="3" timestamp="2017-11-18T07:39:02Z" changeset="53893327" uid="90142" user="andy mackey">
    <nd ref="2988496473"/>
    <nd ref="2988496479"/>
    <nd ref="2988496482"/>
    <nd ref="2988496464"/>
    <nd ref="2988496473"/>
    <tag k="addr:city" v="Huntingdon"/>
    <tag k="addr:housename" v="Atlee Terrace"/>
    <tag k="addr:housenumber" v="1,2,3"/>
    <tag k="addr:street" v="Buttsgrove Way"/>
    <tag k="building" v="terrace"/>
    <tag k="name" v="Atlee Terrace"/>
  </way>
  <way id="295154369" version="7" timestamp="2023-05-16T14:21:31Z" changeset="136171984" uid="13750939" user="FortQuake">
    <nd ref="2988496488"/>
    <nd ref="2988496493"/>
    <nd ref="2988496492"/>
    <nd ref="2988496505"/>
    <nd ref="2988496488"/>
    <tag k="addr:city" v="Huntingdon"/>
    <tag k="addr:housename" v="Lincoln Terrace"/>
    <tag k="addr:housenumber" v="1,2,3"/>
    <tag k="addr:postcode" v="PE29 1AJ"/>
    <tag k="addr:street" v="Buttsgrove Way"/>
    <tag k="building" v="terrace"/>
    <tag k="name" v="Lincoln Terrace"/>
    <tag k="source" v="local knowledge"/>
  </way>
  <way id="295261798" version="7" timestamp="2018-01-09T00:53:30Z" changeset="55279348" uid="5173844" user="ndrw6">
    <nd ref="2989641815"/>
    <nd ref="3243170165"/>
    <nd ref="2989641804"/>
    <nd ref="2989641802"/>
    <nd ref="2989641814"/>
    <nd ref="2989641805"/>
    <nd ref="2989641801"/>
    <nd ref="3243170163"/>
    <nd ref="3243170166"/>
    <nd ref="3243170167"/>
    <nd ref="2989641811"/>
    <nd ref="2990108426"/>
    <nd ref="2990108427"/>
    <nd ref="2990108432"/>
    <nd ref="2989641807"/>
    <nd ref="2990109634"/>
    <nd ref="2989641806"/>
    <nd ref="2989641813"/>
    <nd ref="3243170164"/>
    <nd ref="3243170161"/>
    <nd ref="2989641815"/>
    <tag k="addr:city" v="Huntingdon"/>
    <tag k="addr:street" v="The Whaddons"/>
    <tag k="building" v="terrace"/>
    <tag k="name" v="Churchill Terrace"/>
  </way>
  <way id="319471401" version="6" timestamp="2018-11-06T11:37:45Z" changeset="64227341" uid="5173844" user="ndrw6">
    <nd ref="2988496498"/>
    <nd ref="3258849012"/>
    <nd ref="3258849001"/>
    <nd ref="3258849009"/>
    <nd ref="3258849003"/>
    <nd ref="3258849008"/>
    <nd ref="3258849010"/>
    <nd ref="3258849000"/>
    <nd ref="3258849002"/>
    <nd ref="3258848999"/>
    <nd ref="3258849005"/>
    <nd ref="3258848998"/>
    <nd ref="3258849013"/>
    <nd ref="3258849006"/>
    <nd ref="3258849004"/>
    <nd ref="3258848997"/>
    <nd ref="3258849011"/>
    <nd ref="3258849007"/>
    <nd ref="2988496512"/>
    <nd ref="2988496465"/>
    <nd ref="3242527125"/>
    <nd ref="3242527119"/>
    <nd ref="3242527126"/>
    <nd ref="3242527128"/>
    <nd ref="2988496475"/>
    <nd ref="3242527123"/>
    <nd ref="2988496484"/>
    <nd ref="3242527129"/>
    <nd ref="3242527122"/>
    <nd ref="2988496480"/>
    <nd ref="2988496472"/>
    <nd ref="3242527130"/>
    <nd ref="3242527120"/>
    <nd ref="3242527124"/>
    <nd ref="3242527127"/>
    <nd ref="3242527121"/>
    <nd ref="2988496498"/>
    <tag k="addr:city" v="Huntingdon"/>
    <tag k="addr:postcode" v="PE29 1AP"/>
    <tag k="addr:street" v="Buttsgrove Way"/>
    <tag k="building" v="terrace"/>
    <tag k="name" v="Churchill Terrace"/>
  </way>
  <way id="327685702" version="2" timestamp="2017-03-29T23:26:06Z" changeset="47276655" uid="5573861" user="Tomp1994">
    <nd ref="3344910910"/>
    <nd ref="3344910911"/>
    <nd ref="3344910912"/>
    <nd ref="3344910913"/>
    <nd ref="3344910910"/>
    <tag k="addr:city" v="Huntingdon"/>
    <tag k="addr:housenumber" v="11a"/>
    <tag k="addr:postcode" v="PE29 7HH"/>
    <tag k="addr:street" v="Glebe Road"/>
    <tag k="building" v="commercial"/>
    <tag k="name" v="First Mailing Company"/>
  </way>
  <way id="327685710" version="5" timestamp="2023-05-19T11:27:25Z" changeset="136295299" uid="6816132" user="CjMalone">
    <nd ref="3344910966"/>
    <nd ref="3344910967"/>
    <nd ref="3344910968"/>
    <nd ref="3344910969"/>
    <nd ref="3344910966"/>
    <tag k="addr:city" v="Huntingdon"/>
    <tag k="addr:housenumber" v="9a"/>
    <tag k="addr:street" v="Clifton Road"/>
    <tag k="brand" v="Toolstation"/>
    <tag k="brand:wikidata" v="Q7824103"/>
    <tag k="building" v="yes"/>
    <tag k="contact:website" v="https://www.toolstation.com/branches/huntingdon-clifton-road"/>
    <tag k="name" v="Toolstation"/>
    <tag k="shop" v="doityourself"/>
  </way>
  <way id="329276004" version="9" timestamp="2023-05-31T14:30:37Z" changeset="136792324" uid="10420541" user="Thingummy">
    <nd ref="3361313882"/>
    <nd ref="3361313883"/>
    <nd ref="5326457943"/>
    <nd ref="3361313884"/>
    <nd ref="5326457928"/>
    <nd ref="3361313885"/>
    <nd ref="10942254314"/>
    <nd ref="5326457924"/>
    <nd ref="3361313882"/>
    <tag k="addr:city" v="Huntingdon"/>
    <tag k="addr:postcode" v="PE29 3LH"/>
    <tag k="addr:street" v="High Street"/>
    <tag k="building" v="yes"/>
    <tag k="name" v="Taylors"/>
  </way>
  <way id="367321549" version="4" timestamp="2022-07-16T16:11:59Z" changeset="123694741" uid="242345" user="confusedbuffalo">
    <nd ref="3712594985"/>
    <nd ref="3712595001"/>
    <nd ref="3712595004"/>
    <nd ref="3712595641"/>
    <nd ref="3712595640"/>
    <nd ref="3712595630"/>
    <nd ref="3712595629"/>
    <nd ref="3712594984"/>
    <nd ref="3712594985"/>
    <tag k="addr:city" v="Huntingdon"/>
    <tag k="addr:housenumber" v="4"/>
    <tag k="addr:postcode" v="PE29 3AY"/>
    <tag k="addr:street" v="Waters Meet"/>
    <tag k="building" v="residential"/>
    <tag k="name" v="Huntingdon Spa"/>
  </way>
  <way id="373430133" version="7" timestamp="2023-09-29T19:47:48Z" changeset="141928199" uid="13887231" user="jessie_expedia">
    <nd ref="3768984751"/>
    <nd ref="3768984752"/>
    <nd ref="8583395974"/>
    <nd ref="3768984753"/>
    <nd ref="3768984754"/>
    <nd ref="3768984751"/>
    <tag k="addr:housename" v="Cromwell Museum"/>
    <tag k="addr:street" v="Grammar School Walk"/>
    <tag k="building" v="museum"/>
    <tag k="check_date:opening_hours" v="2023-09-29"/>
    <tag k="fee" v="no"/>
    <tag k="heritage" v="2"/>
    <tag k="heritage:ref" v="1161870"/>
    <tag k="historic" v="museum"/>
    <tag k="historic:period" v="Civil War"/>
    <tag k="museum" v="local"/>
    <tag k="name" v="The Cromwell Museum"/>
    <tag k="opening_hours" v="Apr-Oct Tu-Su 11:00-16:00; Nov-Mar Tu-Su 11:00-15:30; PH Mo 11:00-16:00"/>
    <tag k="operator" v="Cromwell Museum Trust"/>
    <tag k="start_date" v="~1160"/>
    <tag k="tourism" v="museum"/>
    <tag k="website" v="https://www.cromwellmuseum.org/"/>
    <tag k="wheelchair" v="yes"/>
    <tag k="wikidata" v="Q5187673"/>
  </way>
  <way id="373430312" version="6" timestamp="2021-08-31T22:33:50Z" changeset="110534603" uid="6816132" user="CjMalone">
    <nd ref="3768997007"/>
    <nd ref="5326458537"/>
    <nd ref="3768997008"/>
    <nd ref="3768997009"/>
    <nd ref="3768997012"/>
    <nd ref="3768997010"/>
    <nd ref="3768997011"/>
    <nd ref="5796412745"/>
    <nd ref="3768997007"/>
    <tag k="addr:city" v="Huntingdon"/>
    <tag k="addr:country" v="GB"/>
    <tag k="addr:county" v="Cambridgeshire"/>
    <tag k="addr:housenumber" v="10"/>
    <tag k="addr:postcode" v="PE29 3NR"/>
    <tag k="addr:street" v="Market Hill"/>
    <tag k="amenity" v="pub"/>
    <tag k="building" v="yes"/>
    <tag k="fhrs:id" v="732652"/>
    <tag k="name" v="The Falcon Tavern"/>
    <tag k="wikidata" v="Q26421462"/>
  </way>
  <way id="373432871" version="4" timestamp="2023-04-11T20:07:08Z" changeset="134789184" uid="3999" user="BarryMyles">
    <nd ref="3769021355"/>
    <nd ref="3769021356"/>
    <nd ref="3769023657"/>
    <nd ref="3769023658"/>
    <nd ref="3769021355"/>
    <tag k="addr:city" v="Huntingdon"/>
    <tag k="addr:postcode" v="PE29 3DF"/>
    <tag k="addr:street" v="St John's Street"/>
    <tag k="building" v="yes"/>
    <tag k="name" v="Huntingdon Telephone Exchange"/>
    <tag k="operator" v="Openreach"/>
    <tag k="operator:wikidata" v="Q7096543"/>
    <tag k="ref" v="EMHNDON"/>
    <tag k="telecom" v="exchange"/>
  </way>
  <way id="379625461" version="4" timestamp="2019-03-06T13:58:10Z" changeset="67845566" uid="9451067" user="b-jazz-bot">
    <nd ref="3829578764"/>
    <nd ref="3829578761"/>
    <nd ref="3829578757"/>
    <nd ref="3829578763"/>
    <nd ref="3829578762"/>
    <nd ref="5326458062"/>
    <nd ref="3829578765"/>
    <nd ref="5326458063"/>
    <nd ref="3829578764"/>
    <tag k="addr:city" v="Huntingdon"/>
    <tag k="addr:housename" v="Elm Tree Court"/>
    <tag k="addr:housenumber" v="80"/>
    <tag k="addr:postcode" v="PE29 3DR"/>
    <tag k="addr:street" v="High Street"/>
    <tag k="building" v="apartments"/>
    <tag k="construction" v="residential"/>
    <tag k="name" v="Elm Tree Court"/>
    <tag k="operator" v="McCarthy &amp; Stone"/>
    <tag k="website" v="https://www.mccarthyandstone.co.uk/"/>
    <tag k="wheelchair" v="yes"/>
  </way>
  <way id="388994658" version="9" timestamp="2023-11-26T09:41:36Z" changeset="144464555" uid="6816132" user="CjMalone">
    <nd ref="3921611959"/>
    <nd ref="3921611958"/>
    <nd ref="3921611966"/>
    <nd ref="3956364492"/>
    <nd ref="3956364493"/>
    <nd ref="3921611967"/>
    <nd ref="3921611959"/>
    <tag k="addr:city" v="Huntingdon"/>
    <tag k="addr:country" v="GB"/>
    <tag k="addr:county" v="Cambridgeshire"/>
    <tag k="addr:housenumber" v="11"/>
    <tag k="addr:postcode" v="PE29 6HG"/>
    <tag k="addr:street" v="Stukeley Road"/>
    <tag k="alt_name" v="LIDL Huntingdon"/>
    <tag k="brand" v="Lidl"/>
    <tag k="brand:wikidata" v="Q151954"/>
    <tag k="brand:wikipedia" v="en:Lidl"/>
    <tag k="building" v="supermarket"/>
    <tag k="fhrs:id" v="840484"/>
    <tag k="name" v="Lidl"/>
    <tag k="opening_hours" v="Mo-Sa 08:00-20:00; Su 10:00-16:00"/>
    <tag k="operator" v="Lidl UK GmbH"/>
    <tag k="shop" v="supermarket"/>
    <tag k="website" v="https://www.lidl.co.uk/s/en-GB/store-finder/huntingdon/stukeley-road-11/"/>
  </way>
  <way id="418294965" version="9" timestamp="2024-11-02T13:12:50Z" changeset="158657854" uid="10420541" user="Thingummy">
    <nd ref="4187279794"/>
    <nd ref="4187279795"/>
    <nd ref="4187279796"/>
    <nd ref="4187279797"/>
    <nd ref="4187279798"/>
    <nd ref="4187279799"/>
    <nd ref="4187279800"/>
    <nd ref="5338223462"/>
    <nd ref="5338223461"/>
    <nd ref="11598591202"/>
    <nd ref="12307080828"/>
    <nd ref="12307080827"/>
    <nd ref="12307080826"/>
    <nd ref="4187279801"/>
    <nd ref="4187279802"/>
    <nd ref="4187279803"/>
    <nd ref="4187279804"/>
    <nd ref="4187279805"/>
    <nd ref="4187279806"/>
    <nd ref="4187279807"/>
    <nd ref="5338223455"/>
    <nd ref="5338223456"/>
    <nd ref="4187279794"/>
    <tag k="addr:city" v="Huntingdon"/>
    <tag k="addr:postcode" v="PE28 2LA"/>
    <tag k="addr:street" v="Abbots Ripton Road"/>
    <tag k="alt_name" v="Tesco Huntingdon Extra"/>
    <tag k="brand" v="Tesco Extra"/>
    <tag k="brand:wikidata" v="Q25172225"/>
    <tag k="brand:wikipedia" v="en:Tesco Extra"/>
    <tag k="building" v="yes"/>
    <tag k="contact:website" v="https://www.tesco.com/store-locator/huntingdon/abbots-ripton-rd"/>
    <tag k="fhrs:id" v="341384"/>
    <tag k="name" v="Tesco Extra"/>
    <tag k="opening_hours" v="Mo-Sa 00:00-24:00; Su 10:00-16:00"/>
    <tag k="operator" v="Tesco Stores Ltd"/>
    <tag k="shop" v="supermarket"/>
  </way>
  <way id="418296717" version="9" timestamp="2022-04-24T19:21:50Z" changeset="120136359" uid="6816132" user="CjMalone">
    <nd ref="4187308489"/>
    <nd ref="4187308490"/>
    <nd ref="4187308491"/>
    <nd ref="4187308492"/>
    <nd ref="5326456556"/>
    <nd ref="5791773562"/>
    <nd ref="4187308493"/>
    <nd ref="4187308494"/>
    <nd ref="4187308495"/>
    <nd ref="4187308496"/>
    <nd ref="5326456560"/>
    <nd ref="4187308497"/>
    <nd ref="4187308489"/>
    <tag k="addr:city" v="Huntingdon"/>
    <tag k="addr:country" v="GB"/>
    <tag k="addr:county" v="Cambridgeshire"/>
    <tag k="addr:housenumber" v="113"/>
    <tag k="addr:postcode" v="PE29 3LD"/>
    <tag k="addr:street" v="High Street"/>
    <tag k="branch" v="Huntingdon"/>
    <tag k="brand" v="Iceland"/>
    <tag k="brand:wikidata" v="Q721810"/>
    <tag k="brand:wikipedia" v="en:Iceland (supermarket)"/>
    <tag k="building" v="yes"/>
    <tag k="contact:website" v="https://www.iceland.co.uk/store-finder/store?StoreID=725&amp;StoreName=HUNTINGDON"/>
    <tag k="fhrs:id" v="732674"/>
    <tag k="name" v="Iceland"/>
    <tag k="opening_hours" v="Mo-Sa 08:00-19:00; Su 10:00-16:00"/>
    <tag k="shop" v="frozen_food"/>
  </way>
  <way id="424144613" version="4" timestamp="2020-04-20T10:36:49Z" changeset="83815526" uid="11022773" user="GeoFens">
    <nd ref="4236211445"/>
    <nd ref="5338146887"/>
    <nd ref="5338146888"/>
    <nd ref="4236211446"/>
    <nd ref="4236211447"/>
    <nd ref="4236211448"/>
    <nd ref="4236211445"/>
    <tag k="addr:city" v="Huntingdon"/>
    <tag k="addr:housenumber" v="1"/>
    <tag k="addr:postcode" v="PE29 6WP"/>
    <tag k="addr:street" v="Washingley Road"/>
    <tag k="brand" v="Audi"/>
    <tag k="brand:wikidata" v="Q23317"/>
    <tag k="brand:wikipedia" v="en:Audi"/>
    <tag k="building" v="yes"/>
    <tag k="description" v="Service Department"/>
    <tag k="name" v="Huntingdon Audi"/>
    <tag k="shop" v="car"/>
  </way>
  <way id="424144740" version="2" timestamp="2020-04-20T10:36:49Z" changeset="83815526" uid="11022773" user="GeoFens">
    <nd ref="4236202698"/>
    <nd ref="4236202699"/>
    <nd ref="4236202700"/>
    <nd ref="4236202701"/>
    <nd ref="4236202698"/>
    <tag k="addr:city" v="Huntingdon"/>
    <tag k="addr:housenumber" v="1"/>
    <tag k="addr:postcode" v="PE29 6WP"/>
    <tag k="addr:street" v="Washingley Road"/>
    <tag k="brand" v="Audi"/>
    <tag k="brand:wikidata" v="Q23317"/>
    <tag k="brand:wikipedia" v="en:Audi"/>
    <tag k="building" v="yes"/>
    <tag k="name" v="Huntingdon Audi"/>
    <tag k="shop" v="car"/>
  </way>
  <way id="424148561" version="4" timestamp="2020-04-20T10:36:49Z" changeset="83815526" uid="11022773" user="GeoFens">
    <nd ref="4236222889"/>
    <nd ref="4236222890"/>
    <nd ref="4236222891"/>
    <nd ref="4236222892"/>
    <nd ref="4236222893"/>
    <nd ref="5282182745"/>
    <nd ref="5282182746"/>
    <nd ref="4236222894"/>
    <nd ref="4236222889"/>
    <tag k="addr:city" v="Huntingdon"/>
    <tag k="addr:housenumber" v="4"/>
    <tag k="addr:postcode" v="PE29 6WP"/>
    <tag k="addr:street" v="Washingley Road"/>
    <tag k="brand" v="Volkswagen"/>
    <tag k="brand:wikidata" v="Q246"/>
    <tag k="brand:wikipedia" v="en:Volkswagen"/>
    <tag k="building" v="yes"/>
    <tag k="name" v="Vindis Huntingdon Volkswagen"/>
    <tag k="shop" v="car"/>
  </way>
  <way id="430934977" version="3" timestamp="2020-11-01T00:27:53Z" changeset="93356021" uid="11022773" user="GeoFens">
    <nd ref="4301918177"/>
    <nd ref="4301918178"/>
    <nd ref="4301918179"/>
    <nd ref="4301918180"/>
    <nd ref="8070138468"/>
    <nd ref="4301918164"/>
    <nd ref="4302392100"/>
    <nd ref="8070138469"/>
    <nd ref="8070138470"/>
    <nd ref="4301918185"/>
    <nd ref="4301918186"/>
    <nd ref="4301918187"/>
    <nd ref="4301918188"/>
    <nd ref="4301921489"/>
    <nd ref="4301921490"/>
    <nd ref="4301921491"/>
    <nd ref="4301918177"/>
    <tag k="addr:city" v="Huntingdon"/>
    <tag k="addr:postcode" v="PE28 2NU"/>
    <tag k="addr:street" v="Kings Ripton Road"/>
    <tag k="landuse" v="farmyard"/>
    <tag k="name" v="Sapley Park Farm"/>
  </way>
  <way id="483555030" version="8" timestamp="2022-10-01T10:19:23Z" changeset="126854406" uid="6816132" user="CjMalone">
    <nd ref="2912357224"/>
    <nd ref="4763083222"/>
    <nd ref="4763083223"/>
    <nd ref="4763083224"/>
    <nd ref="2912357227"/>
    <nd ref="2912357224"/>
    <tag k="addr:city" v="Huntingdon"/>
    <tag k="addr:country" v="GB"/>
    <tag k="addr:county" v="Cambridgeshire"/>
    <tag k="addr:housenumber" v="4"/>
    <tag k="addr:postcode" v="PE29 3FG"/>
    <tag k="addr:street" v="St Germain Walk"/>
    <tag k="brand" v="Superdrug"/>
    <tag k="brand:wikidata" v="Q7643261"/>
    <tag k="brand:wikipedia" v="en:Superdrug"/>
    <tag k="building" v="retail"/>
    <tag k="contact:website" v="https://www.superdrug.com/store/huntingdon-%28new%29"/>
    <tag k="fhrs:id" v="448974"/>
    <tag k="name" v="Superdrug"/>
    <tag k="shop" v="chemist"/>
  </way>
  <way id="483558723" version="5" timestamp="2023-05-19T14:47:30Z" changeset="136304025" uid="6816132" user="CjMalone">
    <nd ref="4763120742"/>
    <nd ref="4763120743"/>
    <nd ref="4763120744"/>
    <nd ref="4763120745"/>
    <nd ref="4763120742"/>
    <tag k="addr:city" v="Huntingdon"/>
    <tag k="addr:postcode" v="PE29 7DZ"/>
    <tag k="addr:street" v="Huntingdon Retail Park"/>
    <tag k="addr:unit" v="Unit C"/>
    <tag k="brand" v="Pets at Home"/>
    <tag k="brand:wikidata" v="Q7179258"/>
    <tag k="brand:wikipedia" v="en:Pets at Home"/>
    <tag k="building" v="yes"/>
    <tag k="name" v="Pets at Home"/>
    <tag k="shop" v="pet"/>
    <tag k="website" v="https://community.petsathome.com/store/huntingdon/"/>
  </way>
  <way id="483558724" version="6" timestamp="2024-09-09T15:54:13Z" changeset="156401613" uid="21425661" user="CjMalone">
    <nd ref="4763120744"/>
    <nd ref="4763120746"/>
    <nd ref="4763120748"/>
    <nd ref="4763120749"/>
    <nd ref="4763120750"/>
    <nd ref="4763120745"/>
    <nd ref="4763120744"/>
    <tag k="addr:city" v="Huntingdon"/>
    <tag k="addr:postcode" v="PE29 7DZ"/>
    <tag k="addr:street" v="Huntingdon Retail Park"/>
    <tag k="addr:unit" v="D"/>
    <tag k="brand" v="B&amp;M Bargains"/>
    <tag k="brand:wikidata" v="Q4836931"/>
    <tag k="brand:wikipedia" v="en:B&amp;M"/>
    <tag k="building" v="yes"/>
    <tag k="check_date" v="2024-09-09"/>
    <tag k="check_date:opening_hours" v="2024-09-09"/>
    <tag k="contact:website" v="https://www.bmstores.co.uk/stores/huntingdon-100"/>
    <tag k="name" v="B&amp;M Bargains"/>
    <tag k="opening_hours" v="Mo-Sa 08:00-21:00; Su 10:00-16:00"/>
    <tag k="phone" v="+44 330 838 9100"/>
    <tag k="shop" v="variety_store"/>
  </way>
  <way id="483558725" version="5" timestamp="2022-01-29T12:29:17Z" changeset="116742029" uid="11022773" user="GeoFens">
    <nd ref="4763120751"/>
    <nd ref="4763120752"/>
    <nd ref="4763120753"/>
    <nd ref="4763120754"/>
    <nd ref="4763120751"/>
    <tag k="addr:city" v="Huntingdon"/>
    <tag k="addr:country" v="GB"/>
    <tag k="addr:county" v="Cambridgeshire"/>
    <tag k="addr:housename" v="Huntingdon Retail Park"/>
    <tag k="addr:postcode" v="PE29 7DZ"/>
    <tag k="addr:street" v="St Peters Road"/>
    <tag k="addr:unit" v="E"/>
    <tag k="amenity" v="cafe"/>
    <tag k="brand" v="Costa"/>
    <tag k="brand:wikidata" v="Q608845"/>
    <tag k="brand:wikipedia" v="en:Costa Coffee"/>
    <tag k="building" v="yes"/>
    <tag k="cuisine" v="coffee_shop"/>
    <tag k="drive_through" v="no"/>
    <tag k="fhrs:id" v="893306"/>
    <tag k="name" v="Costa"/>
    <tag k="outdoor_seating" v="yes"/>
    <tag k="takeaway" v="yes"/>
  </way>
  <way id="483625148" version="6" timestamp="2017-04-07T18:06:40Z" changeset="47547244" uid="90142" user="andy mackey">
    <nd ref="4763690320"/>
    <nd ref="4763690733"/>
    <nd ref="4763690726"/>
    <nd ref="4763690732"/>
    <nd ref="4763690318"/>
    <nd ref="4763690727"/>
    <nd ref="4763690722"/>
    <nd ref="4763690319"/>
    <nd ref="4763690721"/>
    <nd ref="4763690724"/>
    <nd ref="4763690728"/>
    <nd ref="4763690317"/>
    <nd ref="4763690729"/>
    <nd ref="4763690731"/>
    <nd ref="4763690730"/>
    <nd ref="4763690725"/>
    <tag k="addr:housenumber" v="interpolation"/>
    <tag k="addr:street" v="Buttsgrove Way"/>
    <tag k="name" v="Churchill Terrace"/>
  </way>
  <way id="484574106" version="3" timestamp="2022-07-16T16:11:59Z" changeset="123694741" uid="242345" user="confusedbuffalo">
    <nd ref="4773230287"/>
    <nd ref="2988496470"/>
    <nd ref="2988496474"/>
    <nd ref="4773230286"/>
    <nd ref="4773230287"/>
    <tag k="addr:city" v="Huntingdon"/>
    <tag k="addr:housenumber" v="4"/>
    <tag k="addr:postcode" v="PE29 1AA"/>
    <tag k="addr:street" v="Buttsgrove Way"/>
    <tag k="building" v="terrace"/>
    <tag k="name" v="Mandela Terrace"/>
  </way>
  <way id="484574107" version="3" timestamp="2022-07-16T16:11:59Z" changeset="123694741" uid="242345" user="confusedbuffalo">
    <nd ref="4773230289"/>
    <nd ref="4773230287"/>
    <nd ref="4773230286"/>
    <nd ref="4773230288"/>
    <nd ref="4773230289"/>
    <tag k="addr:city" v="Huntingdon"/>
    <tag k="addr:housenumber" v="3"/>
    <tag k="addr:postcode" v="PE29 1AA"/>
    <tag k="addr:street" v="Buttsgrove Way"/>
    <tag k="building" v="terrace"/>
    <tag k="name" v="Mandela Terrace"/>
  </way>
  <way id="484574108" version="3" timestamp="2022-07-16T16:11:59Z" changeset="123694741" uid="242345" user="confusedbuffalo">
    <nd ref="4773230291"/>
    <nd ref="4773230289"/>
    <nd ref="4773230288"/>
    <nd ref="4773230290"/>
    <nd ref="4773230291"/>
    <tag k="addr:city" v="Huntingdon"/>
    <tag k="addr:housenumber" v="2"/>
    <tag k="addr:postcode" v="PE29 1AA"/>
    <tag k="addr:street" v="Buttsgrove Way"/>
    <tag k="building" v="terrace"/>
    <tag k="name" v="Mandela Terrace"/>
  </way>
  <way id="484574109" version="3" timestamp="2022-07-16T16:11:59Z" changeset="123694741" uid="242345" user="confusedbuffalo">
    <nd ref="2988496471"/>
    <nd ref="4773230291"/>
    <nd ref="4773230290"/>
    <nd ref="2988496490"/>
    <nd ref="2988496471"/>
    <tag k="addr:city" v="Huntingdon"/>
    <tag k="addr:housenumber" v="1"/>
    <tag k="addr:postcode" v="PE29 1AA"/>
    <tag k="addr:street" v="Buttsgrove Way"/>
    <tag k="building" v="terrace"/>
    <tag k="name" v="Mandela Terrace"/>
  </way>
  <way id="546607516" version="2" timestamp="2019-03-06T13:58:28Z" changeset="67845576" uid="9451067" user="b-jazz-bot">
    <nd ref="5282181966"/>
    <nd ref="5282181967"/>
    <nd ref="5282181968"/>
    <nd ref="5282181969"/>
    <nd ref="5282181970"/>
    <nd ref="5282181971"/>
    <nd ref="5282181972"/>
    <nd ref="5282181973"/>
    <nd ref="5282181966"/>
    <tag k="addr:city" v="Huntingdon"/>
    <tag k="addr:housenumber" v="2"/>
    <tag k="addr:postcode" v="PE29 7DR"/>
    <tag k="addr:street" v="Glebe Road"/>
    <tag k="building" v="industrial"/>
    <tag k="email" v="info@aimtti.com"/>
    <tag k="name" v="Thurlby Thandar Instruments Ltd (Aim-TTi)"/>
    <tag k="office" v="company"/>
    <tag k="phone" v="+44 1480 412 451"/>
    <tag k="website" v="https://www.aimtti.com/"/>
  </way>
  <way id="546607543" version="2" timestamp="2021-11-16T22:52:30Z" changeset="113872794" uid="11022773" user="GeoFens">
    <nd ref="5282182127"/>
    <nd ref="5282182128"/>
    <nd ref="5282182129"/>
    <nd ref="5282182130"/>
    <nd ref="5282182127"/>
    <tag k="addr:city" v="Huntingdon"/>
    <tag k="addr:housenumber" v="9"/>
    <tag k="addr:street" v="The Bridge Centre"/>
    <tag k="building" v="yes"/>
    <tag k="name" v="SPS"/>
  </way>
  <way id="546607589" version="5" timestamp="2022-07-16T16:11:59Z" changeset="123694741" uid="242345" user="confusedbuffalo">
    <nd ref="5282182504"/>
    <nd ref="5282182505"/>
    <nd ref="5282182506"/>
    <nd ref="5282182507"/>
    <nd ref="8824648982"/>
    <nd ref="5282182504"/>
    <tag k="addr:city" v="Huntingdon"/>
    <tag k="addr:postcode" v="PE29 6ED"/>
    <tag k="addr:street" v="Stonehill"/>
    <tag k="building" v="yes"/>
    <tag k="name" v="Halcyon Court"/>
  </way>
  <way id="546607593" version="2" timestamp="2021-07-15T10:30:42Z" changeset="108042027" uid="13763006" user="nathank1231">
    <nd ref="5282182517"/>
    <nd ref="8922142385"/>
    <nd ref="8922142384"/>
    <nd ref="8922142383"/>
    <nd ref="8922142382"/>
    <nd ref="8922142381"/>
    <nd ref="8922142380"/>
    <nd ref="5282182518"/>
    <nd ref="5282182519"/>
    <nd ref="5282182520"/>
    <nd ref="5282182517"/>
    <tag k="addr:city" v="Huntingdon"/>
    <tag k="addr:housenumber" v="13"/>
    <tag k="addr:postcode" v="PE29 6EF"/>
    <tag k="addr:street" v="Blackstone Road"/>
    <tag k="building" v="commercial"/>
    <tag k="building:levels" v="2"/>
    <tag k="name" v="CP Composites"/>
    <tag k="operator" v="CP Composites"/>
  </way>
  <way id="546607594" version="2" timestamp="2021-07-15T10:30:42Z" changeset="108042027" uid="13763006" user="nathank1231">
    <nd ref="5282182621"/>
    <nd ref="8922142387"/>
    <nd ref="8922142384"/>
    <nd ref="8922142383"/>
    <nd ref="8922142386"/>
    <nd ref="5282182622"/>
    <nd ref="5282182623"/>
    <nd ref="5282182624"/>
    <nd ref="5282182621"/>
    <tag k="addr:city" v="Huntingdon"/>
    <tag k="addr:housenumber" v="15"/>
    <tag k="addr:postcode" v="PE29 6EF"/>
    <tag k="addr:street" v="Blackstone Road"/>
    <tag k="building" v="commercial"/>
    <tag k="building:levels" v="2"/>
    <tag k="name" v="Encocam Ltd."/>
    <tag k="operator" v="Encocam Ltd."/>
  </way>
  <way id="546607596" version="2" timestamp="2021-07-15T10:30:42Z" changeset="108042027" uid="13763006" user="nathank1231">
    <nd ref="5282182625"/>
    <nd ref="5282182626"/>
    <nd ref="8922142388"/>
    <nd ref="8922142391"/>
    <nd ref="8922142392"/>
    <nd ref="8922142389"/>
    <nd ref="5282182627"/>
    <nd ref="5282182628"/>
    <nd ref="5282182625"/>
    <tag k="addr:city" v="Huntingdon"/>
    <tag k="addr:housenumber" v="17"/>
    <tag k="addr:postcode" v="PE29 6EF"/>
    <tag k="addr:street" v="Blackstone Road"/>
    <tag k="building" v="commercial"/>
    <tag k="building:levels" v="2"/>
    <tag k="name" v="Herald Motor Company"/>
    <tag k="operator" v="Encocam Ltd."/>
  </way>
  <way id="546607597" version="3" timestamp="2021-09-15T15:51:58Z" changeset="111252197" uid="14117407" user="melkmeisje">
    <nd ref="5282182629"/>
    <nd ref="5282182630"/>
    <nd ref="5282182631"/>
    <nd ref="5282182632"/>
    <nd ref="5282182633"/>
    <nd ref="5282182634"/>
    <nd ref="5282182635"/>
    <nd ref="5282182636"/>
    <nd ref="8922142393"/>
    <nd ref="8922142392"/>
    <nd ref="8922142391"/>
    <nd ref="8922142390"/>
    <nd ref="5282182629"/>
    <tag k="addr:city" v="Huntingdon"/>
    <tag k="addr:housenumber" v="19"/>
    <tag k="addr:postcode" v="PE29 6EF"/>
    <tag k="addr:street" v="Blackstone Road"/>
    <tag k="building" v="industrial"/>
    <tag k="building:levels" v="2"/>
    <tag k="name" v="Cellbond"/>
    <tag k="operator" v="Encocam Ltd."/>
  </way>
  <way id="551539200" version="4" timestamp="2020-03-06T22:23:03Z" changeset="81885530" uid="90142" user="andy mackey">
    <nd ref="5326458228"/>
    <nd ref="5326458223"/>
    <nd ref="5326458224"/>
    <nd ref="5326458225"/>
    <nd ref="5326458226"/>
    <nd ref="5326458227"/>
    <nd ref="5326458228"/>
    <tag k="addr:housenumber" v="2"/>
    <tag k="addr:street" v="The Walks East"/>
    <tag k="building" v="yes"/>
    <tag k="building:levels" v="2"/>
    <tag k="name" v="Saint Marys Parish Hall"/>
  </way>
  <way id="551539201" version="8" timestamp="2022-07-16T16:11:59Z" changeset="123694741" uid="242345" user="confusedbuffalo">
    <nd ref="5326458230"/>
    <nd ref="5326458231"/>
    <nd ref="7272992755"/>
    <nd ref="7279203179"/>
    <nd ref="5326458230"/>
    <tag k="addr:city" v="Huntingdon"/>
    <tag k="addr:housenumber" v="3"/>
    <tag k="addr:postcode" v="PE29 3AP"/>
    <tag k="addr:street" v="The Walks East"/>
    <tag k="building" v="yes"/>
    <tag k="building:levels" v="2"/>
    <tag k="name" v="Wilstead House"/>
  </way>
  <way id="551539204" version="5" timestamp="2020-08-06T17:31:49Z" changeset="89051824" uid="5173844" user="ndrw6">
    <nd ref="5326458248"/>
    <nd ref="5326458249"/>
    <nd ref="5326458250"/>
    <nd ref="7792150259"/>
    <nd ref="7273067376"/>
    <nd ref="5326458253"/>
    <nd ref="5326458248"/>
    <tag k="addr:housenumber" v="5"/>
    <tag k="addr:street" v="The Walks East"/>
    <tag k="building" v="yes"/>
    <tag k="building:levels" v="2"/>
    <tag k="name" v="Elliots"/>
  </way>
  <way id="551539210" version="2" timestamp="2020-03-09T15:53:41Z" changeset="81971547" uid="90943" user="chris_debian">
    <nd ref="5326458297"/>
    <nd ref="5326458298"/>
    <nd ref="5326458299"/>
    <nd ref="5326458300"/>
    <nd ref="5326458301"/>
    <nd ref="5326458302"/>
    <nd ref="5326458297"/>
    <tag k="addr:city" v="Huntingdon"/>
    <tag k="addr:housenumber" v="2-6"/>
    <tag k="addr:postcode" v="PE29 3PB"/>
    <tag k="addr:street" v="Hartford Road"/>
    <tag k="brand" v="Jobcentre Plus"/>
    <tag k="brand:wikidata" v="Q6206793"/>
    <tag k="brand:wikipedia" v="en:Jobcentre Plus"/>
    <tag k="building" v="yes"/>
    <tag k="name" v="Jobcentre Plus"/>
    <tag k="office" v="employment_agency"/>
  </way>
  <way id="551539260" version="6" timestamp="2022-12-22T16:58:54Z" changeset="130384887" uid="10420541" user="Thingummy">
    <nd ref="5326458562"/>
    <nd ref="5326458563"/>
    <nd ref="5326458564"/>
    <nd ref="5326458565"/>
    <nd ref="9754254401"/>
    <nd ref="5326458566"/>
    <nd ref="5326458567"/>
    <nd ref="5326458568"/>
    <nd ref="5326458569"/>
    <nd ref="9754340691"/>
    <nd ref="5326458570"/>
    <nd ref="10280758799"/>
    <nd ref="5326458571"/>
    <nd ref="9754254400"/>
    <nd ref="5326458572"/>
    <nd ref="5326458573"/>
    <nd ref="5326458562"/>
    <tag k="addr:city" v="Huntingdon"/>
    <tag k="addr:postcode" v="PE29 3NQ"/>
    <tag k="addr:street" v="Newtons Court"/>
    <tag k="building" v="residential"/>
    <tag k="description" v="Shops on the lower level. Flats on the upper level."/>
    <tag k="layer" v="1"/>
    <tag k="level" v="1"/>
    <tag k="name" v="Newtons Court"/>
  </way>
  <way id="551539269" version="4" timestamp="2023-10-10T14:27:52Z" changeset="142396356" uid="10420541" user="Thingummy">
    <nd ref="5326458623"/>
    <nd ref="5326458624"/>
    <nd ref="5326458625"/>
    <nd ref="9754093389"/>
    <nd ref="5326458626"/>
    <nd ref="5326458623"/>
    <tag k="addr:city" v="Huntingdon"/>
    <tag k="addr:housename" v="Acre House"/>
    <tag k="addr:housenumber" v="70c"/>
    <tag k="addr:postcode" v="PE29 3DJ"/>
    <tag k="addr:street" v="High Street"/>
    <tag k="building" v="yes"/>
    <tag k="contact:email" v="info@hcsolicitors.co.uk"/>
    <tag k="contact:fax" v="+44 1733 552748"/>
    <tag k="contact:phone" v="+44 1480 411224"/>
    <tag k="contact:website" v="https://www.hcsolicitors.co.uk/"/>
    <tag k="name" v="Hunt &amp; Coombs Solicitors (Huntingdon office)"/>
    <tag k="old_name" v="Falcon House"/>
    <tag k="opening_hours" v="Mo-Fr 09:00-17:30"/>
  </way>
  <way id="551539274" version="4" timestamp="2023-10-10T14:27:52Z" changeset="142396356" uid="10420541" user="Thingummy">
    <nd ref="5326458641"/>
    <nd ref="5326458642"/>
    <nd ref="5326458643"/>
    <nd ref="5326458644"/>
    <nd ref="5326458645"/>
    <nd ref="5326458646"/>
    <nd ref="5326458647"/>
    <nd ref="5326458648"/>
    <nd ref="5326458641"/>
    <tag k="addr:city" v="Huntingdon"/>
    <tag k="addr:housename" v="Coppers Court"/>
    <tag k="addr:postcode" v="PE29 3EE"/>
    <tag k="addr:street" v="Ferrars Road"/>
    <tag k="building" v="apartments"/>
    <tag k="name" v="Coppers Court"/>
  </way>
  <way id="552688758" version="6" timestamp="2024-03-17T11:05:52Z" changeset="148766912" uid="90142" user="andy mackey">
    <nd ref="5335778303"/>
    <nd ref="5335778304"/>
    <nd ref="5335778305"/>
    <nd ref="5335778306"/>
    <nd ref="5335778303"/>
    <tag k="addr:city" v="Huntingdon"/>
    <tag k="addr:housename" v="Saint Andrews Court 1 to 8"/>
    <tag k="addr:housenumber" v="1,2,3,4,5,6,7,8"/>
    <tag k="addr:postcode" v="PE29 3HA"/>
    <tag k="addr:street" v="Sayer Street"/>
    <tag k="building" v="apartments"/>
    <tag k="name" v="St. Andrews Court"/>
  </way>
  <way id="552688764" version="7" timestamp="2024-03-14T22:27:02Z" changeset="148664349" uid="90142" user="andy mackey">
    <nd ref="5335778328"/>
    <nd ref="11732302956"/>
    <nd ref="5335778330"/>
    <nd ref="5335778331"/>
    <nd ref="5335778332"/>
    <nd ref="5335778328"/>
    <tag k="addr:city" v="Huntingdon"/>
    <tag k="addr:housenumber" v="1,2,3,4,5,6,7,8"/>
    <tag k="addr:postcode" v="PE29 3HD"/>
    <tag k="addr:street" v="Saint John's Terrace"/>
    <tag k="building" v="residential"/>
    <tag k="name" v="1,2,3,4,5,6,7,8 St Johns Terr"/>
  </way>
  <way id="552688779" version="3" timestamp="2023-09-07T20:26:46Z" changeset="140957277" uid="6816132" user="CjMalone">
    <nd ref="5335778429"/>
    <nd ref="5335778430"/>
    <nd ref="5335778431"/>
    <nd ref="5335778432"/>
    <nd ref="5335778429"/>
    <tag k="addr:city" v="Huntingdon"/>
    <tag k="addr:housenumber" v="3"/>
    <tag k="addr:postcode" v="PE29 7AA"/>
    <tag k="addr:street" v="St Peter's Road"/>
    <tag k="brand" v="The Co-operative Funeralcare"/>
    <tag k="brand:wikidata" v="Q7726521"/>
    <tag k="brand:wikipedia" v="en:Co-op Funeralcare"/>
    <tag k="building" v="yes"/>
    <tag k="name" v="The Co-operative Funeralcare"/>
    <tag k="operator" v="Central England Co-operative"/>
    <tag k="operator:wikidata" v="Q16986583"/>
    <tag k="phone" v="+441480 458360"/>
    <tag k="shop" v="funeral_directors"/>
    <tag k="website" v="https://stores.centralengland.coop/cambridgeshire/huntingdon/3-st-peters-road"/>
  </way>
  <way id="552705739" version="4" timestamp="2023-10-24T14:47:51Z" changeset="143069335" uid="9451067" user="b-jazz-bot">
    <nd ref="5335932632"/>
    <nd ref="5335932633"/>
    <nd ref="5335932634"/>
    <nd ref="5335932635"/>
    <nd ref="5335932636"/>
    <nd ref="5335932637"/>
    <nd ref="5335932638"/>
    <nd ref="5335932632"/>
    <tag k="addr:city" v="Huntingdon"/>
    <tag k="addr:housename" v="Brook House"/>
    <tag k="addr:postcode" v="PE29 3QW"/>
    <tag k="addr:street" v="Ouse Walk"/>
    <tag k="building" v="yes"/>
    <tag k="description" v="Chorus Homes, Part of Places for People, is a social housing provider managing around 8000 homes throughout Cambridgeshire and the east of England. We started out in March 2000 with the purchase of homes from Huntingdonshire District Council."/>
    <tag k="email" v="info@chorushomesgroup.co.uk"/>
    <tag k="name" v="Chorus Homes"/>
    <tag k="phone" v="+44 345 266 9760"/>
    <tag k="website" v="https://www.chorushomesgroup.co.uk/"/>
  </way>
  <way id="552705757" version="3" timestamp="2023-10-24T10:59:53Z" changeset="143058950" uid="1802093" user="Paul Berry">
    <nd ref="5335932702"/>
    <nd ref="5335932703"/>
    <nd ref="5335932704"/>
    <nd ref="5335932701"/>
    <nd ref="5335932702"/>
    <tag k="addr:city" v="Huntingdon"/>
    <tag k="addr:postcode" v="PE29 3QX"/>
    <tag k="addr:street" v="Temple Close"/>
    <tag k="building" v="terrace"/>
    <tag k="name" v="Hemmdan Terrace"/>
  </way>
  <way id="552705817" version="4" timestamp="2023-10-24T14:47:38Z" changeset="143069323" uid="9451067" user="b-jazz-bot">
    <nd ref="5335932974"/>
    <nd ref="11286084270"/>
    <nd ref="5335932975"/>
    <nd ref="5335932976"/>
    <nd ref="5335932977"/>
    <nd ref="5335932974"/>
    <tag k="addr:city" v="Huntingdon"/>
    <tag k="addr:housenumber" v="10"/>
    <tag k="addr:postcode" v="PE29 3QT"/>
    <tag k="addr:street" v="Orchard Lane"/>
    <tag k="dance:style" v="ballet;ballroom"/>
    <tag k="dance:teaching" v="yes"/>
    <tag k="leisure" v="dance"/>
    <tag k="name" v="Generations Dance Academy"/>
    <tag k="website" v="https://www.gda.dance/"/>
  </way>
  <way id="552921687" version="4" timestamp="2023-02-01T20:29:23Z" changeset="131977230" uid="10420541" user="Thingummy">
    <nd ref="5337938794"/>
    <nd ref="5337938795"/>
    <nd ref="5337938796"/>
    <nd ref="5337938797"/>
    <nd ref="5337938794"/>
    <tag k="addr:city" v="Huntingdon"/>
    <tag k="addr:postcode" v="PE29 3BP"/>
    <tag k="addr:street" v="Train Station Car Park"/>
    <tag k="building" v="yes"/>
    <tag k="name" v="Serviceman Cromwell"/>
    <tag k="operator" v="Serviceman"/>
    <tag k="shop" v="car_repair"/>
    <tag k="website" v="https://www.servicemanhuntingdon.co.uk"/>
  </way>
  <way id="552945341" version="3" timestamp="2021-01-14T10:33:15Z" changeset="97489704" uid="4159741" user="Michal1979">
    <nd ref="5338230321"/>
    <nd ref="5338230322"/>
    <nd ref="5338230323"/>
    <nd ref="5338230324"/>
    <nd ref="5338230325"/>
    <nd ref="5338230326"/>
    <nd ref="5338230327"/>
    <nd ref="5338230328"/>
    <nd ref="5338230329"/>
    <nd ref="5338230330"/>
    <nd ref="5338230331"/>
    <nd ref="5338230332"/>
    <nd ref="5338230333"/>
    <nd ref="5338230334"/>
    <nd ref="5338230335"/>
    <nd ref="5338230336"/>
    <nd ref="5338230321"/>
    <tag k="addr:city" v="Huntingdon"/>
    <tag k="addr:postcode" v="PE28 2NZ"/>
    <tag k="addr:street" v="Kings Ripton Road"/>
    <tag k="building" v="yes"/>
    <tag k="name" v="Kings Ripton Court"/>
  </way>
  <way id="611057056" version="2" timestamp="2023-04-27T19:53:05Z" changeset="135442017" uid="11022773" user="GeoFens">
    <nd ref="5786243196"/>
    <nd ref="5786243193"/>
    <nd ref="5786243194"/>
    <nd ref="5786243195"/>
    <nd ref="5786243196"/>
    <tag k="addr:city" v="Huntingdon"/>
    <tag k="addr:housenumber" v="1"/>
    <tag k="addr:postcode" v="PE29 6LA"/>
    <tag k="addr:street" v="Cromwell Drive"/>
    <tag k="amenity" v="fast_food"/>
    <tag k="building" v="yes"/>
    <tag k="name" v="Grill Istanbul"/>
    <tag k="website" v="https://www.grillistanbulonline.co.uk"/>
  </way>
  <way id="611666505" version="6" timestamp="2024-05-30T10:50:24Z" changeset="152028281" uid="10420541" user="Thingummy">
    <nd ref="306468076"/>
    <nd ref="2912357226"/>
    <nd ref="2912357221"/>
    <nd ref="10902358830"/>
    <nd ref="5790640775"/>
    <nd ref="5790640774"/>
    <nd ref="5790640773"/>
    <nd ref="5790640772"/>
    <nd ref="10989984241"/>
    <nd ref="5790640771"/>
    <nd ref="5790640770"/>
    <nd ref="5790640769"/>
    <nd ref="5790640768"/>
    <nd ref="5790640767"/>
    <nd ref="5790640766"/>
    <nd ref="5790640765"/>
    <nd ref="306468076"/>
    <tag k="addr:city" v="Huntingdon"/>
    <tag k="addr:postcode" v="PE29 3FG"/>
    <tag k="addr:street" v="St Germain Street"/>
    <tag k="branch" v="Huntingdon Superstore"/>
    <tag k="brand" v="Sainsbury's"/>
    <tag k="brand:wikidata" v="Q152096"/>
    <tag k="brand:wikipedia" v="en:Sainsbury's"/>
    <tag k="building" v="yes"/>
    <tag k="landuse" v="retail"/>
    <tag k="layer" v="1"/>
    <tag k="name" v="Sainsbury's"/>
    <tag k="opening_hours" v="Mo-We 08:00-20:00; Th-Fr 08:00-21:00; Sa 07:30-20:00; Su 10:00-16:00"/>
    <tag k="shop" v="supermarket"/>
    <tag k="website" v="https://stores.sainsburys.co.uk/2007/huntingdon"/>
  </way>
  <way id="611748690" version="5" timestamp="2020-10-31T11:40:25Z" changeset="93334444" uid="10420541" user="Thingummy">
    <nd ref="5791642281"/>
    <nd ref="5791642279"/>
    <nd ref="5791642280"/>
    <nd ref="1391280471"/>
    <nd ref="1391280469"/>
    <nd ref="5791711861"/>
    <nd ref="5791642284"/>
    <nd ref="5791642283"/>
    <nd ref="5791642282"/>
    <nd ref="5791642281"/>
    <tag k="addr:city" v="Huntingdon"/>
    <tag k="addr:housename" v="Castle Hill House"/>
    <tag k="addr:postcode" v="PE29 3TE"/>
    <tag k="addr:street" v="High street"/>
    <tag k="building" v="yes"/>
    <tag k="building:levels" v="3"/>
    <tag k="description" v="Grade II* Listed. Offices.  Huntingdonshire D C have moved across the road."/>
    <tag k="name" v="Castle Hill House"/>
    <tag k="operator" v="Huntingdonshire District Council"/>
    <tag k="wikidata" v="Q17543900"/>
  </way>
  <way id="611748692" version="6" timestamp="2021-09-10T17:26:11Z" changeset="111034868" uid="242345" user="confusedbuffalo">
    <nd ref="5791642302"/>
    <nd ref="5791711855"/>
    <nd ref="5791642301"/>
    <nd ref="5791642300"/>
    <nd ref="5791642299"/>
    <nd ref="5791642298"/>
    <nd ref="5791642297"/>
    <nd ref="5791711856"/>
    <nd ref="5791642296"/>
    <nd ref="5791642295"/>
    <nd ref="5791642294"/>
    <nd ref="5791642293"/>
    <nd ref="5791642292"/>
    <nd ref="5791642291"/>
    <nd ref="5791642290"/>
    <nd ref="5791642289"/>
    <nd ref="5791642288"/>
    <nd ref="1392788105"/>
    <nd ref="1392788124"/>
    <nd ref="5791642309"/>
    <nd ref="5791711858"/>
    <nd ref="5791711860"/>
    <nd ref="5791711859"/>
    <nd ref="5791642302"/>
    <tag k="addr:city" v="Huntingdon"/>
    <tag k="addr:housename" v="Pathfinder House"/>
    <tag k="addr:postcode" v="PE29 3TN"/>
    <tag k="addr:street" v="St Mary's Street"/>
    <tag k="building" v="yes"/>
    <tag k="government" v="administrative"/>
    <tag k="name" v="Huntingdonshire District Council"/>
    <tag k="office" v="government"/>
    <tag k="opening_hours" v="Mo-Fr 08:45-17:00; Fr 8:45-16:30"/>
    <tag k="operator" v="Huntingdonshire District Council"/>
    <tag k="source" v="photos gps and sketch;website"/>
    <tag k="website" v="https://www.huntingdonshire.gov.uk/contact-us/general-enquiries/"/>
  </way>
  <way id="611748693" version="5" timestamp="2021-09-10T17:26:11Z" changeset="111034868" uid="242345" user="confusedbuffalo">
    <nd ref="1392788057"/>
    <nd ref="5791642310"/>
    <nd ref="5791711853"/>
    <nd ref="5791642311"/>
    <nd ref="5791642312"/>
    <nd ref="5791642313"/>
    <nd ref="5791642314"/>
    <nd ref="5791642315"/>
    <nd ref="5791642316"/>
    <nd ref="5791642317"/>
    <nd ref="5791642318"/>
    <nd ref="5791642319"/>
    <nd ref="5791642320"/>
    <nd ref="5791642321"/>
    <nd ref="5791642322"/>
    <nd ref="5791642323"/>
    <nd ref="5791642324"/>
    <nd ref="5791642325"/>
    <nd ref="5791642326"/>
    <nd ref="5791642327"/>
    <nd ref="1392788077"/>
    <nd ref="1392788057"/>
    <tag k="addr:city" v="Huntingdon"/>
    <tag k="addr:housename" v="Hunts DC Civic Building"/>
    <tag k="addr:housenumber" v="Pathfinder House"/>
    <tag k="addr:postcode" v="PE29 3TE"/>
    <tag k="addr:street" v="St Mary's Street"/>
    <tag k="amenity" v="public_building"/>
    <tag k="building" v="civic"/>
    <tag k="government" v="public_service"/>
    <tag k="name" v="Civic Building"/>
    <tag k="office" v="government"/>
    <tag k="operator" v="Huntingdonshire District Council"/>
    <tag k="source" v="photos gps and sketch"/>
  </way>
  <way id="611749218" version="5" timestamp="2023-11-02T16:54:38Z" changeset="143541387" uid="10420541" user="Thingummy">
    <nd ref="1392788108"/>
    <nd ref="5791657585"/>
    <nd ref="5791657586"/>
    <nd ref="5791657587"/>
    <nd ref="5791657588"/>
    <nd ref="10948725614"/>
    <nd ref="5791660368"/>
    <nd ref="5791657589"/>
    <nd ref="5791657590"/>
    <nd ref="5791660367"/>
    <nd ref="5791657591"/>
    <nd ref="5791657592"/>
    <nd ref="1392788160"/>
    <nd ref="1392788108"/>
    <tag k="addr:city" v="Huntingdon"/>
    <tag k="addr:door" v="Former Magpas"/>
    <tag k="addr:housename" v="Centenary House"/>
    <tag k="addr:street" v="St Mary's Street"/>
    <tag k="addr:unit" v="1-8"/>
    <tag k="building" v="commercial"/>
    <tag k="contact:addr" v="Magpas Air Ambulance Enterprise Campus, Alconbury Weald, Huntingdon, Cambridgeshire,  PE28 4YF"/>
    <tag k="disused:office" v="charity"/>
    <tag k="name" v="Centenary House"/>
    <tag k="office" v="charity"/>
    <tag k="old_email" v="info@magpas.org.uk"/>
    <tag k="old_name" v="Magpas"/>
    <tag k="phone" v="01480 371060"/>
  </way>
  <way id="611763002" version="4" timestamp="2023-11-02T17:12:31Z" changeset="143542046" uid="10420541" user="Thingummy">
    <nd ref="5791819721"/>
    <nd ref="5791819720"/>
    <nd ref="5791819719"/>
    <nd ref="5791819718"/>
    <nd ref="5791819717"/>
    <nd ref="5791819716"/>
    <nd ref="5791819715"/>
    <nd ref="5791819714"/>
    <nd ref="5791819722"/>
    <nd ref="5791819723"/>
    <nd ref="5791819724"/>
    <nd ref="5791819725"/>
    <nd ref="5791819726"/>
    <nd ref="5791819727"/>
    <nd ref="5791819728"/>
    <nd ref="5791819729"/>
    <nd ref="3769009527"/>
    <nd ref="3769009528"/>
    <nd ref="5791819734"/>
    <nd ref="5791819733"/>
    <nd ref="5791819732"/>
    <nd ref="5791819731"/>
    <nd ref="5791819730"/>
    <nd ref="5791819713"/>
    <nd ref="5791819712"/>
    <nd ref="5791819721"/>
    <tag k="addr:city" v="Huntingdon"/>
    <tag k="addr:housename" v="Hawkins Court"/>
    <tag k="addr:parentstreet" v="Walden Road"/>
    <tag k="addr:postcode" v="PE29 3PS"/>
    <tag k="addr:street" v="Prince's Street"/>
    <tag k="building" v="apartments"/>
    <tag k="name" v="Hawkins Court"/>
  </way>
  <way id="612339906" version="7" timestamp="2022-11-11T21:07:03Z" changeset="128793368" uid="24119" user="Mauls">
    <nd ref="4535033284"/>
    <nd ref="4535033277"/>
    <nd ref="5796463950"/>
    <nd ref="5796463949"/>
    <nd ref="5796463948"/>
    <nd ref="5796463903"/>
    <nd ref="5796463947"/>
    <nd ref="5796463946"/>
    <nd ref="5796463945"/>
    <nd ref="5796463944"/>
    <nd ref="5796463943"/>
    <nd ref="5796463942"/>
    <nd ref="5796463941"/>
    <nd ref="4535033284"/>
    <tag k="addr:city" v="Huntingdon"/>
    <tag k="addr:country" v="GB"/>
    <tag k="addr:county" v="Cambridgeshire"/>
    <tag k="addr:housenumber" v="4"/>
    <tag k="addr:postcode" v="PE29 3HG"/>
    <tag k="addr:street" v="Edison Bell Way"/>
    <tag k="branch" v="Huntingdon"/>
    <tag k="brand" v="ALDI"/>
    <tag k="brand:wikidata" v="Q41171672"/>
    <tag k="brand:wikipedia" v="en:Aldi"/>
    <tag k="building" v="retail"/>
    <tag k="contact:website" v="https://stores.aldi.co.uk/huntingdon/4-edison-bell-way"/>
    <tag k="fhrs:id" v="949417"/>
    <tag k="name" v="ALDI"/>
    <tag k="opening_hours" v="Mo-Sa 08:00-22:00; Su 10:00-16:00"/>
    <tag k="shop" v="supermarket"/>
  </way>
  <way id="612339914" version="4" timestamp="2024-03-23T11:30:28Z" changeset="149047063" uid="10420541" user="Thingummy">
    <nd ref="3768994253"/>
    <nd ref="3768994254"/>
    <nd ref="5796464588"/>
    <nd ref="5796464612"/>
    <nd ref="5796464611"/>
    <nd ref="5796464593"/>
    <nd ref="5796464599"/>
    <nd ref="5796464610"/>
    <nd ref="5796464609"/>
    <nd ref="5796464608"/>
    <nd ref="5796464607"/>
    <nd ref="3768994253"/>
    <tag k="addr:city" v="Huntingdon"/>
    <tag k="addr:housenumber" v="1 - 8"/>
    <tag k="addr:postcode" v="PE29 3BG"/>
    <tag k="addr:street" v="George Street"/>
    <tag k="building" v="terrace"/>
    <tag k="name" v="St Johns Almshouses"/>
  </way>
  <way id="641539534" version="6" timestamp="2024-06-19T11:15:08Z" changeset="152891105" uid="10420541" user="Thingummy">
    <nd ref="5791711859"/>
    <nd ref="6041456695"/>
    <nd ref="5791642308"/>
    <nd ref="5791711857"/>
    <nd ref="5791642307"/>
    <nd ref="10948725609"/>
    <nd ref="5791642305"/>
    <nd ref="5791642304"/>
    <nd ref="5791642303"/>
    <nd ref="5791642302"/>
    <nd ref="5791711859"/>
    <tag k="addr:city" v="Huntingdon"/>
    <tag k="addr:housename" v="Huntingdonshire District Council"/>
    <tag k="addr:housenumber" v="Path Finder House"/>
    <tag k="addr:postcode" v="PE29 3TN"/>
    <tag k="addr:street" v="St Mary's Street"/>
    <tag k="amenity" v="administration"/>
    <tag k="building" v="public"/>
    <tag k="government" v="government"/>
    <tag k="name" v="Pathfinder House"/>
    <tag k="office" v="government"/>
    <tag k="opening_hours" v="Mo-Th 08:45-17:00; Fr 08:45-16:30"/>
    <tag k="operator" v="Huntingdonshire District Council"/>
    <tag k="phone" v="+44 1480 388388"/>
    <tag k="source" v="photos gps and sketch;Website"/>
    <tag k="website" v="https://www.huntingdonshire.gov.uk/contact-us/"/>
  </way>
  <way id="641539537" version="3" timestamp="2023-11-02T12:38:15Z" changeset="143528671" uid="10420541" user="Thingummy">
    <nd ref="6041456699"/>
    <nd ref="6041456696"/>
    <nd ref="6041456697"/>
    <nd ref="6041456698"/>
    <nd ref="6041456699"/>
    <tag k="addr:city" v="Huntingdon"/>
    <tag k="addr:housename" v="Cromwell Court"/>
    <tag k="addr:postcode" v="PE29 3PF"/>
    <tag k="addr:street" v="St Mary's Street"/>
    <tag k="addr:unit" v="1-14"/>
    <tag k="building" v="yes"/>
    <tag k="name" v="Cromwell Court"/>
  </way>
  <way id="778964678" version="2" timestamp="2020-03-06T22:23:03Z" changeset="81885530" uid="90142" user="andy mackey">
    <nd ref="7272992754"/>
    <nd ref="5326458263"/>
    <nd ref="5326458264"/>
    <nd ref="7272992760"/>
    <nd ref="7273067375"/>
    <nd ref="7272992754"/>
    <tag k="addr:housenumber" v="9"/>
    <tag k="addr:street" v="The Walks East"/>
    <tag k="building" v="yes"/>
    <tag k="building:levels" v="2"/>
    <tag k="name" v="D'Alderby House"/>
  </way>
  <way id="793807975" version="3" timestamp="2023-05-07T20:40:26Z" changeset="135826781" uid="6816132" user="CjMalone">
    <nd ref="7425302355"/>
    <nd ref="7425302356"/>
    <nd ref="7425302357"/>
    <nd ref="7425302358"/>
    <nd ref="7425302355"/>
    <tag k="addr:city" v="Huntingdon"/>
    <tag k="addr:country" v="GB"/>
    <tag k="addr:county" v="Cambridgeshire"/>
    <tag k="addr:housename" v="The Bridge Centre"/>
    <tag k="addr:street" v="St Peters Road"/>
    <tag k="amenity" v="fast_food"/>
    <tag k="brand" v="Greggs"/>
    <tag k="brand:wikidata" v="Q3403981"/>
    <tag k="brand:wikipedia" v="en:Greggs"/>
    <tag k="building" v="yes"/>
    <tag k="contact:website" v="https://www.greggs.co.uk/shop-finder?shop-code=5071"/>
    <tag k="cuisine" v="sandwich;bakery"/>
    <tag k="fhrs:id" v="1106399"/>
    <tag k="name" v="Greggs"/>
    <tag k="takeaway" v="yes"/>
  </way>
  <way id="818134384" version="4" timestamp="2022-07-16T16:11:59Z" changeset="123694741" uid="242345" user="confusedbuffalo">
    <nd ref="7640886764"/>
    <nd ref="7640886765"/>
    <nd ref="7640886758"/>
    <nd ref="7640886763"/>
    <nd ref="7640886764"/>
    <tag k="addr:city" v="Huntingdon"/>
    <tag k="addr:housenumber" v="6"/>
    <tag k="addr:postcode" v="PE29 1WU"/>
    <tag k="addr:street" v="Cross Street"/>
    <tag k="building" v="house"/>
    <tag k="name" v="Coach House"/>
  </way>
  <way id="834737944" version="3" timestamp="2022-08-10T11:03:28Z" changeset="124725398" uid="6816132" user="CjMalone">
    <nd ref="7792149858"/>
    <nd ref="7792149855"/>
    <nd ref="7792149856"/>
    <nd ref="7792149857"/>
    <nd ref="7792149858"/>
    <tag k="addr:city" v="Huntingdon"/>
    <tag k="addr:country" v="GB"/>
    <tag k="addr:county" v="Cambridgeshire"/>
    <tag k="addr:housenumber" v="36"/>
    <tag k="addr:postcode" v="PE29 7AT"/>
    <tag k="addr:street" v="Sallowbush Road"/>
    <tag k="brand" v="Costcutter"/>
    <tag k="brand:wikidata" v="Q5175072"/>
    <tag k="brand:wikipedia" v="en:Costcutter"/>
    <tag k="building" v="yes"/>
    <tag k="contact:website" v="https://store-locator.costcutter.co.uk/costcutter-4e882af80826"/>
    <tag k="fhrs:id" v="418576"/>
    <tag k="name" v="Costcutter"/>
    <tag k="shop" v="convenience"/>
  </way>
  <way id="935540275" version="1" timestamp="2021-04-26T19:55:32Z" changeset="103658738" uid="1352486" user="vmeads">
    <nd ref="8669619971"/>
    <nd ref="8669619972"/>
    <nd ref="8669619973"/>
    <nd ref="8669619974"/>
    <nd ref="8669619975"/>
    <nd ref="8669619978"/>
    <nd ref="8669619979"/>
    <nd ref="8669619980"/>
    <nd ref="8669619981"/>
    <nd ref="8669619982"/>
    <nd ref="8669619983"/>
    <nd ref="8669619976"/>
    <nd ref="8669619977"/>
    <nd ref="8669619971"/>
    <tag k="addr:city" v="Huntingdon"/>
    <tag k="addr:housenumber" v="12"/>
    <tag k="addr:street" v="Ferrars Road"/>
    <tag k="building" v="apartments"/>
    <tag k="name" v="Aragon House"/>
  </way>
  <way id="953411717" version="2" timestamp="2022-07-16T16:12:01Z" changeset="123694741" uid="242345" user="confusedbuffalo">
    <nd ref="8824648978"/>
    <nd ref="5282182508"/>
    <nd ref="5282182503"/>
    <nd ref="8824648979"/>
    <nd ref="8824648978"/>
    <tag k="addr:city" v="Huntingdon"/>
    <tag k="addr:postcode" v="PE29 6ED"/>
    <tag k="addr:street" v="Stonehill"/>
    <tag k="addr:unit" v="10"/>
    <tag k="building" v="yes"/>
    <tag k="name" v="Halcyon Court"/>
  </way>
  <way id="953411718" version="2" timestamp="2022-07-16T16:12:01Z" changeset="123694741" uid="242345" user="confusedbuffalo">
    <nd ref="8824648979"/>
    <nd ref="8824648981"/>
    <nd ref="8824648980"/>
    <nd ref="8824648978"/>
    <nd ref="8824648979"/>
    <tag k="addr:city" v="Huntingdon"/>
    <tag k="addr:postcode" v="PE29 6ED"/>
    <tag k="addr:street" v="Stonehill"/>
    <tag k="addr:unit" v="8a"/>
    <tag k="building" v="yes"/>
    <tag k="name" v="Halcyon Court"/>
  </way>
  <way id="953411719" version="2" timestamp="2022-07-16T16:12:01Z" changeset="123694741" uid="242345" user="confusedbuffalo">
    <nd ref="8824648981"/>
    <nd ref="5282182504"/>
    <nd ref="8824648982"/>
    <nd ref="8824648980"/>
    <nd ref="8824648981"/>
    <tag k="addr:city" v="Huntingdon"/>
    <tag k="addr:postcode" v="PE29 6ED"/>
    <tag k="addr:street" v="Stonehill"/>
    <tag k="addr:unit" v="8"/>
    <tag k="building" v="yes"/>
    <tag k="name" v="Halcyon Court"/>
  </way>
  <way id="964196432" version="3" timestamp="2023-09-13T09:33:10Z" changeset="141200123" uid="10420541" user="Thingummy">
    <nd ref="8918554819"/>
    <nd ref="8918554820"/>
    <nd ref="8918554821"/>
    <nd ref="8918554822"/>
    <nd ref="8918554823"/>
    <nd ref="8918554824"/>
    <nd ref="8918554825"/>
    <nd ref="8918554826"/>
    <nd ref="8918554827"/>
    <nd ref="8918554828"/>
    <nd ref="8918554829"/>
    <nd ref="8918554830"/>
    <nd ref="8918554819"/>
    <tag k="addr:city" v="Huntingdon"/>
    <tag k="addr:housename" v="Castle Hill Lodge"/>
    <tag k="addr:postcode" v="PE29 3PG"/>
    <tag k="addr:street" v="Castle Moat Road"/>
    <tag k="brand" v="Dignity"/>
    <tag k="brand:wikidata" v="Q5276343"/>
    <tag k="building" v="yes"/>
    <tag k="building:levels" v="1"/>
    <tag k="name" v="William Peacock &amp; Sons"/>
    <tag k="operator" v="Dignity"/>
    <tag k="shop" v="funeral_directors"/>
  </way>
  <way id="978565433" version="1" timestamp="2021-09-01T22:09:31Z" changeset="110586659" uid="11022773" user="GeoFens">
    <nd ref="1624934878"/>
    <nd ref="1624934873"/>
    <nd ref="9054632993"/>
    <nd ref="9054632994"/>
    <nd ref="1624934878"/>
    <tag k="addr:city" v="Huntingdon"/>
    <tag k="addr:housenumber" v="7"/>
    <tag k="addr:postcode" v="PE29 6FN"/>
    <tag k="addr:street" v="Osprey Court"/>
    <tag k="building" v="industrial"/>
    <tag k="name" v="DDS (Digital Direct Security)"/>
    <tag k="phone" v="+44 1480 459809"/>
  </way>
  <way id="1061699848" version="1" timestamp="2022-05-19T11:25:15Z" changeset="121190765" uid="15946046" user="goglecm">
    <nd ref="5326458562"/>
    <nd ref="5326458563"/>
    <nd ref="5326458564"/>
    <nd ref="5326458565"/>
    <nd ref="5326458572"/>
    <nd ref="5326458573"/>
    <nd ref="5326458562"/>
    <tag k="addr:city" v="Huntingdon"/>
    <tag k="addr:postcode" v="PE29 3NQ"/>
    <tag k="addr:street" v="Newtons Court"/>
    <tag k="building" v="retail"/>
    <tag k="description" v="Shops on the lower level. Flats on the upper level."/>
    <tag k="layer" v="0"/>
    <tag k="level" v="0"/>
    <tag k="name" v="Newtons Court"/>
  </way>
  <way id="1061699849" version="2" timestamp="2022-12-22T16:58:54Z" changeset="130384887" uid="10420541" user="Thingummy">
    <nd ref="5326458571"/>
    <nd ref="5326458566"/>
    <nd ref="5326458567"/>
    <nd ref="5326458568"/>
    <nd ref="5326458569"/>
    <nd ref="9754340691"/>
    <nd ref="5326458570"/>
    <nd ref="10280758799"/>
    <nd ref="5326458571"/>
    <tag k="addr:city" v="Huntingdon"/>
    <tag k="addr:postcode" v="PE29 3NQ"/>
    <tag k="addr:street" v="Newtons Court"/>
    <tag k="building" v="retail"/>
    <tag k="description" v="Shops on the lower level. Flats on the upper level."/>
    <tag k="layer" v="0"/>
    <tag k="level" v="0"/>
    <tag k="name" v="Newtons Court"/>
  </way>
  <way id="1079064840" version="2" timestamp="2023-09-20T12:33:36Z" changeset="141511720" uid="10420541" user="Thingummy">
    <nd ref="1392128749"/>
    <nd ref="1392128763"/>
    <nd ref="1392128759"/>
    <nd ref="8685407175"/>
    <nd ref="1392128745"/>
    <nd ref="1392128757"/>
    <nd ref="1392128751"/>
    <nd ref="1392128747"/>
    <nd ref="1392128734"/>
    <nd ref="1392128738"/>
    <nd ref="1392128750"/>
    <nd ref="1392128735"/>
    <nd ref="1392128755"/>
    <nd ref="1392128739"/>
    <nd ref="1392128754"/>
    <nd ref="8685407178"/>
    <nd ref="8685407177"/>
    <nd ref="1392128764"/>
    <nd ref="1392128743"/>
    <nd ref="1392128753"/>
    <nd ref="1392128746"/>
    <nd ref="1392128742"/>
    <nd ref="8685407176"/>
    <nd ref="1392128762"/>
    <nd ref="1392128737"/>
    <nd ref="1392128756"/>
    <nd ref="1392128749"/>
    <tag k="addr:city" v="Huntingdon"/>
    <tag k="addr:housename" v="Parkside"/>
    <tag k="addr:postcode" v="PE29 3LF"/>
    <tag k="addr:street" v="Grammar School Walk"/>
    <tag k="building" v="apartments"/>
    <tag k="name" v="Parkside"/>
  </way>
  <way id="1082743770" version="2" timestamp="2022-08-01T06:04:40Z" changeset="124327077" uid="322785" user="BCNorwich">
    <nd ref="9923036854"/>
    <nd ref="9923036855"/>
    <nd ref="9923801070"/>
    <nd ref="9923036859"/>
    <nd ref="9923036857"/>
    <nd ref="9923036858"/>
    <nd ref="9923036854"/>
    <tag k="addr:city" v="Huntingdon"/>
    <tag k="addr:country" v="GB"/>
    <tag k="addr:postcode" v="PE29 1SF"/>
    <tag k="addr:street" v="Medway Road"/>
    <tag k="amenity" v="place_of_worship"/>
    <tag k="building" v="yes"/>
    <tag k="denomination" v="jehovahs_witness"/>
    <tag k="name" v="Kingdom Hall"/>
    <tag k="religion" v="christian"/>
  </way>
  <way id="1177901248" version="2" timestamp="2023-06-02T13:43:31Z" changeset="136869150" uid="10420541" user="Thingummy">
    <nd ref="10942254313"/>
    <nd ref="3361313882"/>
    <nd ref="10942254314"/>
    <nd ref="10942254315"/>
    <nd ref="10942254318"/>
    <nd ref="10942254316"/>
    <nd ref="10942254317"/>
    <nd ref="5326457922"/>
    <nd ref="10942254313"/>
    <tag k="addr:city" v="Huntingdon"/>
    <tag k="addr:housenumber" v="103"/>
    <tag k="addr:postcode" v="PE29 3LH"/>
    <tag k="addr:street" v="High Street"/>
    <tag k="branch" v="Lettings"/>
    <tag k="brand" v="Taylors"/>
    <tag k="brand:wikidata" v="Q94579182"/>
    <tag k="building" v="yes"/>
    <tag k="name" v="Taylors"/>
    <tag k="office" v="estate_agent"/>
    <tag k="phone" v="+44 1480 367167"/>
    <tag k="website" v="https://www.taylorsestateagents.co.uk/toletoffice/huntingdon/1752/"/>
    <tag k="wikidata" v="Q26421492"/>
  </way>
  <way id="1201773109" version="2" timestamp="2023-08-24T20:02:16Z" changeset="140340826" uid="90142" user="andy mackey">
    <nd ref="11142157855"/>
    <nd ref="11142157857"/>
    <nd ref="11142157856"/>
    <nd ref="11142157861"/>
    <nd ref="11142157855"/>
    <tag k="addr:city" v="Huntingdon"/>
    <tag k="addr:housename" v="Baron Court"/>
    <tag k="addr:housenumber" v="1.2.3.4"/>
    <tag k="addr:postcode" v="PE29 7HJ"/>
    <tag k="addr:street" v="Great Northern Street"/>
    <tag k="building" v="apartments"/>
    <tag k="name" v="Baron Court"/>
  </way>
  <way id="1203083575" version="3" timestamp="2023-11-03T14:30:32Z" changeset="143577303" uid="242345" user="confusedbuffalo">
    <nd ref="11152851567"/>
    <nd ref="11152851571"/>
    <nd ref="11152851572"/>
    <nd ref="11152851573"/>
    <nd ref="11152851567"/>
    <tag k="addr:housenumber" v="9"/>
    <tag k="addr:street" v="All Saints Passage"/>
    <tag k="building" v="retail"/>
    <tag k="contact:email" v="contact@patcheshaberdashery.co.uk"/>
    <tag k="name" v="Patches Haberdashery"/>
    <tag k="opening_hours" v="Mo-Fr 09:30-16:00; Tu Later"/>
    <tag k="phone" v="+44 1480 700890"/>
    <tag k="shop" v="sewing"/>
    <tag k="website" v="https://www.patcheshaberdashery.co.uk/"/>
  </way>
  <way id="1209352607" version="6" timestamp="2024-06-12T15:01:54Z" changeset="152591825" uid="10420541" user="Thingummy">
    <nd ref="11204864574"/>
    <nd ref="11975581420"/>
    <nd ref="11204864575"/>
    <nd ref="11975581403"/>
    <nd ref="11975619621"/>
    <nd ref="11975581401"/>
    <nd ref="11975581402"/>
    <nd ref="11204864573"/>
    <nd ref="2807961431"/>
    <nd ref="11204864574"/>
    <tag k="addr:street" v="Nursery Road"/>
    <tag k="amenity" v="pharmacy"/>
    <tag k="brand" v="Day Lewis Pharmacy"/>
    <tag k="brand:wikidata" v="Q62563772"/>
    <tag k="building" v="commercial"/>
    <tag k="dispensing" v="yes"/>
    <tag k="email" v="huntingdon@daylewisplc.co.uk"/>
    <tag k="healthcare" v="pharmacy"/>
    <tag k="name" v="Day Lewis Pharmacy"/>
    <tag k="operator" v="Day Lewis Pharmacy"/>
    <tag k="operator:type" v="community"/>
    <tag k="operator:website" v="https://www.daylewis.co.uk/"/>
    <tag k="phone" v="+44 1480 411009"/>
  </way>
  <relation id="5557363" version="7" timestamp="2023-12-07T03:42:16Z" changeset="144851150" uid="6816132" user="CjMalone">
    <member type="way" ref="373430134" role="outer"/>
    <member type="way" ref="373796298" role="inner"/>
    <tag k="addr:city" v="Huntingdon"/>
    <tag k="addr:country" v="GB"/>
    <tag k="addr:county" v="Cambridgeshire"/>
    <tag k="addr:postcode" v="PE29 3AB"/>
    <tag k="addr:street" v="George Street"/>
    <tag k="amenity" v="pub"/>
    <tag k="brand" v="Greene King"/>
    <tag k="brand:wikidata" v="Q5564162"/>
    <tag k="building" v="yes"/>
    <tag k="building:levels" v="3"/>
    <tag k="fhrs:id" v="341458"/>
    <tag k="name" v="The George Hotel"/>
    <tag k="smoking" v="no"/>
    <tag k="tourism" v="hotel"/>
    <tag k="type" v="multipolygon"/>
    <tag k="website" v="https://www.greeneking.co.uk/pubs/cambridgeshire/george-hotel"/>
    <tag k="wikidata" v="Q17544047"/>
  </relation>
  <relation id="7889552" version="2" timestamp="2023-09-20T11:23:38Z" changeset="141508643" uid="10420541" user="Thingummy">
    <member type="way" ref="552006550" role="outer"/>
    <member type="way" ref="552006551" role="inner"/>
    <tag k="addr:city" v="Huntingdon"/>
    <tag k="addr:housename" v="Park House Newton Centre"/>
    <tag k="addr:street" v="Nursery Road"/>
    <tag k="amenity" v="healthcare"/>
    <tag k="building" v="civic"/>
    <tag k="healthcare" v="centre"/>
    <tag k="healthcare:speciality" v="counselling;psychiatry;community;child_psychiatry;occupational;geriatrics;neuropsychiatry;counselling"/>
    <tag k="name" v="Newton Centre"/>
    <tag k="operator" v="NHS"/>
    <tag k="operator:type" v="state_primary_health_care"/>
    <tag k="operator:wikidata" v="Q918396"/>
    <tag k="type" v="multipolygon"/>
  </relation>
  <relation id="7889553" version="3" timestamp="2023-08-19T18:17:00Z" changeset="140105940" uid="90142" user="andy mackey">
    <member type="way" ref="552006600" role="outer"/>
    <member type="way" ref="552006601" role="inner"/>
    <member type="way" ref="552688660" role="outer"/>
    <tag k="addr:housenumber" v="12A"/>
    <tag k="addr:street" v="Ambury Road"/>
    <tag k="building" v="public"/>
    <tag k="name" v="Huntingdon Community Centre"/>
    <tag k="type" v="multipolygon"/>
  </relation>

</osm>
