<?xml version="1.0" encoding="UTF-8"?>
<osm version="0.6" generator="Overpass API 0.7.62.5 1bd436f1">
<note>The data included in this document is from www.openstreetmap.org. The data is made available under ODbL.</note>
<meta osm_base="2025-02-19T01:01:01Z" areas="2025-02-06T02:17:44Z"/>

  <node id="528869580" lat="52.2968636" lon="-0.3891707" version="7" timestamp="2024-05-12T08:40:13Z" changeset="151214449" uid="95856" user="john paul jones &amp; gringo">
    <tag k="addr:city" v="Huntingdon"/>
    <tag k="addr:country" v="GB"/>
    <tag k="addr:housenumber" v="15"/>
    <tag k="addr:postcode" v="PE28 0HB"/>
    <tag k="addr:street" v="High Street"/>
    <tag k="addr:suburb" v="Kimbolton"/>
    <tag k="amenity" v="cafe"/>
    <tag k="name" v="Crawfords"/>
    <tag k="toilets:wheelchair" v="no"/>
    <tag k="wheelchair" v="no"/>
  </node>
  <node id="528869593" lat="52.2971534" lon="-0.3890303" version="9" timestamp="2024-06-15T18:02:27Z" changeset="152732493" uid="2240506" user="SteveGP">
    <tag k="addr:city" v="Huntingdon"/>
    <tag k="addr:country" v="GB"/>
    <tag k="addr:housenumber" v="36"/>
    <tag k="addr:postcode" v="PE28 0HA"/>
    <tag k="addr:street" v="High Street"/>
    <tag k="addr:suburb" v="Kimbolton"/>
    <tag k="name" v="Regency Funeral Directors"/>
    <tag k="shop" v="funeral_directors"/>
  </node>
  <node id="528869595" lat="52.2970288" lon="-0.3888559" version="4" timestamp="2024-05-12T08:40:13Z" changeset="151214449" uid="95856" user="john paul jones &amp; gringo">
    <tag k="addr:city" v="Huntingdon"/>
    <tag k="addr:country" v="GB"/>
    <tag k="addr:housenumber" v="30"/>
    <tag k="addr:postcode" v="PE28 0HA"/>
    <tag k="addr:street" v="High Street"/>
    <tag k="addr:suburb" v="Kimbolton"/>
    <tag k="name" v="Fisher's Hardware"/>
    <tag k="shop" v="hardware"/>
  </node>
  <node id="528869597" lat="52.2972002" lon="-0.3890906" version="4" timestamp="2024-05-12T08:40:13Z" changeset="151214449" uid="95856" user="john paul jones &amp; gringo">
    <tag k="addr:city" v="Huntingdon"/>
    <tag k="addr:country" v="GB"/>
    <tag k="addr:housenumber" v="36"/>
    <tag k="addr:postcode" v="PE28 0HA"/>
    <tag k="addr:street" v="High Street"/>
    <tag k="addr:suburb" v="Kimbolton"/>
    <tag k="name" v="Blue Blancmange"/>
    <tag k="shop" v="clothes"/>
  </node>
  <node id="528869599" lat="52.2972509" lon="-0.3896854" version="9" timestamp="2024-05-12T08:40:13Z" changeset="151214449" uid="95856" user="john paul jones &amp; gringo">
    <tag k="addr:city" v="Huntingdon"/>
    <tag k="addr:country" v="GB"/>
    <tag k="addr:housenumber" v="29"/>
    <tag k="addr:postcode" v="PE28 0HB"/>
    <tag k="addr:street" v="High Street"/>
    <tag k="addr:suburb" v="Kimbolton"/>
    <tag k="amenity" v="pharmacy"/>
    <tag k="dispensing" v="yes"/>
    <tag k="drive_through" v="no"/>
    <tag k="healthcare" v="pharmacy"/>
    <tag k="name" v="The Old Swan Pharmacy"/>
    <tag k="toilets:wheelchair" v="no"/>
    <tag k="wheelchair" v="yes"/>
  </node>
  <node id="528869616" lat="52.2967491" lon="-0.3884522" version="6" timestamp="2024-05-12T08:40:13Z" changeset="151214449" uid="95856" user="john paul jones &amp; gringo">
    <tag k="addr:city" v="Huntingdon"/>
    <tag k="addr:country" v="GB"/>
    <tag k="addr:housenumber" v="16"/>
    <tag k="addr:postcode" v="PE28 0HA"/>
    <tag k="addr:street" v="High Street"/>
    <tag k="addr:suburb" v="Kimbolton"/>
    <tag k="amenity" v="cafe"/>
    <tag k="name" v="Olivers Coffee Shop"/>
    <tag k="toilets:wheelchair" v="no"/>
    <tag k="wheelchair" v="limited"/>
  </node>
  <node id="528869617" lat="52.2967834" lon="-0.3884949" version="7" timestamp="2024-06-15T18:00:47Z" changeset="152732409" uid="2240506" user="SteveGP">
    <tag k="addr:city" v="Huntingdon"/>
    <tag k="addr:country" v="GB"/>
    <tag k="addr:housenumber" v="18"/>
    <tag k="addr:postcode" v="PE28 0HA"/>
    <tag k="addr:street" v="High Street"/>
    <tag k="addr:suburb" v="Kimbolton"/>
    <tag k="amenity" v="veterinary"/>
    <tag k="name" v="Kimbolton Vets"/>
  </node>
  <node id="528869955" lat="52.3123846" lon="-0.3806639" version="3" timestamp="2024-05-12T08:44:44Z" changeset="151214588" uid="95856" user="john paul jones &amp; gringo">
    <tag k="addr:city" v="Huntingdon"/>
    <tag k="addr:country" v="GB"/>
    <tag k="addr:postcode" v="PE28 0EY"/>
    <tag k="addr:street" v="Grovemere Court"/>
    <tag k="addr:suburb" v="Kimbolton"/>
    <tag k="landuse" v="industrial"/>
    <tag k="name" v="Ecotechnolin"/>
  </node>
  <node id="528869964" lat="52.3126476" lon="-0.3794785" version="3" timestamp="2024-05-12T08:44:44Z" changeset="151214588" uid="95856" user="john paul jones &amp; gringo">
    <tag k="addr:city" v="Huntingdon"/>
    <tag k="addr:country" v="GB"/>
    <tag k="addr:postcode" v="PE28 0NJ"/>
    <tag k="addr:street" v="Harvard Way"/>
    <tag k="addr:suburb" v="Kimbolton"/>
    <tag k="landuse" v="industrial"/>
    <tag k="name" v="Biogene"/>
  </node>
  <node id="528869965" lat="52.3126886" lon="-0.3801200" version="3" timestamp="2024-05-12T08:44:44Z" changeset="151214588" uid="95856" user="john paul jones &amp; gringo">
    <tag k="addr:city" v="Huntingdon"/>
    <tag k="addr:country" v="GB"/>
    <tag k="addr:postcode" v="PE28 0EY"/>
    <tag k="addr:street" v="Grovemere Court"/>
    <tag k="addr:suburb" v="Kimbolton"/>
    <tag k="landuse" v="industrial"/>
    <tag k="name" v="HKS Europe"/>
  </node>
  <node id="7068094451" lat="52.2974636" lon="-0.3894909" version="3" timestamp="2024-05-12T08:40:13Z" changeset="151214449" uid="95856" user="john paul jones &amp; gringo">
    <tag k="addr:city" v="Huntingdon"/>
    <tag k="addr:country" v="GB"/>
    <tag k="addr:housenumber" v="52"/>
    <tag k="addr:postcode" v="PE28 0HA"/>
    <tag k="addr:street" v="High Street"/>
    <tag k="addr:suburb" v="Kimbolton"/>
    <tag k="amenity" v="dentist"/>
    <tag k="healthcare" v="dentist"/>
    <tag k="name" v="Kimbolton Dental Studio"/>
  </node>
  <node id="7107819605" lat="52.2970189" lon="-0.3893695" version="5" timestamp="2024-08-27T16:09:36Z" changeset="155839834" uid="2240506" user="SteveGP">
    <tag k="addr:city" v="Huntingdon"/>
    <tag k="addr:country" v="GB"/>
    <tag k="addr:housenumber" v="21"/>
    <tag k="addr:postcode" v="PE28 0HB"/>
    <tag k="addr:street" v="High Street"/>
    <tag k="addr:suburb" v="Kimbolton"/>
    <tag k="name" v="Whitchurch Wines"/>
    <tag k="phone" v="+44 7949-587893"/>
    <tag k="shop" v="wine"/>
  </node>
  <node id="7107836899" lat="52.2969763" lon="-0.3893079" version="4" timestamp="2024-05-12T08:40:13Z" changeset="151214449" uid="95856" user="john paul jones &amp; gringo">
    <tag k="addr:city" v="Huntingdon"/>
    <tag k="addr:country" v="GB"/>
    <tag k="addr:housenumber" v="19"/>
    <tag k="addr:postcode" v="PE28 0HB"/>
    <tag k="addr:street" v="High Street"/>
    <tag k="addr:suburb" v="Kimbolton"/>
    <tag k="name" v="La Cote D'Or"/>
    <tag k="shop" v="antiques"/>
  </node>
  <node id="8928348954" lat="52.2972273" lon="-0.3886373" version="3" timestamp="2022-01-01T13:26:46Z" changeset="115634502" uid="281267" user="smb1001">
    <tag k="addr:city" v="Kimbolton"/>
    <tag k="addr:housenumber" v="4"/>
    <tag k="addr:street" v="Cromwell Court"/>
    <tag k="craft" v="caterer"/>
    <tag k="name" v="Nick &amp; Caroline Catering"/>
  </node>
  <node id="9383524269" lat="52.2966482" lon="-0.3882980" version="2" timestamp="2024-05-12T08:40:13Z" changeset="151214449" uid="95856" user="john paul jones &amp; gringo">
    <tag k="addr:city" v="Huntingdon"/>
    <tag k="addr:country" v="GB"/>
    <tag k="addr:housenumber" v="10"/>
    <tag k="addr:postcode" v="PE28 0HA"/>
    <tag k="addr:street" v="High Street"/>
    <tag k="addr:suburb" v="Kimbolton"/>
  </node>
  <node id="9383524276" lat="52.2964112" lon="-0.3879682" version="2" timestamp="2024-05-12T08:40:13Z" changeset="151214449" uid="95856" user="john paul jones &amp; gringo">
    <tag k="addr:city" v="Huntingdon"/>
    <tag k="addr:country" v="GB"/>
    <tag k="addr:housenumber" v="2"/>
    <tag k="addr:postcode" v="PE28 0HA"/>
    <tag k="addr:street" v="High Street"/>
    <tag k="addr:suburb" v="Kimbolton"/>
  </node>
  <node id="9383524282" lat="52.2970625" lon="-0.3889056" version="2" timestamp="2024-05-12T08:40:13Z" changeset="151214449" uid="95856" user="john paul jones &amp; gringo">
    <tag k="addr:city" v="Huntingdon"/>
    <tag k="addr:country" v="GB"/>
    <tag k="addr:housenumber" v="32"/>
    <tag k="addr:postcode" v="PE28 0HA"/>
    <tag k="addr:street" v="High Street"/>
    <tag k="addr:suburb" v="Kimbolton"/>
  </node>
  <node id="9383524289" lat="52.2967007" lon="-0.3883851" version="2" timestamp="2024-05-12T08:40:13Z" changeset="151214449" uid="95856" user="john paul jones &amp; gringo">
    <tag k="addr:city" v="Huntingdon"/>
    <tag k="addr:country" v="GB"/>
    <tag k="addr:housenumber" v="12"/>
    <tag k="addr:postcode" v="PE28 0HA"/>
    <tag k="addr:street" v="High Street"/>
    <tag k="addr:suburb" v="Kimbolton"/>
  </node>
  <node id="9383524290" lat="52.2967213" lon="-0.3884161" version="2" timestamp="2024-05-12T08:40:13Z" changeset="151214449" uid="95856" user="john paul jones &amp; gringo">
    <tag k="addr:city" v="Huntingdon"/>
    <tag k="addr:country" v="GB"/>
    <tag k="addr:housenumber" v="14"/>
    <tag k="addr:postcode" v="PE28 0HA"/>
    <tag k="addr:street" v="High Street"/>
    <tag k="addr:suburb" v="Kimbolton"/>
  </node>
  <node id="9383524295" lat="52.2965367" lon="-0.3881585" version="2" timestamp="2024-05-12T08:40:13Z" changeset="151214449" uid="95856" user="john paul jones &amp; gringo">
    <tag k="addr:city" v="Huntingdon"/>
    <tag k="addr:country" v="GB"/>
    <tag k="addr:housenumber" v="6"/>
    <tag k="addr:postcode" v="PE28 0HA"/>
    <tag k="addr:street" v="High Street"/>
    <tag k="addr:suburb" v="Kimbolton"/>
    <tag k="name" v="Peter Lane"/>
    <tag k="office" v="estate_agent"/>
  </node>
  <node id="9383524308" lat="52.2964793" lon="-0.3880780" version="2" timestamp="2024-05-12T08:40:13Z" changeset="151214449" uid="95856" user="john paul jones &amp; gringo">
    <tag k="addr:city" v="Huntingdon"/>
    <tag k="addr:country" v="GB"/>
    <tag k="addr:housenumber" v="4"/>
    <tag k="addr:postcode" v="PE28 0HA"/>
    <tag k="addr:street" v="High Street"/>
    <tag k="addr:suburb" v="Kimbolton"/>
  </node>
  <node id="9383524312" lat="52.2965859" lon="-0.3882269" version="2" timestamp="2024-05-12T08:40:13Z" changeset="151214449" uid="95856" user="john paul jones &amp; gringo">
    <tag k="addr:city" v="Huntingdon"/>
    <tag k="addr:country" v="GB"/>
    <tag k="addr:housenumber" v="8"/>
    <tag k="addr:postcode" v="PE28 0HA"/>
    <tag k="addr:street" v="High Street"/>
    <tag k="addr:suburb" v="Kimbolton"/>
  </node>
  <node id="9383553236" lat="52.2965097" lon="-0.3886401" version="2" timestamp="2024-05-12T08:40:13Z" changeset="151214449" uid="95856" user="john paul jones &amp; gringo">
    <tag k="addr:city" v="Huntingdon"/>
    <tag k="addr:country" v="GB"/>
    <tag k="addr:housenumber" v="1"/>
    <tag k="addr:postcode" v="PE28 0HB"/>
    <tag k="addr:street" v="High Street"/>
    <tag k="addr:suburb" v="Kimbolton"/>
  </node>
  <node id="9383553253" lat="52.2965556" lon="-0.3887112" version="2" timestamp="2024-05-12T08:40:13Z" changeset="151214449" uid="95856" user="john paul jones &amp; gringo">
    <tag k="addr:city" v="Huntingdon"/>
    <tag k="addr:country" v="GB"/>
    <tag k="addr:housenumber" v="3"/>
    <tag k="addr:postcode" v="PE28 0HB"/>
    <tag k="addr:street" v="High Street"/>
    <tag k="addr:suburb" v="Kimbolton"/>
  </node>
  <node id="9383553278" lat="52.2969394" lon="-0.3892489" version="2" timestamp="2024-05-12T08:40:13Z" changeset="151214449" uid="95856" user="john paul jones &amp; gringo">
    <tag k="addr:city" v="Huntingdon"/>
    <tag k="addr:country" v="GB"/>
    <tag k="addr:housenumber" v="17"/>
    <tag k="addr:postcode" v="PE28 0HB"/>
    <tag k="addr:street" v="High Street"/>
    <tag k="addr:suburb" v="Kimbolton"/>
  </node>
  <way id="42362457" version="13" timestamp="2024-09-17T00:19:03Z" changeset="156709345" uid="21226027" user="DorneyLake123">
    <nd ref="528869874"/>
    <nd ref="1334359699"/>
    <nd ref="1334359700"/>
    <nd ref="4167526618"/>
    <nd ref="528869891"/>
    <nd ref="1334359690"/>
    <nd ref="1334359695"/>
    <nd ref="1334359693"/>
    <nd ref="528869874"/>
    <tag k="addr:city" v="Huntingdon"/>
    <tag k="addr:country" v="GB"/>
    <tag k="addr:postcode" v="PE28 0HY"/>
    <tag k="addr:street" v="Newtown"/>
    <tag k="addr:suburb" v="Kimbolton"/>
    <tag k="amenity" v="school"/>
    <tag k="capacity" v="140"/>
    <tag k="isced:level" v="1"/>
    <tag k="max_age" v="11"/>
    <tag k="min_age" v="2"/>
    <tag k="name" v="Kimbolton Primary Academy"/>
    <tag k="operator" v="Cambridgeshire County Council"/>
    <tag k="operator:wikidata" v="Q5025648"/>
    <tag k="ref:edubase" v="140386"/>
    <tag k="toilets:wheelchair" v="yes"/>
    <tag k="wheelchair" v="yes"/>
    <tag k="wikidata" v="Q66230363"/>
  </way>
  <way id="134670044" version="8" timestamp="2023-10-31T15:03:55Z" changeset="143426766" uid="90142" user="andy mackey">
    <nd ref="1480327236"/>
    <nd ref="4364970276"/>
    <nd ref="4364970275"/>
    <nd ref="4364970263"/>
    <nd ref="4364970278"/>
    <nd ref="4364970277"/>
    <nd ref="4364970262"/>
    <nd ref="4364970261"/>
    <nd ref="1480326997"/>
    <nd ref="1480327212"/>
    <nd ref="1480327227"/>
    <nd ref="1480327161"/>
    <nd ref="4365013958"/>
    <nd ref="1480327110"/>
    <nd ref="1480327040"/>
    <nd ref="1480327019"/>
    <nd ref="1480327276"/>
    <nd ref="1480327065"/>
    <nd ref="4364970254"/>
    <nd ref="1480327057"/>
    <nd ref="4364970315"/>
    <nd ref="4364970255"/>
    <nd ref="4364970256"/>
    <nd ref="11302564742"/>
    <nd ref="11302564743"/>
    <nd ref="11302564738"/>
    <nd ref="4364970257"/>
    <nd ref="4364970258"/>
    <nd ref="11302564737"/>
    <nd ref="11302564741"/>
    <nd ref="4364970260"/>
    <nd ref="4364970259"/>
    <nd ref="1480327236"/>
    <tag k="addr:city" v="St Neots"/>
    <tag k="addr:place" v="Stonely"/>
    <tag k="addr:postcode" v="PE19 5NX"/>
    <tag k="addr:street" v="Bigrams Lane"/>
    <tag k="industrial" v="gas"/>
    <tag k="landuse" v="industrial"/>
    <tag k="man_made" v="pumping_station"/>
    <tag k="name" v="Huntingdon Gas Compressor Station"/>
    <tag k="substance" v="gas"/>
    <tag k="type" v="gas"/>
    <tag k="utility" v="gas"/>
  </way>
  <way id="140835212" version="5" timestamp="2024-05-12T08:40:13Z" changeset="151214449" uid="95856" user="john paul jones &amp; gringo">
    <nd ref="1542116587"/>
    <nd ref="9201324826"/>
    <nd ref="1542116601"/>
    <nd ref="1542116602"/>
    <nd ref="1542116592"/>
    <nd ref="1542116607"/>
    <nd ref="1542116594"/>
    <nd ref="1542116599"/>
    <nd ref="1542116606"/>
    <nd ref="1542116587"/>
    <tag k="addr:city" v="Huntingdon"/>
    <tag k="addr:country" v="GB"/>
    <tag k="addr:postcode" v="PE28 0HW"/>
    <tag k="addr:street" v="Thrapston Road"/>
    <tag k="addr:suburb" v="Kimbolton"/>
    <tag k="amenity" v="community_centre"/>
    <tag k="building" v="public"/>
    <tag k="name" v="Mandeville Hall"/>
    <tag k="source" v="survey and bing"/>
  </way>
  <way id="335055829" version="3" timestamp="2024-04-04T11:39:15Z" changeset="149566150" uid="95856" user="john paul jones &amp; gringo">
    <nd ref="3421846500"/>
    <nd ref="4365013987"/>
    <nd ref="3421846501"/>
    <nd ref="4365013978"/>
    <nd ref="4365013979"/>
    <nd ref="4365013980"/>
    <nd ref="3421846502"/>
    <nd ref="4365013981"/>
    <nd ref="4365013982"/>
    <nd ref="4365013983"/>
    <nd ref="4365013984"/>
    <nd ref="3421846503"/>
    <nd ref="4365013985"/>
    <nd ref="3421846504"/>
    <nd ref="4365013986"/>
    <nd ref="4365013988"/>
    <nd ref="4365014289"/>
    <nd ref="3421846500"/>
    <tag k="addr:city" v="St Neots"/>
    <tag k="addr:country" v="GB"/>
    <tag k="addr:housename" v="Priory Farm"/>
    <tag k="addr:postcode" v="PE19 5EN"/>
    <tag k="addr:street" v="Easton Road"/>
    <tag k="addr:suburb" v="Stonely"/>
    <tag k="landuse" v="farmyard"/>
    <tag k="name" v="Priory Farm"/>
  </way>
  <way id="438971053" version="2" timestamp="2024-05-12T08:44:44Z" changeset="151214588" uid="95856" user="john paul jones &amp; gringo">
    <nd ref="4366094309"/>
    <nd ref="4366094310"/>
    <nd ref="4366094311"/>
    <nd ref="4366094312"/>
    <nd ref="4366094313"/>
    <nd ref="4366094314"/>
    <nd ref="4366094309"/>
    <tag k="addr:city" v="Huntingdon"/>
    <tag k="addr:country" v="GB"/>
    <tag k="addr:housenumber" v="14"/>
    <tag k="addr:postcode" v="PE28 0NJ"/>
    <tag k="addr:street" v="Harvard Way"/>
    <tag k="addr:suburb" v="Kimbolton"/>
    <tag k="building" v="commercial"/>
    <tag k="name" v="Ditone Labels Ltd"/>
  </way>
  <way id="438971058" version="2" timestamp="2024-05-12T08:44:44Z" changeset="151214588" uid="95856" user="john paul jones &amp; gringo">
    <nd ref="4366094325"/>
    <nd ref="4366094326"/>
    <nd ref="4366094327"/>
    <nd ref="4366094328"/>
    <nd ref="4366094325"/>
    <tag k="addr:city" v="Huntingdon"/>
    <tag k="addr:country" v="GB"/>
    <tag k="addr:housenumber" v="12"/>
    <tag k="addr:postcode" v="PE28 0NJ"/>
    <tag k="addr:street" v="Havard Industrial Estate"/>
    <tag k="addr:suburb" v="Kimbolton"/>
    <tag k="building" v="commercial"/>
    <tag k="name" v="Young Living (Europe)"/>
  </way>
  <way id="438971064" version="2" timestamp="2024-05-12T08:44:44Z" changeset="151214588" uid="95856" user="john paul jones &amp; gringo">
    <nd ref="4366094339"/>
    <nd ref="4366094340"/>
    <nd ref="4366094341"/>
    <nd ref="4366094342"/>
    <nd ref="4366094343"/>
    <nd ref="4366094344"/>
    <nd ref="4366094339"/>
    <tag k="addr:city" v="Huntingdon"/>
    <tag k="addr:country" v="GB"/>
    <tag k="addr:housenumber" v="4"/>
    <tag k="addr:postcode" v="PE28 0EY"/>
    <tag k="addr:street" v="Grovemere Court"/>
    <tag k="addr:suburb" v="Kimbolton"/>
    <tag k="building" v="commercial"/>
  </way>
  <way id="670998339" version="4" timestamp="2024-05-12T08:40:13Z" changeset="151214449" uid="95856" user="john paul jones &amp; gringo">
    <nd ref="6283630650"/>
    <nd ref="9201324822"/>
    <nd ref="6283630642"/>
    <nd ref="6283630643"/>
    <nd ref="6283630644"/>
    <nd ref="6283630650"/>
    <tag k="addr:city" v="Huntingdon"/>
    <tag k="addr:country" v="GB"/>
    <tag k="addr:housenumber" v="28"/>
    <tag k="addr:postcode" v="PE28 0HA"/>
    <tag k="addr:street" v="High Street"/>
    <tag k="addr:suburb" v="Kimbolton"/>
    <tag k="building" v="yes"/>
  </way>
  <way id="670998340" version="6" timestamp="2024-08-27T16:07:29Z" changeset="155839733" uid="2240506" user="SteveGP">
    <nd ref="9383524280"/>
    <nd ref="9383524294"/>
    <nd ref="6283630650"/>
    <nd ref="6283630644"/>
    <nd ref="6283630649"/>
    <nd ref="6283630645"/>
    <nd ref="6283630646"/>
    <nd ref="9383524280"/>
    <tag k="addr:city" v="Huntingdon"/>
    <tag k="addr:country" v="GB"/>
    <tag k="addr:housenumber" v="26"/>
    <tag k="addr:postcode" v="PE28 0HA"/>
    <tag k="addr:street" v="High Street"/>
    <tag k="addr:suburb" v="Kimbolton"/>
    <tag k="amenity" v="restaurant"/>
    <tag k="building" v="yes"/>
    <tag k="cuisine" v="indian"/>
    <tag k="disused:amenity" v="pub"/>
    <tag k="name" v="Kimbolton Spice"/>
    <tag k="was:name" v="The Saddle"/>
    <tag k="wheelchair" v="limited"/>
  </way>
  <way id="1017325345" version="1" timestamp="2022-01-01T12:31:32Z" changeset="115634502" uid="281267" user="smb1001">
    <nd ref="9383506880"/>
    <nd ref="9383458411"/>
    <nd ref="9383458404"/>
    <nd ref="9383458412"/>
    <nd ref="9383506836"/>
    <nd ref="9383506878"/>
    <nd ref="9383506898"/>
    <nd ref="9383506880"/>
    <tag k="addr:housenumber" v="30"/>
    <tag k="addr:street" v="East Street"/>
    <tag k="building" v="residential"/>
  </way>
  <way id="1017325350" version="1" timestamp="2022-01-01T12:31:32Z" changeset="115634502" uid="281267" user="smb1001">
    <nd ref="9383506874"/>
    <nd ref="9383506905"/>
    <nd ref="9383506839"/>
    <nd ref="9383506847"/>
    <nd ref="9383506870"/>
    <nd ref="9383458397"/>
    <nd ref="9383506867"/>
    <nd ref="9383458393"/>
    <nd ref="9383506874"/>
    <tag k="addr:housename" v="Brothers House"/>
    <tag k="addr:housenumber" v="18"/>
    <tag k="addr:street" v="East Street"/>
    <tag k="building" v="residential"/>
  </way>
  <way id="1017325351" version="1" timestamp="2022-01-01T12:31:32Z" changeset="115634502" uid="281267" user="smb1001">
    <nd ref="9383506878"/>
    <nd ref="9383458401"/>
    <nd ref="9383506889"/>
    <nd ref="9383506836"/>
    <nd ref="9383506878"/>
    <tag k="addr:housenumber" v="28"/>
    <tag k="addr:street" v="East Street"/>
    <tag k="building" v="residential"/>
  </way>
  <way id="1017325352" version="1" timestamp="2022-01-01T12:31:32Z" changeset="115634502" uid="281267" user="smb1001">
    <nd ref="9383506893"/>
    <nd ref="9383506833"/>
    <nd ref="9383506862"/>
    <nd ref="9383506855"/>
    <nd ref="9383506842"/>
    <nd ref="9383506841"/>
    <nd ref="9383506885"/>
    <nd ref="9383506871"/>
    <nd ref="9383506865"/>
    <nd ref="9383506884"/>
    <nd ref="9383458405"/>
    <nd ref="9383506893"/>
    <tag k="addr:housename" v="Dial House"/>
    <tag k="addr:housenumber" v="20"/>
    <tag k="addr:street" v="East Street"/>
    <tag k="building" v="residential"/>
  </way>
  <way id="1017325354" version="1" timestamp="2022-01-01T12:31:32Z" changeset="115634502" uid="281267" user="smb1001">
    <nd ref="9383506853"/>
    <nd ref="9383506901"/>
    <nd ref="9383506866"/>
    <nd ref="9383506893"/>
    <nd ref="9383458405"/>
    <nd ref="9383458389"/>
    <nd ref="9383506853"/>
    <tag k="addr:housenumber" v="24"/>
    <tag k="addr:street" v="East Street"/>
    <tag k="building" v="residential"/>
  </way>
  <way id="1017325358" version="1" timestamp="2022-01-01T12:31:32Z" changeset="115634502" uid="281267" user="smb1001">
    <nd ref="9383458390"/>
    <nd ref="9383506854"/>
    <nd ref="9383458389"/>
    <nd ref="9383506853"/>
    <nd ref="9383506849"/>
    <nd ref="9383506848"/>
    <nd ref="9383506852"/>
    <nd ref="9383458390"/>
    <tag k="addr:housenumber" v="26"/>
    <tag k="addr:street" v="East Street"/>
    <tag k="building" v="residential"/>
  </way>
  <way id="1017326623" version="3" timestamp="2024-05-12T08:40:13Z" changeset="151214449" uid="95856" user="john paul jones &amp; gringo">
    <nd ref="9383512506"/>
    <nd ref="9383515442"/>
    <nd ref="9383515489"/>
    <nd ref="9383515503"/>
    <nd ref="9383515458"/>
    <nd ref="9383515435"/>
    <nd ref="9383515502"/>
    <nd ref="9383512487"/>
    <nd ref="9383512506"/>
    <tag k="addr:city" v="Huntingdon"/>
    <tag k="addr:country" v="GB"/>
    <tag k="addr:housename" v="Montagu House"/>
    <tag k="addr:housenumber" v="48"/>
    <tag k="addr:postcode" v="PE28 0HA"/>
    <tag k="addr:street" v="High Street"/>
    <tag k="addr:suburb" v="Kimbolton"/>
    <tag k="building" v="yes"/>
  </way>
  <way id="1017326624" version="3" timestamp="2024-05-12T08:40:13Z" changeset="151214449" uid="95856" user="john paul jones &amp; gringo">
    <nd ref="9383515443"/>
    <nd ref="9383512506"/>
    <nd ref="9383512487"/>
    <nd ref="9383515424"/>
    <nd ref="9383515477"/>
    <nd ref="9383515437"/>
    <nd ref="9383512512"/>
    <nd ref="9383515443"/>
    <tag k="addr:city" v="Huntingdon"/>
    <tag k="addr:country" v="GB"/>
    <tag k="addr:housename" v="The Old Bakehouse"/>
    <tag k="addr:housenumber" v="42"/>
    <tag k="addr:postcode" v="PE28 0HA"/>
    <tag k="addr:street" v="High Street"/>
    <tag k="addr:suburb" v="Kimbolton"/>
    <tag k="building" v="yes"/>
  </way>
  <way id="1017326626" version="3" timestamp="2024-05-12T08:40:13Z" changeset="151214449" uid="95856" user="john paul jones &amp; gringo">
    <nd ref="6283630665"/>
    <nd ref="6283630659"/>
    <nd ref="6283630658"/>
    <nd ref="9383512516"/>
    <nd ref="9383515428"/>
    <nd ref="9383515452"/>
    <nd ref="9383515466"/>
    <nd ref="9383515447"/>
    <nd ref="9383512481"/>
    <nd ref="6283630666"/>
    <nd ref="6283630665"/>
    <tag k="addr:city" v="Huntingdon"/>
    <tag k="addr:country" v="GB"/>
    <tag k="addr:housename" v="Clancarty House"/>
    <tag k="addr:housenumber" v="23"/>
    <tag k="addr:postcode" v="PE28 0HB"/>
    <tag k="addr:street" v="High Street"/>
    <tag k="addr:suburb" v="Kimbolton"/>
    <tag k="building" v="yes"/>
  </way>
  <way id="1017326629" version="3" timestamp="2024-05-12T08:40:13Z" changeset="151214449" uid="95856" user="john paul jones &amp; gringo">
    <nd ref="9383512475"/>
    <nd ref="9383515481"/>
    <nd ref="9383515478"/>
    <nd ref="9383515459"/>
    <nd ref="9383512507"/>
    <nd ref="9383515460"/>
    <nd ref="9383512479"/>
    <nd ref="9383515423"/>
    <nd ref="9383512509"/>
    <nd ref="9383512475"/>
    <tag k="addr:city" v="Huntingdon"/>
    <tag k="addr:country" v="GB"/>
    <tag k="addr:housename" v="Kimbolton House"/>
    <tag k="addr:housenumber" v="9"/>
    <tag k="addr:postcode" v="PE28 0HB"/>
    <tag k="addr:street" v="High Street"/>
    <tag k="addr:suburb" v="Kimbolton"/>
    <tag k="building" v="yes"/>
  </way>
  <way id="1017326631" version="3" timestamp="2024-05-12T08:40:13Z" changeset="151214449" uid="95856" user="john paul jones &amp; gringo">
    <nd ref="9383515442"/>
    <nd ref="9383515441"/>
    <nd ref="9383515450"/>
    <nd ref="9383515489"/>
    <nd ref="9383515442"/>
    <tag k="addr:city" v="Huntingdon"/>
    <tag k="addr:country" v="GB"/>
    <tag k="addr:housenumber" v="52"/>
    <tag k="addr:postcode" v="PE28 0HA"/>
    <tag k="addr:street" v="High Street"/>
    <tag k="addr:suburb" v="Kimbolton"/>
    <tag k="building" v="yes"/>
  </way>
  <way id="1017326633" version="3" timestamp="2024-05-12T08:40:13Z" changeset="151214449" uid="95856" user="john paul jones &amp; gringo">
    <nd ref="9383524309"/>
    <nd ref="9383515429"/>
    <nd ref="9383515432"/>
    <nd ref="9383512511"/>
    <nd ref="9383524309"/>
    <tag k="addr:city" v="Huntingdon"/>
    <tag k="addr:country" v="GB"/>
    <tag k="addr:housenumber" v="34"/>
    <tag k="addr:postcode" v="PE28 0HA"/>
    <tag k="addr:street" v="High Street"/>
    <tag k="addr:suburb" v="Kimbolton"/>
    <tag k="building" v="yes"/>
  </way>
  <way id="1017326635" version="3" timestamp="2024-05-12T08:40:13Z" changeset="151214449" uid="95856" user="john paul jones &amp; gringo">
    <nd ref="9383515430"/>
    <nd ref="9383515443"/>
    <nd ref="9383512512"/>
    <nd ref="9383512482"/>
    <nd ref="9383515500"/>
    <nd ref="9383515434"/>
    <nd ref="9383515476"/>
    <nd ref="9383515430"/>
    <tag k="addr:city" v="Huntingdon"/>
    <tag k="addr:country" v="GB"/>
    <tag k="addr:housenumber" v="40"/>
    <tag k="addr:postcode" v="PE28 0HA"/>
    <tag k="addr:street" v="High Street"/>
    <tag k="addr:suburb" v="Kimbolton"/>
    <tag k="building" v="yes"/>
  </way>
  <way id="1017326638" version="3" timestamp="2024-05-12T08:40:13Z" changeset="151214449" uid="95856" user="john paul jones &amp; gringo">
    <nd ref="9383515480"/>
    <nd ref="9383515463"/>
    <nd ref="9383512491"/>
    <nd ref="9383515486"/>
    <nd ref="9383515438"/>
    <nd ref="9383512515"/>
    <nd ref="6283630660"/>
    <nd ref="9383515480"/>
    <tag k="addr:city" v="Huntingdon"/>
    <tag k="addr:country" v="GB"/>
    <tag k="addr:housenumber" v="15"/>
    <tag k="addr:postcode" v="PE28 0HB"/>
    <tag k="addr:street" v="High Street"/>
    <tag k="addr:suburb" v="Kimbolton"/>
    <tag k="building" v="yes"/>
  </way>
  <way id="1017326639" version="3" timestamp="2024-05-12T08:40:13Z" changeset="151214449" uid="95856" user="john paul jones &amp; gringo">
    <nd ref="6283630647"/>
    <nd ref="9383512495"/>
    <nd ref="9383515499"/>
    <nd ref="9383515487"/>
    <nd ref="9383512498"/>
    <nd ref="9383515418"/>
    <nd ref="9383512494"/>
    <nd ref="9383515440"/>
    <nd ref="6283630647"/>
    <tag k="addr:city" v="Huntingdon"/>
    <tag k="addr:country" v="GB"/>
    <tag k="addr:housenumber" v="20"/>
    <tag k="addr:postcode" v="PE28 0HA"/>
    <tag k="addr:street" v="High Street"/>
    <tag k="addr:suburb" v="Kimbolton"/>
    <tag k="amenity" v="pub"/>
    <tag k="building" v="yes"/>
    <tag k="name" v="New Sun Inn"/>
    <tag k="wheelchair" v="limited"/>
    <tag k="wikidata" v="Q26505790"/>
  </way>
  <way id="1017329050" version="2" timestamp="2024-05-12T08:40:13Z" changeset="151214449" uid="95856" user="john paul jones &amp; gringo">
    <nd ref="9383515429"/>
    <nd ref="9383524309"/>
    <nd ref="9383515430"/>
    <nd ref="9383515476"/>
    <nd ref="9383515457"/>
    <nd ref="9383515429"/>
    <tag k="addr:city" v="Huntingdon"/>
    <tag k="addr:country" v="GB"/>
    <tag k="addr:housenumber" v="36"/>
    <tag k="addr:postcode" v="PE28 0HA"/>
    <tag k="addr:street" v="High Street"/>
    <tag k="addr:suburb" v="Kimbolton"/>
    <tag k="building" v="yes"/>
  </way>
  <way id="1017329051" version="2" timestamp="2024-05-12T08:40:13Z" changeset="151214449" uid="95856" user="john paul jones &amp; gringo">
    <nd ref="9383524280"/>
    <nd ref="6283630648"/>
    <nd ref="9383515440"/>
    <nd ref="6283630647"/>
    <nd ref="9383524294"/>
    <nd ref="9383524280"/>
    <tag k="addr:city" v="Huntingdon"/>
    <tag k="addr:country" v="GB"/>
    <tag k="addr:housenumber" v="24"/>
    <tag k="addr:postcode" v="PE28 0HA"/>
    <tag k="addr:street" v="High Street"/>
    <tag k="addr:suburb" v="Kimbolton"/>
    <tag k="building" v="yes"/>
  </way>
  <way id="1017331030" version="2" timestamp="2024-05-12T08:40:13Z" changeset="151214449" uid="95856" user="john paul jones &amp; gringo">
    <nd ref="9383553277"/>
    <nd ref="6283630653"/>
    <nd ref="6283630652"/>
    <nd ref="6283630651"/>
    <nd ref="6283630658"/>
    <nd ref="6283630659"/>
    <nd ref="9383553277"/>
    <tag k="addr:city" v="Huntingdon"/>
    <tag k="addr:country" v="GB"/>
    <tag k="addr:housenumber" v="21"/>
    <tag k="addr:postcode" v="PE28 0HB"/>
    <tag k="addr:street" v="High Street"/>
    <tag k="addr:suburb" v="Kimbolton"/>
    <tag k="building" v="yes"/>
  </way>
  <way id="1017331032" version="2" timestamp="2024-05-12T08:40:13Z" changeset="151214449" uid="95856" user="john paul jones &amp; gringo">
    <nd ref="9383553271"/>
    <nd ref="9383515426"/>
    <nd ref="9383515469"/>
    <nd ref="9383515488"/>
    <nd ref="9383515490"/>
    <nd ref="9383515464"/>
    <nd ref="9383515491"/>
    <nd ref="9383515462"/>
    <nd ref="9383512502"/>
    <nd ref="9383512514"/>
    <nd ref="9383515455"/>
    <nd ref="9383553271"/>
    <tag k="addr:city" v="Huntingdon"/>
    <tag k="addr:country" v="GB"/>
    <tag k="addr:housenumber" v="35"/>
    <tag k="addr:postcode" v="PE28 0HB"/>
    <tag k="addr:street" v="High Street"/>
    <tag k="addr:suburb" v="Kimbolton"/>
    <tag k="building" v="yes"/>
  </way>
  <way id="1017331033" version="2" timestamp="2024-05-12T08:40:13Z" changeset="151214449" uid="95856" user="john paul jones &amp; gringo">
    <nd ref="9383553246"/>
    <nd ref="9383553268"/>
    <nd ref="9383553245"/>
    <nd ref="9383553240"/>
    <nd ref="9383553237"/>
    <nd ref="9383553257"/>
    <nd ref="9383553255"/>
    <nd ref="9383553243"/>
    <nd ref="9383553246"/>
    <tag k="addr:city" v="Huntingdon"/>
    <tag k="addr:country" v="GB"/>
    <tag k="addr:housename" v="The Vicarage"/>
    <tag k="addr:housenumber" v="37"/>
    <tag k="addr:postcode" v="PE28 0HB"/>
    <tag k="addr:street" v="High Street"/>
    <tag k="addr:suburb" v="Kimbolton"/>
    <tag k="building" v="yes"/>
  </way>
  <way id="1017331035" version="2" timestamp="2024-05-12T08:40:13Z" changeset="151214449" uid="95856" user="john paul jones &amp; gringo">
    <nd ref="9383515465"/>
    <nd ref="9383515504"/>
    <nd ref="9383515495"/>
    <nd ref="9383515468"/>
    <nd ref="9383512497"/>
    <nd ref="9383515470"/>
    <nd ref="9383515475"/>
    <nd ref="9383512483"/>
    <nd ref="6283630667"/>
    <nd ref="6283630668"/>
    <nd ref="9383515465"/>
    <tag k="addr:city" v="Huntingdon"/>
    <tag k="addr:country" v="GB"/>
    <tag k="addr:housename" v="Court House"/>
    <tag k="addr:housenumber" v="31"/>
    <tag k="addr:postcode" v="PE28 0HB"/>
    <tag k="addr:street" v="High Street"/>
    <tag k="addr:suburb" v="Kimbolton"/>
    <tag k="building" v="yes"/>
  </way>
  <way id="1017331036" version="2" timestamp="2024-05-12T08:40:13Z" changeset="151214449" uid="95856" user="john paul jones &amp; gringo">
    <nd ref="9383553280"/>
    <nd ref="9383515423"/>
    <nd ref="9383512479"/>
    <nd ref="9383515454"/>
    <nd ref="9383512496"/>
    <nd ref="9383515420"/>
    <nd ref="9383512478"/>
    <nd ref="9383553280"/>
    <tag k="addr:city" v="Huntingdon"/>
    <tag k="addr:country" v="GB"/>
    <tag k="addr:housenumber" v="7"/>
    <tag k="addr:postcode" v="PE28 0HB"/>
    <tag k="addr:street" v="High Street"/>
    <tag k="addr:suburb" v="Kimbolton"/>
    <tag k="building" v="yes"/>
  </way>
  <way id="1017331038" version="2" timestamp="2024-05-12T08:40:13Z" changeset="151214449" uid="95856" user="john paul jones &amp; gringo">
    <nd ref="9383553271"/>
    <nd ref="9383515455"/>
    <nd ref="9383515449"/>
    <nd ref="9383515467"/>
    <nd ref="9383515494"/>
    <nd ref="9383515504"/>
    <nd ref="9383515465"/>
    <nd ref="9383553271"/>
    <tag k="addr:city" v="Huntingdon"/>
    <tag k="addr:country" v="GB"/>
    <tag k="addr:housename" v="The White House"/>
    <tag k="addr:housenumber" v="33"/>
    <tag k="addr:postcode" v="PE28 0HB"/>
    <tag k="addr:street" v="High Street"/>
    <tag k="addr:suburb" v="Kimbolton"/>
    <tag k="building" v="yes"/>
  </way>

</osm>
