<?xml version="1.0" encoding="UTF-8"?>
<osm version="0.6" generator="Overpass API 0.7.62.4 2390de5a">
<note>The data included in this document is from www.openstreetmap.org. The data is made available under ODbL.</note>
<meta osm_base="2025-01-23T15:35:00Z" areas="2024-12-31T00:49:33Z"/>

  <node id="41036436" lat="52.0919368" lon="0.1585472" version="8" timestamp="2019-02-04T10:42:16Z" changeset="66899076" uid="5173844" user="ndrw6">
    <tag k="addr:city" v="Cambridge"/>
    <tag k="addr:housenumber" v="4"/>
    <tag k="addr:postcode" v="CB22 4RP"/>
    <tag k="addr:street" v="St Peter's Street"/>
    <tag k="addr:village" v="Duxford"/>
    <tag k="amenity" v="cafe"/>
    <tag k="name" v="Graystones"/>
    <tag k="opening_hours" v="Mo-Su 09:00-17:00"/>
    <tag k="phone" v="+44 1223 836200"/>
  </node>
  <node id="41036448" lat="52.0913074" lon="0.1572774" version="6" timestamp="2022-08-10T11:03:28Z" changeset="124725398" uid="6816132" user="CjMalone">
    <tag k="addr:housenumber" v="41"/>
    <tag k="addr:postcode" v="CB22 4RP"/>
    <tag k="addr:street" v="St Peter's Street"/>
    <tag k="brand" v="Costcutter"/>
    <tag k="brand:wikidata" v="Q5175072"/>
    <tag k="contact:website" v="https://store-locator.costcutter.co.uk/costcutter-bb5324d46916"/>
    <tag k="name" v="Costcutter Duxford Supermarket"/>
    <tag k="shop" v="convenience"/>
  </node>
  <node id="41036462" lat="52.0898854" lon="0.1554363" version="4" timestamp="2021-09-21T09:31:50Z" changeset="111485422" uid="6816132" user="CjMalone">
    <tag k="addr:country" v="GB"/>
    <tag k="addr:postcode" v="CB22 4RT"/>
    <tag k="addr:street" v="Ickleton Road"/>
    <tag k="fhrs:id" v="1277550"/>
    <tag k="name" v="Duxford Lodge"/>
    <tag k="survey:date" v="2019-11-19"/>
    <tag k="tourism" v="hotel"/>
  </node>
  <node id="739127414" lat="52.0934293" lon="0.1589704" version="5" timestamp="2023-10-22T09:07:53Z" changeset="142958420" uid="6816132" user="CjMalone">
    <tag k="addr:city" v="Cambridge"/>
    <tag k="addr:housename" v="The United Reform Church"/>
    <tag k="addr:postcode" v="CB22 4RJ"/>
    <tag k="addr:street" v="Chapel Street"/>
    <tag k="addr:village" v="Duxford"/>
    <tag k="amenity" v="post_office"/>
    <tag k="brand" v="Post Office"/>
    <tag k="brand:wikidata" v="Q1783168"/>
    <tag k="name" v="Duxford Post Office"/>
    <tag k="opening_hours" v="Mo 10:00-12:30; We 09:30-12:00"/>
    <tag k="ref:pol_id" v="130054"/>
    <tag k="source:addr" v="pol_branch_list_2018-02"/>
    <tag k="source:opening_hours" v="pol_branch_list_2018-02"/>
    <tag k="website" v="https://www.postoffice.co.uk/branch-finder/3094715/duxford"/>
  </node>
  <node id="4565890810" lat="52.0925709" lon="0.1592285" version="3" timestamp="2018-12-01T15:46:33Z" changeset="65075749" uid="242345" user="confusedbuffalo">
    <tag k="addr:housenumber" v="4"/>
    <tag k="addr:street" v="Chapel Street"/>
    <tag k="email" v="shearing@gmail.com"/>
    <tag k="name" v="Thomas Shearing Furniture Restoration"/>
    <tag k="phone" v="+44 1223 837150"/>
    <tag k="shop" v="furniture"/>
    <tag k="website" v="http://www.restorersandupholstererscambridge.co.uk/"/>
  </node>
  <node id="4565899997" lat="52.0946708" lon="0.1595038" version="1" timestamp="2016-12-21T23:49:59Z" changeset="44577679" uid="4873815" user="Whizb">
    <tag k="addr:street" v="Mill Lane"/>
    <tag k="name" v="Riro Mooney Antiques"/>
    <tag k="shop" v="furniture"/>
    <tag k="website" v="http://www.riromooney-antiques.co.uk"/>
  </node>
  <node id="4565900899" lat="52.0917984" lon="0.1586455" version="3" timestamp="2023-11-10T05:59:41Z" changeset="143848251" uid="9451067" user="b-jazz-bot">
    <tag k="addr:housenumber" v="15"/>
    <tag k="addr:postcode" v="CB22 4RP"/>
    <tag k="addr:street" v="St Peter's Street"/>
    <tag k="name" v="Bridgette Ellwood Salon"/>
    <tag k="phone" v="+44 1223 778017"/>
    <tag k="shop" v="cosmetics"/>
    <tag k="website" v="https://www.bridgetteellwood.com/"/>
  </node>
  <node id="4565903489" lat="52.0953001" lon="0.1591018" version="2" timestamp="2017-09-02T17:22:11Z" changeset="51675236" uid="242345" user="confusedbuffalo">
    <tag k="addr:housenumber" v="12"/>
    <tag k="addr:street" v="Moorfield Road"/>
    <tag k="name" v="Tranquillity Beauty Salon"/>
    <tag k="phone" v="+44 1223 505041"/>
    <tag k="shop" v="cosmetics"/>
    <tag k="website" v="http://tranquillitybeautysalon.com"/>
  </node>
  <way id="5554213" version="9" timestamp="2023-09-11T12:57:29Z" changeset="141111897" uid="242345" user="confusedbuffalo">
    <nd ref="41036314"/>
    <nd ref="5337579883"/>
    <nd ref="5337590763"/>
    <nd ref="41036301"/>
    <nd ref="5337590759"/>
    <nd ref="41036304"/>
    <nd ref="2015282622"/>
    <nd ref="5337579893"/>
    <nd ref="5337579894"/>
    <nd ref="5337579895"/>
    <nd ref="41036317"/>
    <nd ref="5337579880"/>
    <nd ref="41036314"/>
    <tag k="addr:postcode" v="CB22 4RA"/>
    <tag k="addr:street" v="St John's Street"/>
    <tag k="amenity" v="school"/>
    <tag k="capacity" v="240"/>
    <tag k="denomination" v="anglican"/>
    <tag k="diocese" v="Diocese of Ely"/>
    <tag k="isced:level" v="1"/>
    <tag k="max_age" v="11"/>
    <tag k="min_age" v="4"/>
    <tag k="name" v="Duxford Church of England Community Primary School"/>
    <tag k="phone" v="+44 1223 712108"/>
    <tag k="ref:GB:uprn" v="10003209708"/>
    <tag k="ref:edubase" v="110798"/>
    <tag k="religion" v="christian"/>
    <tag k="school:trust" v="no"/>
    <tag k="school:type" v="voluntary_controlled"/>
    <tag k="website" v="www.duxford.cambs.sch.uk"/>
    <tag k="wikidata" v="Q66223618"/>
  </way>
  <way id="26521006" version="19" timestamp="2023-06-23T08:42:27Z" changeset="137678331" uid="8670237" user="imbenjamin">
    <nd ref="290681817"/>
    <nd ref="1302202216"/>
    <nd ref="1302202214"/>
    <nd ref="290681819"/>
    <nd ref="11001310644"/>
    <nd ref="11001310645"/>
    <nd ref="290681820"/>
    <nd ref="1833676416"/>
    <nd ref="1833676369"/>
    <nd ref="1833676333"/>
    <nd ref="4584131904"/>
    <nd ref="11001310661"/>
    <nd ref="290681821"/>
    <nd ref="1833676313"/>
    <nd ref="290681822"/>
    <nd ref="290681824"/>
    <nd ref="290681825"/>
    <nd ref="2307579976"/>
    <nd ref="2307579975"/>
    <nd ref="2307579964"/>
    <nd ref="2307579965"/>
    <nd ref="2307579966"/>
    <nd ref="2307579974"/>
    <nd ref="2307579969"/>
    <nd ref="290681826"/>
    <nd ref="1302169240"/>
    <nd ref="1302168839"/>
    <nd ref="290681817"/>
    <tag k="addr:city" v="Cambridge"/>
    <tag k="addr:housename" v="IWM Duxford"/>
    <tag k="addr:postcode" v="CB22 4QR"/>
    <tag k="addr:street" v="Royston Road"/>
    <tag k="addr:village" v="Duxford"/>
    <tag k="fee" v="yes"/>
    <tag k="is_in" v="Duxford"/>
    <tag k="name" v="IWM Duxford"/>
    <tag k="note" v="estimated approximate outline, needs refining"/>
    <tag k="opening_hours" v="10:00-16:00"/>
    <tag k="operator" v="Imperial War Museums"/>
    <tag k="tourism" v="museum"/>
    <tag k="website" v="https://www.iwm.org.uk/"/>
    <tag k="wheelchair" v="limited"/>
    <tag k="wikidata" v="Q1758240"/>
    <tag k="wikipedia" v="en:Imperial War Museum Duxford"/>
  </way>
  <way id="463017340" version="3" timestamp="2023-02-01T14:08:02Z" changeset="131965319" uid="2969887" user="eastender">
    <nd ref="4583349019"/>
    <nd ref="4583349016"/>
    <nd ref="4583349021"/>
    <nd ref="4583349022"/>
    <nd ref="4583349018"/>
    <nd ref="4583349020"/>
    <nd ref="4583349019"/>
    <tag k="addr:city" v="Cambridge"/>
    <tag k="addr:housenumber" v="48"/>
    <tag k="addr:postcode" v="CB22 4PS"/>
    <tag k="addr:street" v="Moorfield Road"/>
    <tag k="name" v="1st Whittlesford &amp; Duxford Scout Group"/>
    <tag k="natural" v="grassland"/>
    <tag k="website" v="www.wanddscouts.org.uk"/>
  </way>
  <way id="463038703" version="4" timestamp="2023-02-01T14:08:02Z" changeset="131965319" uid="2969887" user="eastender">
    <nd ref="4583553055"/>
    <nd ref="4583553054"/>
    <nd ref="4583553053"/>
    <nd ref="4583553051"/>
    <nd ref="4583553050"/>
    <nd ref="4583553052"/>
    <nd ref="5850004972"/>
    <nd ref="5850004971"/>
    <nd ref="4583553055"/>
    <tag k="addr:city" v="Cambridge"/>
    <tag k="addr:postcode" v="CB22 4PS"/>
    <tag k="addr:street" v="Moorfield Road"/>
    <tag k="building" v="industrial"/>
    <tag k="name" v="Welchâ€™s Truck Depot &amp; Warehouse"/>
    <tag k="phone" v="+44 1223 843011"/>
    <tag k="website" v="https://www.welchstransport.co.uk/"/>
  </way>
  <way id="463038704" version="3" timestamp="2023-02-01T14:08:02Z" changeset="131965319" uid="2969887" user="eastender">
    <nd ref="4583553059"/>
    <nd ref="4583553058"/>
    <nd ref="4583553057"/>
    <nd ref="4583553056"/>
    <nd ref="4583553059"/>
    <tag k="addr:city" v="Cambridge"/>
    <tag k="addr:postcode" v="CB22 4PS"/>
    <tag k="addr:street" v="Moorfield Road"/>
    <tag k="building" v="commercial"/>
    <tag k="description" v="A Truck &amp; Van dealership"/>
    <tag k="name" v="WTL Truck &amp; Van Center"/>
    <tag k="operator" v="WTL Truck &amp; Van Centers"/>
    <tag k="phone" v="+44 1223 841703"/>
    <tag k="shop" v="car"/>
    <tag k="website" v="https://www.wtltruckcentres.co.uk/"/>
  </way>
  <way id="463104474" version="1" timestamp="2017-01-01T18:02:44Z" changeset="44827536" uid="5056735" user="KeyBind">
    <nd ref="4584155667"/>
    <nd ref="4584155673"/>
    <nd ref="4584155668"/>
    <nd ref="4584155669"/>
    <nd ref="4584155670"/>
    <nd ref="4584155675"/>
    <nd ref="4584155676"/>
    <nd ref="4584155671"/>
    <nd ref="4584155672"/>
    <nd ref="4584155674"/>
    <nd ref="4584155667"/>
    <tag k="addr:city" v="Cambridge"/>
    <tag k="addr:postcode" v="CB22 4PP"/>
    <tag k="addr:street" v="Moorfield Road"/>
    <tag k="amenity" v="pub"/>
    <tag k="building" v="yes"/>
    <tag k="name" v="John Barleycorn Pub"/>
    <tag k="outdoor_seating" v="terrace"/>
    <tag k="phone" v="+44 1223832699"/>
    <tag k="smoking" v="outside"/>
    <tag k="website" v="http://johnbarleycorn.co.uk/"/>
  </way>
  <way id="1162631234" version="1" timestamp="2023-04-14T20:40:20Z" changeset="134920587" uid="493595" user="Yorvik Prestigitator">
    <nd ref="10812622160"/>
    <nd ref="10812622161"/>
    <nd ref="10812622162"/>
    <nd ref="10812622163"/>
    <nd ref="10812622160"/>
    <tag k="addr:city" v="Duxford"/>
    <tag k="addr:postcode" v="CB22 4RE"/>
    <tag k="addr:street" v="Hunts Road"/>
    <tag k="amenity" v="community_centre"/>
    <tag k="building" v="public"/>
    <tag k="name" v="Duxford Community Centre"/>
  </way>

</osm>
