<?xml version="1.0" encoding="UTF-8"?>
<osm version="0.6" generator="Overpass API 0.7.62.4 2390de5a">
<note>The data included in this document is from www.openstreetmap.org. The data is made available under ODbL.</note>
<meta osm_base="2025-01-23T15:39:03Z" areas="2024-12-31T00:49:33Z"/>

  <way id="218587781" version="5" timestamp="2024-04-04T11:18:03Z" changeset="149565180" uid="95856" user="john paul jones &amp; gringo">
    <nd ref="2278228749"/>
    <nd ref="2278229093"/>
    <nd ref="2278229119"/>
    <nd ref="2278228864"/>
    <nd ref="2278228899"/>
    <nd ref="2278228873"/>
    <nd ref="2278228749"/>
    <tag k="addr:city" v="St Neots"/>
    <tag k="addr:country" v="GB"/>
    <tag k="addr:housename" v="Rose Cottage"/>
    <tag k="addr:housenumber" v="12"/>
    <tag k="addr:postcode" v="PE19 6SX"/>
    <tag k="addr:street" v="High Street"/>
    <tag k="addr:suburb" v="Croxton"/>
    <tag k="building" v="yes"/>
    <tag k="wikidata" v="Q26420084"/>
  </way>
  <way id="218587783" version="3" timestamp="2024-04-04T11:18:03Z" changeset="149565180" uid="95856" user="john paul jones &amp; gringo">
    <nd ref="2278228906"/>
    <nd ref="2278228735"/>
    <nd ref="2278228734"/>
    <nd ref="2278228969"/>
    <nd ref="2278228906"/>
    <tag k="addr:city" v="St Neots"/>
    <tag k="addr:country" v="GB"/>
    <tag k="addr:housenumber" v="18"/>
    <tag k="addr:postcode" v="PE19 6SX"/>
    <tag k="addr:street" v="High Street"/>
    <tag k="addr:suburb" v="Croxton"/>
    <tag k="building" v="yes"/>
  </way>
  <way id="218587786" version="5" timestamp="2024-04-04T11:18:03Z" changeset="149565180" uid="95856" user="john paul jones &amp; gringo">
    <nd ref="2278228727"/>
    <nd ref="2278228797"/>
    <nd ref="2278228769"/>
    <nd ref="2278228819"/>
    <nd ref="2278228775"/>
    <nd ref="2278228988"/>
    <nd ref="2278228727"/>
    <tag k="addr:city" v="St Neots"/>
    <tag k="addr:country" v="GB"/>
    <tag k="addr:housename" v="Lyndsey Cottage"/>
    <tag k="addr:housenumber" v="23"/>
    <tag k="addr:postcode" v="PE19 6SX"/>
    <tag k="addr:street" v="High Street"/>
    <tag k="addr:suburb" v="Croxton"/>
    <tag k="building" v="yes"/>
    <tag k="wikidata" v="Q26456883"/>
  </way>
  <way id="218587788" version="3" timestamp="2022-07-16T16:09:28Z" changeset="123694679" uid="242345" user="confusedbuffalo">
    <nd ref="2278229073"/>
    <nd ref="2278228791"/>
    <nd ref="2278228894"/>
    <nd ref="2278228903"/>
    <nd ref="2278229073"/>
    <tag k="addr:city" v="St Neots"/>
    <tag k="addr:housenumber" v="29"/>
    <tag k="addr:postcode" v="PE19 6SX"/>
    <tag k="addr:street" v="High Street"/>
    <tag k="building" v="yes"/>
  </way>
  <way id="218587789" version="4" timestamp="2024-04-04T11:18:03Z" changeset="149565180" uid="95856" user="john paul jones &amp; gringo">
    <nd ref="2278228905"/>
    <nd ref="2278228805"/>
    <nd ref="9779818250"/>
    <nd ref="9779818249"/>
    <nd ref="2278229169"/>
    <nd ref="2278229078"/>
    <nd ref="2278229163"/>
    <nd ref="2278228891"/>
    <nd ref="2278228905"/>
    <tag k="addr:city" v="St Neots"/>
    <tag k="addr:country" v="GB"/>
    <tag k="addr:housenumber" v="9"/>
    <tag k="addr:postcode" v="PE19 6SX"/>
    <tag k="addr:street" v="High Street"/>
    <tag k="addr:suburb" v="Croxton"/>
    <tag k="building" v="yes"/>
  </way>
  <way id="218587791" version="3" timestamp="2024-04-04T11:18:03Z" changeset="149565180" uid="95856" user="john paul jones &amp; gringo">
    <nd ref="2278228714"/>
    <nd ref="2278228768"/>
    <nd ref="2278228958"/>
    <nd ref="2278229011"/>
    <nd ref="2278229053"/>
    <nd ref="2278228975"/>
    <nd ref="2278229092"/>
    <nd ref="2278228724"/>
    <nd ref="2278229058"/>
    <nd ref="2278228967"/>
    <nd ref="2278228714"/>
    <tag k="addr:city" v="St Neots"/>
    <tag k="addr:country" v="GB"/>
    <tag k="addr:housenumber" v="22"/>
    <tag k="addr:postcode" v="PE19 6SX"/>
    <tag k="addr:street" v="High Street"/>
    <tag k="addr:suburb" v="Croxton"/>
    <tag k="building" v="yes"/>
  </way>
  <way id="218587800" version="3" timestamp="2024-04-04T11:18:03Z" changeset="149565180" uid="95856" user="john paul jones &amp; gringo">
    <nd ref="2278229072"/>
    <nd ref="2278228778"/>
    <nd ref="2278229071"/>
    <nd ref="2278228710"/>
    <nd ref="2278229137"/>
    <nd ref="2278229060"/>
    <nd ref="2278229072"/>
    <tag k="addr:city" v="St Neots"/>
    <tag k="addr:country" v="GB"/>
    <tag k="addr:housenumber" v="13"/>
    <tag k="addr:postcode" v="PE19 6SX"/>
    <tag k="addr:street" v="High Street"/>
    <tag k="addr:suburb" v="Croxton"/>
    <tag k="building" v="yes"/>
  </way>
  <way id="218587802" version="3" timestamp="2024-04-04T11:18:03Z" changeset="149565180" uid="95856" user="john paul jones &amp; gringo">
    <nd ref="2278228914"/>
    <nd ref="2278229142"/>
    <nd ref="2278229062"/>
    <nd ref="2278228783"/>
    <nd ref="2278229122"/>
    <nd ref="2278228730"/>
    <nd ref="2278228914"/>
    <tag k="addr:city" v="St Neots"/>
    <tag k="addr:country" v="GB"/>
    <tag k="addr:housenumber" v="27"/>
    <tag k="addr:postcode" v="PE19 6SX"/>
    <tag k="addr:street" v="High Street"/>
    <tag k="addr:suburb" v="Croxton"/>
    <tag k="building" v="yes"/>
  </way>
  <way id="218587806" version="5" timestamp="2024-04-04T11:18:03Z" changeset="149565180" uid="95856" user="john paul jones &amp; gringo">
    <nd ref="2278229015"/>
    <nd ref="2278228809"/>
    <nd ref="2278228916"/>
    <nd ref="2278228736"/>
    <nd ref="2278229015"/>
    <tag k="addr:city" v="St Neots"/>
    <tag k="addr:country" v="GB"/>
    <tag k="addr:housename" v="Myrune Cottage"/>
    <tag k="addr:housenumber" v="21"/>
    <tag k="addr:postcode" v="PE19 6SX"/>
    <tag k="addr:street" v="High Street"/>
    <tag k="addr:suburb" v="Croxton"/>
    <tag k="building" v="yes"/>
    <tag k="wikidata" v="Q26616305"/>
  </way>
  <way id="218587808" version="4" timestamp="2022-07-16T16:09:28Z" changeset="123694679" uid="242345" user="confusedbuffalo">
    <nd ref="2278228925"/>
    <nd ref="2278228857"/>
    <nd ref="2278229043"/>
    <nd ref="2278228811"/>
    <nd ref="2278228925"/>
    <tag k="addr:city" v="St Neots"/>
    <tag k="addr:housenumber" v="28"/>
    <tag k="addr:postcode" v="PE19 6SX"/>
    <tag k="addr:street" v="High Street"/>
    <tag k="building" v="yes"/>
    <tag k="wikidata" v="Q26456858"/>
  </way>
  <way id="218587809" version="3" timestamp="2024-04-04T11:18:03Z" changeset="149565180" uid="95856" user="john paul jones &amp; gringo">
    <nd ref="2278228799"/>
    <nd ref="2278228877"/>
    <nd ref="2278228990"/>
    <nd ref="2278228912"/>
    <nd ref="2278229144"/>
    <nd ref="2278228855"/>
    <nd ref="2278228799"/>
    <tag k="addr:city" v="St Neots"/>
    <tag k="addr:country" v="GB"/>
    <tag k="addr:housenumber" v="10"/>
    <tag k="addr:postcode" v="PE19 6SX"/>
    <tag k="addr:street" v="High Street"/>
    <tag k="addr:suburb" v="Croxton"/>
    <tag k="building" v="yes"/>
  </way>
  <way id="218587810" version="3" timestamp="2024-04-04T11:18:03Z" changeset="149565180" uid="95856" user="john paul jones &amp; gringo">
    <nd ref="2278228930"/>
    <nd ref="2278229140"/>
    <nd ref="2278229025"/>
    <nd ref="2278229068"/>
    <nd ref="2278228832"/>
    <nd ref="2278228922"/>
    <nd ref="2278228865"/>
    <nd ref="2278228838"/>
    <nd ref="2278228930"/>
    <tag k="addr:city" v="St Neots"/>
    <tag k="addr:country" v="GB"/>
    <tag k="addr:housenumber" v="25"/>
    <tag k="addr:postcode" v="PE19 6SX"/>
    <tag k="addr:street" v="High Street"/>
    <tag k="addr:suburb" v="Croxton"/>
    <tag k="building" v="yes"/>
  </way>
  <way id="218587811" version="4" timestamp="2022-07-16T16:09:28Z" changeset="123694679" uid="242345" user="confusedbuffalo">
    <nd ref="2278228818"/>
    <nd ref="2278228924"/>
    <nd ref="2278228874"/>
    <nd ref="2278228776"/>
    <nd ref="2278228876"/>
    <nd ref="2278228764"/>
    <nd ref="2278229076"/>
    <nd ref="2278229107"/>
    <nd ref="2278228818"/>
    <tag k="addr:city" v="St Neots"/>
    <tag k="addr:housename" v="The Old Gatehouse"/>
    <tag k="addr:housenumber" v="31"/>
    <tag k="addr:postcode" v="PE19 6SX"/>
    <tag k="addr:street" v="High Street"/>
    <tag k="building" v="yes"/>
    <tag k="wikidata" v="Q26420087"/>
  </way>
  <way id="218587813" version="3" timestamp="2022-07-16T16:09:28Z" changeset="123694679" uid="242345" user="confusedbuffalo">
    <nd ref="2278229153"/>
    <nd ref="2278228839"/>
    <nd ref="2278228954"/>
    <nd ref="2278229170"/>
    <nd ref="2278229010"/>
    <nd ref="2278228732"/>
    <nd ref="2278228952"/>
    <nd ref="2278228773"/>
    <nd ref="2278229006"/>
    <nd ref="2278228977"/>
    <nd ref="2278228923"/>
    <nd ref="2278228929"/>
    <nd ref="2278228739"/>
    <nd ref="2278229148"/>
    <nd ref="2278229153"/>
    <tag k="addr:city" v="St Neots"/>
    <tag k="addr:housename" v="The Downs"/>
    <tag k="addr:housenumber" v="2"/>
    <tag k="addr:postcode" v="PE19 6SX"/>
    <tag k="addr:street" v="High Street"/>
    <tag k="building" v="yes"/>
    <tag k="wikidata" v="Q26420083"/>
  </way>
  <way id="218587814" version="5" timestamp="2024-04-04T11:18:03Z" changeset="149565180" uid="95856" user="john paul jones &amp; gringo">
    <nd ref="2278229155"/>
    <nd ref="2278228767"/>
    <nd ref="2278228780"/>
    <nd ref="2278228784"/>
    <nd ref="2278228897"/>
    <nd ref="2278229094"/>
    <nd ref="2278229155"/>
    <tag k="addr:city" v="St Neots"/>
    <tag k="addr:country" v="GB"/>
    <tag k="addr:housename" v="Orchard Cottage"/>
    <tag k="addr:housenumber" v="24"/>
    <tag k="addr:postcode" v="PE19 6SX"/>
    <tag k="addr:street" v="High Street"/>
    <tag k="addr:suburb" v="Croxton"/>
    <tag k="building" v="yes"/>
    <tag k="wikidata" v="Q26616304"/>
  </way>
  <way id="218587817" version="3" timestamp="2024-04-04T11:18:03Z" changeset="149565180" uid="95856" user="john paul jones &amp; gringo">
    <nd ref="2278228728"/>
    <nd ref="2278229017"/>
    <nd ref="2278229110"/>
    <nd ref="2278228909"/>
    <nd ref="2278228728"/>
    <tag k="addr:city" v="St Neots"/>
    <tag k="addr:country" v="GB"/>
    <tag k="addr:housenumber" v="14"/>
    <tag k="addr:postcode" v="PE19 6SX"/>
    <tag k="addr:street" v="High Street"/>
    <tag k="addr:suburb" v="Croxton"/>
    <tag k="building" v="yes"/>
  </way>
  <way id="218587818" version="3" timestamp="2024-04-04T11:18:03Z" changeset="149565180" uid="95856" user="john paul jones &amp; gringo">
    <nd ref="2278228763"/>
    <nd ref="2278229005"/>
    <nd ref="2278228803"/>
    <nd ref="2278229114"/>
    <nd ref="2278228935"/>
    <nd ref="2278229085"/>
    <nd ref="2278228833"/>
    <nd ref="2278229096"/>
    <nd ref="2278228763"/>
    <tag k="addr:city" v="St Neots"/>
    <tag k="addr:country" v="GB"/>
    <tag k="addr:housenumber" v="17"/>
    <tag k="addr:postcode" v="PE19 6SX"/>
    <tag k="addr:street" v="High Street"/>
    <tag k="addr:suburb" v="Croxton"/>
    <tag k="building" v="yes"/>
  </way>
  <way id="218587819" version="3" timestamp="2024-04-04T11:18:03Z" changeset="149565180" uid="95856" user="john paul jones &amp; gringo">
    <nd ref="2278228969"/>
    <nd ref="2278228734"/>
    <nd ref="2278229110"/>
    <nd ref="2278229017"/>
    <nd ref="2278228969"/>
    <tag k="addr:city" v="St Neots"/>
    <tag k="addr:country" v="GB"/>
    <tag k="addr:housenumber" v="16"/>
    <tag k="addr:postcode" v="PE19 6SX"/>
    <tag k="addr:street" v="High Street"/>
    <tag k="addr:suburb" v="Croxton"/>
    <tag k="building" v="yes"/>
  </way>
  <way id="218587829" version="5" timestamp="2024-04-04T11:18:03Z" changeset="149565180" uid="95856" user="john paul jones &amp; gringo">
    <nd ref="2278229123"/>
    <nd ref="2278228868"/>
    <nd ref="2278228896"/>
    <nd ref="2278229083"/>
    <nd ref="2278228927"/>
    <nd ref="2278228756"/>
    <nd ref="2278228861"/>
    <nd ref="2278228866"/>
    <nd ref="2278229123"/>
    <tag k="addr:city" v="St Neots"/>
    <tag k="addr:country" v="GB"/>
    <tag k="addr:housename" v="Chef's Cottage"/>
    <tag k="addr:housenumber" v="19"/>
    <tag k="addr:postcode" v="PE19 6SX"/>
    <tag k="addr:street" v="High Street"/>
    <tag k="addr:suburb" v="Croxton"/>
    <tag k="building" v="yes"/>
    <tag k="wikidata" v="Q26456876"/>
  </way>
  <way id="218587837" version="3" timestamp="2024-04-04T11:18:03Z" changeset="149565180" uid="95856" user="john paul jones &amp; gringo">
    <nd ref="2278228843"/>
    <nd ref="2278228761"/>
    <nd ref="2278228960"/>
    <nd ref="2278228747"/>
    <nd ref="2278228843"/>
    <tag k="addr:city" v="St Neots"/>
    <tag k="addr:country" v="GB"/>
    <tag k="addr:housenumber" v="26"/>
    <tag k="addr:postcode" v="PE19 6SX"/>
    <tag k="addr:street" v="High Street"/>
    <tag k="addr:suburb" v="Croxton"/>
    <tag k="building" v="yes"/>
  </way>
  <way id="218587839" version="3" timestamp="2024-04-04T11:18:03Z" changeset="149565180" uid="95856" user="john paul jones &amp; gringo">
    <nd ref="2278229047"/>
    <nd ref="2278228841"/>
    <nd ref="2278228921"/>
    <nd ref="2278228826"/>
    <nd ref="2278229047"/>
    <tag k="addr:city" v="St Neots"/>
    <tag k="addr:country" v="GB"/>
    <tag k="addr:housenumber" v="11"/>
    <tag k="addr:postcode" v="PE19 6SX"/>
    <tag k="addr:street" v="High Street"/>
    <tag k="addr:suburb" v="Croxton"/>
    <tag k="building" v="yes"/>
  </way>
  <way id="218587842" version="4" timestamp="2024-04-04T11:18:03Z" changeset="149565180" uid="95856" user="john paul jones &amp; gringo">
    <nd ref="2278228782"/>
    <nd ref="2278229106"/>
    <nd ref="2278228717"/>
    <nd ref="2278228902"/>
    <nd ref="2278228750"/>
    <nd ref="2278229158"/>
    <nd ref="2278228973"/>
    <nd ref="2278228733"/>
    <nd ref="2278228782"/>
    <tag k="addr:city" v="St Neots"/>
    <tag k="addr:country" v="GB"/>
    <tag k="addr:housenumber" v="8"/>
    <tag k="addr:postcode" v="PE19 6SX"/>
    <tag k="addr:street" v="High Street"/>
    <tag k="addr:suburb" v="Croxton"/>
    <tag k="building" v="yes"/>
    <tag k="building:levels" v="1"/>
  </way>
  <way id="218587845" version="3" timestamp="2024-04-04T11:18:03Z" changeset="149565180" uid="95856" user="john paul jones &amp; gringo">
    <nd ref="2278228711"/>
    <nd ref="2278228806"/>
    <nd ref="2278228735"/>
    <nd ref="2278228906"/>
    <nd ref="2278228711"/>
    <tag k="addr:city" v="St Neots"/>
    <tag k="addr:country" v="GB"/>
    <tag k="addr:housenumber" v="20"/>
    <tag k="addr:postcode" v="PE19 6SX"/>
    <tag k="addr:street" v="High Street"/>
    <tag k="addr:suburb" v="Croxton"/>
    <tag k="building" v="yes"/>
  </way>

</osm>
