<?xml version="1.0" encoding="UTF-8"?>
<osm version="0.6" generator="Overpass API 0.7.62.5 1bd436f1">
<note>The data included in this document is from www.openstreetmap.org. The data is made available under ODbL.</note>
<meta osm_base="2025-03-05T18:16:59Z" areas="2024-12-31T00:49:33Z"/>

  <node id="1122370181" lat="51.2781444" lon="1.2700684" version="2" timestamp="2021-05-20T06:48:19Z" changeset="105003623" uid="608760" user="gregrs">
    <tag k="addr:county" v="Kent"/>
    <tag k="addr:housenumber" v="43"/>
    <tag k="addr:postcode" v="CT3 2HL"/>
    <tag k="addr:street" v="Guilton"/>
    <tag k="addr:village" v="Ash"/>
    <tag k="amenity" v="pub"/>
    <tag k="fhrs:id" v="254229"/>
    <tag k="name" v="The Volunteer Inn"/>
    <tag k="source:addr" v="FHRS Open Data"/>
  </node>
  <node id="1122370186" lat="51.2793256" lon="1.2758083" version="3" timestamp="2020-05-30T10:34:14Z" changeset="85977802" uid="6816132" user="CjMalone">
    <tag k="addr:city" v="Ash"/>
    <tag k="addr:country" v="GB"/>
    <tag k="addr:housenumber" v="4"/>
    <tag k="addr:postcode" v="CT3 2ET"/>
    <tag k="addr:street" v="Chequer Lane"/>
    <tag k="amenity" v="pub"/>
    <tag k="fhrs:id" v="1170182"/>
    <tag k="name" v="The Chequer Inn"/>
    <tag k="wikidata" v="Q26304141"/>
  </node>
  <node id="1785309369" lat="51.2792409" lon="1.2762476" version="4" timestamp="2023-07-30T00:10:19Z" changeset="139192288" uid="2812670" user="manof25">
    <tag k="addr:city" v="Ash"/>
    <tag k="addr:country" v="GB"/>
    <tag k="addr:postcode" v="CT3 2EW"/>
    <tag k="addr:street" v="The Street"/>
    <tag k="contact:website" v="https://stores.welcome-stores.co.uk/kent/nr-canterbury/20-the-street.html"/>
    <tag k="fhrs:id" v="486214"/>
    <tag k="name" v="Welcome"/>
    <tag k="operator" v="The Southern Co-operative Limited"/>
    <tag k="payment:cash" v="yes"/>
    <tag k="payment:credit_cards" v="yes"/>
    <tag k="shop" v="convenience"/>
  </node>
  <node id="1928581042" lat="51.2790807" lon="1.2755485" version="4" timestamp="2023-08-13T10:26:23Z" changeset="139817466" uid="6816132" user="CjMalone">
    <tag k="addr:city" v="Ash"/>
    <tag k="addr:housenumber" v="31"/>
    <tag k="addr:postcode" v="CT3 2HH"/>
    <tag k="addr:street" v="The Street"/>
    <tag k="brand" v="Premier"/>
    <tag k="brand:wikidata" v="Q7240340"/>
    <tag k="fhrs:id" v="902380"/>
    <tag k="name" v="Poparound"/>
    <tag k="note" v="When i shopped here on Friday 7th July 2023 this shop's till receipt states: &quot;Pop Around (Best One)&quot; although the shop frontage is Premier."/>
    <tag k="operator" v="Premier"/>
    <tag k="shop" v="convenience"/>
    <tag k="source" v="receipt from visit"/>
    <tag k="website" v="https://www.premier-stores.co.uk/our-stores/poparound"/>
  </node>
  <node id="5359769421" lat="51.2816375" lon="1.2978947" version="6" timestamp="2024-07-01T12:31:00Z" changeset="153410266" uid="9451067" user="b-jazz-bot">
    <tag k="addr:postcode" v="CT3 2AN"/>
    <tag k="addr:street" v="Cooper Street Drove"/>
    <tag k="addr:village" v="Ash"/>
    <tag k="fhrs:id" v="754310"/>
    <tag k="name" v="Goss Hall"/>
    <tag k="source:addr" v="FHRS Open Data"/>
    <tag k="tourism" v="guest_house"/>
    <tag k="website" v="https://www.gosshall.co.uk/"/>
  </node>
  <way id="148578652" version="5" timestamp="2023-08-20T06:02:16Z" changeset="140118082" uid="242345" user="confusedbuffalo">
    <nd ref="1616615711"/>
    <nd ref="1616615705"/>
    <nd ref="1616615774"/>
    <nd ref="1616615734"/>
    <nd ref="1616615795"/>
    <nd ref="1616615804"/>
    <nd ref="769125039"/>
    <nd ref="1616615836"/>
    <nd ref="1616615829"/>
    <nd ref="1616615820"/>
    <nd ref="1616615819"/>
    <nd ref="1616615766"/>
    <nd ref="1616615750"/>
    <nd ref="1616615740"/>
    <nd ref="1616615725"/>
    <nd ref="1616615711"/>
    <tag k="addr:city" v="Ash"/>
    <tag k="addr:country" v="GB"/>
    <tag k="addr:postcode" v="CT3 2JD"/>
    <tag k="addr:street" v="School Road"/>
    <tag k="amenity" v="school"/>
    <tag k="capacity" v="210"/>
    <tag k="contact:phone" v="+44 1304 812539"/>
    <tag k="contact:website" v="http://www.ashckschool.org/"/>
    <tag k="denomination" v="anglican"/>
    <tag k="diocese" v="Diocese of Canterbury"/>
    <tag k="fhrs:id" v="254820"/>
    <tag k="isced:level" v="0;1"/>
    <tag k="max_age" v="11"/>
    <tag k="min_age" v="3"/>
    <tag k="name" v="Ash, Cartwright &amp; Kelsey Church of England Primary School"/>
    <tag k="ref:GB:uprn" v="100062298485"/>
    <tag k="ref:edubase" v="118745"/>
    <tag k="religion" v="christian"/>
    <tag k="school:trust" v="no"/>
    <tag k="school:type" v="voluntary_aided"/>
    <tag k="wikidata" v="Q66226556"/>
  </way>
  <way id="359602431" version="1" timestamp="2015-07-09T13:52:33Z" changeset="32519503" uid="1907128" user="ThanetCars_01843-333333">
    <nd ref="3642797721"/>
    <nd ref="3642797722"/>
    <nd ref="3642797723"/>
    <nd ref="3642797724"/>
    <nd ref="3642797721"/>
    <tag k="addr:street" v="Richborough Road"/>
    <tag k="building" v="house"/>
    <tag k="name" v="The Den"/>
  </way>
  <way id="389244089" version="5" timestamp="2024-07-06T08:39:53Z" changeset="153614658" uid="11471297" user="Palgrave Peter">
    <nd ref="3923977116"/>
    <nd ref="3923977115"/>
    <nd ref="3923977113"/>
    <nd ref="1063913963"/>
    <nd ref="1063913716"/>
    <nd ref="3923977118"/>
    <nd ref="1063913747"/>
    <nd ref="3923977117"/>
    <nd ref="1063913768"/>
    <nd ref="3923977116"/>
    <tag k="addr:city" v="Ash"/>
    <tag k="addr:country" v="GB"/>
    <tag k="addr:housenumber" v="5"/>
    <tag k="addr:postcode" v="CT3 2HH"/>
    <tag k="addr:street" v="The Street"/>
    <tag k="amenity" v="school"/>
    <tag k="capacity" v="260"/>
    <tag k="contact:phone" v="+44 1304 813409"/>
    <tag k="contact:website" v="http://www.stfaithsatash.co.uk/"/>
    <tag k="fhrs:id" v="704913"/>
    <tag k="isced:level" v="0;1"/>
    <tag k="max_age" v="11"/>
    <tag k="min_age" v="2"/>
    <tag k="name" v="St Faith's at Ash School"/>
    <tag k="ref:GB:uprn" v="100060886066"/>
    <tag k="ref:edubase" v="119008"/>
    <tag k="school:trust" v="no"/>
    <tag k="school:type" v="independent"/>
  </way>
  <way id="1151602010" version="2" timestamp="2024-05-31T17:21:35Z" changeset="152091592" uid="8821717" user="CasGroenigen">
    <nd ref="10712826197"/>
    <nd ref="10712826198"/>
    <nd ref="11948338661"/>
    <nd ref="11948338662"/>
    <nd ref="10712826199"/>
    <nd ref="10712826200"/>
    <nd ref="10712826201"/>
    <nd ref="10712826202"/>
    <nd ref="10712826197"/>
    <tag k="addr:city" v="Ash"/>
    <tag k="addr:postcode" v="CT3 2BA"/>
    <tag k="addr:street" v="Queens Road"/>
    <tag k="building" v="yes"/>
    <tag k="name" v="Ash Telephone Exchange"/>
    <tag k="operator" v="Openreach"/>
    <tag k="operator:wikidata" v="Q7096543"/>
    <tag k="ref" v="NDASH"/>
    <tag k="telecom" v="exchange"/>
  </way>

</osm>
