<?xml version="1.0" encoding="UTF-8"?>
<osm version="0.6" generator="Overpass API 0.7.62.5 1bd436f1">
<note>The data included in this document is from www.openstreetmap.org. The data is made available under ODbL.</note>
<meta osm_base="2025-03-05T18:17:59Z" areas="2024-12-31T00:49:33Z"/>

  <node id="2821248830" lat="51.2205971" lon="1.3400683" version="2" timestamp="2019-02-16T17:54:13Z" changeset="67259116" uid="608760" user="gregrs">
    <tag k="addr:postcode" v="CT14 0LG"/>
    <tag k="addr:street" v="The Street"/>
    <tag k="addr:village" v="Northbourne"/>
    <tag k="amenity" v="pub"/>
    <tag k="fhrs:id" v="1077104"/>
    <tag k="name" v="Hare &amp; Hounds"/>
    <tag k="source:addr" v="FHRS Open Data"/>
  </node>
  <way id="205998181" version="9" timestamp="2024-08-27T09:44:53Z" changeset="155821454" uid="11471297" user="Palgrave Peter">
    <nd ref="2159980290"/>
    <nd ref="2159980365"/>
    <nd ref="12139545851"/>
    <nd ref="2159980272"/>
    <nd ref="2159980276"/>
    <nd ref="2159967021"/>
    <nd ref="2159967106"/>
    <nd ref="2159966962"/>
    <nd ref="2159980342"/>
    <nd ref="12139574427"/>
    <nd ref="2159967039"/>
    <nd ref="2159967107"/>
    <nd ref="2159966946"/>
    <nd ref="2159966995"/>
    <nd ref="2159980359"/>
    <nd ref="2159980350"/>
    <nd ref="2159980372"/>
    <nd ref="2159980373"/>
    <nd ref="12139574359"/>
    <nd ref="12139574360"/>
    <nd ref="2159980374"/>
    <nd ref="7156114945"/>
    <nd ref="2159980274"/>
    <nd ref="2159980349"/>
    <nd ref="12139574361"/>
    <nd ref="2159967103"/>
    <nd ref="2159980249"/>
    <nd ref="2159980288"/>
    <nd ref="2159980261"/>
    <nd ref="2159980346"/>
    <nd ref="2159980323"/>
    <nd ref="2159980370"/>
    <nd ref="2159980279"/>
    <nd ref="12139545892"/>
    <nd ref="31077266"/>
    <nd ref="2159980240"/>
    <nd ref="12139545890"/>
    <nd ref="12139545889"/>
    <nd ref="2159980364"/>
    <nd ref="2159980344"/>
    <nd ref="2159980290"/>
    <tag k="addr:city" v="Sandwich"/>
    <tag k="addr:hamlet" v="Betteshanger"/>
    <tag k="addr:postcode" v="CT14 0NW"/>
    <tag k="addr:street" v="Straight Mile"/>
    <tag k="amenity" v="school"/>
    <tag k="capacity" v="205"/>
    <tag k="denomination" v="anglican"/>
    <tag k="fhrs:id" v="837530"/>
    <tag k="max_age" v="13"/>
    <tag k="min_age" v="2"/>
    <tag k="name" v="Northbourne Park School"/>
    <tag k="phone" v="+44 1304 611215"/>
    <tag k="ref:GB:uprn" v="10034873947"/>
    <tag k="ref:edubase" v="118941"/>
    <tag k="religion" v="christian"/>
    <tag k="school:boarding" v="yes"/>
    <tag k="school:gender" v="mixed"/>
    <tag k="school:selective" v="no"/>
    <tag k="school:trust" v="no"/>
    <tag k="school:type" v="independent"/>
    <tag k="website" v="https://www.northbournepark.com/"/>
    <tag k="wikidata" v="Q66226599"/>
  </way>
  <way id="211035075" version="6" timestamp="2024-08-25T14:19:42Z" changeset="155739592" uid="11471297" user="Palgrave Peter">
    <nd ref="2210437190"/>
    <nd ref="2210437181"/>
    <nd ref="12135851835"/>
    <nd ref="12135851834"/>
    <nd ref="2210437187"/>
    <nd ref="2210437193"/>
    <nd ref="2210437184"/>
    <nd ref="2210437208"/>
    <nd ref="2210437199"/>
    <nd ref="2210437209"/>
    <nd ref="10744121535"/>
    <nd ref="2210437197"/>
    <nd ref="2210437185"/>
    <nd ref="2210437176"/>
    <nd ref="2210437195"/>
    <nd ref="2210437190"/>
    <tag k="addr:city" v="Sandwich"/>
    <tag k="addr:hamlet" v="Finglesham"/>
    <tag k="addr:postcode" v="CT14 0NA"/>
    <tag k="addr:street" v="The Street"/>
    <tag k="amenity" v="pub"/>
    <tag k="building" v="pub"/>
    <tag k="fhrs:id" v="254408"/>
    <tag k="name" v="The Crown Inn"/>
    <tag k="website" v="http://www.thecrownatfinglesham.co.uk/"/>
  </way>
  <way id="365683185" version="5" timestamp="2024-08-25T14:19:42Z" changeset="155739592" uid="11471297" user="Palgrave Peter">
    <nd ref="3696846457"/>
    <nd ref="3696846458"/>
    <nd ref="3696846459"/>
    <nd ref="12135851552"/>
    <nd ref="12135851553"/>
    <nd ref="3696846460"/>
    <nd ref="12135851555"/>
    <nd ref="3696846457"/>
    <tag k="addr:housename" v="Cherry Trees Farm, Hay Hill, Deal"/>
    <tag k="addr:postcode" v="CT14 0ED"/>
    <tag k="addr:street" v="Hay Hill"/>
    <tag k="building" v="house"/>
    <tag k="name" v="Cherry Trees Farm"/>
  </way>
  <way id="670958129" version="3" timestamp="2021-03-25T21:54:39Z" changeset="101746091" uid="145231" user="woodpeck_repair">
    <nd ref="6283158680"/>
    <nd ref="6283158679"/>
    <nd ref="6283158678"/>
    <nd ref="6283158677"/>
    <nd ref="6283158676"/>
    <nd ref="6283158675"/>
    <nd ref="6283158674"/>
    <nd ref="6283158673"/>
    <nd ref="6283158680"/>
    <tag k="addr:street" v="The Street"/>
    <tag k="building" v="house"/>
    <tag k="name" v="Vine Farm"/>
  </way>
  <way id="670958130" version="2" timestamp="2023-11-01T18:09:01Z" changeset="143489335" uid="9451067" user="b-jazz-bot">
    <nd ref="6283162091"/>
    <nd ref="6283162090"/>
    <nd ref="6283162089"/>
    <nd ref="6283162088"/>
    <nd ref="6283162087"/>
    <nd ref="6283162086"/>
    <nd ref="6283162085"/>
    <nd ref="6283158684"/>
    <nd ref="6283158683"/>
    <nd ref="6283158682"/>
    <nd ref="6283162091"/>
    <tag k="addr:housenumber" v="1"/>
    <tag k="addr:postcode" v="CT14 0LN"/>
    <tag k="addr:street" v="The Drove"/>
    <tag k="addr:village" v="Northbourne"/>
    <tag k="amenity" v="social_facility"/>
    <tag k="building" v="yes"/>
    <tag k="fhrs:id" v="444776"/>
    <tag k="name" v="Phoenix House"/>
    <tag k="social_facility" v="group_home"/>
    <tag k="social_facility:for" v="mental_health"/>
    <tag k="source:addr" v="FHRS Open Data"/>
    <tag k="website" v="https://www.phoenixcarehomes.co.uk/phoenix-house/"/>
  </way>
  <way id="1103127971" version="1" timestamp="2022-10-12T09:10:25Z" changeset="127402200" uid="10599253" user="DanGlover">
    <nd ref="10094837429"/>
    <nd ref="564184876"/>
    <nd ref="10094837430"/>
    <nd ref="10094837431"/>
    <nd ref="10094837432"/>
    <nd ref="10094837429"/>
    <tag k="addr:city" v="Deal"/>
    <tag k="addr:housename" v="Almond House"/>
    <tag k="addr:postcode" v="CT14 0EN"/>
    <tag k="addr:street" v="Betteshanger Road"/>
    <tag k="building" v="commercial"/>
    <tag k="building:levels" v="3"/>
    <tag k="name" v="Almond House"/>
    <tag k="note" v="Former Betteshanger Colliery administration building, now offices in mixed occupation"/>
  </way>

</osm>
