<?xml version="1.0" encoding="UTF-8"?>
<osm version="0.6" generator="Overpass API 0.7.62.5 1bd436f1">
<note>The data included in this document is from www.openstreetmap.org. The data is made available under ODbL.</note>
<meta osm_base="2025-03-05T18:20:00Z" areas="2024-12-31T00:49:33Z"/>

  <node id="341178831" lat="51.1457598" lon="1.2745949" version="5" timestamp="2023-02-01T17:23:05Z" changeset="131971628" uid="10599253" user="DanGlover">
    <tag k="addr:city" v="Dover"/>
    <tag k="addr:country" v="GB"/>
    <tag k="addr:county" v="Kent"/>
    <tag k="addr:housenumber" v="110"/>
    <tag k="addr:postcode" v="CT17 0RQ"/>
    <tag k="addr:street" v="Lower Road"/>
    <tag k="fixme" v="Probably best mapped as building - along with all the others..."/>
    <tag k="note" v="Former Dublin Man o' War public house, now residential. Sign  retained on front elevation."/>
  </node>
  <node id="691085567" lat="51.1398353" lon="1.2871083" version="3" timestamp="2017-12-06T19:32:42Z" changeset="54411598" uid="7037" user="Gregory Williams">
    <tag k="addr:city" v="Dover"/>
    <tag k="addr:postcode" v="CT17 0JB"/>
    <tag k="addr:street" v="Crabble Avenue"/>
    <tag k="amenity" v="pub"/>
    <tag k="fhrs:id" v="254463"/>
    <tag k="name" v="The Cricketers"/>
    <tag k="source:addr" v="FHRS Open Data"/>
  </node>
  <node id="1259996830" lat="51.1441674" lon="1.2733085" version="2" timestamp="2019-12-28T16:48:32Z" changeset="78959905" uid="6816132" user="CjMalone">
    <tag k="addr:city" v="Dover"/>
    <tag k="addr:country" v="GB"/>
    <tag k="addr:housenumber" v="1"/>
    <tag k="addr:postcode" v="CT17 0QB"/>
    <tag k="addr:street" v="Chilton Way"/>
    <tag k="amenity" v="post_office"/>
    <tag k="name" v="River Post Office"/>
    <tag k="opening_hours" v="Mo-Fr 09:00-12:00,14:00-17:30; Sa 09:00-12:00"/>
    <tag k="ref:pol_id" v="129802"/>
    <tag k="source" v="OS OpenData StreetView"/>
  </node>
  <node id="1947880453" lat="51.1449394" lon="1.2773050" version="3" timestamp="2024-07-15T22:33:06Z" changeset="153991674" uid="21425661" user="CjMalone">
    <tag k="addr:housenumber" v="78"/>
    <tag k="addr:postcode" v="CT17 0RD"/>
    <tag k="addr:street" v="Lower Road"/>
    <tag k="brand" v="Co-op Food"/>
    <tag k="brand:wikidata" v="Q3277439"/>
    <tag k="check_date" v="2024-07-15"/>
    <tag k="check_date:opening_hours" v="2024-07-15"/>
    <tag k="name" v="Co-op Food"/>
    <tag k="opening_hours" v="Mo-Su 06:00-22:00"/>
    <tag k="operator" v="The Co-operative Group"/>
    <tag k="operator:wikidata" v="Q117202"/>
    <tag k="shop" v="supermarket"/>
    <tag k="website" v="https://www.coop.co.uk/store-finder/CT17-0RD/72-lower-road"/>
  </node>
  <node id="1962744253" lat="51.1442124" lon="1.2796390" version="3" timestamp="2022-01-08T17:06:03Z" changeset="115917402" uid="242345" user="confusedbuffalo">
    <tag k="addr:city" v="Dover"/>
    <tag k="addr:country" v="GB"/>
    <tag k="addr:county" v="Kent"/>
    <tag k="addr:housenumber" v="36"/>
    <tag k="addr:postcode" v="CT17 0QU"/>
    <tag k="addr:street" v="Lower Road"/>
    <tag k="addr:suburb" v="River"/>
    <tag k="amenity" v="pub"/>
    <tag k="fhrs:id" v="1088608"/>
    <tag k="name" v="The Royal Oak"/>
    <tag k="source:addr" v="FHRS Open Data"/>
  </node>
  <way id="55450653" version="5" timestamp="2018-12-02T19:15:24Z" changeset="65103238" uid="242345" user="confusedbuffalo">
    <nd ref="696837100"/>
    <nd ref="696837114"/>
    <nd ref="696837101"/>
    <nd ref="696837103"/>
    <nd ref="696837100"/>
    <tag k="addr:city" v="Dover"/>
    <tag k="addr:country" v="GB"/>
    <tag k="addr:county" v="Kent"/>
    <tag k="addr:postcode" v="CT17 0UY"/>
    <tag k="addr:street" v="Lower Road"/>
    <tag k="building" v="yes"/>
    <tag k="man_made" v="watermill"/>
    <tag k="name" v="Crabble Corn Mill"/>
    <tag k="phone" v="+44 1304823292"/>
  </way>
  <way id="167294469" version="6" timestamp="2021-11-08T20:10:15Z" changeset="113537033" uid="242345" user="confusedbuffalo">
    <nd ref="1787019590"/>
    <nd ref="1787019584"/>
    <nd ref="1787019574"/>
    <nd ref="1787019568"/>
    <nd ref="1947840071"/>
    <nd ref="1787019546"/>
    <nd ref="1787019548"/>
    <nd ref="1787019552"/>
    <nd ref="1787019566"/>
    <nd ref="1787019578"/>
    <nd ref="1787019580"/>
    <nd ref="1787019588"/>
    <nd ref="1787019555"/>
    <nd ref="1787019590"/>
    <tag k="addr:postcode" v="CT17 0PP"/>
    <tag k="addr:street" v="Lewisham Road"/>
    <tag k="amenity" v="school"/>
    <tag k="capacity" v="427"/>
    <tag k="isced:level" v="1"/>
    <tag k="max_age" v="11"/>
    <tag k="min_age" v="4"/>
    <tag k="name" v="River Primary School"/>
    <tag k="phone" v="+44 1304 822516"/>
    <tag k="ref:GB:uprn" v="100062290036"/>
    <tag k="ref:edubase" v="118393"/>
    <tag k="ref:edubase:group" v="16839"/>
    <tag k="religion" v="none"/>
    <tag k="school:boarding" v="no"/>
    <tag k="school:federation:name" v="Lydden and River Primary Schools Federation"/>
    <tag k="school:gender" v="mixed"/>
    <tag k="school:selective" v="no"/>
    <tag k="school:trust" v="no"/>
    <tag k="school:type" v="community"/>
    <tag k="website" v="https://www.lydden.kent.sch.uk/topic/river-primary-school"/>
    <tag k="wikidata" v="Q67082418"/>
  </way>
  <way id="996337435" version="3" timestamp="2023-10-12T13:07:29Z" changeset="142479317" uid="37791" user="Fradeve11">
    <nd ref="11076600104"/>
    <nd ref="11076600103"/>
    <nd ref="11076600102"/>
    <nd ref="11076600101"/>
    <nd ref="11076600100"/>
    <nd ref="11076600099"/>
    <nd ref="11076600098"/>
    <nd ref="11076600097"/>
    <nd ref="11076600096"/>
    <nd ref="11076600095"/>
    <nd ref="11076600094"/>
    <nd ref="9200216867"/>
    <nd ref="9200216967"/>
    <nd ref="9200216923"/>
    <nd ref="9200196896"/>
    <nd ref="11076600093"/>
    <nd ref="11076600092"/>
    <nd ref="11076600091"/>
    <nd ref="9200216927"/>
    <nd ref="11076600090"/>
    <nd ref="11076600089"/>
    <nd ref="9200216936"/>
    <nd ref="9200216839"/>
    <nd ref="11076600088"/>
    <nd ref="11076600087"/>
    <nd ref="11076600086"/>
    <nd ref="11076600085"/>
    <nd ref="11076600084"/>
    <nd ref="11076600083"/>
    <nd ref="11076600082"/>
    <nd ref="11076600081"/>
    <nd ref="11076600080"/>
    <nd ref="11076600079"/>
    <nd ref="11076600078"/>
    <nd ref="9200216943"/>
    <nd ref="11076600077"/>
    <nd ref="9200216966"/>
    <nd ref="11076600104"/>
    <tag k="addr:city" v="Dover"/>
    <tag k="addr:postcode" v="CT16 3EQ"/>
    <tag k="addr:street" v="Alkham Road"/>
    <tag k="amenity" v="school"/>
    <tag k="capacity" v="80"/>
    <tag k="contact:phone" v="+44 1304 212510"/>
    <tag k="contact:website" v="https://www.channelsandchoices.co.uk/"/>
    <tag k="isced:level" v="1-2"/>
    <tag k="max_age" v="17"/>
    <tag k="min_age" v="8"/>
    <tag k="name" v="The Sallygate School"/>
    <tag k="ref:GB:uprn" v="10034884642"/>
    <tag k="ref:edubase" v="137795"/>
    <tag k="school:trust" v="no"/>
    <tag k="school:type" v="special"/>
    <tag k="wikidata" v="Q66229399"/>
  </way>

</osm>
