<?xml version="1.0" encoding="UTF-8"?>
<osm version="0.6" generator="Overpass API 0.7.62.5 1bd436f1">
<note>The data included in this document is from www.openstreetmap.org. The data is made available under ODbL.</note>
<meta osm_base="2025-03-05T18:19:01Z" areas="2024-12-31T00:49:33Z"/>

  <node id="977975018" lat="51.2160801" lon="1.4024792" version="5" timestamp="2020-12-01T00:19:10Z" changeset="95073687" uid="10060014" user="cebab">
    <tag k="addr:city" v="Deal"/>
    <tag k="addr:housenumber" v="61"/>
    <tag k="addr:place" v="Walmer"/>
    <tag k="addr:postcode" v="CT14 7DP"/>
    <tag k="addr:street" v="The Strand"/>
    <tag k="amenity" v="restaurant"/>
    <tag k="contact:phone" v="+44 1304 368881"/>
    <tag k="contact:website" v="http://www.whits.co.uk/"/>
    <tag k="fhrs:id" v="852608"/>
    <tag k="name" v="Eva's"/>
  </node>
  <node id="977975032" lat="51.2130991" lon="1.3998640" version="4" timestamp="2022-05-01T21:14:28Z" changeset="120435837" uid="4833194" user="motogs">
    <tag k="addr:city" v="Walmer"/>
    <tag k="addr:housenumber" v="23"/>
    <tag k="addr:postcode" v="CT14 7EQ"/>
    <tag k="addr:street" v="Canada Road"/>
    <tag k="amenity" v="pub"/>
    <tag k="craft_keg" v="yes"/>
    <tag k="fhrs:id" v="254522"/>
    <tag k="name" v="The Berry"/>
    <tag k="note" v="The sign outside still says the Green Berry but the proprietor and FHRS confirm the current name as the Berry"/>
    <tag k="old_name" v="The Green Berry"/>
    <tag k="real_ale" v="yes"/>
    <tag k="real_cider" v="yes"/>
  </node>
  <node id="1638334010" lat="51.2159797" lon="1.4024742" version="2" timestamp="2017-11-27T21:03:14Z" changeset="54132899" uid="7037" user="Gregory Williams">
    <tag k="addr:city" v="Deal"/>
    <tag k="addr:housenumber" v="59"/>
    <tag k="addr:place" v="Walmer"/>
    <tag k="addr:postcode" v="CT14 7DP"/>
    <tag k="addr:street" v="The Strand"/>
    <tag k="amenity" v="fast_food"/>
    <tag k="cuisine" v="fish_and_chips"/>
    <tag k="fhrs:id" v="459924"/>
    <tag k="name" v="Mario's Fish Bar"/>
  </node>
  <node id="1638336369" lat="51.2157092" lon="1.4024528" version="5" timestamp="2021-07-15T09:49:52Z" changeset="108038633" uid="608760" user="gregrs">
    <tag k="addr:city" v="Deal"/>
    <tag k="addr:county" v="Kent"/>
    <tag k="addr:housenumber" v="53"/>
    <tag k="addr:postcode" v="CT14 7DP"/>
    <tag k="addr:street" v="The Strand"/>
    <tag k="addr:suburb" v="Walmer"/>
    <tag k="amenity" v="restaurant"/>
    <tag k="cuisine" v="indian"/>
    <tag k="fhrs:id" v="1291400"/>
    <tag k="name" v="Bengal Spice"/>
  </node>
  <node id="3577621268" lat="51.2140437" lon="1.3975237" version="1" timestamp="2015-06-06T23:02:49Z" changeset="31778933" uid="82783" user="Paul The Archivist">
    <tag k="addr:housenumber" v="87"/>
    <tag k="addr:street" v="Canada Road"/>
  </node>
  <node id="8179723105" lat="51.2194267" lon="1.4022549" version="3" timestamp="2022-07-14T23:19:36Z" changeset="123628691" uid="251543" user="ChrissW-R1">
    <tag k="addr:city" v="Deal"/>
    <tag k="addr:country" v="GB"/>
    <tag k="addr:housename" v="The Gallery, The Captains Garden"/>
    <tag k="addr:street" v="Victoria Road"/>
    <tag k="contact:email" v="info@thegreenandfound.com"/>
    <tag k="contact:mobile" v="+44 7895 725778"/>
    <tag k="contact:phone" v="+44 1304 373907"/>
    <tag k="contact:website" v="https://www.thegreenandfound.com"/>
    <tag k="contact:whatsapp" v="+44 7895 725778"/>
    <tag k="name" v="The Green and Found"/>
    <tag k="opening_hours" v="We-Su 10:00-18:00"/>
    <tag k="operator" v="Adolfo &amp; James"/>
    <tag k="tourism" v="gallery"/>
  </node>
  <node id="8181376321" lat="51.2160594" lon="1.4024745" version="3" timestamp="2021-07-15T09:49:52Z" changeset="108038633" uid="608760" user="gregrs">
    <tag k="addr:city" v="Deal"/>
    <tag k="addr:county" v="Kent"/>
    <tag k="addr:housenumber" v="61"/>
    <tag k="addr:postcode" v="CT14 7DP"/>
    <tag k="addr:street" v="The Strand"/>
    <tag k="addr:suburb" v="Walmer"/>
    <tag k="fhrs:id" v="1334942"/>
    <tag k="name" v="Pomegranate"/>
    <tag k="opening_hours" v="We-Sa"/>
    <tag k="phone" v="+44 1304 368656"/>
    <tag k="shop" v="deli"/>
    <tag k="website" v="https://www.pomegranatedeal.com/"/>
  </node>
  <node id="8225163124" lat="51.2154625" lon="1.4018385" version="1" timestamp="2020-12-13T18:28:16Z" changeset="95766399" uid="10060014" user="cebab">
    <tag k="addr:city" v="Deal"/>
    <tag k="addr:housenumber" v="5"/>
    <tag k="addr:postcode" v="CT14 7DS"/>
    <tag k="addr:street" v="North Barrack Road"/>
    <tag k="name" v="Keith Chadwick"/>
    <tag k="phone" v="+44 7306 380395"/>
    <tag k="shop" v="hairdresser"/>
  </node>
  <node id="8225163125" lat="51.2156557" lon="1.4019458" version="1" timestamp="2020-12-13T18:28:16Z" changeset="95766399" uid="10060014" user="cebab">
    <tag k="addr:city" v="Deal"/>
    <tag k="addr:housenumber" v="1"/>
    <tag k="addr:postcode" v="CT14 7DS"/>
    <tag k="addr:street" v="North Barrack Road"/>
    <tag k="name" v="Autobase"/>
    <tag k="phone" v="+44 1304 374444"/>
    <tag k="shop" v="bicycle"/>
    <tag k="website" v="https://autobasekent.co.uk/"/>
  </node>
  <node id="8225163126" lat="51.2157986" lon="1.4017044" version="1" timestamp="2020-12-13T18:28:16Z" changeset="95766399" uid="10060014" user="cebab">
    <tag k="addr:city" v="Deal"/>
    <tag k="addr:housenumber" v="1"/>
    <tag k="addr:postcode" v="CT14 7DS"/>
    <tag k="addr:street" v="North Barrack Road"/>
    <tag k="name" v="Autobase"/>
    <tag k="operator" v="Autobase"/>
    <tag k="phone" v="+44 1304 374444"/>
    <tag k="shop" v="car_repair"/>
    <tag k="website" v="https://autobasekent.co.uk/"/>
  </node>
  <node id="8225163127" lat="51.2162606" lon="1.4003848" version="1" timestamp="2020-12-13T18:28:16Z" changeset="95766399" uid="10060014" user="cebab">
    <tag k="addr:city" v="Deal"/>
    <tag k="addr:housenumber" v="36"/>
    <tag k="addr:postcode" v="CT14 7DU"/>
    <tag k="addr:street" v="North Barrack Road"/>
    <tag k="email" v="walmerbatteries@hotmail.com"/>
    <tag k="name" v="Walmer Batteries &amp; Signs"/>
    <tag k="phone" v="+44 1304 372164"/>
    <tag k="shop" v="car_parts"/>
    <tag k="website" v="https://www.walmerbatteries.co.uk/"/>
  </node>
  <way id="22998649" version="11" timestamp="2017-11-27T21:36:08Z" changeset="54133724" uid="7037" user="Gregory Williams">
    <nd ref="247939116"/>
    <nd ref="247939882"/>
    <nd ref="1826281537"/>
    <nd ref="247939884"/>
    <nd ref="1088159392"/>
    <nd ref="247939886"/>
    <nd ref="247939116"/>
    <tag k="addr:place" v="Walmer"/>
    <tag k="addr:postcode" v="CT14 7EQ"/>
    <tag k="addr:street" v="Canada Road"/>
    <tag k="alt_name" v="Drill Field"/>
    <tag k="fhrs:id" v="254707"/>
    <tag k="landuse" v="recreation_ground"/>
    <tag k="name" v="Deal &amp; Betteshanger Lions RFC"/>
    <tag k="source" v="Bing"/>
    <tag k="sport" v="rugby"/>
  </way>
  <way id="155023938" version="7" timestamp="2024-09-08T17:28:41Z" changeset="156362490" uid="11471297" user="Palgrave Peter">
    <nd ref="1674692952"/>
    <nd ref="1674692954"/>
    <nd ref="1674692956"/>
    <nd ref="1674692969"/>
    <nd ref="1674692972"/>
    <nd ref="1681313755"/>
    <nd ref="1674692976"/>
    <nd ref="1674692979"/>
    <nd ref="1674692981"/>
    <nd ref="1681313768"/>
    <nd ref="1674692983"/>
    <nd ref="1674692984"/>
    <nd ref="1674692985"/>
    <nd ref="1674692986"/>
    <nd ref="1088159191"/>
    <nd ref="1088159254"/>
    <nd ref="1088159323"/>
    <nd ref="8050923490"/>
    <nd ref="1088159384"/>
    <nd ref="1088159273"/>
    <nd ref="1088159329"/>
    <nd ref="12164054681"/>
    <nd ref="12164054685"/>
    <nd ref="12164054682"/>
    <nd ref="1674692952"/>
    <tag k="addr:city" v="Deal"/>
    <tag k="addr:place" v="Walmer"/>
    <tag k="addr:postcode" v="CT14 7TL"/>
    <tag k="addr:street" v="Owen Square"/>
    <tag k="amenity" v="school"/>
    <tag k="capacity" v="420"/>
    <tag k="contact:website" v="http://www.downs.kent.sch.uk/"/>
    <tag k="denomination" v="anglican"/>
    <tag k="diocese" v="Diocese of Canterbury"/>
    <tag k="fhrs:id" v="446300"/>
    <tag k="isced:level" v="1"/>
    <tag k="max_age" v="11"/>
    <tag k="min_age" v="4"/>
    <tag k="name" v="The Downs Church of England Primary School"/>
    <tag k="phone" v="+44 1304 372486"/>
    <tag k="ref:GB:uprn" v="100062286224"/>
    <tag k="ref:edubase" v="147058"/>
    <tag k="ref:edubase:group" v="17199"/>
    <tag k="religion" v="christian"/>
    <tag k="school:trust" v="yes"/>
    <tag k="school:trust:name" v="Deal Education Alliance For Learning Trust"/>
    <tag k="school:trust:type" v="multi_academy"/>
    <tag k="school:type" v="academy"/>
    <tag k="wikidata" v="Q66232926"/>
  </way>
  <way id="155023940" version="5" timestamp="2024-09-08T17:28:41Z" changeset="156362490" uid="11471297" user="Palgrave Peter">
    <nd ref="1674692903"/>
    <nd ref="1674692913"/>
    <nd ref="1674692915"/>
    <nd ref="1674692932"/>
    <nd ref="1088159347"/>
    <nd ref="1088159234"/>
    <nd ref="1674692958"/>
    <nd ref="1674692948"/>
    <nd ref="1674692943"/>
    <nd ref="2330821559"/>
    <nd ref="1674692909"/>
    <nd ref="1674692907"/>
    <nd ref="1674692905"/>
    <nd ref="1674692904"/>
    <nd ref="1674692900"/>
    <nd ref="1674692902"/>
    <nd ref="1674692903"/>
    <tag k="addr:postcode" v="CT14 7QJ"/>
    <tag k="addr:street" v="Salisbury Road"/>
    <tag k="amenity" v="school"/>
    <tag k="amenity:closed" v="school"/>
    <tag k="name" v="Walmer Science College"/>
  </way>
  <way id="163206142" version="12" timestamp="2024-09-08T17:28:41Z" changeset="156362490" uid="11471297" user="Palgrave Peter">
    <nd ref="1749555682"/>
    <nd ref="2226095501"/>
    <nd ref="8050912761"/>
    <nd ref="1749555645"/>
    <nd ref="247939116"/>
    <nd ref="247939886"/>
    <nd ref="2226095507"/>
    <nd ref="1749555639"/>
    <nd ref="1749555640"/>
    <nd ref="1749555642"/>
    <nd ref="1749555641"/>
    <nd ref="1749555643"/>
    <nd ref="1749555644"/>
    <nd ref="1749555658"/>
    <nd ref="1749555661"/>
    <nd ref="1749555663"/>
    <nd ref="1749555666"/>
    <nd ref="1749555672"/>
    <nd ref="1749555682"/>
    <tag k="addr:city" v="Deal"/>
    <tag k="addr:country" v="GB"/>
    <tag k="addr:county" v="Kent"/>
    <tag k="addr:postcode" v="CT14 7ER"/>
    <tag k="addr:street" v="Gladstone Road"/>
    <tag k="addr:suburb" v="Walmer"/>
    <tag k="amenity" v="school"/>
    <tag k="capacity" v="210"/>
    <tag k="contact:phone" v="+44 1304 374464"/>
    <tag k="contact:website" v="http://www.deal-parochial.kent.sch.uk/"/>
    <tag k="denomination" v="anglican"/>
    <tag k="diocese" v="Diocese of Canterbury"/>
    <tag k="fhrs:id" v="254442;499219"/>
    <tag k="isced:level" v="1"/>
    <tag k="max_age" v="11"/>
    <tag k="min_age" v="4"/>
    <tag k="name" v="Deal Parochial Church of England Primary School"/>
    <tag k="ref:GB:uprn" v="200002882433"/>
    <tag k="ref:edubase" v="147053"/>
    <tag k="ref:edubase:group" v="17199"/>
    <tag k="religion" v="christian"/>
    <tag k="school:trust" v="yes"/>
    <tag k="school:trust:name" v="Deal Education Alliance For Learning Trust"/>
    <tag k="school:trust:type" v="multi_academy"/>
    <tag k="school:type" v="academy"/>
    <tag k="wikidata" v="Q66232917"/>
  </way>
  <way id="212798839" version="2" timestamp="2013-07-14T17:51:44Z" changeset="16952302" uid="607399" user="ehm1806">
    <nd ref="2226080621"/>
    <nd ref="2226080618"/>
    <nd ref="2226080622"/>
    <nd ref="2226080614"/>
    <nd ref="2226080612"/>
    <nd ref="2226080616"/>
    <nd ref="2226080601"/>
    <nd ref="2226080606"/>
    <nd ref="2226080604"/>
    <nd ref="2226080598"/>
    <nd ref="2226080610"/>
    <nd ref="2226080608"/>
    <nd ref="2226080621"/>
    <tag k="addr:postcode" v="CT14 7AX"/>
    <tag k="addr:street" v="Halliday Drive"/>
    <tag k="building" v="terrace"/>
    <tag k="name" v="The Old Gymnasium (1-11)"/>
  </way>
  <way id="212818649" version="4" timestamp="2024-04-22T22:51:38Z" changeset="150369039" uid="6816132" user="CjMalone">
    <nd ref="2226241120"/>
    <nd ref="2226241125"/>
    <nd ref="2226241124"/>
    <nd ref="2226241134"/>
    <nd ref="2226241123"/>
    <nd ref="2226241120"/>
    <tag k="addr:housenumber" v="137"/>
    <tag k="addr:postcode" v="CT14 7JH"/>
    <tag k="addr:street" v="Dover Road"/>
    <tag k="amenity" v="fuel"/>
    <tag k="brand" v="Esso"/>
    <tag k="brand:wikidata" v="Q867662"/>
    <tag k="brand:wikipedia" v="en:Esso"/>
    <tag k="building" v="retail"/>
    <tag k="contact:website" v="https://www.esso.co.uk/en-gb/find-station/esso-deal-essomfgwalmer-100342141"/>
    <tag k="name" v="Esso"/>
    <tag k="operator" v="Motor Fuel Group"/>
    <tag k="operator:website" v="https://www.motorfuelgroup.com/locations/walmer-fs695/"/>
    <tag k="operator:wikidata" v="Q107271358"/>
  </way>
  <way id="229919599" version="1" timestamp="2013-07-14T17:30:09Z" changeset="16952020" uid="607399" user="ehm1806">
    <nd ref="2384544439"/>
    <nd ref="2384544400"/>
    <nd ref="2384544445"/>
    <nd ref="2384544424"/>
    <nd ref="2384544422"/>
    <nd ref="2384544435"/>
    <nd ref="2384544406"/>
    <nd ref="2384544414"/>
    <nd ref="2384544416"/>
    <nd ref="2384544419"/>
    <nd ref="2384544441"/>
    <nd ref="2384544429"/>
    <nd ref="2384544431"/>
    <nd ref="2384544420"/>
    <nd ref="2384544443"/>
    <nd ref="2384544447"/>
    <nd ref="2384544439"/>
    <tag k="addr:housename" v="Beachways"/>
    <tag k="addr:housenumber" v="26"/>
    <tag k="addr:postcode" v="CT14 8AA"/>
    <tag k="addr:street" v="Wellington Parade"/>
    <tag k="building" v="house"/>
  </way>
  <way id="229920972" version="6" timestamp="2023-02-03T14:00:34Z" changeset="132043800" uid="84263" user="Robert Whittaker">
    <nd ref="2384557789"/>
    <nd ref="2384557783"/>
    <nd ref="2384557790"/>
    <nd ref="2384557788"/>
    <nd ref="2384557786"/>
    <nd ref="2384557785"/>
    <nd ref="2384557781"/>
    <nd ref="2384557787"/>
    <nd ref="2384557782"/>
    <nd ref="2384557784"/>
    <nd ref="2384557789"/>
    <tag k="addr:city" v="Walmer"/>
    <tag k="addr:housenumber" v="311-313"/>
    <tag k="addr:postcode" v="CT14 7NS"/>
    <tag k="addr:street" v="Dover Road"/>
    <tag k="alt_name" v="Town &amp; Country Stores"/>
    <tag k="brand" v="Londis"/>
    <tag k="brand:wikidata" v="Q21008564"/>
    <tag k="building" v="retail"/>
    <tag k="building:levels" v="2"/>
    <tag k="fhrs:id" v="254799"/>
    <tag k="name" v="Londis"/>
    <tag k="note" v="Minimarket + Post office inside"/>
    <tag k="opening_hours" v="Mo-Sa 08:30-19:30;Su 09:00-14:00"/>
    <tag k="roof:levels" v="0"/>
    <tag k="shop" v="convenience"/>
  </way>
  <way id="229920973" version="2" timestamp="2018-03-06T07:40:09Z" changeset="56926047" uid="7037" user="Gregory Williams">
    <nd ref="2384557792"/>
    <nd ref="2384557779"/>
    <nd ref="2384557780"/>
    <nd ref="2384557791"/>
    <nd ref="2384557792"/>
    <tag k="addr:city" v="Deal"/>
    <tag k="addr:country" v="GB"/>
    <tag k="addr:housenumber" v="329"/>
    <tag k="addr:postcode" v="CT14 7NX"/>
    <tag k="addr:street" v="Dover Road"/>
    <tag k="amenity" v="pub"/>
    <tag k="building" v="yes"/>
    <tag k="contact:website" v="http://www.thefreed-man.co.uk/"/>
    <tag k="fhrs:id" v="847418"/>
    <tag k="name" v="The Freed Man"/>
    <tag k="opening_hours" v="Mo,We,Th 12:00-21:00;Tu 12:00-22:00;Fr,Sa 12:00-23:00;Su 12:00-20:00"/>
  </way>
  <way id="229921191" version="2" timestamp="2017-11-27T20:48:09Z" changeset="54132502" uid="7037" user="Gregory Williams">
    <nd ref="2384560312"/>
    <nd ref="2384560313"/>
    <nd ref="2384557779"/>
    <nd ref="2384557792"/>
    <nd ref="2384560312"/>
    <tag k="addr:city" v="Deal"/>
    <tag k="addr:housenumber" v="331"/>
    <tag k="addr:place" v="Walmer"/>
    <tag k="addr:postcode" v="CT14 7NX"/>
    <tag k="addr:street" v="Dover Road"/>
    <tag k="building" v="yes"/>
    <tag k="fhrs:id" v="254266"/>
    <tag k="name" v="Gilliver's Newsagents"/>
    <tag k="shop" v="convenience"/>
  </way>
  <way id="289368603" version="3" timestamp="2017-11-27T20:48:10Z" changeset="54132502" uid="7037" user="Gregory Williams">
    <nd ref="2929175472"/>
    <nd ref="2929175473"/>
    <nd ref="2929175474"/>
    <nd ref="2929175475"/>
    <nd ref="2929175476"/>
    <nd ref="2929175477"/>
    <nd ref="2929175478"/>
    <nd ref="2929175479"/>
    <nd ref="2929175480"/>
    <nd ref="2929175481"/>
    <nd ref="2929175472"/>
    <tag k="addr:city" v="Deal"/>
    <tag k="addr:place" v="Walmer"/>
    <tag k="addr:postcode" v="CT14 7PY"/>
    <tag k="addr:street" v="St. Clare Road"/>
    <tag k="amenity" v="social_facility"/>
    <tag k="building" v="house"/>
    <tag k="building:levels" v="3"/>
    <tag k="contact:phone" v="+44 1304 360965"/>
    <tag k="contact:website" v="http://generalsmeadowresidentialhome.co.uk/"/>
    <tag k="fhrs:id" v="254759"/>
    <tag k="name" v="General Meadows Care Home"/>
    <tag k="social_facility" v="assisted_living"/>
  </way>
  <way id="351913695" version="2" timestamp="2018-12-28T20:53:29Z" changeset="65852572" uid="608760" user="gregrs">
    <nd ref="3577170758"/>
    <nd ref="3577170762"/>
    <nd ref="3577170763"/>
    <nd ref="3577170761"/>
    <nd ref="3577170760"/>
    <nd ref="3577170757"/>
    <nd ref="3577170756"/>
    <nd ref="3577170759"/>
    <nd ref="3577170758"/>
    <tag k="addr:housenumber" v="30"/>
    <tag k="addr:place" v="Walmer"/>
    <tag k="addr:postcode" v="CT14 7QS"/>
    <tag k="addr:street" v="Station Road"/>
    <tag k="amenity" v="place_of_worship"/>
    <tag k="building" v="chapel"/>
    <tag k="fhrs:id" v="1085327"/>
    <tag k="name" v="Walmer Chapel"/>
    <tag k="religion" v="christian"/>
    <tag k="source:addr" v="FHRS Open Data"/>
  </way>
  <way id="351964745" version="1" timestamp="2015-06-06T23:02:52Z" changeset="31778933" uid="82783" user="Paul The Archivist">
    <nd ref="3577621486"/>
    <nd ref="3577621483"/>
    <nd ref="3577621470"/>
    <nd ref="3577621472"/>
    <nd ref="3577621468"/>
    <nd ref="3577621471"/>
    <nd ref="3577621486"/>
    <tag k="addr:housenumber" v="101"/>
    <tag k="addr:street" v="Canada Road"/>
    <tag k="building" v="house"/>
    <tag k="source" v="Bing;survey"/>
  </way>
  <way id="351964746" version="1" timestamp="2015-06-06T23:02:52Z" changeset="31778933" uid="82783" user="Paul The Archivist">
    <nd ref="3577621489"/>
    <nd ref="3577621486"/>
    <nd ref="3577621471"/>
    <nd ref="3577621474"/>
    <nd ref="3577621477"/>
    <nd ref="3577621480"/>
    <nd ref="3577621489"/>
    <tag k="addr:housenumber" v="103"/>
    <tag k="addr:street" v="Canada Road"/>
    <tag k="building" v="house"/>
    <tag k="source" v="Bing;survey"/>
  </way>
  <way id="351964747" version="1" timestamp="2015-06-06T23:02:53Z" changeset="31778933" uid="82783" user="Paul The Archivist">
    <nd ref="3577621490"/>
    <nd ref="3577621489"/>
    <nd ref="3577621480"/>
    <nd ref="3577621481"/>
    <nd ref="3577621476"/>
    <nd ref="3577621479"/>
    <nd ref="3577621490"/>
    <tag k="addr:housenumber" v="105"/>
    <tag k="addr:street" v="Canada Road"/>
    <tag k="building" v="house"/>
    <tag k="source" v="Bing;survey"/>
  </way>
  <way id="351964748" version="1" timestamp="2015-06-06T23:02:53Z" changeset="31778933" uid="82783" user="Paul The Archivist">
    <nd ref="3577621487"/>
    <nd ref="3577621494"/>
    <nd ref="3577621490"/>
    <nd ref="3577621479"/>
    <nd ref="3577621482"/>
    <nd ref="3577621485"/>
    <nd ref="3577621487"/>
    <tag k="addr:housenumber" v="107"/>
    <tag k="addr:street" v="Canada Road"/>
    <tag k="building" v="house"/>
    <tag k="source" v="Bing;survey"/>
  </way>
  <way id="351964749" version="1" timestamp="2015-06-06T23:02:53Z" changeset="31778933" uid="82783" user="Paul The Archivist">
    <nd ref="3577621500"/>
    <nd ref="3577621505"/>
    <nd ref="3577621511"/>
    <nd ref="3577621509"/>
    <nd ref="3577621510"/>
    <nd ref="3577621508"/>
    <nd ref="3577621507"/>
    <nd ref="3577621506"/>
    <nd ref="3577621500"/>
    <tag k="addr:housenumber" v="178"/>
    <tag k="addr:street" v="Gladstone Road"/>
    <tag k="building" v="house"/>
    <tag k="source" v="Bing;survey"/>
  </way>
  <way id="351964750" version="1" timestamp="2015-06-06T23:02:53Z" changeset="31778933" uid="82783" user="Paul The Archivist">
    <nd ref="3577621495"/>
    <nd ref="3577621501"/>
    <nd ref="3577621499"/>
    <nd ref="3577621503"/>
    <nd ref="3577621504"/>
    <nd ref="3577621502"/>
    <nd ref="3577621506"/>
    <nd ref="3577621500"/>
    <nd ref="3577621495"/>
    <tag k="addr:housenumber" v="180"/>
    <tag k="addr:street" v="Gladstone Road"/>
    <tag k="building" v="house"/>
    <tag k="source" v="Bing;survey"/>
  </way>
  <way id="351964751" version="1" timestamp="2015-06-06T23:02:53Z" changeset="31778933" uid="82783" user="Paul The Archivist">
    <nd ref="3577621488"/>
    <nd ref="3577621493"/>
    <nd ref="3577621498"/>
    <nd ref="3577621496"/>
    <nd ref="3577621497"/>
    <nd ref="3577621492"/>
    <nd ref="3577621488"/>
    <tag k="addr:housenumber" v="182"/>
    <tag k="addr:street" v="Gladstone Road"/>
    <tag k="building" v="house"/>
    <tag k="source" v="Bing;survey"/>
  </way>
  <way id="351964752" version="1" timestamp="2015-06-06T23:02:53Z" changeset="31778933" uid="82783" user="Paul The Archivist">
    <nd ref="3577621289"/>
    <nd ref="3577621285"/>
    <nd ref="3577621274"/>
    <nd ref="3577621276"/>
    <nd ref="3577621272"/>
    <nd ref="3577621273"/>
    <nd ref="3577621275"/>
    <nd ref="3577621289"/>
    <tag k="addr:housenumber" v="59"/>
    <tag k="addr:street" v="Canada Road"/>
    <tag k="building" v="house"/>
    <tag k="source" v="Bing;survey"/>
  </way>
  <way id="351964753" version="1" timestamp="2015-06-06T23:02:53Z" changeset="31778933" uid="82783" user="Paul The Archivist">
    <nd ref="3577621395"/>
    <nd ref="3577621289"/>
    <nd ref="3577621275"/>
    <nd ref="3577621277"/>
    <nd ref="3577621280"/>
    <nd ref="3577621281"/>
    <nd ref="3577621395"/>
    <tag k="addr:housenumber" v="61"/>
    <tag k="addr:street" v="Canada Road"/>
    <tag k="building" v="house"/>
    <tag k="source" v="Bing;survey"/>
  </way>
  <way id="351964754" version="1" timestamp="2015-06-06T23:02:53Z" changeset="31778933" uid="82783" user="Paul The Archivist">
    <nd ref="3577621398"/>
    <nd ref="3577621395"/>
    <nd ref="3577621281"/>
    <nd ref="3577621283"/>
    <nd ref="3577621278"/>
    <nd ref="3577621279"/>
    <nd ref="3577621398"/>
    <tag k="addr:housenumber" v="63"/>
    <tag k="addr:street" v="Canada Road"/>
    <tag k="building" v="house"/>
    <tag k="source" v="Bing;survey"/>
  </way>
  <way id="351964755" version="1" timestamp="2015-06-06T23:02:53Z" changeset="31778933" uid="82783" user="Paul The Archivist">
    <nd ref="3577621403"/>
    <nd ref="3577621398"/>
    <nd ref="3577621279"/>
    <nd ref="3577621282"/>
    <nd ref="3577621288"/>
    <nd ref="3577621290"/>
    <nd ref="3577621403"/>
    <tag k="addr:housenumber" v="65"/>
    <tag k="addr:street" v="Canada Road"/>
    <tag k="building" v="house"/>
    <tag k="source" v="Bing;survey"/>
  </way>
  <way id="351964756" version="1" timestamp="2015-06-06T23:02:53Z" changeset="31778933" uid="82783" user="Paul The Archivist">
    <nd ref="3577621407"/>
    <nd ref="3577621403"/>
    <nd ref="3577621290"/>
    <nd ref="3577621393"/>
    <nd ref="3577621286"/>
    <nd ref="3577621287"/>
    <nd ref="3577621407"/>
    <tag k="addr:housenumber" v="67"/>
    <tag k="addr:street" v="Canada Road"/>
    <tag k="building" v="house"/>
    <tag k="source" v="Bing;survey"/>
  </way>
  <way id="351964757" version="1" timestamp="2015-06-06T23:02:53Z" changeset="31778933" uid="82783" user="Paul The Archivist">
    <nd ref="3577621415"/>
    <nd ref="3577621407"/>
    <nd ref="3577621287"/>
    <nd ref="3577621292"/>
    <nd ref="3577621399"/>
    <nd ref="3577621400"/>
    <nd ref="3577621415"/>
    <tag k="addr:housenumber" v="69"/>
    <tag k="addr:street" v="Canada Road"/>
    <tag k="building" v="house"/>
    <tag k="source" v="Bing;survey"/>
  </way>
  <way id="351964758" version="1" timestamp="2015-06-06T23:02:53Z" changeset="31778933" uid="82783" user="Paul The Archivist">
    <nd ref="3577621421"/>
    <nd ref="3577621415"/>
    <nd ref="3577621400"/>
    <nd ref="3577621402"/>
    <nd ref="3577621396"/>
    <nd ref="3577621397"/>
    <nd ref="3577621421"/>
    <tag k="addr:housenumber" v="71"/>
    <tag k="addr:street" v="Canada Road"/>
    <tag k="building" v="house"/>
    <tag k="source" v="Bing;survey"/>
  </way>
  <way id="351964759" version="1" timestamp="2015-06-06T23:02:54Z" changeset="31778933" uid="82783" user="Paul The Archivist">
    <nd ref="3577621408"/>
    <nd ref="3577621426"/>
    <nd ref="3577621421"/>
    <nd ref="3577621397"/>
    <nd ref="3577621401"/>
    <nd ref="3577621406"/>
    <nd ref="3577621408"/>
    <tag k="addr:housenumber" v="73"/>
    <tag k="addr:street" v="Canada Road"/>
    <tag k="building" v="house"/>
    <tag k="source" v="Bing;survey"/>
  </way>
  <way id="351964760" version="1" timestamp="2015-06-06T23:02:54Z" changeset="31778933" uid="82783" user="Paul The Archivist">
    <nd ref="3577621436"/>
    <nd ref="3577621428"/>
    <nd ref="3577621404"/>
    <nd ref="3577621405"/>
    <nd ref="3577621414"/>
    <nd ref="3577621417"/>
    <nd ref="3577621436"/>
    <tag k="addr:housenumber" v="75"/>
    <tag k="addr:street" v="Canada Road"/>
    <tag k="building" v="house"/>
    <tag k="source" v="Bing;survey"/>
  </way>
  <way id="351964761" version="1" timestamp="2015-06-06T23:02:54Z" changeset="31778933" uid="82783" user="Paul The Archivist">
    <nd ref="3577621440"/>
    <nd ref="3577621436"/>
    <nd ref="3577621417"/>
    <nd ref="3577621418"/>
    <nd ref="3577621411"/>
    <nd ref="3577621416"/>
    <nd ref="3577621423"/>
    <nd ref="3577621440"/>
    <tag k="addr:housenumber" v="77"/>
    <tag k="addr:street" v="Canada Road"/>
    <tag k="building" v="house"/>
    <tag k="source" v="Bing;survey"/>
  </way>
  <way id="351964762" version="1" timestamp="2015-06-06T23:02:54Z" changeset="31778933" uid="82783" user="Paul The Archivist">
    <nd ref="3577621442"/>
    <nd ref="3577621440"/>
    <nd ref="3577621423"/>
    <nd ref="3577621425"/>
    <nd ref="3577621419"/>
    <nd ref="3577621424"/>
    <nd ref="3577621442"/>
    <tag k="addr:housenumber" v="79"/>
    <tag k="addr:street" v="Canada Road"/>
    <tag k="building" v="house"/>
    <tag k="source" v="Bing;survey"/>
  </way>
  <way id="351964763" version="1" timestamp="2015-06-06T23:02:54Z" changeset="31778933" uid="82783" user="Paul The Archivist">
    <nd ref="3577621447"/>
    <nd ref="3577621442"/>
    <nd ref="3577621424"/>
    <nd ref="3577621427"/>
    <nd ref="3577621432"/>
    <nd ref="3577621437"/>
    <nd ref="3577621447"/>
    <tag k="addr:housenumber" v="81"/>
    <tag k="addr:street" v="Canada Road"/>
    <tag k="building" v="house"/>
    <tag k="source" v="Bing;survey"/>
  </way>
  <way id="351964764" version="1" timestamp="2015-06-06T23:02:54Z" changeset="31778933" uid="82783" user="Paul The Archivist">
    <nd ref="3577621434"/>
    <nd ref="3577621449"/>
    <nd ref="3577621447"/>
    <nd ref="3577621437"/>
    <nd ref="3577621438"/>
    <nd ref="3577621429"/>
    <nd ref="3577621434"/>
    <tag k="addr:housenumber" v="83"/>
    <tag k="addr:street" v="Canada Road"/>
    <tag k="building" v="house"/>
    <tag k="source" v="Bing;survey"/>
  </way>
  <way id="351964765" version="1" timestamp="2015-06-06T23:02:54Z" changeset="31778933" uid="82783" user="Paul The Archivist">
    <nd ref="3577621473"/>
    <nd ref="3577621467"/>
    <nd ref="3577621456"/>
    <nd ref="3577621458"/>
    <nd ref="3577621453"/>
    <nd ref="3577621457"/>
    <nd ref="3577621473"/>
    <tag k="addr:housenumber" v="93"/>
    <tag k="addr:street" v="Canada Road"/>
    <tag k="building" v="house"/>
    <tag k="source" v="Bing;survey"/>
  </way>
  <way id="351964766" version="1" timestamp="2015-06-06T23:02:54Z" changeset="31778933" uid="82783" user="Paul The Archivist">
    <nd ref="3577621475"/>
    <nd ref="3577621473"/>
    <nd ref="3577621457"/>
    <nd ref="3577621459"/>
    <nd ref="3577621462"/>
    <nd ref="3577621463"/>
    <nd ref="3577621475"/>
    <tag k="addr:housenumber" v="95"/>
    <tag k="addr:street" v="Canada Road"/>
    <tag k="building" v="house"/>
    <tag k="source" v="Bing;survey"/>
  </way>
  <way id="351964767" version="1" timestamp="2015-06-06T23:02:54Z" changeset="31778933" uid="82783" user="Paul The Archivist">
    <nd ref="3577621478"/>
    <nd ref="3577621475"/>
    <nd ref="3577621463"/>
    <nd ref="3577621465"/>
    <nd ref="3577621461"/>
    <nd ref="3577621464"/>
    <nd ref="3577621478"/>
    <tag k="addr:housenumber" v="97"/>
    <tag k="addr:street" v="Canada Road"/>
    <tag k="building" v="house"/>
    <tag k="source" v="Bing;survey"/>
  </way>
  <way id="351964768" version="1" timestamp="2015-06-06T23:02:54Z" changeset="31778933" uid="82783" user="Paul The Archivist">
    <nd ref="3577621483"/>
    <nd ref="3577621478"/>
    <nd ref="3577621464"/>
    <nd ref="3577621466"/>
    <nd ref="3577621469"/>
    <nd ref="3577621470"/>
    <nd ref="3577621483"/>
    <tag k="addr:housenumber" v="99"/>
    <tag k="addr:street" v="Canada Road"/>
    <tag k="building" v="house"/>
    <tag k="source" v="Bing;survey"/>
  </way>
  <way id="351964769" version="1" timestamp="2015-06-06T23:02:54Z" changeset="31778933" uid="82783" user="Paul The Archivist">
    <nd ref="3577621448"/>
    <nd ref="3577621450"/>
    <nd ref="3577621491"/>
    <nd ref="3577621484"/>
    <nd ref="3577621448"/>
    <tag k="addr:housenumber" v="184"/>
    <tag k="addr:street" v="Gladstone Road"/>
    <tag k="building" v="commercial"/>
    <tag k="name" v="J. Dilnot Smith &amp; Son"/>
    <tag k="shop" v="funeral_directors"/>
  </way>
  <way id="555375139" version="3" timestamp="2023-11-04T17:39:53Z" changeset="143623910" uid="504708" user="HillWithSmallFields">
    <nd ref="5358400534"/>
    <nd ref="5358400535"/>
    <nd ref="5358400543"/>
    <nd ref="5358400539"/>
    <nd ref="5358400542"/>
    <nd ref="5358400537"/>
    <nd ref="5358400536"/>
    <nd ref="5358400538"/>
    <nd ref="5358400540"/>
    <nd ref="5358400541"/>
    <nd ref="5358400534"/>
    <tag k="addr:city" v="Walmer"/>
    <tag k="addr:street" v="St. Marys Road"/>
    <tag k="amenity" v="place_of_worship"/>
    <tag k="building" v="church"/>
    <tag k="building:architecture" v="gothic_revival"/>
    <tag k="denomination" v="anglican"/>
    <tag k="name" v="St Mary's Church"/>
    <tag k="ref:dove" v="13344"/>
    <tag k="religion" v="christian"/>
    <tag k="wikidata" v="Q7594444"/>
  </way>
  <way id="641231459" version="2" timestamp="2019-10-26T22:52:15Z" changeset="76254297" uid="3951648" user="rskedgell">
    <nd ref="252691230"/>
    <nd ref="6039305209"/>
    <nd ref="6039305208"/>
    <nd ref="6039305207"/>
    <nd ref="6039305206"/>
    <nd ref="252691230"/>
    <tag k="addr:city" v="Deal"/>
    <tag k="addr:postcode" v="CT14 7DY"/>
    <tag k="addr:street" v="The Strand"/>
    <tag k="addr:suburb" v="Walmer"/>
    <tag k="amenity" v="cafe"/>
    <tag k="breakfast" v="yes"/>
    <tag k="building" v="yes"/>
    <tag k="building:levels" v="1"/>
    <tag k="contact:facebook" v="https://www.facebook.com/SeaCafeontheGreen/"/>
    <tag k="diet:vegetarian" v="yes"/>
    <tag k="fhrs:id" v="444763"/>
    <tag k="name" v="Sea Café On The Green"/>
    <tag k="toilets" v="yes"/>
    <tag k="toilets:access" v="customers"/>
  </way>
  <way id="879827190" version="2" timestamp="2021-09-12T14:28:20Z" changeset="111098972" uid="1867429" user="James_Griffiths">
    <nd ref="8184487457"/>
    <nd ref="8184487458"/>
    <nd ref="8184487459"/>
    <nd ref="9084120361"/>
    <nd ref="8184487461"/>
    <nd ref="9084120360"/>
    <nd ref="9084120359"/>
    <nd ref="9084120358"/>
    <nd ref="8184487457"/>
    <tag k="addr:city" v="Deal"/>
    <tag k="addr:housenumber" v="24"/>
    <tag k="addr:postcode" v="CT14 7DN"/>
    <tag k="addr:street" v="Marine Road"/>
    <tag k="building" v="yes"/>
    <tag k="healthcare" v="Medical_Centre"/>
    <tag k="name" v="Cedars Surgery"/>
    <tag k="operator" v="Cedars Surgery"/>
    <tag k="phone" v="+44 1304 373341"/>
    <tag k="website" v="https://www.cedarssurgery.co.uk/"/>
  </way>
  <way id="879832397" version="3" timestamp="2023-11-01T18:11:06Z" changeset="143489468" uid="9451067" user="b-jazz-bot">
    <nd ref="5535926204"/>
    <nd ref="5535926205"/>
    <nd ref="1086939627"/>
    <nd ref="5535926206"/>
    <nd ref="10773289531"/>
    <nd ref="5535926204"/>
    <tag k="addr:city" v="Deal"/>
    <tag k="addr:housename" v="The Club House"/>
    <tag k="addr:postcode" v="CT14 7DY"/>
    <tag k="addr:street" v="The Strand"/>
    <tag k="club" v="sport"/>
    <tag k="email" v="secretary@downssailingclub.co.uk"/>
    <tag k="name" v="Downs Sailing Club"/>
    <tag k="operator" v="Downs Sailing Club"/>
    <tag k="phone" v="+44 1304 361932"/>
    <tag k="sport" v="sailing"/>
    <tag k="website" v="https://downssailingclub.co.uk/"/>
  </way>
  <way id="1158533009" version="2" timestamp="2023-04-06T20:09:04Z" changeset="134591820" uid="4833194" user="motogs">
    <nd ref="10774062254"/>
    <nd ref="10774062264"/>
    <nd ref="10774062267"/>
    <nd ref="10790946672"/>
    <nd ref="10790946671"/>
    <nd ref="10790946667"/>
    <nd ref="10790946666"/>
    <nd ref="10790946668"/>
    <nd ref="10790946664"/>
    <nd ref="10790946665"/>
    <nd ref="10790946669"/>
    <nd ref="10790946670"/>
    <nd ref="10774062254"/>
    <tag k="addr:city" v="Walmer"/>
    <tag k="addr:housenumber" v="7"/>
    <tag k="addr:postcode" v="CT14 7DY"/>
    <tag k="addr:street" v="The Strand"/>
    <tag k="amenity" v="pub"/>
    <tag k="building" v="yes"/>
    <tag k="fhrs:id" v="736958"/>
    <tag k="name" v="The Stag"/>
  </way>
  <way id="1158533027" version="2" timestamp="2023-04-06T20:09:04Z" changeset="134591820" uid="4833194" user="motogs">
    <nd ref="10774102011"/>
    <nd ref="10774102012"/>
    <nd ref="10790946700"/>
    <nd ref="3577621267"/>
    <nd ref="10774102011"/>
    <tag k="addr:city" v="Walmer"/>
    <tag k="addr:housenumber" v="26"/>
    <tag k="addr:postcode" v="CT14 7DX"/>
    <tag k="addr:street" v="The Strand"/>
    <tag k="building" v="yes"/>
    <tag k="fhrs:id" v="254190"/>
    <tag k="name" v="Bandstand Bakery"/>
    <tag k="shop" v="bakery"/>
  </way>
  <way id="1158533032" version="2" timestamp="2023-04-06T20:09:04Z" changeset="134591820" uid="4833194" user="motogs">
    <nd ref="10774102024"/>
    <nd ref="10774102022"/>
    <nd ref="10774102021"/>
    <nd ref="10774102020"/>
    <nd ref="10774102024"/>
    <tag k="addr:housenumber" v="30-31"/>
    <tag k="addr:street" v="The Strand"/>
    <tag k="building" v="house"/>
  </way>
  <way id="1158533037" version="2" timestamp="2024-07-22T22:43:35Z" changeset="154283076" uid="5008136" user="JayTurnr">
    <nd ref="10774102033"/>
    <nd ref="10773570883"/>
    <nd ref="10774102030"/>
    <nd ref="10774102032"/>
    <nd ref="10774102033"/>
    <tag k="addr:city" v="Walmer"/>
    <tag k="addr:housenumber" v="36"/>
    <tag k="addr:postcode" v="CT14 7DX"/>
    <tag k="addr:street" v="The Strand"/>
    <tag k="amenity" v="fast_food"/>
    <tag k="building" v="yes"/>
    <tag k="cuisine" v="fish_and_chips"/>
    <tag k="fhrs:id" v="429951"/>
    <tag k="name" v="Walmer Fish &amp; Chips"/>
    <tag k="phone" v="+44 1304 381712"/>
    <tag k="wheelchair" v="yes"/>
  </way>
  <way id="1158533038" version="2" timestamp="2024-07-22T22:43:35Z" changeset="154283076" uid="5008136" user="JayTurnr">
    <nd ref="8184040904"/>
    <nd ref="10774102033"/>
    <nd ref="10774102032"/>
    <nd ref="10774102036"/>
    <nd ref="8184040904"/>
    <tag k="addr:city" v="Walmer"/>
    <tag k="addr:housenumber" v="37"/>
    <tag k="addr:postcode" v="CT14 7DX"/>
    <tag k="addr:street" v="The Strand"/>
    <tag k="building" v="yes"/>
    <tag k="fhrs:id" v="607338"/>
    <tag k="leisure" v="social_club"/>
    <tag k="name" v="Royal Marines Association and Social Club"/>
  </way>
  <way id="1270585468" version="1" timestamp="2024-04-07T08:08:33Z" changeset="149681379" uid="20103" user="I like cats">
    <nd ref="11799255145"/>
    <nd ref="11799255146"/>
    <nd ref="11799255147"/>
    <nd ref="11799255148"/>
    <nd ref="11799255149"/>
    <nd ref="11799255150"/>
    <nd ref="11799255145"/>
    <tag k="addr:city" v="Deal"/>
    <tag k="addr:housename" v="Bow House"/>
    <tag k="addr:housenumber" v="18"/>
    <tag k="addr:postcode" v="CT14 7HP"/>
    <tag k="addr:street" v="Archery Square"/>
    <tag k="building" v="house"/>
    <tag k="building:levels" v="2"/>
    <tag k="house" v="detached"/>
    <tag k="name" v="Bow House"/>
  </way>
  <relation id="16791040" version="1" timestamp="2023-12-06T15:27:03Z" changeset="144833209" uid="115894" user="DaveF">
    <member type="way" ref="84086908" role="outer"/>
    <member type="way" ref="84086909" role="outer"/>
    <tag k="addr:city" v="Deal"/>
    <tag k="addr:place" v="Walmer"/>
    <tag k="addr:postcode" v="CT14 7DY"/>
    <tag k="addr:street" v="The Strand"/>
    <tag k="emergency" v="water_rescue"/>
    <tag k="fhrs:id" v="624164"/>
    <tag k="name" v="Walmer Lifeboat Station"/>
    <tag k="operator" v="Royal National Lifeboat Institution"/>
    <tag k="operator:short" v="RNLI"/>
    <tag k="operator:wikidata" v="Q2166873"/>
    <tag k="seamark:name" v="Walmer Lifeboat Station"/>
    <tag k="seamark:rescue_station:category" v="lifeboat"/>
    <tag k="seamark:type" v="rescue_station"/>
    <tag k="type" v="multipolygon"/>
    <tag k="website" v="https://rnli.org/find-my-nearest/lifeboat-stations/walmer-lifeboat-station"/>
    <tag k="wikidata" v="Q7963534"/>
    <tag k="wikipedia" v="en:Walmer Lifeboat Station"/>
  </relation>

</osm>
