<?xml version="1.0" encoding="UTF-8"?>
<osm version="0.6" generator="Overpass API 0.7.62.5 1bd436f1">
<note>The data included in this document is from www.openstreetmap.org. The data is made available under ODbL.</note>
<meta osm_base="2025-03-05T18:16:59Z" areas="2024-12-31T00:49:33Z"/>

  <node id="1504307692" lat="51.2571625" lon="1.3491131" version="4" timestamp="2022-01-19T10:14:05Z" changeset="116334628" uid="7037" user="Gregory Williams">
    <tag k="addr:city" v="Sandwich"/>
    <tag k="addr:postcode" v="CT14 0DF"/>
    <tag k="addr:street" v="The Street"/>
    <tag k="addr:village" v="Worth"/>
    <tag k="amenity" v="pub"/>
    <tag k="fhrs:id" v="749894"/>
    <tag k="name" v="St Crispin Inn"/>
  </node>
  <node id="1675973330" lat="51.2564436" lon="1.3469427" version="4" timestamp="2022-01-19T10:14:05Z" changeset="116334628" uid="7037" user="Gregory Williams">
    <tag k="addr:city" v="Sandwich"/>
    <tag k="addr:postcode" v="CT14 0DE"/>
    <tag k="addr:street" v="The Street"/>
    <tag k="addr:village" v="Worth"/>
    <tag k="amenity" v="pub"/>
    <tag k="fhrs:id" v="528928"/>
    <tag k="name" v="The Blue Pigeon"/>
  </node>
  <way id="389833917" version="6" timestamp="2024-06-11T13:13:08Z" changeset="152542969" uid="11471297" user="Palgrave Peter">
    <nd ref="3929925489"/>
    <nd ref="3929925485"/>
    <nd ref="3929925486"/>
    <nd ref="3929925488"/>
    <nd ref="3929925490"/>
    <nd ref="3929925491"/>
    <nd ref="3929925492"/>
    <nd ref="3929925489"/>
    <tag k="addr:city" v="Worth"/>
    <tag k="addr:country" v="GB"/>
    <tag k="addr:postcode" v="CT14 0DF"/>
    <tag k="addr:street" v="The Street"/>
    <tag k="amenity" v="school"/>
    <tag k="capacity" v="70"/>
    <tag k="contact:phone" v="+44 1304 612148"/>
    <tag k="contact:website" v="http://www.worthprimary.co.uk/"/>
    <tag k="fhrs:id" v="254264"/>
    <tag k="isced:level" v="1"/>
    <tag k="max_age" v="11"/>
    <tag k="min_age" v="4"/>
    <tag k="name" v="Worth Primary School"/>
    <tag k="ref:GB:uprn" v="100062620829"/>
    <tag k="ref:edubase" v="148370"/>
    <tag k="ref:edubase:group" v="17199"/>
    <tag k="school:trust" v="yes"/>
    <tag k="school:trust:name" v="Deal Education Alliance For Learning Trust"/>
    <tag k="school:trust:type" v="multi_academy"/>
    <tag k="school:type" v="academy"/>
    <tag k="wikidata" v="Q67148898"/>
  </way>

</osm>
