<?xml version="1.0" encoding="UTF-8"?>
<osm version="0.6" generator="Overpass API 0.7.62.5 1bd436f1">
<note>The data included in this document is from www.openstreetmap.org. The data is made available under ODbL.</note>
<meta osm_base="2025-03-05T18:17:59Z" areas="2024-12-31T00:49:33Z"/>

  <node id="549256522" lat="51.1960796" lon="1.2666393" version="4" timestamp="2023-10-22T09:07:53Z" changeset="142958420" uid="6816132" user="CjMalone">
    <tag k="addr:city" v="Dover"/>
    <tag k="addr:housenumber" v="2"/>
    <tag k="addr:postcode" v="CT15 4AA"/>
    <tag k="addr:street" v="Sandwich Road"/>
    <tag k="addr:village" v="Eythorne"/>
    <tag k="amenity" v="post_office"/>
    <tag k="brand" v="Post Office"/>
    <tag k="brand:wikidata" v="Q1783168"/>
    <tag k="fhrs:id" v="516073"/>
    <tag k="name" v="Eythorne Post Office"/>
    <tag k="ref:pol_id" v="125231"/>
    <tag k="source:addr" v="FHRS Open Data;pol_branch_list_2018-01"/>
    <tag k="website" v="https://www.postoffice.co.uk/branch-finder/5674581/eythorne"/>
  </node>
  <node id="1185642722" lat="51.1991459" lon="1.2638353" version="9" timestamp="2022-11-04T16:57:39Z" changeset="128492995" uid="6816132" user="CjMalone">
    <tag k="addr:city" v="Eythorne"/>
    <tag k="addr:street" v="Shooters Hill"/>
    <tag k="name" v="Eythorne"/>
    <tag k="naptan:AtcoCode" v="940GZZEKEYT"/>
    <tag k="network" v="East Kent Railway"/>
    <tag k="operator" v="East Kent Railway"/>
    <tag k="public_transport" v="station"/>
    <tag k="railway" v="station"/>
    <tag k="tourism" v="attraction"/>
    <tag k="usage" v="tourism"/>
    <tag k="wikidata" v="Q5423046"/>
  </node>
  <node id="1273740538" lat="51.2076569" lon="1.2582247" version="2" timestamp="2018-03-16T20:00:26Z" changeset="57251736" uid="7037" user="Gregory Williams">
    <tag k="addr:city" v="Dover"/>
    <tag k="addr:housenumber" v="29"/>
    <tag k="addr:postcode" v="CT15 4DP"/>
    <tag k="addr:street" v="Adelaide Road"/>
    <tag k="addr:village" v="Elvington"/>
    <tag k="amenity" v="post_office"/>
    <tag k="ref:pol_id" v="89143"/>
    <tag k="source" v="OS OpenData StreetView"/>
  </node>
  <way id="181308368" version="9" timestamp="2024-08-22T14:21:15Z" changeset="155608809" uid="11471297" user="Palgrave Peter">
    <nd ref="1917342898"/>
    <nd ref="1917342891"/>
    <nd ref="1917342893"/>
    <nd ref="1917342894"/>
    <nd ref="1917342886"/>
    <nd ref="1917342883"/>
    <nd ref="1917342880"/>
    <nd ref="1917342882"/>
    <nd ref="1917342881"/>
    <nd ref="1917342887"/>
    <nd ref="8026332660"/>
    <nd ref="1917342897"/>
    <nd ref="1917342889"/>
    <nd ref="1917342899"/>
    <nd ref="7037129635"/>
    <nd ref="12127067713"/>
    <nd ref="1917342901"/>
    <nd ref="1917342898"/>
    <tag k="addr:city" v="Dover"/>
    <tag k="addr:country" v="GB"/>
    <tag k="addr:county" v="Kent"/>
    <tag k="addr:place" v="Eythorne"/>
    <tag k="addr:postcode" v="CT15 4AN"/>
    <tag k="addr:street" v="Adelaide Road"/>
    <tag k="amenity" v="school"/>
    <tag k="capacity" v="140"/>
    <tag k="contact:phone" v="+44 1304 830376"/>
    <tag k="contact:website" v="http://www.eythorne-elvington.kent.sch.uk/"/>
    <tag k="isced:level" v="1"/>
    <tag k="max_age" v="11"/>
    <tag k="min_age" v="5"/>
    <tag k="name" v="Eythorne Elvington Community Primary School"/>
    <tag k="ref:GB:uprn" v="10034882456"/>
    <tag k="ref:edubase" v="118399"/>
    <tag k="ref:edubase:group" v="1857"/>
    <tag k="school:federation:name" v="The Federation of Sibertswold Church of England and Eythorne Elvington"/>
    <tag k="school:trust" v="no"/>
    <tag k="school:type" v="community"/>
    <tag k="wikidata" v="Q66226248"/>
  </way>
  <way id="734302124" version="2" timestamp="2021-07-15T09:25:07Z" changeset="108036393" uid="608760" user="gregrs">
    <nd ref="6876557586"/>
    <nd ref="6876557587"/>
    <nd ref="6876557588"/>
    <nd ref="6876557589"/>
    <nd ref="6876557590"/>
    <nd ref="6876557591"/>
    <nd ref="6876557592"/>
    <nd ref="6876557593"/>
    <nd ref="6876557586"/>
    <tag k="addr:city" v="Dover"/>
    <tag k="addr:county" v="Kent"/>
    <tag k="addr:postcode" v="CT15 4BG"/>
    <tag k="addr:street" v="The Street"/>
    <tag k="addr:village" v="Eythorne"/>
    <tag k="amenity" v="pub"/>
    <tag k="building" v="yes"/>
    <tag k="fhrs:id" v="1097731"/>
    <tag k="name" v="The Crown Inn"/>
    <tag k="opening_hours" v="Mo-Su 11:00-23:00"/>
    <tag k="outdoor_seating" v="yes"/>
    <tag k="phone" v="+44 1304 832741"/>
    <tag k="smoking" v="outside"/>
    <tag k="website" v="http://thecrowneythorne.co.uk/"/>
  </way>
  <way id="734302125" version="1" timestamp="2019-10-14T01:22:50Z" changeset="75637953" uid="9389074" user="Germiyoshi">
    <nd ref="6876557594"/>
    <nd ref="6876557595"/>
    <nd ref="6876557596"/>
    <nd ref="6876557597"/>
    <nd ref="6876557594"/>
    <tag k="addr:city" v="Dover"/>
    <tag k="addr:postcode" v="CT15 4AY"/>
    <tag k="addr:street" v="Chapel Hill"/>
    <tag k="amenity" v="place_of_worship"/>
    <tag k="building" v="church"/>
    <tag k="denomination" v="baptist"/>
    <tag k="name" v="Eythorne Baptist Church"/>
    <tag k="religion" v="christian"/>
    <tag k="source" v="OS_OpenData_StreetView"/>
    <tag k="wikidata" v="Q5423045"/>
    <tag k="wikipedia" v="en:Eythorne Baptist Church"/>
  </way>
  <way id="734302126" version="3" timestamp="2023-11-04T17:39:53Z" changeset="143623910" uid="504708" user="HillWithSmallFields">
    <nd ref="6876557598"/>
    <nd ref="6876557599"/>
    <nd ref="11314951546"/>
    <nd ref="11314951545"/>
    <nd ref="6876557600"/>
    <nd ref="11314951551"/>
    <nd ref="11314951552"/>
    <nd ref="6876557601"/>
    <nd ref="11314951550"/>
    <nd ref="11314951548"/>
    <nd ref="11314951547"/>
    <nd ref="11314951549"/>
    <nd ref="6876557598"/>
    <tag k="addr:city" v="Dover"/>
    <tag k="addr:postcode" v="CT15 4AE"/>
    <tag k="addr:street" v="Church Hill"/>
    <tag k="amenity" v="place_of_worship"/>
    <tag k="building" v="church"/>
    <tag k="denomination" v="roman_catholic"/>
    <tag k="name" v="St. Peter &amp; St. Paul's Church"/>
    <tag k="ref:dove" v="12446"/>
    <tag k="religion" v="christian"/>
    <tag k="wikidata" v="Q17557737"/>
  </way>
  <way id="734640267" version="3" timestamp="2022-11-10T17:52:59Z" changeset="128744745" uid="10599253" user="DanGlover">
    <nd ref="6880039494"/>
    <nd ref="6880039495"/>
    <nd ref="6880039493"/>
    <nd ref="6880039496"/>
    <nd ref="10174078880"/>
    <nd ref="6880039497"/>
    <nd ref="6880039494"/>
    <tag k="addr:city" v="Dover"/>
    <tag k="addr:housenumber" v="2"/>
    <tag k="addr:postcode" v="CT15 4AA"/>
    <tag k="addr:street" v="Sandwich Road"/>
    <tag k="building" v="yes"/>
    <tag k="name" v="Eythorne Village Store"/>
    <tag k="shop" v="convenience"/>
  </way>
  <way id="761852944" version="2" timestamp="2020-05-22T09:25:05Z" changeset="85600593" uid="152289" user="cgu66">
    <nd ref="7118170464"/>
    <nd ref="7118170465"/>
    <nd ref="7118170466"/>
    <nd ref="7118170467"/>
    <nd ref="7118170464"/>
    <tag k="addr:city" v="Dover"/>
    <tag k="addr:housenumber" v="42"/>
    <tag k="addr:postcode" v="CT15 4EL"/>
    <tag k="addr:street" v="Milner Road"/>
    <tag k="amenity" v="place_of_worship"/>
    <tag k="building" v="yes"/>
    <tag k="denomination" v="pentecostal"/>
    <tag k="name" v="Pentecostal Church of Elvington"/>
    <tag k="religion" v="christian"/>
    <tag k="source" v="OS_OpenData_StreetView"/>
  </way>
  <way id="1309734888" version="3" timestamp="2024-09-21T01:32:29Z" changeset="156892738" uid="21226027" user="DorneyLake123">
    <nd ref="12127067735"/>
    <nd ref="12127067736"/>
    <nd ref="12127067737"/>
    <nd ref="12127067738"/>
    <nd ref="12127067739"/>
    <nd ref="12127067730"/>
    <nd ref="12127067703"/>
    <nd ref="12127067704"/>
    <nd ref="12127067705"/>
    <nd ref="12127067706"/>
    <nd ref="8026332661"/>
    <nd ref="1079018028"/>
    <nd ref="12127067679"/>
    <nd ref="12127067681"/>
    <nd ref="12127067682"/>
    <nd ref="12127067680"/>
    <nd ref="1079017960"/>
    <nd ref="12127067735"/>
    <tag k="addr:city" v="Dover"/>
    <tag k="addr:housenumber" v="45"/>
    <tag k="addr:postcode" v="CT15 4BF"/>
    <tag k="addr:street" v="Wigmore Lane"/>
    <tag k="amenity" v="school"/>
    <tag k="capacity" v="60"/>
    <tag k="fixme" v="check extent"/>
    <tag k="max_age" v="24"/>
    <tag k="min_age" v="16"/>
    <tag k="name" v="Woodpecker Court"/>
    <tag k="ref:edubase" v="147958"/>
  </way>

</osm>
