<?xml version="1.0" encoding="UTF-8"?>
<osm version="0.6" generator="Overpass API 0.7.62.5 1bd436f1">
<note>The data included in this document is from www.openstreetmap.org. The data is made available under ODbL.</note>
<meta osm_base="2025-03-05T18:20:00Z" areas="2024-12-31T00:49:33Z"/>

  <node id="520480420" lat="51.1525228" lon="1.2691875" version="2" timestamp="2017-12-06T19:31:12Z" changeset="54411554" uid="7037" user="Gregory Williams">
    <tag k="addr:city" v="Dover"/>
    <tag k="addr:housenumber" v="14"/>
    <tag k="addr:place" v="Temple Ewell"/>
    <tag k="addr:postcode" v="CT16 3DU"/>
    <tag k="addr:street" v="High Street"/>
    <tag k="amenity" v="pub"/>
    <tag k="fhrs:id" v="254364"/>
    <tag k="name" v="The Fox"/>
    <tag k="source:addr" v="FHRS Open Data"/>
  </node>
  <node id="524397812" lat="51.1528218" lon="1.2694609" version="3" timestamp="2018-10-25T09:42:18Z" changeset="63861214" uid="8998139" user="Temple Ewell Baptist Church">
    <tag k="addr:city" v="Dover"/>
    <tag k="addr:housenumber" v="123"/>
    <tag k="addr:place" v="Temple Ewell"/>
    <tag k="addr:postcode" v="CT16 3DU"/>
    <tag k="addr:street" v="High Street"/>
    <tag k="amenity" v="place_of_worship"/>
    <tag k="denomination" v="baptist"/>
    <tag k="fhrs:id" v="254584"/>
    <tag k="name" v="Baptist Church"/>
    <tag k="religion" v="christian"/>
    <tag k="source:addr" v="FHRS Open Data"/>
  </node>
  <node id="1962745443" lat="51.1487992" lon="1.2751010" version="4" timestamp="2023-02-13T11:20:41Z" changeset="132485063" uid="10599253" user="DanGlover">
    <tag k="addr:city" v="Dover"/>
    <tag k="addr:country" v="GB"/>
    <tag k="addr:county" v="Kent"/>
    <tag k="addr:housenumber" v="120"/>
    <tag k="addr:postcode" v="CT16 3AD"/>
    <tag k="addr:street" v="London Road"/>
    <tag k="addr:suburb" v="River"/>
    <tag k="disused:amenity" v="pub"/>
    <tag k="fhrs:id" v="867447"/>
    <tag k="name" v="The Railway Bell"/>
    <tag k="note" v="Redevelopment in progress 02/2023"/>
    <tag k="source:addr" v="FHRS Open Data"/>
  </node>
  <way id="148450503" version="7" timestamp="2024-09-29T16:15:42Z" changeset="157261972" uid="11471297" user="Palgrave Peter">
    <nd ref="1615516951"/>
    <nd ref="1615516950"/>
    <nd ref="1615516946"/>
    <nd ref="12209204567"/>
    <nd ref="1947825556"/>
    <nd ref="524397750"/>
    <nd ref="524397821"/>
    <nd ref="1947825558"/>
    <nd ref="1947825560"/>
    <nd ref="524397823"/>
    <nd ref="524397819"/>
    <nd ref="366636589"/>
    <nd ref="524397817"/>
    <nd ref="524397815"/>
    <nd ref="1615516952"/>
    <nd ref="12209204573"/>
    <nd ref="1615516954"/>
    <nd ref="524397766"/>
    <nd ref="1615516951"/>
    <tag k="addr:housenumber" v="3-4"/>
    <tag k="addr:postcode" v="CT16 3DT"/>
    <tag k="addr:street" v="Brookside"/>
    <tag k="amenity" v="school"/>
    <tag k="capacity" v="140"/>
    <tag k="denomination" v="anglican"/>
    <tag k="diocese" v="Diocese of Canterbury"/>
    <tag k="isced:level" v="1"/>
    <tag k="max_age" v="11"/>
    <tag k="min_age" v="4"/>
    <tag k="name" v="Temple Ewell CofE Primary School"/>
    <tag k="phone" v="+44 1304 822665"/>
    <tag k="ref:GB:uprn" v="100062289542"/>
    <tag k="ref:edubase" v="139436"/>
    <tag k="ref:edubase:group" v="2897"/>
    <tag k="religion" v="christian"/>
    <tag k="school:trust" v="yes"/>
    <tag k="school:trust:name" v="The Diocese of Canterbury Academies Trust"/>
    <tag k="school:trust:type" v="multi_academy"/>
    <tag k="school:type" v="academy"/>
    <tag k="website" v="https://www.temple-ewell.kent.sch.uk/"/>
    <tag k="wikidata" v="Q7698534"/>
  </way>
  <way id="184317164" version="1" timestamp="2012-10-05T17:08:18Z" changeset="13375571" uid="607399" user="ehm1806">
    <nd ref="1947810120"/>
    <nd ref="1947810127"/>
    <nd ref="1947810114"/>
    <nd ref="1947810124"/>
    <nd ref="1947810117"/>
    <nd ref="1947810118"/>
    <nd ref="1947810120"/>
    <tag k="addr:housenumber" v="4"/>
    <tag k="addr:postcode" v="CT16 3AH"/>
    <tag k="addr:street" v="Malvern Meadow"/>
    <tag k="building" v="yes"/>
  </way>
  <way id="996337435" version="3" timestamp="2023-10-12T13:07:29Z" changeset="142479317" uid="37791" user="Fradeve11">
    <nd ref="11076600104"/>
    <nd ref="11076600103"/>
    <nd ref="11076600102"/>
    <nd ref="11076600101"/>
    <nd ref="11076600100"/>
    <nd ref="11076600099"/>
    <nd ref="11076600098"/>
    <nd ref="11076600097"/>
    <nd ref="11076600096"/>
    <nd ref="11076600095"/>
    <nd ref="11076600094"/>
    <nd ref="9200216867"/>
    <nd ref="9200216967"/>
    <nd ref="9200216923"/>
    <nd ref="9200196896"/>
    <nd ref="11076600093"/>
    <nd ref="11076600092"/>
    <nd ref="11076600091"/>
    <nd ref="9200216927"/>
    <nd ref="11076600090"/>
    <nd ref="11076600089"/>
    <nd ref="9200216936"/>
    <nd ref="9200216839"/>
    <nd ref="11076600088"/>
    <nd ref="11076600087"/>
    <nd ref="11076600086"/>
    <nd ref="11076600085"/>
    <nd ref="11076600084"/>
    <nd ref="11076600083"/>
    <nd ref="11076600082"/>
    <nd ref="11076600081"/>
    <nd ref="11076600080"/>
    <nd ref="11076600079"/>
    <nd ref="11076600078"/>
    <nd ref="9200216943"/>
    <nd ref="11076600077"/>
    <nd ref="9200216966"/>
    <nd ref="11076600104"/>
    <tag k="addr:city" v="Dover"/>
    <tag k="addr:postcode" v="CT16 3EQ"/>
    <tag k="addr:street" v="Alkham Road"/>
    <tag k="amenity" v="school"/>
    <tag k="capacity" v="80"/>
    <tag k="contact:phone" v="+44 1304 212510"/>
    <tag k="contact:website" v="https://www.channelsandchoices.co.uk/"/>
    <tag k="isced:level" v="1-2"/>
    <tag k="max_age" v="17"/>
    <tag k="min_age" v="8"/>
    <tag k="name" v="The Sallygate School"/>
    <tag k="ref:GB:uprn" v="10034884642"/>
    <tag k="ref:edubase" v="137795"/>
    <tag k="school:trust" v="no"/>
    <tag k="school:type" v="special"/>
    <tag k="wikidata" v="Q66229399"/>
  </way>

</osm>
