<?xml version="1.0" encoding="UTF-8"?>
<osm version="0.6" generator="Overpass API 0.7.62.5 1bd436f1">
<note>The data included in this document is from www.openstreetmap.org. The data is made available under ODbL.</note>
<meta osm_base="2025-03-05T18:17:59Z" areas="2024-12-31T00:49:33Z"/>

  <node id="318447230" lat="51.1896657" lon="1.2305190" version="14" timestamp="2024-09-01T00:49:29Z" changeset="156036025" uid="13341565" user="Falsernet">
    <tag k="addr:city" v="Shepherdswell"/>
    <tag k="addr:street" v="Station Road"/>
    <tag k="name" v="Shepherdswell (EKR)"/>
    <tag k="naptan:AtcoCode" v="940GZZEKSPW"/>
    <tag k="network" v="East Kent Railway"/>
    <tag k="operator" v="East Kent Railway"/>
    <tag k="public_transport" v="station"/>
    <tag k="railway" v="station"/>
    <tag k="source" v="npe"/>
    <tag k="tourism" v="attraction"/>
    <tag k="usage" v="tourism"/>
    <tag k="wikidata" v="Q7494517"/>
    <tag k="wikipedia" v="en:Shepherdswell railway station (EKLR)"/>
  </node>
  <node id="6744055523" lat="51.1880383" lon="1.2297861" version="10" timestamp="2024-09-01T00:49:29Z" changeset="156036025" uid="13341565" user="Falsernet">
    <tag k="addr:city" v="Shepherdswell"/>
    <tag k="addr:street" v="Station Road"/>
    <tag k="name" v="Shepherdswell"/>
    <tag k="naptan:AtcoCode" v="9100SWELL"/>
    <tag k="network" v="National Rail"/>
    <tag k="network:website" v="https://www.nationalrail.co.uk/stations/sph/"/>
    <tag k="network:wikidata" v="Q26334"/>
    <tag k="note" v="Although noted on timetables as Shepherds Well, the signs at the station actually say Shepherdswell."/>
    <tag k="official_name" v="Shepherds Well"/>
    <tag k="operator" v="Southeastern"/>
    <tag k="operator:website" v="https://www.southeasternrailway.co.uk/travel-information/more-travel-help/station-information/stations/shepherds-well"/>
    <tag k="operator:wikidata" v="Q108888230"/>
    <tag k="public_transport" v="station"/>
    <tag k="railway" v="station"/>
    <tag k="ref:crs" v="SPH"/>
    <tag k="source" v="NPE"/>
    <tag k="train" v="yes"/>
    <tag k="wikidata" v="Q2953875"/>
    <tag k="wikipedia" v="en:Shepherds Well railway station"/>
  </node>
  <node id="7160182846" lat="51.1857486" lon="1.2293292" version="3" timestamp="2023-10-23T16:19:23Z" changeset="143025779" uid="6816132" user="CjMalone">
    <tag k="addr:city" v="Shepherdswell"/>
    <tag k="addr:housename" v="Shepherdswell Village Hall"/>
    <tag k="addr:postcode" v="CT15 7NN"/>
    <tag k="addr:street" v="Coxhill Road"/>
    <tag k="amenity" v="post_office"/>
    <tag k="brand" v="Post Office"/>
    <tag k="brand:wikidata" v="Q1783168"/>
    <tag k="name" v="Shepherdswell Post Office"/>
    <tag k="opening_hours" v="Mo,Fr 12:30-14:30"/>
    <tag k="ref:pol_id" v="144026"/>
    <tag k="website" v="https://www.postoffice.co.uk/branch-finder/5004713/shepherdswell"/>
  </node>
  <node id="11779114992" lat="51.1712928" lon="1.2684142" version="1" timestamp="2024-04-01T22:35:26Z" changeset="149455475" uid="20252098" user="DoubleCart">
    <tag k="addr:city" v="Dover"/>
    <tag k="addr:postcode" v="CT15 5AF"/>
    <tag k="addr:street" v="Singledge Lane"/>
    <tag k="contact:facebook" v="https://www.facebook.com/Dover-Clay-Pigeon-Club-756738001137034/timeline"/>
    <tag k="description" v="Dover Clay Pigeon (not for profit) Club, established in 1972 and CPSA affiliated welcomes members and non members to participate in the sport of clay pigeon shooting."/>
    <tag k="fee" v="yes"/>
    <tag k="leisure" v="sports_centre"/>
    <tag k="mobile" v="07932011287"/>
    <tag k="name" v="Dover Clay Pigeon Club"/>
    <tag k="sport" v="shooting"/>
    <tag k="website" v="https://doverclaypigeon.club/"/>
  </node>
  <way id="389253011" version="7" timestamp="2024-07-25T10:45:02Z" changeset="154387336" uid="11471297" user="Palgrave Peter">
    <nd ref="857024739"/>
    <nd ref="857024761"/>
    <nd ref="3924076955"/>
    <nd ref="3924076954"/>
    <nd ref="857024659"/>
    <nd ref="857024607"/>
    <nd ref="857024739"/>
    <tag k="addr:city" v="Shepherdswell"/>
    <tag k="addr:postcode" v="CT15 7LF"/>
    <tag k="addr:street" v="Coldred Road"/>
    <tag k="alt_name" v="Sibertswold Primary School"/>
    <tag k="amenity" v="school"/>
    <tag k="capacity" v="210"/>
    <tag k="contact:phone" v="+44 1304 830312"/>
    <tag k="contact:website" v="https://www.sibertswold.kent.sch.uk/"/>
    <tag k="denomination" v="anglican"/>
    <tag k="diocese" v="Diocese of Canterbury"/>
    <tag k="isced:level" v="1"/>
    <tag k="max_age" v="11"/>
    <tag k="min_age" v="4"/>
    <tag k="name" v="Sibertswold Church of England Primary School at Shepherdswell"/>
    <tag k="ref:GB:uprn" v="100062060734"/>
    <tag k="ref:edubase" v="118691"/>
    <tag k="ref:edubase:group" v="1857"/>
    <tag k="religion" v="christian"/>
    <tag k="school:boarding" v="no"/>
    <tag k="school:federation:name" v="The Federation of Sibertswold Church of England and Eythorne Elvington"/>
    <tag k="school:gender" v="mixed"/>
    <tag k="school:selective" v="no"/>
    <tag k="school:trust" v="no"/>
    <tag k="school:type" v="voluntary_controlled"/>
    <tag k="wikidata" v="Q66226484"/>
  </way>
  <way id="491460803" version="5" timestamp="2024-07-15T22:33:09Z" changeset="153991674" uid="21425661" user="CjMalone">
    <nd ref="4835605000"/>
    <nd ref="4835605008"/>
    <nd ref="4835605001"/>
    <nd ref="4835605002"/>
    <nd ref="4835605003"/>
    <nd ref="4835605000"/>
    <tag k="addr:city" v="Shepherdswell"/>
    <tag k="addr:housenumber" v="1"/>
    <tag k="addr:postcode" v="CT15 7NU"/>
    <tag k="addr:street" v="Eythorne Road"/>
    <tag k="brand" v="Co-op Food"/>
    <tag k="brand:wikidata" v="Q3277439"/>
    <tag k="building" v="retail"/>
    <tag k="check_date" v="2024-07-15"/>
    <tag k="fhrs:id" v="444773"/>
    <tag k="name" v="Co-op Food"/>
    <tag k="opening_hours" v="Mo-Sa 06:00-22:00;Su 07:00-22:00"/>
    <tag k="operator" v="The Co-operative Group"/>
    <tag k="operator:wikidata" v="Q117202"/>
    <tag k="shop" v="supermarket"/>
    <tag k="source:addr" v="FHRS Open Data"/>
    <tag k="website" v="https://www.coop.co.uk/store-finder/CT15-7NU/1-eyethorne-road"/>
  </way>
  <way id="766640404" version="1" timestamp="2020-01-26T10:55:58Z" changeset="80094226" uid="10599253" user="DanGlover">
    <nd ref="7160182840"/>
    <nd ref="7160182841"/>
    <nd ref="7160182842"/>
    <nd ref="7160182843"/>
    <nd ref="7160182844"/>
    <nd ref="7160182845"/>
    <nd ref="7160182840"/>
    <tag k="addr:city" v="Shepherdswell"/>
    <tag k="addr:postcode" v="CT15 7NN"/>
    <tag k="addr:street" v="Coxhill Road"/>
    <tag k="amenity" v="community_centre"/>
    <tag k="building" v="yes"/>
    <tag k="name" v="Shepherdswell Village Hall"/>
  </way>
  <way id="824530109" version="1" timestamp="2020-07-09T10:55:09Z" changeset="87760998" uid="11440845" user="azazeal88">
    <nd ref="7699119828"/>
    <nd ref="7699119829"/>
    <nd ref="7699119830"/>
    <nd ref="7699119831"/>
    <nd ref="7699119828"/>
    <tag k="addr:city" v="Dover"/>
    <tag k="addr:housenumber" v="16"/>
    <tag k="addr:postcode" v="CT15 7LS"/>
    <tag k="addr:street" v="Hazling Dane"/>
    <tag k="building" v="yes"/>
  </way>

</osm>
