<?xml version="1.0" encoding="UTF-8"?>
<osm version="0.6" generator="Overpass API 0.7.62.5 1bd436f1">
<note>The data included in this document is from www.openstreetmap.org. The data is made available under ODbL.</note>
<meta osm_base="2025-03-05T18:17:59Z" areas="2024-12-31T00:49:33Z"/>

  <node id="331101344" lat="51.2341950" lon="1.2075033" version="2" timestamp="2021-04-09T21:39:44Z" changeset="102671859" uid="608760" user="gregrs">
    <tag k="addr:county" v="Kent"/>
    <tag k="addr:housename" v="Throwley House"/>
    <tag k="addr:postcode" v="CT3 3HL"/>
    <tag k="addr:street" v="Ratling Road"/>
    <tag k="addr:village" v="Aylesham"/>
    <tag k="amenity" v="social_club"/>
    <tag k="fhrs:id" v="254494"/>
    <tag k="name" v="Aylesham and District Social Club"/>
    <tag k="source" v="visual_estimate"/>
    <tag k="source:addr" v="FHRS Open Data"/>
  </node>
  <node id="769830521" lat="51.2253461" lon="1.2086673" version="2" timestamp="2023-09-15T00:46:00Z" changeset="141280502" uid="20252098" user="DoubleCart">
    <tag k="addr:city" v="Aylesham"/>
    <tag k="addr:postcode" v="CT3 3AJ"/>
    <tag k="addr:street" v="Ackholt Road"/>
    <tag k="amenity" v="library"/>
    <tag k="internet_access" v="yes"/>
    <tag k="internet_access:fee" v="no"/>
    <tag k="name" v="Aylesham Library"/>
    <tag k="source" v="OS_OpenData_StreetView"/>
  </node>
  <node id="1976668303" lat="51.2251920" lon="1.2024071" version="5" timestamp="2023-09-15T00:46:00Z" changeset="141280502" uid="20252098" user="DoubleCart">
    <tag k="addr:city" v="Aylesham"/>
    <tag k="addr:county" v="Kent"/>
    <tag k="addr:housenumber" v="4-5"/>
    <tag k="addr:postcode" v="CT3 3EY"/>
    <tag k="addr:street" v="Market Place"/>
    <tag k="brand" v="Premier"/>
    <tag k="brand:wikidata" v="Q7240340"/>
    <tag k="fhrs:id" v="574021"/>
    <tag k="name" v="Premier"/>
    <tag k="operator" v="Premier"/>
    <tag k="phone" v="+441304840249"/>
    <tag k="shop" v="convenience"/>
    <tag k="source:addr" v="FHRS Open Data"/>
  </node>
  <node id="9680780828" lat="51.2252274" lon="1.2025248" version="4" timestamp="2025-02-15T21:14:23Z" changeset="162551287" uid="608760" user="gregrs">
    <tag k="addr:county" v="Kent"/>
    <tag k="addr:housenumber" v="1"/>
    <tag k="addr:postcode" v="CT3 3EY"/>
    <tag k="addr:street" v="Market Place"/>
    <tag k="addr:village" v="Aylesham"/>
    <tag k="amenity" v="fast_food"/>
    <tag k="cuisine" v="chinese"/>
    <tag k="drive_through" v="no"/>
    <tag k="fhrs:id" v="254248"/>
    <tag k="name" v="Lucky Star Chinese Take Away"/>
    <tag k="opening_hours" v="Mo-Su 17:00-22:30"/>
    <tag k="phone" v="+441304840287"/>
    <tag k="website" v="https://luckystaraylesham.co.uk/"/>
  </node>
  <node id="11191880952" lat="51.2289507" lon="1.2037732" version="2" timestamp="2025-02-15T21:14:23Z" changeset="162551287" uid="608760" user="gregrs">
    <tag k="addr:county" v="Kent"/>
    <tag k="addr:housenumber" v="69"/>
    <tag k="addr:postcode" v="CT3 3HG"/>
    <tag k="addr:street" v="Cornwallis Avenue"/>
    <tag k="addr:village" v="Aylesham"/>
    <tag k="amenity" v="fast_food"/>
    <tag k="cuisine" v="fish_and_chips"/>
    <tag k="drive_through" v="no"/>
    <tag k="fhrs:id" v="430029"/>
    <tag k="name" v="Cornwallish Fish Bar"/>
    <tag k="opening_hours" v="Tu-Sa 11:30-20:30"/>
    <tag k="phone" v="441304840374"/>
  </node>
  <node id="11191880953" lat="51.2288496" lon="1.2036573" version="3" timestamp="2025-02-15T21:14:23Z" changeset="162551287" uid="608760" user="gregrs">
    <tag k="addr:county" v="Kent"/>
    <tag k="addr:housenumber" v="65"/>
    <tag k="addr:postcode" v="CT3 3HG"/>
    <tag k="addr:street" v="Cornwallis Avenue"/>
    <tag k="addr:village" v="Aylesham"/>
    <tag k="amenity" v="fast_food"/>
    <tag k="cuisine" v="fried_chicken"/>
    <tag k="drive_through" v="no"/>
    <tag k="fhrs:id" v="1290201"/>
    <tag k="name" v="Aylesham Fried Chicken"/>
    <tag k="opening_hours" v="Mo-Su 15:30-22:30"/>
    <tag k="phone" v="441304796989"/>
    <tag k="website" v="https://ayleshamfriedchicken.co.uk/"/>
  </node>
  <node id="11191880954" lat="51.2287368" lon="1.2039816" version="2" timestamp="2025-02-15T21:14:23Z" changeset="162551287" uid="608760" user="gregrs">
    <tag k="addr:county" v="Kent"/>
    <tag k="addr:housenumber" v="64-66"/>
    <tag k="addr:postcode" v="CT3 3HQ"/>
    <tag k="addr:street" v="Cornwallis Avenue"/>
    <tag k="addr:village" v="Aylesham"/>
    <tag k="brand" v="Londis"/>
    <tag k="brand:wikidata" v="Q21008564"/>
    <tag k="fhrs:id" v="942263"/>
    <tag k="name" v="Londis"/>
    <tag k="opening_hours" v="Mo-Su 06:00-22:30"/>
    <tag k="phone" v="+441304721326"/>
    <tag k="shop" v="convenience"/>
  </node>
  <node id="11191880994" lat="51.2229344" lon="1.2014719" version="2" timestamp="2023-09-16T14:43:47Z" changeset="141346117" uid="2969887" user="eastender">
    <tag k="addr:city" v="Aylesham"/>
    <tag k="addr:housename" v="Welfare Ground"/>
    <tag k="addr:postcode" v="CT3 3BH"/>
    <tag k="addr:street" v="Spinney Lane"/>
    <tag k="leisure" v="pitch"/>
    <tag k="name" v="Aylesham and Snowdown Bowls Club"/>
    <tag k="sport" v="bowls"/>
  </node>
  <node id="11194386605" lat="51.2253605" lon="1.2030412" version="2" timestamp="2024-04-21T08:28:40Z" changeset="150291514" uid="6816132" user="CjMalone">
    <tag k="addr:city" v="Aylesham"/>
    <tag k="addr:postcode" v="CT3 3BB"/>
    <tag k="addr:street" v="Queens Road"/>
    <tag k="brand" v="Boots"/>
    <tag k="brand:wikidata" v="Q6123139"/>
    <tag k="name" v="Boots"/>
    <tag k="opening_hours" v="Mo-Fr 08:30-18:00; Sa 09:00-13:00"/>
    <tag k="operator" v="Boots"/>
    <tag k="phone" v="+441304840435"/>
    <tag k="shop" v="chemist"/>
    <tag k="website" v="https://www.boots.com/stores/5629-cantrbry-aylesham-ct3-3bb"/>
  </node>
  <node id="11787343503" lat="51.2258377" lon="1.2014592" version="1" timestamp="2024-04-04T17:16:34Z" changeset="149580149" uid="20252098" user="DoubleCart">
    <tag k="addr:city" v="Aylesham"/>
    <tag k="addr:postcode" v="CT3 3DZ"/>
    <tag k="addr:street" v="Market Place"/>
    <tag k="amenity" v="post_depot"/>
    <tag k="name" v="Evri ParcelShop"/>
    <tag k="operator" v="Evri"/>
    <tag k="operator:wikidata" v="Q115200168"/>
  </node>
  <node id="11787343504" lat="51.2287099" lon="1.2039662" version="1" timestamp="2024-04-04T17:16:34Z" changeset="149580149" uid="20252098" user="DoubleCart">
    <tag k="addr:street" v="Cornwallis Avenue"/>
    <tag k="amenity" v="post_depot"/>
    <tag k="name" v="Evri ParcelShop"/>
    <tag k="operator" v="Evri"/>
    <tag k="operator:wikidata" v="Q115200168"/>
  </node>
  <node id="12183633413" lat="51.2249619" lon="1.2022516" version="2" timestamp="2025-02-15T21:14:23Z" changeset="162551287" uid="608760" user="gregrs">
    <tag k="addr:county" v="Kent"/>
    <tag k="addr:housenumber" v="10"/>
    <tag k="addr:postcode" v="CT3 3EY"/>
    <tag k="addr:street" v="Market Place"/>
    <tag k="addr:village" v="Aylesham"/>
    <tag k="amenity" v="restaurant"/>
    <tag k="cuisine" v="indian"/>
    <tag k="fhrs:id" v="1290233"/>
    <tag k="name" v="Naj"/>
    <tag k="source:addr" v="FHRS Open Data"/>
  </node>
  <way id="149120528" version="8" timestamp="2024-07-17T10:16:06Z" changeset="154051168" uid="11471297" user="Palgrave Peter">
    <nd ref="12058937940"/>
    <nd ref="12058937939"/>
    <nd ref="12058937938"/>
    <nd ref="12058937937"/>
    <nd ref="12058937936"/>
    <nd ref="6837918354"/>
    <nd ref="1621447973"/>
    <nd ref="12058937949"/>
    <nd ref="1621447966"/>
    <nd ref="12058937942"/>
    <nd ref="12058937941"/>
    <nd ref="1621447947"/>
    <nd ref="1621447944"/>
    <nd ref="1621447958"/>
    <nd ref="1621447951"/>
    <nd ref="1621447941"/>
    <nd ref="1621447938"/>
    <nd ref="1621447934"/>
    <nd ref="1621447927"/>
    <nd ref="1621447922"/>
    <nd ref="1621447891"/>
    <nd ref="12058937940"/>
    <tag k="addr:city" v="Aylesham"/>
    <tag k="addr:country" v="GB"/>
    <tag k="addr:postcode" v="CT3 3BS"/>
    <tag k="addr:street" v="Attlee Avenue"/>
    <tag k="amenity" v="school"/>
    <tag k="capacity" v="420"/>
    <tag k="contact:phone" v="+44 1304 840392"/>
    <tag k="contact:website" v="https://www.aylesham.kent.sch.uk/"/>
    <tag k="fhrs:id" v="920545"/>
    <tag k="isced:level" v="1"/>
    <tag k="max_age" v="11"/>
    <tag k="min_age" v="4"/>
    <tag k="name" v="Aylesham Primary School"/>
    <tag k="ref:GB:uprn" v="10034883661"/>
    <tag k="ref:edubase" v="118563"/>
    <tag k="religion" v="none"/>
    <tag k="school:boarding" v="no"/>
    <tag k="school:gender" v="mixed"/>
    <tag k="school:selective" v="no"/>
    <tag k="school:trust" v="no"/>
    <tag k="school:type" v="community"/>
    <tag k="source" v="Bing"/>
    <tag k="source:addr" v="FHRS Open Data"/>
    <tag k="wikidata" v="Q66226340"/>
  </way>
  <way id="161691276" version="8" timestamp="2025-02-15T21:14:23Z" changeset="162551287" uid="608760" user="gregrs">
    <nd ref="1736533058"/>
    <nd ref="1736533065"/>
    <nd ref="1736533015"/>
    <nd ref="1736533013"/>
    <nd ref="1736533011"/>
    <nd ref="12058957179"/>
    <nd ref="12058957178"/>
    <nd ref="12058957180"/>
    <nd ref="661017581"/>
    <nd ref="1736533020"/>
    <nd ref="1736533022"/>
    <nd ref="1736533036"/>
    <nd ref="1736533058"/>
    <tag k="addr:city" v="Aylesham"/>
    <tag k="addr:county" v="Kent"/>
    <tag k="addr:postcode" v="CT3 3AS"/>
    <tag k="addr:street" v="Ackholt Road"/>
    <tag k="addr:village" v="Aylesham"/>
    <tag k="amenity" v="school"/>
    <tag k="capacity" v="133"/>
    <tag k="denomination" v="roman_catholic"/>
    <tag k="diocese" v="Archdiocese of Southwark"/>
    <tag k="fhrs:id" v="1604582"/>
    <tag k="isced:level" v="1"/>
    <tag k="max_age" v="11"/>
    <tag k="min_age" v="4"/>
    <tag k="name" v="St Joseph's Catholic Primary School"/>
    <tag k="phone" v="+44 1304 840370"/>
    <tag k="ref:GB:uprn" v="10034883661"/>
    <tag k="ref:edubase" v="140520"/>
    <tag k="ref:edubase:group" v="3594"/>
    <tag k="religion" v="christian"/>
    <tag k="school:trust" v="yes"/>
    <tag k="school:trust:name" v="Kent Catholic Schools' Partnership"/>
    <tag k="school:trust:type" v="multi_academy"/>
    <tag k="school:type" v="academy"/>
    <tag k="source" v="OS_OpenData_StreetView"/>
    <tag k="source:addr" v="FHRS Open Data"/>
    <tag k="website" v="http://www.stjosephs-aylesham.co.uk/"/>
    <tag k="wikidata" v="Q66230439"/>
  </way>
  <way id="186917655" version="6" timestamp="2024-07-15T22:33:09Z" changeset="153991674" uid="21425661" user="CjMalone">
    <nd ref="1976668289"/>
    <nd ref="1976668302"/>
    <nd ref="1976668316"/>
    <nd ref="1976668291"/>
    <nd ref="1976668286"/>
    <nd ref="1976668298"/>
    <nd ref="1976668299"/>
    <nd ref="1976668282"/>
    <nd ref="1976668297"/>
    <nd ref="1976668317"/>
    <nd ref="1976668289"/>
    <tag k="addr:city" v="Aylesham"/>
    <tag k="addr:postcode" v="CT3 3DY"/>
    <tag k="addr:street" v="Market Place"/>
    <tag k="brand" v="Co-op Food"/>
    <tag k="brand:wikidata" v="Q3277439"/>
    <tag k="building" v="yes"/>
    <tag k="check_date" v="2024-07-15"/>
    <tag k="check_date:opening_hours" v="2024-07-15"/>
    <tag k="fhrs:id" v="619441"/>
    <tag k="name" v="Co-op Food"/>
    <tag k="opening_hours" v="Mo-Sa 06:00-22:00; Su 10:00-16:00"/>
    <tag k="operator" v="The Co-operative Group"/>
    <tag k="operator:wikidata" v="Q117202"/>
    <tag k="shop" v="supermarket"/>
    <tag k="source:addr" v="FHRS Open Data"/>
    <tag k="website" v="https://www.coop.co.uk/store-finder/CT3-3DY/market-place"/>
  </way>
  <way id="254949295" version="2" timestamp="2024-01-08T13:49:16Z" changeset="146029809" uid="84263" user="Robert Whittaker">
    <nd ref="2607219213"/>
    <nd ref="2607219212"/>
    <nd ref="2607219210"/>
    <nd ref="2607219211"/>
    <nd ref="2607219209"/>
    <nd ref="2607219208"/>
    <nd ref="2607219201"/>
    <nd ref="2607219203"/>
    <nd ref="2607219202"/>
    <nd ref="2607219200"/>
    <nd ref="2607219197"/>
    <nd ref="2607219198"/>
    <nd ref="2607219199"/>
    <nd ref="2607219205"/>
    <nd ref="2607219204"/>
    <nd ref="2607219206"/>
    <nd ref="2607219207"/>
    <nd ref="2607219216"/>
    <nd ref="2607219214"/>
    <nd ref="2607219218"/>
    <nd ref="2607219219"/>
    <nd ref="2607219221"/>
    <nd ref="2607219220"/>
    <nd ref="2607219215"/>
    <nd ref="2607219217"/>
    <nd ref="2607219213"/>
    <tag k="addr:city" v="Canterbury"/>
    <tag k="addr:postcode" v="CT3 3AJ"/>
    <tag k="addr:street" v="Ackholt Road"/>
    <tag k="addr:village" v="Aylesham"/>
    <tag k="amenity" v="community_centre"/>
    <tag k="building" v="yes"/>
    <tag k="name" v="Aylesham Community Centre"/>
    <tag k="operator" v="Aylesham Community Trust"/>
    <tag k="website" v="http://www.awt.org.uk/"/>
  </way>
  <way id="452156613" version="1" timestamp="2016-11-09T00:10:25Z" changeset="43501278" uid="7660" user="DonaldT">
    <nd ref="4489594227"/>
    <nd ref="4489594230"/>
    <nd ref="4489594231"/>
    <nd ref="4489594229"/>
    <nd ref="4489594227"/>
    <tag k="addr:housenumber" v="Unit 4"/>
    <tag k="addr:postcode" v="CT3 3EQ"/>
    <tag k="addr:street" v="Covert Road"/>
    <tag k="building" v="commercial"/>
    <tag k="name" v="Salvatori and Son"/>
  </way>
  <way id="452156614" version="1" timestamp="2016-11-09T00:10:25Z" changeset="43501278" uid="7660" user="DonaldT">
    <nd ref="4489594215"/>
    <nd ref="4489594218"/>
    <nd ref="4489594222"/>
    <nd ref="4489594221"/>
    <nd ref="4489594223"/>
    <nd ref="4489594224"/>
    <nd ref="4489594226"/>
    <nd ref="4489594219"/>
    <nd ref="4489594217"/>
    <nd ref="4489594214"/>
    <nd ref="4489594212"/>
    <nd ref="4489594211"/>
    <nd ref="4489594213"/>
    <nd ref="4489594215"/>
    <tag k="addr:postcode" v="CT3 3EF"/>
    <tag k="addr:street" v="Covert Road"/>
    <tag k="building" v="commercial"/>
    <tag k="name" v="Sharpak Aylesham Ltd"/>
  </way>
  <way id="452156955" version="4" timestamp="2023-10-22T09:07:53Z" changeset="142958420" uid="6816132" user="CjMalone">
    <nd ref="4489578925"/>
    <nd ref="4489578926"/>
    <nd ref="4489578924"/>
    <nd ref="4489578923"/>
    <nd ref="4489578925"/>
    <tag k="addr:city" v="Aylesham"/>
    <tag k="addr:postcode" v="CT3 3DZ"/>
    <tag k="addr:street" v="Market Place"/>
    <tag k="amenity" v="post_office"/>
    <tag k="brand" v="Post Office"/>
    <tag k="brand:wikidata" v="Q1783168"/>
    <tag k="building" v="public"/>
    <tag k="fhrs:id" v="429937"/>
    <tag k="name" v="Aylesham Post Office"/>
    <tag k="ref:pol_id" v="131"/>
    <tag k="source:addr" v="FHRS Open Data"/>
    <tag k="website" v="https://www.postoffice.co.uk/branch-finder/0539090/aylesham"/>
  </way>
  <way id="902493128" version="4" timestamp="2024-11-15T19:42:14Z" changeset="159184797" uid="20895406" user="HB16">
    <nd ref="8382390769"/>
    <nd ref="8382390766"/>
    <nd ref="12344596967"/>
    <nd ref="11363674566"/>
    <nd ref="8382390767"/>
    <nd ref="8040927457"/>
    <nd ref="8382390768"/>
    <nd ref="8382390769"/>
    <tag k="addr:street" v="Bell Grove"/>
    <tag k="building" v="yes"/>
    <tag k="name" v="Ticket Office"/>
    <tag k="operator" v="National Rail"/>
    <tag k="shop" v="ticket"/>
  </way>
  <way id="1207905148" version="3" timestamp="2023-11-01T18:09:50Z" changeset="143489395" uid="9451067" user="b-jazz-bot">
    <nd ref="11191880995"/>
    <nd ref="11191880996"/>
    <nd ref="11191880997"/>
    <nd ref="11191880998"/>
    <nd ref="11191880999"/>
    <nd ref="11191881000"/>
    <nd ref="11191880995"/>
    <tag k="addr:city" v="Aylesham"/>
    <tag k="addr:postcode" v="CT3 3BE"/>
    <tag k="addr:street" v="Spinney Lane"/>
    <tag k="building" v="yes"/>
    <tag k="leisure" v="fitness_centre"/>
    <tag k="name" v="Aylesham Welfare Leisure Centre"/>
    <tag k="opening_hours" v="Mo-Su 07:00-22:00"/>
    <tag k="phone" v="+441304840661"/>
    <tag k="website" v="https://www.ayleshamwlc.org/"/>
  </way>
  <way id="1207905170" version="1" timestamp="2023-09-15T00:46:00Z" changeset="141280502" uid="20252098" user="DoubleCart">
    <nd ref="11191884212"/>
    <nd ref="11191884213"/>
    <nd ref="11191884214"/>
    <nd ref="11191884215"/>
    <nd ref="11191884212"/>
    <tag k="addr:city" v="Aylesham"/>
    <tag k="addr:postcode" v="CT3 3EQ"/>
    <tag k="addr:street" v="Covert Road"/>
    <tag k="building" v="commercial"/>
    <tag k="name" v="Woods commercial Services"/>
    <tag k="phone" v="+441304841920"/>
  </way>
  <way id="1207905171" version="1" timestamp="2023-09-15T00:46:00Z" changeset="141280502" uid="20252098" user="DoubleCart">
    <nd ref="11191884216"/>
    <nd ref="11191884217"/>
    <nd ref="11191884218"/>
    <nd ref="11191884219"/>
    <nd ref="11191884216"/>
    <tag k="addr:city" v="Aylesham"/>
    <tag k="addr:postcode" v="CT3 3EP"/>
    <tag k="addr:street" v="Covert Road"/>
    <tag k="building" v="commercial"/>
    <tag k="name" v="YMS Travel"/>
  </way>
  <way id="1208114347" version="1" timestamp="2023-09-15T18:10:19Z" changeset="141314581" uid="20252098" user="DoubleCart">
    <nd ref="11194386606"/>
    <nd ref="11194386607"/>
    <nd ref="11194386608"/>
    <nd ref="11194386609"/>
    <nd ref="11194386606"/>
    <tag k="addr:city" v="Aylesham"/>
    <tag k="addr:housename" v="Central Rescue Station"/>
    <tag k="addr:postcode" v="CT3 3AE"/>
    <tag k="addr:street" v="Dorman Avenue South"/>
    <tag k="building" v="fire_station"/>
    <tag k="name" v="Fire Security Services"/>
  </way>
  <way id="1290048362" version="1" timestamp="2024-06-06T15:51:35Z" changeset="152338911" uid="21627899" user="skciws">
    <nd ref="11961107581"/>
    <nd ref="11961107582"/>
    <nd ref="11961107583"/>
    <nd ref="11961107584"/>
    <nd ref="11961107585"/>
    <nd ref="11961107586"/>
    <nd ref="11961107587"/>
    <nd ref="11961107588"/>
    <nd ref="11961107581"/>
    <tag k="addr:city" v="Aylesham"/>
    <tag k="addr:housename" v="Unit 4, CT3 Business Park"/>
    <tag k="addr:postcode" v="CT3 3EP"/>
    <tag k="addr:street" v="Cooting Road"/>
    <tag k="building" v="commercial"/>
    <tag k="name" v="Skelton Plant Hire"/>
  </way>

</osm>
