<?xml version="1.0" encoding="UTF-8"?>
<osm version="0.6" generator="Overpass API 0.7.62.5 1bd436f1">
<note>The data included in this document is from www.openstreetmap.org. The data is made available under ODbL.</note>
<meta osm_base="2025-03-05T18:21:01Z" areas="2024-12-31T00:49:33Z"/>

  <node id="361513679" lat="51.1301147" lon="1.3047310" version="4" timestamp="2022-01-08T17:06:03Z" changeset="115917402" uid="242345" user="confusedbuffalo">
    <tag k="addr:city" v="Dover"/>
    <tag k="addr:country" v="GB"/>
    <tag k="addr:county" v="Kent"/>
    <tag k="addr:housenumber" v="12"/>
    <tag k="addr:postcode" v="CT17 0BJ"/>
    <tag k="addr:street" v="Tower Hamlets Road"/>
    <tag k="amenity" v="fast_food"/>
    <tag k="cuisine" v="kebab"/>
    <tag k="fhrs:id" v="1301669"/>
    <tag k="name" v="Tower Kebab"/>
    <tag k="source:addr" v="FHRS Open Data"/>
  </node>
  <node id="696029534" lat="51.1274937" lon="1.3091807" version="5" timestamp="2023-10-26T21:36:44Z" changeset="143181770" uid="6816132" user="CjMalone">
    <tag k="addr:city" v="Dover"/>
    <tag k="addr:country" v="GB"/>
    <tag k="addr:county" v="Kent"/>
    <tag k="addr:housenumber" v="83"/>
    <tag k="addr:postcode" v="CT16 1BB"/>
    <tag k="addr:street" v="Biggin Street"/>
    <tag k="amenity" v="pub"/>
    <tag k="name" v="The Prince Albert"/>
    <tag k="operator" v="Stonegate"/>
    <tag k="operator:wikidata" v="Q7619176"/>
    <tag k="website" v="https://www.craftunionpubs.com/prince-albert-dover"/>
  </node>
  <node id="697917550" lat="51.1339165" lon="1.3093245" version="3" timestamp="2023-10-30T20:19:04Z" changeset="143385314" uid="9451067" user="b-jazz-bot">
    <tag k="addr:city" v="Dover"/>
    <tag k="addr:housename" v="Belper House"/>
    <tag k="addr:housenumber" v="47"/>
    <tag k="addr:postcode" v="CT16 1HE"/>
    <tag k="addr:street" v="Park Avenue"/>
    <tag k="description" v="AA Three Gold Star Award Highly Commended Biker friendly. No pets."/>
    <tag k="email" v="info@bleriotsguesthouse.co.uk"/>
    <tag k="guest_house" v="bed_and_breakfast"/>
    <tag k="internet_access" v="wlan"/>
    <tag k="internet_access:fee" v="no"/>
    <tag k="name" v="Bleriot's Guest House"/>
    <tag k="payment:cash" v="yes"/>
    <tag k="payment:credit_cards" v="yes"/>
    <tag k="payment:debit_cards" v="yes"/>
    <tag k="phone" v="+44 1304 211394"/>
    <tag k="smoking" v="no"/>
    <tag k="tourism" v="guest_house"/>
    <tag k="website" v="https://www.bleriotsguesthouse.co.uk/"/>
    <tag k="wheelchair" v="no"/>
  </node>
  <node id="810359879" lat="51.1271927" lon="1.3101275" version="9" timestamp="2024-09-03T19:47:48Z" changeset="156157798" uid="21425661" user="CjMalone">
    <tag k="addr:city" v="Dover"/>
    <tag k="addr:country" v="GB"/>
    <tag k="addr:county" v="Kent"/>
    <tag k="addr:housenumber" v="67"/>
    <tag k="addr:postcode" v="CT16 1BB"/>
    <tag k="addr:street" v="Biggin Street"/>
    <tag k="amenity" v="bank"/>
    <tag k="atm" v="yes"/>
    <tag k="brand" v="Nationwide"/>
    <tag k="brand:wikidata" v="Q846735"/>
    <tag k="brand:wikipedia" v="en:Nationwide Building Society"/>
    <tag k="check_date" v="2024-09-02"/>
    <tag k="check_date:opening_hours" v="2024-09-02"/>
    <tag k="name" v="Nationwide"/>
    <tag k="opening_hours" v="Mo-Tu 09:00-16:30; We 10:00-16:30; Th-Fr 09:00-16:30; Sa 09:00-12:00; Su closed"/>
    <tag k="phone" v="+44 345 266 0285"/>
    <tag k="website" v="https://www.nationwide.co.uk/branches/dover/67-biggin-street"/>
    <tag k="wheelchair" v="yes"/>
  </node>
  <node id="823479090" lat="51.1272166" lon="1.3099986" version="13" timestamp="2024-10-18T23:09:17Z" changeset="158070683" uid="21426772" user="Hyperioum">
    <tag k="addr:city" v="Dover"/>
    <tag k="addr:country" v="GB"/>
    <tag k="addr:county" v="Kent"/>
    <tag k="addr:housenumber" v="68,70"/>
    <tag k="addr:postcode" v="CT16 1BB"/>
    <tag k="addr:street" v="Biggin Street"/>
    <tag k="old_name" v="McDonald's"/>
  </node>
  <node id="823485337" lat="51.1273335" lon="1.3102384" version="2" timestamp="2011-05-19T22:24:46Z" changeset="8194110" uid="47487" user="IJMacD">
    <tag k="addr:city" v="Dover"/>
    <tag k="addr:country" v="GB"/>
    <tag k="addr:county" v="Kent"/>
    <tag k="addr:housenumber" v="8"/>
    <tag k="addr:postcode" v="CT16 1BD"/>
    <tag k="addr:street" v="Biggin Street"/>
    <tag k="name" v="JC Rook and Sons"/>
    <tag k="shop" v="butcher"/>
  </node>
  <node id="1183157907" lat="51.1213025" lon="1.3128040" version="7" timestamp="2024-08-24T14:34:09Z" changeset="155699780" uid="346039" user="fitzsimons">
    <tag k="addr:city" v="Dover"/>
    <tag k="addr:housenumber" v="11"/>
    <tag k="addr:postcode" v="CT17 9BY"/>
    <tag k="addr:street" v="Cambridge Road"/>
    <tag k="amenity" v="restaurant"/>
    <tag k="email" v="info@cullinsyard.co.uk"/>
    <tag k="name" v="Cullins Yard"/>
    <tag k="phone" v="+44 1304 211666"/>
    <tag k="toilets" v="yes"/>
    <tag k="toilets:wheelchair" v="yes"/>
    <tag k="website" v="https://www.cullinsyard.co.uk/"/>
    <tag k="wheelchair" v="yes"/>
  </node>
  <node id="1283531067" lat="51.1250282" lon="1.3328006" version="5" timestamp="2024-08-12T10:32:13Z" changeset="155141345" uid="660101" user="Solderdot">
    <tag k="addr:city" v="Dover Port"/>
    <tag k="addr:housenumber" v="lane 180"/>
    <tag k="addr:street" v="Broadwalk Shopping"/>
    <tag k="amenity" v="bureau_de_change"/>
    <tag k="brand" v="Travelex"/>
    <tag k="brand:wikidata" v="Q2337964"/>
    <tag k="check_date" v="2024-08-12"/>
    <tag k="name" v="Travelex"/>
    <tag k="wheelchair" v="yes"/>
    <tag k="wheelchair:description" v="Usual low counter is to left. Portable Hearing Loop on counter turned off/discharged on 10/7/2016"/>
  </node>
  <node id="1381671903" lat="51.1222010" lon="1.3143777" version="5" timestamp="2020-02-10T20:12:56Z" changeset="80813584" uid="345975" user="VlIvYur">
    <tag k="addr:postcode" v="CT17 9BP"/>
    <tag k="addr:street" v="Waterloo Crescent"/>
    <tag k="email" v="reservations@dovermarinahotel.co.uk"/>
    <tag k="fax" v="+44 1304 213826"/>
    <tag k="name" v="Dover Marina Hotel &amp; Spa"/>
    <tag k="phone" v="+44 1304 203633"/>
    <tag k="tourism" v="hotel"/>
    <tag k="website" v="https://www.dovermarinahotel.co.uk/"/>
  </node>
  <node id="1437564760" lat="51.1239873" lon="1.3140832" version="6" timestamp="2019-12-15T15:49:55Z" changeset="78432963" uid="345975" user="VlIvYur">
    <tag k="addr:housenumber" v="15"/>
    <tag k="addr:postcode" v="CT16 1JW"/>
    <tag k="addr:street" v="Bench Street"/>
    <tag k="was:name" v="Cyclelife"/>
    <tag k="was:phone" v="+44 1304 207582"/>
    <tag k="was:shop" v="bicycle"/>
    <tag k="was:website" v="http://www.cyclelife.com/"/>
  </node>
  <node id="1581244932" lat="51.1248811" lon="1.3325059" version="6" timestamp="2023-05-14T19:50:34Z" changeset="136099090" uid="84263" user="Robert Whittaker">
    <tag k="addr:city" v="Dover"/>
    <tag k="addr:housename" v="Berth 8/9"/>
    <tag k="addr:housenumber" v="lane 180"/>
    <tag k="addr:place" v="Eastern Docks"/>
    <tag k="addr:postcode" v="CT16 1JA"/>
    <tag k="addr:street" v="Broadwalk Shopping"/>
    <tag k="amenity" v="cafe"/>
    <tag k="brand" v="Costa"/>
    <tag k="brand:wikidata" v="Q608845"/>
    <tag k="cuisine" v="coffee_shop"/>
    <tag k="fhrs:id" v="452084"/>
    <tag k="name" v="Costa"/>
    <tag k="source:addr" v="FHRS Open Data"/>
    <tag k="takeaway" v="yes"/>
    <tag k="wheelchair" v="yes"/>
    <tag k="wheelchair:description" v="Step-free. Powered door to services opens outward. Accessible toilet 30m."/>
  </node>
  <node id="1704594691" lat="51.1237249" lon="1.2923904" version="2" timestamp="2017-12-06T19:34:37Z" changeset="54411647" uid="7037" user="Gregory Williams">
    <tag k="addr:city" v="Dover"/>
    <tag k="addr:housenumber" v="21"/>
    <tag k="addr:postcode" v="CT17 9NZ"/>
    <tag k="addr:street" v="Elms Vale Road"/>
    <tag k="amenity" v="fast_food"/>
    <tag k="contact:phone" v="+44 1304 208888"/>
    <tag k="cuisine" v="chinese;cantonese;peking"/>
    <tag k="fhrs:id" v="254544"/>
    <tag k="name" v="Oasis"/>
    <tag k="source:addr" v="FHRS Open Data"/>
  </node>
  <node id="1837882186" lat="51.1361193" lon="1.2967916" version="1" timestamp="2012-07-25T17:43:57Z" changeset="12489739" uid="7037" user="Gregory Williams">
    <tag k="addr:city" v="Dover"/>
    <tag k="addr:housenumber" v="199"/>
    <tag k="addr:postcode" v="CT17 0TF"/>
    <tag k="addr:street" v="London Road"/>
    <tag k="name" v="Dubcycle.co"/>
    <tag k="phone" v="+44 1304 331535"/>
    <tag k="shop" v="bicycle"/>
  </node>
  <node id="1923827048" lat="51.1222938" lon="1.2986293" version="1" timestamp="2012-09-20T16:03:09Z" changeset="13185501" uid="900757" user="Courtin">
    <tag k="addr:housename" v="Clarenden and Westbury Community Centre"/>
    <tag k="addr:postcode" v="CT17 9RA"/>
    <tag k="addr:street" v="Belgrave Road"/>
    <tag k="building" v="school"/>
    <tag k="designation" v="Aikido"/>
    <tag k="leisure" v="sports_centre"/>
    <tag k="name" v="Genryukan Aikido"/>
  </node>
  <node id="1986584524" lat="51.1269040" lon="1.3113072" version="7" timestamp="2023-10-19T14:16:24Z" changeset="142818410" uid="4345757" user="JassKurn">
    <tag k="addr:city" v="Dover"/>
    <tag k="addr:country" v="GB"/>
    <tag k="addr:county" v="Kent"/>
    <tag k="addr:housenumber" v="23-24"/>
    <tag k="addr:postcode" v="CT16 1BH"/>
    <tag k="addr:street" v="Biggin Street"/>
    <tag k="amenity" v="cafe"/>
    <tag k="brand" v="Costa"/>
    <tag k="brand:wikidata" v="Q608845"/>
    <tag k="brand:wikipedia" v="en:Costa Coffee"/>
    <tag k="cuisine" v="coffee_shop"/>
    <tag k="fhrs:id" v="1206787"/>
    <tag k="name" v="Costa"/>
    <tag k="source:addr" v="FHRS Open Data"/>
    <tag k="takeaway" v="yes"/>
  </node>
  <node id="1986811695" lat="51.1251079" lon="1.3130749" version="3" timestamp="2022-01-08T17:06:03Z" changeset="115917402" uid="242345" user="confusedbuffalo">
    <tag k="addr:city" v="Dover"/>
    <tag k="addr:country" v="GB"/>
    <tag k="addr:county" v="Kent"/>
    <tag k="addr:housenumber" v="24"/>
    <tag k="addr:postcode" v="CT16 1NG"/>
    <tag k="addr:street" v="Market Square"/>
    <tag k="fhrs:id" v="254743"/>
    <tag k="name" v="Dover Convenience Store"/>
    <tag k="shop" v="convenience"/>
    <tag k="source:addr" v="FHRS Open Data"/>
  </node>
  <node id="2457757410" lat="51.1256795" lon="1.3061877" version="3" timestamp="2022-01-08T17:06:03Z" changeset="115917402" uid="242345" user="confusedbuffalo">
    <tag k="addr:city" v="Dover"/>
    <tag k="addr:county" v="Kent"/>
    <tag k="addr:housenumber" v="13A"/>
    <tag k="addr:postcode" v="CT17 9SA"/>
    <tag k="addr:street" v="Priory Gate Road"/>
    <tag k="amenity" v="cafe"/>
    <tag k="cuisine" v="local"/>
    <tag k="fhrs:id" v="430030"/>
    <tag k="internet_access" v="no"/>
    <tag k="name" v="Buffers Sandwich shop"/>
    <tag k="opening_hours" v="Mo-Fr 06:00-14:30; Sa 07:00-14:00"/>
    <tag k="smoking" v="no"/>
    <tag k="source:addr" v="FHRS Open Data"/>
    <tag k="wheelchair" v="no"/>
  </node>
  <node id="2985687553" lat="51.1274225" lon="1.3100145" version="6" timestamp="2023-10-19T14:16:30Z" changeset="142818410" uid="4345757" user="JassKurn">
    <tag k="addr:city" v="Dover"/>
    <tag k="addr:housenumber" v="45-46"/>
    <tag k="addr:postcode" v="CT16 1DB"/>
    <tag k="addr:street" v="Biggin Street"/>
    <tag k="brand" v="WHSmith"/>
    <tag k="brand:wikidata" v="Q1548712"/>
    <tag k="brand:wikipedia" v="en:WHSmith"/>
    <tag k="name" v="WHSmith"/>
    <tag k="opening_hours" v="Mo-Sa 08:30-17:30;Su 10:00-16:00"/>
    <tag k="phone" v="+44 1304 215973"/>
    <tag k="shop" v="newsagent"/>
    <tag k="website" v="https://www.whsmith.co.uk/"/>
  </node>
  <node id="3084473629" lat="51.1239242" lon="1.2997263" version="2" timestamp="2017-12-06T19:37:20Z" changeset="54411740" uid="7037" user="Gregory Williams">
    <tag k="addr:city" v="Dover"/>
    <tag k="addr:housenumber" v="167"/>
    <tag k="addr:postcode" v="CT17 9SJ"/>
    <tag k="addr:street" v="Folkestone Road"/>
    <tag k="fhrs:id" v="254314"/>
    <tag k="name" v="Clare House"/>
    <tag k="source:addr" v="FHRS Open Data"/>
    <tag k="tourism" v="guest_house"/>
  </node>
  <node id="3084473630" lat="51.1246664" lon="1.3029010" version="2" timestamp="2017-12-06T19:37:55Z" changeset="54411749" uid="7037" user="Gregory Williams">
    <tag k="addr:city" v="Dover"/>
    <tag k="addr:housenumber" v="125"/>
    <tag k="addr:postcode" v="CT17 9SG"/>
    <tag k="addr:street" v="Folkestone Road"/>
    <tag k="amenity" v="fast_food"/>
    <tag k="fhrs:id" v="254180"/>
    <tag k="name" v="Golden Grill Fish Bar"/>
    <tag k="source:addr" v="FHRS Open Data"/>
  </node>
  <node id="3084473632" lat="51.1236740" lon="1.2978965" version="2" timestamp="2017-12-06T19:36:33Z" changeset="54411710" uid="7037" user="Gregory Williams">
    <tag k="addr:city" v="Dover"/>
    <tag k="addr:housenumber" v="203"/>
    <tag k="addr:postcode" v="CT17 9SL"/>
    <tag k="addr:street" v="Folkestone Road"/>
    <tag k="fhrs:id" v="254526"/>
    <tag k="name" v="Longfield"/>
    <tag k="source:addr" v="FHRS Open Data"/>
    <tag k="tourism" v="guest_house"/>
  </node>
  <node id="3084485234" lat="51.1234273" lon="1.2966586" version="2" timestamp="2017-12-06T19:35:18Z" changeset="54411669" uid="7037" user="Gregory Williams">
    <tag k="addr:city" v="Dover"/>
    <tag k="addr:housenumber" v="229"/>
    <tag k="addr:postcode" v="CT17 9SL"/>
    <tag k="addr:street" v="Folkestone Road"/>
    <tag k="fhrs:id" v="254742"/>
    <tag k="name" v="Sandown"/>
    <tag k="source:addr" v="FHRS Open Data"/>
    <tag k="tourism" v="guest_house"/>
  </node>
  <node id="3084485238" lat="51.1244140" lon="1.3017686" version="4" timestamp="2022-06-16T10:54:41Z" changeset="122458265" uid="14052707" user="FlyingWitchDog">
    <tag k="addr:city" v="Dover"/>
    <tag k="addr:country" v="GB"/>
    <tag k="addr:county" v="Kent"/>
    <tag k="addr:housenumber" v="139-141"/>
    <tag k="addr:postcode" v="CT17 9SG"/>
    <tag k="addr:street" v="Folkestone Road"/>
    <tag k="amenity" v="pharmacy"/>
    <tag k="fhrs:id" v="782284"/>
    <tag k="healthcare" v="pharmacy"/>
    <tag k="name" v="White Cliffs"/>
    <tag k="source:addr" v="FHRS Open Data"/>
  </node>
  <node id="3754122625" lat="51.1267944" lon="1.3167431" version="3" timestamp="2022-01-08T17:06:03Z" changeset="115917402" uid="242345" user="confusedbuffalo">
    <tag k="addr:city" v="Dover"/>
    <tag k="addr:county" v="Kent"/>
    <tag k="addr:housenumber" v="1"/>
    <tag k="addr:postcode" v="CT16 1QH"/>
    <tag k="addr:street" v="Castle Street"/>
    <tag k="fhrs:id" v="254630"/>
    <tag k="internet_access" v="wlan"/>
    <tag k="internet_access:fee" v="no"/>
    <tag k="name" v="Number one Guest House"/>
    <tag k="smoking" v="no"/>
    <tag k="source:addr" v="FHRS Open Data"/>
    <tag k="tourism" v="guest_house"/>
  </node>
  <node id="3998277273" lat="51.1269248" lon="1.3112520" version="2" timestamp="2019-04-04T08:07:29Z" changeset="68871025" uid="9451067" user="b-jazz-bot">
    <tag k="addr:city" v="Dover"/>
    <tag k="addr:housenumber" v="22"/>
    <tag k="addr:postcode" v="CT16 1BH"/>
    <tag k="addr:street" v="Biggin Street"/>
    <tag k="amenity" v="restaurant"/>
    <tag k="cuisine" v="breakfast"/>
    <tag k="delivery" v="no"/>
    <tag k="name" v="brunch..."/>
    <tag k="opening_hours" v="Mo-Fr 08:00-16:30; Sa 08:00-17:00; Su 10:00-15:00"/>
    <tag k="phone" v="+44 1304 448470"/>
    <tag k="smoking" v="outside"/>
    <tag k="takeaway" v="yes"/>
    <tag k="website" v="https://www.brunchdover.co.uk/"/>
  </node>
  <node id="4441707224" lat="51.1253396" lon="1.3058259" version="3" timestamp="2022-01-08T17:06:03Z" changeset="115917402" uid="242345" user="confusedbuffalo">
    <tag k="addr:city" v="Dover"/>
    <tag k="addr:county" v="Kent"/>
    <tag k="addr:housenumber" v="71"/>
    <tag k="addr:postcode" v="CT17 9RZ"/>
    <tag k="addr:street" v="Folkestone Road"/>
    <tag k="fhrs:id" v="254191"/>
    <tag k="internet_access" v="wlan"/>
    <tag k="internet_access:fee" v="no"/>
    <tag k="name" v="St Albans Guest House, Dover"/>
    <tag k="rooms" v="6"/>
    <tag k="smoking" v="no"/>
    <tag k="source:addr" v="FHRS Open Data"/>
    <tag k="tourism" v="guest_house"/>
  </node>
  <node id="4790594098" lat="51.1251508" lon="1.3138724" version="7" timestamp="2023-10-19T14:38:24Z" changeset="142819514" uid="4345757" user="JassKurn">
    <tag k="addr:city" v="Dover"/>
    <tag k="addr:country" v="GB"/>
    <tag k="addr:county" v="Kent"/>
    <tag k="addr:housenumber" v="10-11"/>
    <tag k="addr:postcode" v="CT16 1NX"/>
    <tag k="addr:street" v="Market Square"/>
    <tag k="brand" v="Londis"/>
    <tag k="brand:wikidata" v="Q21008564"/>
    <tag k="brand:wikipedia" v="en:Londis (United Kingdom)"/>
    <tag k="fhrs:id" v="738810"/>
    <tag k="name" v="Londis"/>
    <tag k="pay_point" v="yes"/>
    <tag k="shop" v="supermarket"/>
    <tag k="source:addr" v="FHRS Open Data"/>
  </node>
  <node id="5014140031" lat="51.1247920" lon="1.3132625" version="2" timestamp="2018-02-28T20:11:26Z" changeset="56767079" uid="591033" user="Genowefa">
    <tag k="addr:city" v="Dover"/>
    <tag k="addr:postcode" v="CT16 1PH"/>
    <tag k="addr:street" v="Market Square"/>
    <tag k="email" v="tic@doveruk.com"/>
    <tag k="information" v="office"/>
    <tag k="name" v="Dover Tourist Information Centre"/>
    <tag k="opening_hours" v="Mo-Sa 09:30-17:00; Apr 01-Sep 30 Su 10:00-15:00"/>
    <tag k="phone" v="+44 1304 201066"/>
    <tag k="tourism" v="information"/>
  </node>
  <node id="5074124622" lat="51.1203123" lon="1.3135191" version="5" timestamp="2024-08-30T11:44:57Z" changeset="155969739" uid="21426772" user="Hyperioum">
    <tag k="addr:city" v="Dover"/>
    <tag k="addr:housename" v="Bella Vita at Dover Marina"/>
    <tag k="addr:housenumber" v="Bella Vita at Dover Marina"/>
    <tag k="addr:postcode" v="CT17 9FS"/>
    <tag k="addr:street" v="Esplanade"/>
    <tag k="amenity" v="restaurant"/>
    <tag k="cuisine" v="italian;seafood"/>
    <tag k="email" v="reservations@bellavitadovermarina.co.uk"/>
    <tag k="name" v="Bella Vita"/>
    <tag k="phone" v="+44 1304 207740"/>
    <tag k="website" v="https://bellavitadovermarina.co.uk"/>
  </node>
  <node id="5074355021" lat="51.1257951" lon="1.3125513" version="3" timestamp="2023-08-29T10:13:24Z" changeset="140533468" uid="13416516" user="Mikey Co">
    <tag k="addr:city" v="Dover"/>
    <tag k="addr:housenumber" v="19"/>
    <tag k="addr:postcode" v="CT16 1BZ"/>
    <tag k="addr:street" v="Cannon Street"/>
    <tag k="amenity" v="pub"/>
    <tag k="brand" v="Wetherspoon"/>
    <tag k="brand:wikidata" v="Q6109362"/>
    <tag k="name" v="The Eight Bells"/>
    <tag k="name:en" v="The Eight Bells"/>
    <tag k="website" v="https://www.jdwetherspoon.com/pubs/all-pubs/england/kent/the-eight-bells-dover"/>
    <tag k="wikidata" v="Q88916356"/>
  </node>
  <node id="5572212822" lat="51.1262740" lon="1.3177102" version="6" timestamp="2023-04-04T03:27:43Z" changeset="134476856" uid="238419" user="HubMiner">
    <tag k="addr:city" v="Dover"/>
    <tag k="addr:postcode" v="CT16 1QF"/>
    <tag k="addr:street" v="St James Street"/>
    <tag k="amenity" v="pub"/>
    <tag k="brewery" v="various"/>
    <tag k="cuisine" v="regional;burger;curry;pie"/>
    <tag k="description" v="Dover's oldest pub"/>
    <tag k="email" v="info@thewhitehorsedover.co.uk"/>
    <tag k="name" v="The White Horse"/>
    <tag k="opening_hours" v="Mo-Th 12:00-22:00; Fr-Sa 12:00-23:00; Su 12:00-21:00,12:00-22:00"/>
    <tag k="operator" v="The White Horse Dover"/>
    <tag k="outdoor_seating" v="yes"/>
    <tag k="payment:cash" v="yes"/>
    <tag k="payment:mastercard" v="yes"/>
    <tag k="payment:visa" v="yes"/>
    <tag k="phone" v="+44 1304 213066"/>
    <tag k="smoking" v="outside"/>
    <tag k="takeaway" v="yes"/>
    <tag k="website" v="https://www.thewhitehorsedover.co.uk/"/>
    <tag k="wheelchair" v="no"/>
    <tag k="wikidata" v="Q26586460"/>
  </node>
  <node id="5805047740" lat="51.1281071" lon="1.3082463" version="2" timestamp="2025-01-06T17:17:52Z" changeset="161067420" uid="1337109" user="PeterDus">
    <tag k="addr:city" v="Dover"/>
    <tag k="addr:housenumber" v="19"/>
    <tag k="addr:postcode" v="CT16 1DP"/>
    <tag k="addr:street" v="High Street"/>
    <tag k="amenity" v="restaurant"/>
    <tag k="cuisine" v="italian"/>
    <tag k="name" v="The Italian Kitchen"/>
    <tag k="outdoor_seating" v="no"/>
    <tag k="phone" v="+441304447740"/>
    <tag k="website" v="https://thitaliankitchen.com/"/>
  </node>
  <node id="5894774957" lat="51.1250966" lon="1.3167447" version="7" timestamp="2023-10-19T14:38:30Z" changeset="142819514" uid="4345757" user="JassKurn">
    <tag k="addr:housenumber" v="Unit 9"/>
    <tag k="addr:postcode" v="CT16 1QD"/>
    <tag k="addr:street" v="St James Street"/>
    <tag k="amenity" v="cafe"/>
    <tag k="brand" v="Costa"/>
    <tag k="brand:wikidata" v="Q608845"/>
    <tag k="brand:wikipedia" v="en:Costa Coffee"/>
    <tag k="cuisine" v="coffee_shop"/>
    <tag k="fhrs:id" v="1206788"/>
    <tag k="level" v="1"/>
    <tag k="name" v="Costa"/>
    <tag k="takeaway" v="yes"/>
    <tag k="wheelchair" v="yes"/>
  </node>
  <node id="5894911932" lat="51.1255624" lon="1.3167437" version="11" timestamp="2023-10-19T14:38:30Z" changeset="142819514" uid="4345757" user="JassKurn">
    <tag k="addr:city" v="Dover"/>
    <tag k="addr:county" v="Kent"/>
    <tag k="addr:postcode" v="CT16 1QD"/>
    <tag k="addr:street" v="St James Street"/>
    <tag k="addr:unit" v="4"/>
    <tag k="amenity" v="restaurant"/>
    <tag k="brand" v="Nando's"/>
    <tag k="brand:wikidata" v="Q3472954"/>
    <tag k="brand:wikipedia" v="en:Nando's"/>
    <tag k="cuisine" v="chicken;portuguese"/>
    <tag k="entrance" v="yes"/>
    <tag k="fhrs:id" v="1055031"/>
    <tag k="name" v="Nando's"/>
    <tag k="source:addr" v="FHRS Open Data"/>
    <tag k="website" v="https://www.nandos.co.uk/restaurants/dover-st-james"/>
    <tag k="wheelchair" v="yes"/>
  </node>
  <node id="6967610060" lat="51.1291723" lon="1.3123899" version="1" timestamp="2019-11-11T21:27:01Z" changeset="76930755" uid="1337109" user="PeterDus">
    <tag k="addr:city" v="Dover"/>
    <tag k="addr:housenumber" v="89"/>
    <tag k="addr:postcode" v="CT16 1RU"/>
    <tag k="addr:street" v="Maison Dieu Road"/>
    <tag k="email" v="info@maisondieu.co.uk"/>
    <tag k="guest_house" v="bed_and_breakfast"/>
    <tag k="internet_access" v="wlan"/>
    <tag k="internet_access:fee" v="no"/>
    <tag k="name" v="Maison Dieu Guest House"/>
    <tag k="source" v="aerial imagery;local knowledge"/>
    <tag k="tourism" v="guest_house"/>
    <tag k="website" v="https://www.maisondieu.co.uk"/>
  </node>
  <node id="7090428675" lat="51.1249811" lon="1.3140147" version="7" timestamp="2024-02-21T17:32:26Z" changeset="147742696" uid="21064561" user="VelociGecko">
    <tag k="addr:housenumber" v="13-14"/>
    <tag k="addr:postcode" v="CT16 1NX"/>
    <tag k="addr:street" v="Market Square"/>
    <tag k="alt_name" v="Kentucky Fried Chicken"/>
    <tag k="amenity" v="fast_food"/>
    <tag k="brand" v="KFC"/>
    <tag k="brand:wikidata" v="Q524757"/>
    <tag k="brand:wikipedia" v="en:KFC"/>
    <tag k="contact:website" v="https://www.kfc.co.uk/kfc-near-me/dover-market-square"/>
    <tag k="cuisine" v="chicken"/>
    <tag k="drive_through" v="no"/>
    <tag k="fhrs:id" v="429970"/>
    <tag k="name" v="KFC"/>
    <tag k="takeaway" v="yes"/>
  </node>
  <node id="7093268639" lat="51.1246290" lon="1.3157368" version="4" timestamp="2023-10-19T14:52:33Z" changeset="142820318" uid="4345757" user="JassKurn">
    <tag k="addr:city" v="Dover"/>
    <tag k="addr:housenumber" v="Unit 15"/>
    <tag k="addr:postcode" v="CT16 1QD"/>
    <tag k="addr:street" v="St James' Retail &amp; Leisure Park"/>
    <tag k="brand" v="The Entertainer"/>
    <tag k="brand:wikidata" v="Q7732289"/>
    <tag k="brand:wikipedia" v="en:The Entertainer (retailer)"/>
    <tag k="name" v="The Entertainer"/>
    <tag k="opening_hours" v="Mo-Sa 09:00-18:00"/>
    <tag k="operator" v="The Entertainer"/>
    <tag k="payment:cash" v="yes"/>
    <tag k="payment:credit_cards" v="yes"/>
    <tag k="payment:debit_cards" v="yes"/>
    <tag k="phone" v="+44 1304 203161"/>
    <tag k="shop" v="toys"/>
    <tag k="website" v="https://www.thetoyshop.com/store/Dover"/>
  </node>
  <node id="7093268640" lat="51.1253121" lon="1.3178427" version="3" timestamp="2022-06-16T10:54:41Z" changeset="122458265" uid="14052707" user="FlyingWitchDog">
    <tag k="addr:city" v="Dover"/>
    <tag k="addr:postcode" v="CT16 1QD"/>
    <tag k="addr:street" v="St James' Retail &amp; Leisure Park"/>
    <tag k="amenity" v="cafe"/>
    <tag k="brand" v="Kaspa's"/>
    <tag k="brand:wikidata" v="Q24439133"/>
    <tag k="cuisine" v="dessert"/>
    <tag k="name" v="Kaspa's"/>
    <tag k="opening_hours" v="11:00-22:00"/>
    <tag k="phone" v="+44 1304 499291"/>
    <tag k="shop" v="confectionery"/>
    <tag k="website" v="https://kaspas.co.uk/location/dover/"/>
  </node>
  <node id="7093268641" lat="51.1251994" lon="1.3149922" version="5" timestamp="2023-10-19T14:52:33Z" changeset="142820318" uid="4345757" user="JassKurn">
    <tag k="addr:city" v="Dover"/>
    <tag k="addr:housenumber" v="Unit 20"/>
    <tag k="addr:postcode" v="CT16 1QD"/>
    <tag k="addr:street" v="St James' Retail &amp; Leisure Park"/>
    <tag k="addr:unit" v="20"/>
    <tag k="amenity" v="cafe"/>
    <tag k="brand" v="Costa"/>
    <tag k="brand:wikidata" v="Q608845"/>
    <tag k="brand:wikipedia" v="en:Costa Coffee"/>
    <tag k="cuisine" v="coffee_shop"/>
    <tag k="fhrs:id" v="1206789"/>
    <tag k="internet_access" v="wlan"/>
    <tag k="internet_access:fee" v="no"/>
    <tag k="name" v="Costa"/>
    <tag k="outdoor_seating" v="yes"/>
    <tag k="payment:cash" v="yes"/>
    <tag k="payment:mastercard" v="yes"/>
    <tag k="payment:visa" v="yes"/>
    <tag k="phone" v="+44 1304 213259"/>
    <tag k="takeaway" v="yes"/>
    <tag k="website" v="https://www.costa.co.uk/locations/store-locator/map/#latitude=51.122434999999996&amp;longitude=1.3008925999999998"/>
    <tag k="wheelchair" v="yes"/>
  </node>
  <node id="7093268642" lat="51.1253128" lon="1.3149475" version="4" timestamp="2023-10-19T14:52:33Z" changeset="142820318" uid="4345757" user="JassKurn">
    <tag k="addr:city" v="Dover"/>
    <tag k="addr:housenumber" v="Unit 19"/>
    <tag k="addr:postcode" v="CT16 1QD"/>
    <tag k="addr:street" v="St James' Retail &amp; Leisure Park"/>
    <tag k="brand" v="Anytime Fitness"/>
    <tag k="brand:wikidata" v="Q4778364"/>
    <tag k="brand:wikipedia" v="en:Anytime Fitness"/>
    <tag k="leisure" v="fitness_centre"/>
    <tag k="name" v="Anytime Fitness"/>
    <tag k="note" v="Staffed Hours Monday - Friday 10:00 am - 8:00 pm Saturday &amp; Sunday :10:00 am - 4:00 pm"/>
    <tag k="opening_hours" v="24/7"/>
    <tag k="phone" v="+44 1304 600247"/>
    <tag k="sport" v="fitness;gym"/>
    <tag k="website" v="https://www.anytimefitness.co.uk/gyms/uk-0076/dover-south-east-ct16-1pj/"/>
  </node>
  <node id="7093268643" lat="51.1252742" lon="1.3150955" version="5" timestamp="2023-10-19T14:52:33Z" changeset="142820318" uid="4345757" user="JassKurn">
    <tag k="addr:city" v="Dover"/>
    <tag k="addr:housenumber" v="Unit 21"/>
    <tag k="addr:postcode" v="CT16 1QD"/>
    <tag k="addr:street" v="St James' Retail &amp; Leisure Park"/>
    <tag k="brand" v="Card Factory"/>
    <tag k="brand:wikidata" v="Q5038192"/>
    <tag k="brand:wikipedia" v="en:Card Factory"/>
    <tag k="name" v="Card Factory"/>
    <tag k="opening_hours" v="Mo-Sa 09:00-20:00; Su 10:00-16:00"/>
    <tag k="operator" v="Card Factory"/>
    <tag k="payment:cash" v="yes"/>
    <tag k="payment:credit_cards" v="yes"/>
    <tag k="payment:debit_cards" v="yes"/>
    <tag k="phone" v="+44 1304 210219"/>
    <tag k="shop" v="gift"/>
    <tag k="website" v="https://www.cardfactory.co.uk/storefinder"/>
  </node>
  <node id="7093268644" lat="51.1252491" lon="1.3151810" version="8" timestamp="2023-10-27T08:42:20Z" changeset="143199995" uid="10627331" user="ChillyDL">
    <tag k="addr:city" v="Dover"/>
    <tag k="addr:housenumber" v="Unit 22"/>
    <tag k="addr:postcode" v="CT16 1QD"/>
    <tag k="addr:street" v="St James' Retail &amp; Leisure Park"/>
    <tag k="disused:name" v="O2"/>
    <tag k="disused:shop" v="yes"/>
    <tag k="operational_status" v="closed"/>
  </node>
  <node id="7093268645" lat="51.1252758" lon="1.3152475" version="6" timestamp="2023-10-19T14:52:33Z" changeset="142820318" uid="4345757" user="JassKurn">
    <tag k="addr:city" v="Dover"/>
    <tag k="addr:housenumber" v="Unit 23"/>
    <tag k="addr:postcode" v="CT16 1QD"/>
    <tag k="addr:street" v="St James' Retail &amp; Leisure Park"/>
    <tag k="amenity" v="fast_food"/>
    <tag k="brand" v="Greggs"/>
    <tag k="brand:wikidata" v="Q3403981"/>
    <tag k="brand:wikipedia" v="en:Greggs"/>
    <tag k="contact:website" v="https://www.greggs.co.uk/shop-finder?shop-code=3734"/>
    <tag k="cuisine" v="sandwich;bakery"/>
    <tag k="drive_through" v="no"/>
    <tag k="fhrs:id" v="1055731"/>
    <tag k="name" v="Greggs"/>
    <tag k="opening_hours" v="Mo-Sa 07:00-17:30; Su 9:00-17:00"/>
    <tag k="operator" v="Greggs"/>
    <tag k="phone" v="+44 1304 213423"/>
    <tag k="takeaway" v="yes"/>
  </node>
  <node id="7120195033" lat="51.1265523" lon="1.3178340" version="2" timestamp="2022-01-08T17:06:03Z" changeset="115917402" uid="242345" user="confusedbuffalo">
    <tag k="addr:county" v="Kent"/>
    <tag k="addr:housenumber" v="10"/>
    <tag k="addr:postcode" v="CT16 1QW"/>
    <tag k="addr:street" v="Castle Hill Road"/>
    <tag k="entrance" v="staircase"/>
  </node>
  <node id="8306931202" lat="51.1248135" lon="1.3125787" version="1" timestamp="2021-01-09T19:05:05Z" changeset="97225495" uid="12374411" user="Herdefel">
    <tag k="addr:city" v="Dover"/>
    <tag k="addr:housename" v="Dover Discovery Centre"/>
    <tag k="addr:postcode" v="CT16 1PH"/>
    <tag k="addr:street" v="York Street"/>
    <tag k="healthcare" v="laboratory"/>
    <tag k="name" v="Coronavirus Symptom-free testing"/>
    <tag k="operator" v="Kent County Council"/>
    <tag k="website" v="https://www.kent.gov.uk/social-care-and-health/health/protect-kent-and-medway/test-and-trace/symptom-free-testing"/>
  </node>
  <node id="9412929717" lat="51.1292929" lon="1.3022588" version="4" timestamp="2023-08-09T22:36:09Z" changeset="139680550" uid="3199858" user="Mateusz Konieczny - bot account">
    <tag k="addr:city" v="Dover"/>
    <tag k="addr:housenumber" v="15"/>
    <tag k="addr:postcode" v="CT17 0DU"/>
    <tag k="addr:street" v="West Street"/>
    <tag k="name" v="ATM (West Street Premier)"/>
    <tag k="opening_hours" v="Mo-Su 6:00-9:30"/>
    <tag k="payment:cash" v="yes"/>
    <tag k="payment:credit_cards" v="yes"/>
    <tag k="payment:debit_cards" v="yes"/>
    <tag k="shop" v="supermarket"/>
  </node>
  <node id="10130030848" lat="51.1253024" lon="1.3141558" version="2" timestamp="2023-04-04T03:27:43Z" changeset="134476856" uid="238419" user="HubMiner">
    <tag k="addr:city" v="Dover"/>
    <tag k="addr:housenumber" v="64-66"/>
    <tag k="addr:postcode" v="CT16 1PA"/>
    <tag k="addr:street" v="Castle Street"/>
    <tag k="brand" v="British Heart Foundation"/>
    <tag k="brand:wikidata" v="Q4970039"/>
    <tag k="description" v="Furniture &amp; Electrical Store"/>
    <tag k="name" v="British Heart Foundation"/>
    <tag k="opening_hours" v="Mo-Sa 09:30-17:00; Su 10:00-16:00"/>
    <tag k="phone" v="+44 1304 434230"/>
    <tag k="second_hand" v="yes"/>
    <tag k="shop" v="charity"/>
    <tag k="website" v="https://www.bhf.org.uk/what-we-do/find-bhf-near-you/dover-furniture-electrical-store"/>
  </node>
  <node id="10130044144" lat="51.1257387" lon="1.3128569" version="1" timestamp="2022-10-26T10:49:04Z" changeset="128077344" uid="11552842" user="northberg">
    <tag k="addr:city" v="Dover"/>
    <tag k="addr:housenumber" v="1"/>
    <tag k="addr:postcode" v="CT16 1BY"/>
    <tag k="addr:street" v="Cannon Street"/>
    <tag k="amenity" v="bar"/>
    <tag k="email" v="reservations@vinoteq.wine"/>
    <tag k="name" v="Vinoteq"/>
    <tag k="opening_hours" v="Mo-Tu Closed; We-Fr 16:00-; Sa-So 14:00-"/>
    <tag k="phone" v="+44 7740 283224"/>
    <tag k="website" v="https://vinoteq.wine/"/>
    <tag k="wheelchair" v="no"/>
  </node>
  <node id="10593397652" lat="51.1267551" lon="1.3104335" version="1" timestamp="2023-01-30T05:53:43Z" changeset="131864186" uid="86644" user="theneilkirk">
    <tag k="addr:city" v="Dover"/>
    <tag k="addr:housenumber" v="4a"/>
    <tag k="addr:postcode" v="CT17 9AA"/>
    <tag k="addr:street" v="Priory Street"/>
    <tag k="brand" v="CeX"/>
    <tag k="brand:wikidata" v="Q5055676"/>
    <tag k="name" v="CeX"/>
    <tag k="shop" v="electronics"/>
    <tag k="website" v="https://uk.webuy.com/site/storeDetail?branchId=305"/>
  </node>
  <node id="11130559089" lat="51.1182067" lon="1.3068849" version="1" timestamp="2023-08-20T10:00:43Z" changeset="140125282" uid="6816132" user="CjMalone">
    <tag k="addr:postcode" v="CT17 9EF"/>
    <tag k="addr:street" v="Limekiln Street"/>
    <tag k="brand" v="Budgens"/>
    <tag k="brand:wikidata" v="Q4985016"/>
    <tag k="name" v="Budgens"/>
    <tag k="opening_hours" v="24/7"/>
    <tag k="shop" v="convenience"/>
    <tag k="website" v="https://www.budgens.co.uk/our-stores/dover"/>
  </node>
  <node id="11649696344" lat="51.1247758" lon="1.3140772" version="2" timestamp="2024-02-21T18:20:31Z" changeset="147744178" uid="21064561" user="VelociGecko">
    <tag k="addr:city" v="Dover"/>
    <tag k="addr:housenumber" v="17"/>
    <tag k="addr:postcode" v="CT16 1NX"/>
    <tag k="addr:street" v="Market Square"/>
    <tag k="brand" v="Scope"/>
    <tag k="brand:wikidata" v="Q7434435"/>
    <tag k="name" v="Scope"/>
    <tag k="opening_hours" v="Mo-Sa 09:30-17:00; Su 10:00-16:00"/>
    <tag k="payment:cash" v="yes"/>
    <tag k="payment:debit_cards" v="yes"/>
    <tag k="phone" v="+44 01304211976"/>
    <tag k="second_hand" v="yes"/>
    <tag k="shop" v="charity"/>
  </node>
  <node id="12071595869" lat="51.1250122" lon="1.3221327" version="1" timestamp="2024-07-24T12:31:23Z" changeset="154348058" uid="21612738" user="haihpos">
    <tag k="addr:housenumber" v="48GC+2R"/>
    <tag k="addr:postcode" v="CT16 1LW"/>
    <tag k="addr:street" v="Marine Parade"/>
    <tag k="amenity" v="cafe"/>
    <tag k="name" v="Rebels Coffee Dover"/>
  </node>
  <node id="12327388734" lat="51.1256875" lon="1.3165065" version="2" timestamp="2024-11-15T16:15:51Z" changeset="159177683" uid="9451067" user="b-jazz-bot">
    <tag k="addr:street" v="St James Retail and Leisure Park, Dover"/>
    <tag k="amenity" v="restaurant"/>
    <tag k="name" v="Taco Bell"/>
    <tag k="opening_hours" v="Mo-Th 11:00-21:00; Fr-Su 11:00-22:00"/>
    <tag k="phone" v="01304796464"/>
    <tag k="website" v="https://www.tacobell.co.uk/"/>
  </node>
  <node id="12479325201" lat="51.1238806" lon="1.3138742" version="2" timestamp="2025-01-12T09:16:19Z" changeset="161265259" uid="9451067" user="b-jazz-bot">
    <tag k="addr:housenumber" v="4"/>
    <tag k="addr:postcode" v="CT16 1JH"/>
    <tag k="addr:street" v="Bench Street"/>
    <tag k="amenity" v="restaurant"/>
    <tag k="cuisine" v="italian;italian_pizza"/>
    <tag k="name" v="Il Rustico Restaurant"/>
    <tag k="phone" v="+441304211110"/>
    <tag k="website" v="https://ilrusticorestaurant.co.uk/"/>
  </node>
  <way id="37759455" version="20" timestamp="2024-09-20T16:08:31Z" changeset="156875631" uid="11471297" user="Palgrave Peter">
    <nd ref="819907993"/>
    <nd ref="679818966"/>
    <nd ref="679818486"/>
    <nd ref="679817017"/>
    <nd ref="680344320"/>
    <nd ref="679817006"/>
    <nd ref="819908240"/>
    <nd ref="819908096"/>
    <nd ref="819908076"/>
    <nd ref="819908055"/>
    <nd ref="694291762"/>
    <nd ref="680342462"/>
    <nd ref="680342456"/>
    <nd ref="680342453"/>
    <nd ref="680346333"/>
    <nd ref="442913304"/>
    <nd ref="790485171"/>
    <nd ref="12188562325"/>
    <nd ref="819908087"/>
    <nd ref="33200161"/>
    <nd ref="3703572621"/>
    <nd ref="694291784"/>
    <nd ref="679818488"/>
    <nd ref="3703572610"/>
    <nd ref="3703572616"/>
    <nd ref="3703572615"/>
    <nd ref="819908212"/>
    <nd ref="694291781"/>
    <nd ref="819908168"/>
    <nd ref="819907993"/>
    <tag k="addr:city" v="Dover"/>
    <tag k="addr:country" v="GB"/>
    <tag k="addr:county" v="Kent"/>
    <tag k="addr:postcode" v="CT17 0DQ"/>
    <tag k="addr:street" v="Astor Avenue"/>
    <tag k="amenity" v="school"/>
    <tag k="capacity" v="800"/>
    <tag k="contact:phone" v="+44 1304 206117"/>
    <tag k="contact:website" v="https://www.dgsb.co.uk/"/>
    <tag k="fhrs:id" v="804547"/>
    <tag k="isced:level" v="2;3"/>
    <tag k="max_age" v="18"/>
    <tag k="min_age" v="11"/>
    <tag k="name" v="Dover Grammar School for Boys"/>
    <tag k="ref:GB:uprn" v="10034874352"/>
    <tag k="ref:edubase" v="118931"/>
    <tag k="religion" v="none"/>
    <tag k="school:boarding" v="no"/>
    <tag k="school:gender" v="male"/>
    <tag k="school:selective" v="yes"/>
    <tag k="school:trust" v="no"/>
    <tag k="source:addr" v="FHRS Open Data"/>
    <tag k="wikidata" v="Q5302487"/>
  </way>
  <way id="37759463" version="19" timestamp="2024-09-20T16:08:31Z" changeset="156875631" uid="11471297" user="Palgrave Peter">
    <nd ref="442913773"/>
    <nd ref="819908192"/>
    <nd ref="819908101"/>
    <nd ref="33200165"/>
    <nd ref="12188562318"/>
    <nd ref="442913777"/>
    <nd ref="819907993"/>
    <nd ref="679818966"/>
    <nd ref="679818486"/>
    <nd ref="679817017"/>
    <nd ref="680344320"/>
    <nd ref="679817006"/>
    <nd ref="819908240"/>
    <nd ref="819908096"/>
    <nd ref="819908076"/>
    <nd ref="819908055"/>
    <nd ref="694291762"/>
    <nd ref="680342462"/>
    <nd ref="680342456"/>
    <nd ref="680342453"/>
    <nd ref="680346333"/>
    <nd ref="442913304"/>
    <nd ref="819908123"/>
    <nd ref="442913773"/>
    <tag k="addr:city" v="Dover"/>
    <tag k="addr:country" v="GB"/>
    <tag k="addr:county" v="Kent"/>
    <tag k="addr:postcode" v="CT17 0AS"/>
    <tag k="addr:street" v="Astor Avenue"/>
    <tag k="amenity" v="school"/>
    <tag k="capacity" v="1230"/>
    <tag k="contact:phone" v="+44 1304 201151"/>
    <tag k="contact:website" v="http://www.astorschool.com/"/>
    <tag k="fhrs:id" v="1290198"/>
    <tag k="isced:level" v="2;3"/>
    <tag k="max_age" v="18"/>
    <tag k="min_age" v="11"/>
    <tag k="name" v="Astor Secondary School"/>
    <tag k="old_name" v="Astor College (A Specialist College for the Arts)"/>
    <tag k="ref:GB:uprn" v="10034874352"/>
    <tag k="ref:edubase" v="138167"/>
    <tag k="ref:edubase:group" v="4958"/>
    <tag k="religion" v="none"/>
    <tag k="school:boarding" v="no"/>
    <tag k="school:gender" v="mixed"/>
    <tag k="school:selective" v="no"/>
    <tag k="school:trust" v="yes"/>
    <tag k="school:trust:name" v="Samphire Star Education Trust"/>
    <tag k="school:trust:type" v="multi_academy"/>
    <tag k="school:type" v="academy"/>
    <tag k="source:addr" v="FHRS Open Data"/>
    <tag k="specialism" v="arts"/>
    <tag k="wikidata" v="Q4811051"/>
  </way>
  <way id="37761602" version="15" timestamp="2024-09-04T14:11:00Z" changeset="156189271" uid="84263" user="Robert Whittaker">
    <nd ref="442935507"/>
    <nd ref="790321105"/>
    <nd ref="442935508"/>
    <nd ref="680332903"/>
    <nd ref="442935509"/>
    <nd ref="702288174"/>
    <nd ref="702288176"/>
    <nd ref="702288266"/>
    <nd ref="702288269"/>
    <nd ref="813886984"/>
    <nd ref="442935510"/>
    <nd ref="702288265"/>
    <nd ref="702288250"/>
    <nd ref="702288238"/>
    <nd ref="442935511"/>
    <nd ref="442935512"/>
    <nd ref="702288169"/>
    <nd ref="442935507"/>
    <tag k="addr:city" v="Dover"/>
    <tag k="addr:country" v="GB"/>
    <tag k="addr:county" v="Kent"/>
    <tag k="addr:postcode" v="CT16 2EG"/>
    <tag k="addr:street" v="Melbourne Avenue"/>
    <tag k="amenity" v="school"/>
    <tag k="capacity" v="990"/>
    <tag k="contact:phone" v="+44 1304 820126"/>
    <tag k="contact:website" v="https://www.dccacademy.org.uk/"/>
    <tag k="isced:level" v="2;3"/>
    <tag k="max_age" v="18"/>
    <tag k="min_age" v="11"/>
    <tag k="name" v="Dover Christ Church Academy"/>
    <tag k="ref:GB:uprn" v="100062289416"/>
    <tag k="ref:edubase" v="150278"/>
    <tag k="ref:edubase:group" v="2950"/>
    <tag k="school:trust" v="yes"/>
    <tag k="school:trust:name" v="Dover Christ Church Academy"/>
    <tag k="school:trust:type" v="single_academy"/>
    <tag k="school:type" v="academy"/>
  </way>
  <way id="53898491" version="7" timestamp="2023-08-18T19:54:54Z" changeset="140072323" uid="242345" user="confusedbuffalo">
    <nd ref="702288009"/>
    <nd ref="797208439"/>
    <nd ref="797208530"/>
    <nd ref="797208492"/>
    <nd ref="680316219"/>
    <nd ref="680316231"/>
    <nd ref="366687188"/>
    <nd ref="702288121"/>
    <nd ref="680312734"/>
    <nd ref="366687189"/>
    <nd ref="702288009"/>
    <tag k="addr:city" v="Dover"/>
    <tag k="addr:country" v="GB"/>
    <tag k="addr:postcode" v="CT16 2BN"/>
    <tag k="addr:street" v="The Linces"/>
    <tag k="amenity" v="school"/>
    <tag k="capacity" v="420"/>
    <tag k="contact:phone" v="+44 1304 822663"/>
    <tag k="contact:website" v="https://www.greenparkcps.co.uk/"/>
    <tag k="isced:level" v="1"/>
    <tag k="max_age" v="11"/>
    <tag k="min_age" v="4"/>
    <tag k="name" v="Green Park Community Primary School"/>
    <tag k="ref:GB:uprn" v="100062289415"/>
    <tag k="ref:edubase" v="135197"/>
    <tag k="school:trust" v="no"/>
    <tag k="school:type" v="community"/>
    <tag k="wikidata" v="Q66228846"/>
  </way>
  <way id="53905737" version="8" timestamp="2024-09-18T17:27:44Z" changeset="156784727" uid="11471297" user="Palgrave Peter">
    <nd ref="33200162"/>
    <nd ref="680400978"/>
    <nd ref="680400988"/>
    <nd ref="12184517587"/>
    <nd ref="680400994"/>
    <nd ref="12184517591"/>
    <nd ref="1354174085"/>
    <nd ref="12184517589"/>
    <nd ref="12184517588"/>
    <nd ref="33200162"/>
    <tag k="addr:city" v="Dover"/>
    <tag k="addr:county" v="Kent"/>
    <tag k="addr:postcode" v="CT17 0FS"/>
    <tag k="addr:street" v="Astor Avenue"/>
    <tag k="amenity" v="school"/>
    <tag k="capacity" v="420"/>
    <tag k="fhrs:id" v="1178678;254536"/>
    <tag k="isced:level" v="1"/>
    <tag k="max_age" v="11"/>
    <tag k="min_age" v="4"/>
    <tag k="name" v="Priory Fields School"/>
    <tag k="phone" v="+44 1304 211543"/>
    <tag k="ref:GB:uprn" v="10034874352"/>
    <tag k="ref:edubase" v="143073"/>
    <tag k="ref:edubase:group" v="16172"/>
    <tag k="school:trust" v="yes"/>
    <tag k="school:trust:name" v="Whinless Down Academy Trust"/>
    <tag k="school:trust:type" v="multi_academy"/>
    <tag k="school:type" v="academy"/>
    <tag k="source:addr" v="FHRS Open Data"/>
    <tag k="website" v="https://www.prioryfields.kent.sch.uk/"/>
    <tag k="wikidata" v="Q66231478"/>
  </way>
  <way id="53907016" version="15" timestamp="2023-08-10T11:47:28Z" changeset="139702873" uid="37791" user="Fradeve11">
    <nd ref="680414907"/>
    <nd ref="680414911"/>
    <nd ref="845361999"/>
    <nd ref="845361969"/>
    <nd ref="845361703"/>
    <nd ref="845362093"/>
    <nd ref="845361786"/>
    <nd ref="680414921"/>
    <nd ref="680414931"/>
    <nd ref="680414907"/>
    <tag k="addr:city" v="Dover"/>
    <tag k="addr:country" v="GB"/>
    <tag k="addr:county" v="Kent"/>
    <tag k="addr:postcode" v="CT17 9NP"/>
    <tag k="addr:street" v="Vale View Road"/>
    <tag k="amenity" v="school"/>
    <tag k="capacity" v="210"/>
    <tag k="isced:level" v="0;1"/>
    <tag k="max_age" v="11"/>
    <tag k="min_age" v="2"/>
    <tag k="name" v="Vale View Community School"/>
    <tag k="old_name" v="Vale View Community School"/>
    <tag k="phone" v="+44 1304 202821"/>
    <tag k="ref:GB:uprn" v="100062290539"/>
    <tag k="ref:edubase" v="145355"/>
    <tag k="ref:edubase:group" v="16172"/>
    <tag k="religion" v="none"/>
    <tag k="school:boarding" v="no"/>
    <tag k="school:gender" v="mixed"/>
    <tag k="school:selective" v="no"/>
    <tag k="school:trust" v="yes"/>
    <tag k="school:trust:name" v="Whinless Down Academy Trust"/>
    <tag k="school:trust:type" v="multi_academy"/>
    <tag k="school:type" v="academy"/>
    <tag k="website" v="https://www.vale-view.kent.sch.uk/"/>
    <tag k="wikidata" v="Q66232366"/>
  </way>
  <way id="55304851" version="10" timestamp="2024-09-18T12:34:02Z" changeset="156771267" uid="11471297" user="Palgrave Peter">
    <nd ref="694814980"/>
    <nd ref="694814984"/>
    <nd ref="694814989"/>
    <nd ref="694815057"/>
    <nd ref="694815081"/>
    <nd ref="12184004347"/>
    <nd ref="694815077"/>
    <nd ref="694815060"/>
    <nd ref="847291407"/>
    <nd ref="694814997"/>
    <nd ref="694814988"/>
    <nd ref="694814983"/>
    <nd ref="694814980"/>
    <tag k="addr:city" v="Dover"/>
    <tag k="addr:country" v="GB"/>
    <tag k="addr:county" v="Kent"/>
    <tag k="addr:postcode" v="CT16 2QB"/>
    <tag k="addr:street" v="Old Charlton Road"/>
    <tag k="amenity" v="school"/>
    <tag k="capacity" v="600"/>
    <tag k="denomination" v="roman_catholic"/>
    <tag k="diocese" v="Archdiocese of Southwark"/>
    <tag k="isced:level" v="2;3"/>
    <tag k="max_age" v="18"/>
    <tag k="min_age" v="11"/>
    <tag k="name" v="St Edmund's Catholic School"/>
    <tag k="phone" v="+44 1304 201551"/>
    <tag k="ref:GB:uprn" v="100062289422"/>
    <tag k="ref:edubase" v="141217"/>
    <tag k="ref:edubase:group" v="3594"/>
    <tag k="religion" v="christian"/>
    <tag k="school:boarding" v="no"/>
    <tag k="school:gender" v="mixed"/>
    <tag k="school:selective" v="no"/>
    <tag k="school:trust" v="yes"/>
    <tag k="school:trust:name" v="Kent Catholic Schools' Partnership"/>
    <tag k="school:trust:type" v="multi_academy"/>
    <tag k="school:type" v="academy"/>
    <tag k="source:addr" v="http://st-edmunds.com/contact-us-2/"/>
    <tag k="source:phone" v="http://st-edmunds.com/contact-us-2/"/>
    <tag k="website" v="https://www.st-edmunds.com/"/>
    <tag k="wikidata" v="Q16899610"/>
  </way>
  <way id="55388083" version="10" timestamp="2023-07-02T15:04:56Z" changeset="138027381" uid="5229644" user="Nathan_A_RF">
    <nd ref="9796164141"/>
    <nd ref="695863497"/>
    <nd ref="695863499"/>
    <nd ref="9796165023"/>
    <nd ref="9796164141"/>
    <tag k="addr:city" v="Dover"/>
    <tag k="addr:country" v="GB"/>
    <tag k="addr:county" v="Kent"/>
    <tag k="addr:postcode" v="CT17 9BN"/>
    <tag k="addr:street" v="Union Street"/>
    <tag k="building" v="yes"/>
    <tag k="emergency" v="water_rescue"/>
    <tag k="name" v="Dover Lifeboat Station"/>
    <tag k="operator" v="Royal National Lifeboat Institution"/>
    <tag k="operator:short" v="RNLI"/>
    <tag k="operator:wikidata" v="Q2166873"/>
    <tag k="phone" v="+44 1304204280"/>
    <tag k="seamark:name" v="Dover Lifeboat Station"/>
    <tag k="seamark:rescue_station:category" v="lifeboat"/>
    <tag k="website" v="https://rnli.org/find-my-nearest/lifeboat-stations/dover-lifeboat-station"/>
    <tag k="wikidata" v="Q15214871"/>
  </way>
  <way id="55400306" version="10" timestamp="2022-08-02T10:21:42Z" changeset="124384356" uid="6816132" user="CjMalone">
    <nd ref="696029618"/>
    <nd ref="697337407"/>
    <nd ref="696029614"/>
    <nd ref="696029613"/>
    <nd ref="696029618"/>
    <tag k="addr:city" v="Dover"/>
    <tag k="addr:country" v="GB"/>
    <tag k="addr:county" v="Kent"/>
    <tag k="addr:housenumber" v="68-72"/>
    <tag k="addr:postcode" v="CT16 1BW"/>
    <tag k="addr:street" v="Pencester Road"/>
    <tag k="amenity" v="post_office"/>
    <tag k="brand" v="Post Office"/>
    <tag k="brand:wikidata" v="Q1783168"/>
    <tag k="building" v="yes"/>
    <tag k="contact:website" v="https://www.postoffice.co.uk/branch-finder/2409097/dover"/>
    <tag k="name" v="Dover Post Office"/>
    <tag k="ref:pol_id" v="22747"/>
  </way>
  <way id="55433715" version="5" timestamp="2023-01-23T17:03:06Z" changeset="131616448" uid="6816132" user="CjMalone">
    <nd ref="696606534"/>
    <nd ref="10577037028"/>
    <nd ref="696606533"/>
    <nd ref="696606531"/>
    <nd ref="10577037027"/>
    <nd ref="696606532"/>
    <nd ref="696606641"/>
    <nd ref="696606539"/>
    <nd ref="696606648"/>
    <nd ref="696606647"/>
    <nd ref="696606656"/>
    <nd ref="696606652"/>
    <nd ref="696606655"/>
    <nd ref="696606654"/>
    <nd ref="696606660"/>
    <nd ref="696606646"/>
    <nd ref="696606645"/>
    <nd ref="696606642"/>
    <nd ref="696606659"/>
    <nd ref="696606653"/>
    <nd ref="696606658"/>
    <nd ref="696606651"/>
    <nd ref="696606657"/>
    <nd ref="696606650"/>
    <nd ref="696606649"/>
    <nd ref="5777678811"/>
    <nd ref="696606643"/>
    <nd ref="696606644"/>
    <nd ref="696606534"/>
    <tag k="addr:city" v="Dover"/>
    <tag k="addr:country" v="GB"/>
    <tag k="addr:county" v="Kent"/>
    <tag k="addr:postcode" v="CT16 1LQ"/>
    <tag k="addr:street" v="The Gateway"/>
    <tag k="building" v="yes"/>
    <tag k="name" v="Gateway Flats"/>
  </way>
  <way id="55433717" version="13" timestamp="2024-08-18T20:41:25Z" changeset="155433745" uid="21425661" user="CjMalone">
    <nd ref="696606618"/>
    <nd ref="1947891316"/>
    <nd ref="696606623"/>
    <nd ref="696606622"/>
    <nd ref="696606514"/>
    <nd ref="696606618"/>
    <tag k="addr:city" v="Dover"/>
    <tag k="addr:country" v="GB"/>
    <tag k="addr:county" v="Kent"/>
    <tag k="addr:housename" v="Castleton Retail Park"/>
    <tag k="addr:postcode" v="CT16 2QH"/>
    <tag k="addr:street" v="Charlton Green"/>
    <tag k="addr:unit" v="1"/>
    <tag k="brand" v="Asda"/>
    <tag k="brand:wikidata" v="Q297410"/>
    <tag k="brand:wikipedia" v="en:Asda"/>
    <tag k="building" v="yes"/>
    <tag k="check_date" v="2024-08-18"/>
    <tag k="check_date:opening_hours" v="2024-08-18"/>
    <tag k="contact:facebook" v="https://www.facebook.com/asdadover/"/>
    <tag k="contact:twitter" v="asda"/>
    <tag k="contact:website" v="https://storelocator.asda.com/south-east/dover/unit-1-charlton-green"/>
    <tag k="fhrs:id" v="254482"/>
    <tag k="name" v="Asda"/>
    <tag k="opening_hours" v="Mo-Sa 07:00-22:00; Su 10:00-16:00"/>
    <tag k="operator" v="Asda Stores Ltd"/>
    <tag k="shop" v="supermarket"/>
  </way>
  <way id="55433728" version="5" timestamp="2018-09-03T14:02:10Z" changeset="62249006" uid="1867429" user="James_Griffiths">
    <nd ref="696606515"/>
    <nd ref="696606517"/>
    <nd ref="5878735680"/>
    <nd ref="5878735681"/>
    <nd ref="443881338"/>
    <nd ref="443879857"/>
    <nd ref="5878735682"/>
    <nd ref="696606570"/>
    <nd ref="696606516"/>
    <nd ref="5878735683"/>
    <nd ref="696606515"/>
    <tag k="addr:city" v="Dover"/>
    <tag k="addr:country" v="GB"/>
    <tag k="addr:county" v="Kent"/>
    <tag k="addr:postcode" v="CT16 1TT"/>
    <tag k="addr:street" v="High Street"/>
    <tag k="building" v="yes"/>
    <tag k="name" v="The Charlton Shopping Centre"/>
    <tag k="shop" v="mall"/>
  </way>
  <way id="55433741" version="2" timestamp="2023-03-05T18:49:13Z" changeset="133336947" uid="3999" user="BarryMyles">
    <nd ref="696606565"/>
    <nd ref="10712846593"/>
    <nd ref="696606568"/>
    <nd ref="10712846594"/>
    <nd ref="10712846595"/>
    <nd ref="10712846596"/>
    <nd ref="10712846598"/>
    <nd ref="10712846601"/>
    <nd ref="10712846603"/>
    <nd ref="10712846602"/>
    <nd ref="10712846600"/>
    <nd ref="10712846905"/>
    <nd ref="10712846906"/>
    <nd ref="10712846907"/>
    <nd ref="10712846908"/>
    <nd ref="10712846604"/>
    <nd ref="10712846599"/>
    <nd ref="10712846597"/>
    <nd ref="696606571"/>
    <nd ref="696606566"/>
    <nd ref="10712846592"/>
    <nd ref="696606565"/>
    <tag k="addr:city" v="Dover"/>
    <tag k="addr:postcode" v="CT16 1BE"/>
    <tag k="addr:street" v="Biggin Street"/>
    <tag k="building" v="yes"/>
    <tag k="name" v="Dover Telephone Exchange"/>
    <tag k="operator" v="Openreach"/>
    <tag k="operator:wikidata" v="Q7096543"/>
    <tag k="ref" v="NDDOV"/>
    <tag k="telecom" v="exchange"/>
  </way>
  <way id="55433761" version="12" timestamp="2024-07-13T10:10:45Z" changeset="153886849" uid="581277" user="meihou">
    <nd ref="696606635"/>
    <nd ref="696606626"/>
    <nd ref="1947875050"/>
    <nd ref="1947875048"/>
    <nd ref="1947875053"/>
    <nd ref="1947875051"/>
    <nd ref="696606621"/>
    <nd ref="696606620"/>
    <nd ref="696606635"/>
    <tag k="addr:city" v="Dover"/>
    <tag k="addr:country" v="GB"/>
    <tag k="addr:county" v="Kent"/>
    <tag k="addr:postcode" v="CT16 2LB"/>
    <tag k="addr:street" v="Bridge Street"/>
    <tag k="brand" v="Morrisons"/>
    <tag k="brand:wikidata" v="Q922344"/>
    <tag k="brand:wikipedia" v="en:Morrisons"/>
    <tag k="building" v="retail"/>
    <tag k="fhrs:id" v="254636"/>
    <tag k="name" v="Morrisons"/>
    <tag k="opening_hours" v="Mo-Sa 07:00-22:00; Su 10:00-16:00"/>
    <tag k="shop" v="supermarket"/>
    <tag k="toilets" v="yes"/>
    <tag k="toilets:access" v="yes"/>
    <tag k="website" v="https://my.morrisons.com/storefinder/441/dover"/>
  </way>
  <way id="55433762" version="12" timestamp="2024-08-26T01:30:06Z" changeset="155760197" uid="21426772" user="Hyperioum">
    <nd ref="696606630"/>
    <nd ref="696606633"/>
    <nd ref="696606632"/>
    <nd ref="696606631"/>
    <nd ref="696606630"/>
    <tag k="addr:city" v="Dover"/>
    <tag k="addr:country" v="GB"/>
    <tag k="addr:county" v="Kent"/>
    <tag k="addr:full" v="2 Granville Street, Dover, Kent CT16 2QX"/>
    <tag k="addr:housenumber" v="2"/>
    <tag k="addr:postcode" v="CT16 2QX"/>
    <tag k="addr:street" v="Granville Street"/>
    <tag k="brand" v="PureGym"/>
    <tag k="brand:wikidata" v="Q18345898"/>
    <tag k="building" v="yes"/>
    <tag k="leisure" v="fitness_centre"/>
    <tag k="name" v="PureGym"/>
    <tag k="phone" v="+44 1304 212515"/>
  </way>
  <way id="55433766" version="13" timestamp="2024-07-20T16:21:31Z" changeset="154186466" uid="229347" user="RossA">
    <nd ref="845361742"/>
    <nd ref="845362150"/>
    <nd ref="845361785"/>
    <nd ref="845361854"/>
    <nd ref="845361764"/>
    <nd ref="696606669"/>
    <nd ref="845361748"/>
    <nd ref="696606670"/>
    <nd ref="696606668"/>
    <nd ref="696606662"/>
    <nd ref="845361687"/>
    <nd ref="1935067591"/>
    <nd ref="696606661"/>
    <nd ref="696606667"/>
    <nd ref="1935067507"/>
    <nd ref="696606666"/>
    <nd ref="696606665"/>
    <nd ref="12064965056"/>
    <nd ref="696606664"/>
    <nd ref="1935067527"/>
    <nd ref="696606663"/>
    <nd ref="845361937"/>
    <nd ref="845361572"/>
    <nd ref="845361835"/>
    <nd ref="845362143"/>
    <nd ref="696606672"/>
    <nd ref="845361753"/>
    <nd ref="845362157"/>
    <nd ref="9411392511"/>
    <nd ref="845361860"/>
    <nd ref="845361608"/>
    <nd ref="845361968"/>
    <nd ref="845361543"/>
    <nd ref="845361921"/>
    <nd ref="845361675"/>
    <nd ref="845362054"/>
    <nd ref="9411392512"/>
    <nd ref="845361742"/>
    <tag k="addr:city" v="Dover"/>
    <tag k="addr:country" v="GB"/>
    <tag k="addr:county" v="Kent"/>
    <tag k="addr:housename" v="Marine Court"/>
    <tag k="addr:postcode" v="CT16 1LW"/>
    <tag k="addr:street" v="Marine Parade"/>
    <tag k="brand" v="Premier Inn"/>
    <tag k="brand:wikidata" v="Q2108626"/>
    <tag k="brand:wikipedia" v="en:Premier Inn"/>
    <tag k="building" v="yes"/>
    <tag k="building:levels" v="4"/>
    <tag k="internet_access" v="wlan"/>
    <tag k="internet_access:fee" v="customers"/>
    <tag k="internet_access:operator" v="Virgin Media"/>
    <tag k="internet_access:ssid" v="Premier Inn Free Wi-Fi"/>
    <tag k="name" v="Premier Inn"/>
    <tag k="operator" v="Whitbread"/>
    <tag k="phone" v="+44 871 5278306"/>
    <tag k="source" v="Bing"/>
    <tag k="tourism" v="hotel"/>
    <tag k="website" v="https://www.premierinn.com/gb/en/hotels/england/kent/dover/dover-central-eastern-ferry-terminal.html"/>
  </way>
  <way id="55439912" version="4" timestamp="2022-01-08T17:06:03Z" changeset="115917402" uid="242345" user="confusedbuffalo">
    <nd ref="696644239"/>
    <nd ref="696644240"/>
    <nd ref="696644238"/>
    <nd ref="696644241"/>
    <nd ref="696644239"/>
    <tag k="addr:city" v="Dover"/>
    <tag k="addr:country" v="GB"/>
    <tag k="addr:county" v="Kent"/>
    <tag k="addr:housenumber" v="27-32"/>
    <tag k="addr:postcode" v="CT16 1RF"/>
    <tag k="addr:street" v="Maison Dieu Road"/>
    <tag k="amenity" v="place_of_worship"/>
    <tag k="building" v="yes"/>
    <tag k="denomination" v="baptist"/>
    <tag k="fhrs:id" v="624166"/>
    <tag k="name" v="Dover Baptist Church"/>
    <tag k="religion" v="christian"/>
    <tag k="source:addr" v="FHRS Open Data"/>
  </way>
  <way id="55439914" version="14" timestamp="2022-09-26T11:49:13Z" changeset="126652568" uid="6816132" user="CjMalone">
    <nd ref="696644242"/>
    <nd ref="696644245"/>
    <nd ref="696644246"/>
    <nd ref="1947865771"/>
    <nd ref="1947865766"/>
    <nd ref="696644244"/>
    <nd ref="696644242"/>
    <tag k="addr:city" v="Dover"/>
    <tag k="addr:country" v="GB"/>
    <tag k="addr:county" v="Kent"/>
    <tag k="addr:full" v="Cherry Tree Avenue Buckland, Dover CT16 2NL"/>
    <tag k="addr:postcode" v="CT16 2NL"/>
    <tag k="addr:street" v="Cherry Tree Avenue"/>
    <tag k="brand" v="ALDI"/>
    <tag k="brand:wikidata" v="Q41171672"/>
    <tag k="brand:wikipedia" v="en:Aldi"/>
    <tag k="building" v="yes"/>
    <tag k="contact:website" v="https://stores.aldi.co.uk/dover/cherry-tree-avenue"/>
    <tag k="name" v="ALDI"/>
    <tag k="opening_hours" v="Mo-Sa 08:00-22:00; Su 10:00-16:00"/>
    <tag k="shop" v="supermarket"/>
  </way>
  <way id="55440703" version="9" timestamp="2023-07-30T09:59:51Z" changeset="139202599" uid="242345" user="confusedbuffalo">
    <nd ref="696653147"/>
    <nd ref="696653148"/>
    <nd ref="696653149"/>
    <nd ref="696653154"/>
    <nd ref="696653153"/>
    <nd ref="845361916"/>
    <nd ref="845361672"/>
    <nd ref="845361538"/>
    <nd ref="845362043"/>
    <nd ref="845361990"/>
    <nd ref="845361737"/>
    <nd ref="845361619"/>
    <nd ref="845361714"/>
    <nd ref="845362112"/>
    <nd ref="845361802"/>
    <nd ref="845361516"/>
    <nd ref="696653150"/>
    <nd ref="845361902"/>
    <nd ref="845361667"/>
    <nd ref="845361858"/>
    <nd ref="845361547"/>
    <nd ref="845361926"/>
    <nd ref="696653151"/>
    <nd ref="696653146"/>
    <nd ref="696653147"/>
    <tag k="addr:city" v="Dover"/>
    <tag k="addr:country" v="GB"/>
    <tag k="addr:county" v="Kent"/>
    <tag k="addr:postcode" v="CT16 2PZ"/>
    <tag k="addr:street" v="Frith Road"/>
    <tag k="amenity" v="school"/>
    <tag k="capacity" v="885"/>
    <tag k="contact:phone" v="+44 1304 206625"/>
    <tag k="contact:website" v="http://dggs.kent.sch.uk/"/>
    <tag k="female" v="yes"/>
    <tag k="fhrs:id" v="254648"/>
    <tag k="isced:level" v="2;3"/>
    <tag k="male" v="no"/>
    <tag k="max_age" v="18"/>
    <tag k="min_age" v="11"/>
    <tag k="name" v="Dover Grammar School for Girls"/>
    <tag k="ref:GB:uprn" v="100062289176"/>
    <tag k="ref:edubase" v="118806"/>
    <tag k="school:gender" v="female"/>
    <tag k="school:selective" v="yes"/>
    <tag k="school:trust" v="no"/>
    <tag k="school:type" v="community"/>
    <tag k="source:addr" v="FHRS Open Data"/>
    <tag k="wikidata" v="Q5302489"/>
  </way>
  <way id="55442907" version="12" timestamp="2024-09-20T17:26:44Z" changeset="156879232" uid="11471297" user="Palgrave Peter">
    <nd ref="696692918"/>
    <nd ref="12188654275"/>
    <nd ref="696692952"/>
    <nd ref="1603321128"/>
    <nd ref="696692936"/>
    <nd ref="3937989521"/>
    <nd ref="696692953"/>
    <nd ref="823545497"/>
    <nd ref="696692993"/>
    <nd ref="3937989520"/>
    <nd ref="696692983"/>
    <nd ref="696692976"/>
    <nd ref="697352781"/>
    <nd ref="3937989516"/>
    <nd ref="696692962"/>
    <nd ref="3937989515"/>
    <nd ref="3937989509"/>
    <nd ref="696692963"/>
    <nd ref="3937989508"/>
    <nd ref="697352822"/>
    <nd ref="696692906"/>
    <nd ref="696692907"/>
    <nd ref="696692929"/>
    <nd ref="1603321064"/>
    <nd ref="696692909"/>
    <nd ref="696692910"/>
    <nd ref="696692908"/>
    <nd ref="696692917"/>
    <nd ref="696692918"/>
    <tag k="addr:city" v="Dover"/>
    <tag k="addr:country" v="GB"/>
    <tag k="addr:county" v="Kent"/>
    <tag k="addr:postcode" v="CT17 9RH"/>
    <tag k="addr:street" v="Effingham Crescent"/>
    <tag k="amenity" v="school"/>
    <tag k="capacity" v="478"/>
    <tag k="contact:phone" v="+44 1304 205969"/>
    <tag k="contact:website" v="https://www.dovercollege.org.uk"/>
    <tag k="denomination" v="anglican"/>
    <tag k="fhrs:id" v="452086"/>
    <tag k="isced:level" v="0;1;2;3"/>
    <tag k="max_age" v="18"/>
    <tag k="min_age" v="3"/>
    <tag k="name" v="Dover College"/>
    <tag k="ref:GB:uprn" v="100062290526"/>
    <tag k="ref:edubase" v="118940"/>
    <tag k="religion" v="christian"/>
    <tag k="school:boarding" v="yes"/>
    <tag k="school:gender" v="mixed"/>
    <tag k="school:selective" v="no"/>
    <tag k="school:trust" v="no"/>
    <tag k="school:type" v="independent"/>
    <tag k="source:addr" v="FHRS Open Data"/>
    <tag k="wikidata" v="Q5302478"/>
  </way>
  <way id="55442921" version="4" timestamp="2011-05-19T22:25:40Z" changeset="8194110" uid="47487" user="IJMacD">
    <nd ref="845362115"/>
    <nd ref="845362060"/>
    <nd ref="696693003"/>
    <nd ref="696693004"/>
    <nd ref="845362115"/>
    <tag k="addr:city" v="Dover"/>
    <tag k="addr:country" v="GB"/>
    <tag k="addr:county" v="Kent"/>
    <tag k="addr:housenumber" v="3"/>
    <tag k="addr:postcode" v="CT16 1DQ"/>
    <tag k="addr:street" v="Park Place"/>
    <tag k="amenity" v="restaurant"/>
    <tag k="building" v="yes"/>
    <tag k="cuisine" v="chinese"/>
    <tag k="name" v="Red House"/>
  </way>
  <way id="55442922" version="6" timestamp="2024-09-16T17:37:59Z" changeset="156698878" uid="21426772" user="Hyperioum">
    <nd ref="696693000"/>
    <nd ref="696693001"/>
    <nd ref="696693002"/>
    <nd ref="696693003"/>
    <nd ref="696693004"/>
    <nd ref="696693000"/>
    <tag k="addr:city" v="Dover"/>
    <tag k="addr:country" v="GB"/>
    <tag k="addr:county" v="Kent"/>
    <tag k="addr:housenumber" v="1-2"/>
    <tag k="addr:postcode" v="CT16 1DQ"/>
    <tag k="addr:street" v="Park Place"/>
    <tag k="amenity" v="pub"/>
    <tag k="building" v="yes"/>
    <tag k="name" v="ATIS The Park Inn"/>
  </way>
  <way id="55442923" version="3" timestamp="2011-05-19T22:24:29Z" changeset="8194110" uid="47487" user="IJMacD">
    <nd ref="696029651"/>
    <nd ref="696029650"/>
    <nd ref="696029654"/>
    <nd ref="696692996"/>
    <nd ref="696029651"/>
    <tag k="addr:city" v="Dover"/>
    <tag k="addr:country" v="GB"/>
    <tag k="addr:county" v="Kent"/>
    <tag k="addr:housenumber" v="8"/>
    <tag k="addr:postcode" v="CT16 1DQ"/>
    <tag k="addr:street" v="Ladywell"/>
    <tag k="amenity" v="pub"/>
    <tag k="building" v="yes"/>
    <tag k="name" v="Sir John Falstaff"/>
  </way>
  <way id="55473014" version="6" timestamp="2023-10-21T10:05:08Z" changeset="142916462" uid="6816132" user="CjMalone">
    <nd ref="697157840"/>
    <nd ref="697157841"/>
    <nd ref="697157836"/>
    <nd ref="697157837"/>
    <nd ref="697157840"/>
    <tag k="addr:city" v="Dover"/>
    <tag k="addr:country" v="GB"/>
    <tag k="addr:county" v="Kent"/>
    <tag k="addr:housenumber" v="1"/>
    <tag k="addr:postcode" v="CT16 2NR"/>
    <tag k="addr:street" v="Buckland Avenue"/>
    <tag k="amenity" v="post_office"/>
    <tag k="brand" v="Post Office"/>
    <tag k="brand:wikidata" v="Q1783168"/>
    <tag k="building" v="yes"/>
    <tag k="name" v="Buckland Bridge"/>
    <tag k="ref:pol_id" v="2556"/>
    <tag k="website" v="https://www.postoffice.co.uk/branch-finder/1409093/crabble"/>
  </way>
  <way id="55532650" version="3" timestamp="2018-08-02T20:29:04Z" changeset="61309648" uid="1337109" user="PeterDus">
    <nd ref="697916847"/>
    <nd ref="697916850"/>
    <nd ref="5805062667"/>
    <nd ref="5805062669"/>
    <nd ref="5805062670"/>
    <nd ref="5805062668"/>
    <nd ref="697916887"/>
    <nd ref="697916885"/>
    <nd ref="697916847"/>
    <tag k="addr:city" v="Dover"/>
    <tag k="addr:housename" v="Belper House"/>
    <tag k="addr:housenumber" v="47"/>
    <tag k="addr:postcode" v="CT16 1HE"/>
    <tag k="addr:street" v="Park Avenue"/>
    <tag k="building" v="yes"/>
  </way>
  <way id="55536125" version="4" timestamp="2021-06-06T12:48:34Z" changeset="105915615" uid="13385567" user="Brigantian">
    <nd ref="697981133"/>
    <nd ref="697981134"/>
    <nd ref="697981136"/>
    <nd ref="697981137"/>
    <nd ref="697981133"/>
    <tag k="addr:housenumber" v="2"/>
    <tag k="addr:street" v="Balfour Road"/>
    <tag k="building" v="house"/>
  </way>
  <way id="55536136" version="8" timestamp="2016-05-28T10:51:20Z" changeset="39621915" uid="152289" user="cgu66">
    <nd ref="697981190"/>
    <nd ref="697981191"/>
    <nd ref="697981192"/>
    <nd ref="697981193"/>
    <nd ref="697981190"/>
    <tag k="addr:street" v="Beaconsfield Road"/>
    <tag k="amenity" v="place_of_worship"/>
    <tag k="building" v="yes"/>
    <tag k="denomination" v="methodist;united_reformed"/>
    <tag k="name" v="Beacon Church"/>
    <tag k="religion" v="christian"/>
  </way>
  <way id="55536160" version="4" timestamp="2022-08-02T10:21:42Z" changeset="124384356" uid="6816132" user="CjMalone">
    <nd ref="697981422"/>
    <nd ref="697981420"/>
    <nd ref="697981419"/>
    <nd ref="697981424"/>
    <nd ref="697981422"/>
    <tag k="addr:city" v="Dover"/>
    <tag k="addr:country" v="GB"/>
    <tag k="addr:housenumber" v="71-72"/>
    <tag k="addr:postcode" v="CT17 0SR"/>
    <tag k="addr:street" v="London Road"/>
    <tag k="amenity" v="post_office"/>
    <tag k="brand" v="Post Office"/>
    <tag k="brand:wikidata" v="Q1783168"/>
    <tag k="building" v="yes"/>
    <tag k="contact:website" v="https://www.postoffice.co.uk/branch-finder/1399098/buckland"/>
    <tag k="name" v="Buckland Post Office"/>
    <tag k="ref:pol_id" v="2531"/>
  </way>
  <way id="64003114" version="9" timestamp="2024-07-25T15:09:17Z" changeset="154399262" uid="20252098" user="DoubleCart">
    <nd ref="789748704"/>
    <nd ref="12073695948"/>
    <nd ref="12073695949"/>
    <nd ref="12073695967"/>
    <nd ref="12073695950"/>
    <nd ref="11926122704"/>
    <nd ref="12073695951"/>
    <nd ref="12073695952"/>
    <nd ref="12073710575"/>
    <nd ref="12073695953"/>
    <nd ref="789748710"/>
    <nd ref="12073695954"/>
    <nd ref="11926122719"/>
    <nd ref="12073695955"/>
    <nd ref="12073710573"/>
    <nd ref="12073695956"/>
    <nd ref="12073695957"/>
    <nd ref="789748715"/>
    <nd ref="12073695958"/>
    <nd ref="789748720"/>
    <nd ref="11926122703"/>
    <nd ref="12073710572"/>
    <nd ref="12073710579"/>
    <nd ref="789748723"/>
    <nd ref="12073695959"/>
    <nd ref="12073695960"/>
    <nd ref="12073710584"/>
    <nd ref="12073695961"/>
    <nd ref="12073695962"/>
    <nd ref="12073710585"/>
    <nd ref="12073695963"/>
    <nd ref="12073695964"/>
    <nd ref="12073710588"/>
    <nd ref="12073710570"/>
    <nd ref="789748725"/>
    <nd ref="12073695940"/>
    <nd ref="12073695941"/>
    <nd ref="12073695968"/>
    <nd ref="12073695942"/>
    <nd ref="12073695943"/>
    <nd ref="12073695944"/>
    <nd ref="12073695945"/>
    <nd ref="12073695965"/>
    <nd ref="12073695946"/>
    <nd ref="12073695947"/>
    <nd ref="789748704"/>
    <tag k="addr:postcode" v="CT16 1HU"/>
    <tag k="addr:street" v="Castle Hill Road"/>
    <tag k="building" v="yes"/>
    <tag k="building:levels" v="10"/>
    <tag k="castle_type" v="defensive"/>
    <tag k="historic" v="castle"/>
    <tag k="historic:civilization" v="medieval"/>
    <tag k="name" v="The Great Tower"/>
    <tag k="source" v="OS_opendata_streetview"/>
  </way>
  <way id="64110644" version="7" timestamp="2023-07-16T16:52:05Z" changeset="138586822" uid="242345" user="confusedbuffalo">
    <nd ref="790484996"/>
    <nd ref="790485052"/>
    <nd ref="790485026"/>
    <nd ref="790485150"/>
    <nd ref="790484996"/>
    <tag k="addr:city" v="Dover"/>
    <tag k="addr:country" v="GB"/>
    <tag k="addr:full" v="Elms Vale Road Dover Kent CT17 9PS"/>
    <tag k="addr:postcode" v="CT17 9PS"/>
    <tag k="addr:street" v="Elms Vale Road"/>
    <tag k="amenity" v="school"/>
    <tag k="contact:phone" v="+44 1304 201964"/>
    <tag k="contact:website" v="https://www.elmsschool.org/"/>
    <tag k="isced:level" v="1;2"/>
    <tag k="max_age" v="16"/>
    <tag k="min_age" v="5"/>
    <tag k="name" v="Elms School"/>
    <tag k="ref:GB:uprn" v="100062290540"/>
    <tag k="ref:edubase" v="119046"/>
    <tag k="ref:edubase:group" v="16368"/>
    <tag k="school:trust" v="yes"/>
    <tag k="school:trust:name" v="Kent Special Educational Needs Trust (KSENT)"/>
    <tag k="school:type" v="special"/>
    <tag k="wikidata" v="Q67148942"/>
  </way>
  <way id="67375403" version="7" timestamp="2024-09-20T16:08:31Z" changeset="156875631" uid="11471297" user="Palgrave Peter">
    <nd ref="813706322"/>
    <nd ref="33200155"/>
    <nd ref="813706127"/>
    <nd ref="813705029"/>
    <nd ref="813704822"/>
    <nd ref="813705739"/>
    <nd ref="813706030"/>
    <nd ref="813705102"/>
    <nd ref="813705426"/>
    <nd ref="813705343"/>
    <nd ref="813705663"/>
    <nd ref="813705167"/>
    <nd ref="813705897"/>
    <nd ref="813706211"/>
    <nd ref="813705259"/>
    <nd ref="813705583"/>
    <nd ref="3928228690"/>
    <nd ref="813706322"/>
    <tag k="addr:city" v="Dover"/>
    <tag k="addr:country" v="GB"/>
    <tag k="addr:postcode" v="CT17 0LB"/>
    <tag k="addr:street" v="St. Radigund's Road"/>
    <tag k="amenity" v="school"/>
    <tag k="capacity" v="360"/>
    <tag k="contact:phone" v="+44 1304 206174"/>
    <tag k="contact:website" v="http://www.whitecliffs-primarycollege.co.uk/"/>
    <tag k="isced:level" v="0;1"/>
    <tag k="max_age" v="11"/>
    <tag k="min_age" v="4"/>
    <tag k="name" v="White Cliffs Primary and Nursery School"/>
    <tag k="old_name" v="White Cliffs Primary College for the Arts"/>
    <tag k="ref:GB:uprn" v="200002882635"/>
    <tag k="ref:edubase" v="138168"/>
    <tag k="ref:edubase:group" v="4958"/>
    <tag k="school:trust" v="yes"/>
    <tag k="school:trust:name" v="Samphire Star Education Trust"/>
    <tag k="school:trust:type" v="multi_academy"/>
    <tag k="school:type" v="academy"/>
    <tag k="wikidata" v="Q66229522"/>
  </way>
  <way id="68441183" version="5" timestamp="2018-12-02T19:15:26Z" changeset="65103238" uid="242345" user="confusedbuffalo">
    <nd ref="823475655"/>
    <nd ref="823475658"/>
    <nd ref="697916526"/>
    <nd ref="697916532"/>
    <nd ref="823475655"/>
    <tag k="addr:city" v="Dover"/>
    <tag k="addr:country" v="GB"/>
    <tag k="addr:county" v="Kent"/>
    <tag k="addr:housenumber" v="59"/>
    <tag k="addr:postcode" v="CT16 1RA"/>
    <tag k="addr:street" v="Maison Dieu Road"/>
    <tag k="amenity" v="pub"/>
    <tag k="building" v="yes"/>
    <tag k="name" v="Louis Armstrong"/>
    <tag k="phone" v="+44 1304204759"/>
  </way>
  <way id="70931687" version="5" timestamp="2024-05-05T22:33:45Z" changeset="150941201" uid="21426772" user="Hyperioum">
    <nd ref="845361820"/>
    <nd ref="845362024"/>
    <nd ref="845361660"/>
    <nd ref="845362130"/>
    <nd ref="845361820"/>
    <tag k="addr:city" v="Dover"/>
    <tag k="addr:country" v="GB"/>
    <tag k="addr:county" v="Kent"/>
    <tag k="addr:housenumber" v="7"/>
    <tag k="addr:postcode" v="CT16 1DQ"/>
    <tag k="addr:street" v="Park Place"/>
    <tag k="building" v="yes"/>
    <tag k="clothes" v="wedding"/>
    <tag k="name" v="Cherished Gowns"/>
    <tag k="shop" v="clothes"/>
  </way>
  <way id="70931696" version="2" timestamp="2011-05-19T22:23:14Z" changeset="8194110" uid="47487" user="IJMacD">
    <nd ref="845362068"/>
    <nd ref="845361788"/>
    <nd ref="845361685"/>
    <nd ref="845362097"/>
    <nd ref="845362068"/>
    <tag k="addr:city" v="Dover"/>
    <tag k="addr:country" v="GB"/>
    <tag k="addr:county" v="Kent"/>
    <tag k="addr:housenumber" v="324"/>
    <tag k="addr:postcode" v="CT17 0SX"/>
    <tag k="addr:street" v="London Road"/>
    <tag k="amenity" v="pub"/>
    <tag k="building" v="yes"/>
    <tag k="name" v="The Eagle Inn"/>
  </way>
  <way id="70931697" version="2" timestamp="2011-05-19T22:23:46Z" changeset="8194110" uid="47487" user="IJMacD">
    <nd ref="845361501"/>
    <nd ref="845361798"/>
    <nd ref="696693007"/>
    <nd ref="696693006"/>
    <nd ref="845361501"/>
    <tag k="addr:city" v="Dover"/>
    <tag k="addr:country" v="GB"/>
    <tag k="addr:county" v="Kent"/>
    <tag k="addr:housenumber" v="9"/>
    <tag k="addr:postcode" v="CT16 1DQ"/>
    <tag k="addr:street" v="Park Place"/>
    <tag k="amenity" v="restaurant"/>
    <tag k="building" v="yes"/>
    <tag k="cuisine" v="fish_and_chips"/>
    <tag k="name" v="The Happy Fryer"/>
  </way>
  <way id="70931702" version="5" timestamp="2024-09-16T17:37:59Z" changeset="156698878" uid="21426772" user="Hyperioum">
    <nd ref="845361660"/>
    <nd ref="845362024"/>
    <nd ref="12180671885"/>
    <nd ref="12180671886"/>
    <nd ref="12180671887"/>
    <nd ref="12126359708"/>
    <nd ref="845361707"/>
    <nd ref="845361660"/>
    <tag k="addr:city" v="Dover"/>
    <tag k="addr:country" v="GB"/>
    <tag k="addr:county" v="Kent"/>
    <tag k="addr:housenumber" v="6"/>
    <tag k="addr:postcode" v="CT16 1DQ"/>
    <tag k="addr:street" v="Park Place"/>
    <tag k="amenity" v="place_of_worship"/>
    <tag k="building" v="yes"/>
    <tag k="name" v="Dover Masjid"/>
    <tag k="religion" v="muslim"/>
  </way>
  <way id="70931703" version="3" timestamp="2024-05-05T22:33:45Z" changeset="150941201" uid="21426772" user="Hyperioum">
    <nd ref="845361501"/>
    <nd ref="845361820"/>
    <nd ref="845362130"/>
    <nd ref="845361798"/>
    <nd ref="845361501"/>
    <tag k="addr:city" v="Dover"/>
    <tag k="addr:country" v="GB"/>
    <tag k="addr:county" v="Kent"/>
    <tag k="addr:housenumber" v="8"/>
    <tag k="addr:postcode" v="CT16 1DQ"/>
    <tag k="addr:street" v="Park Place"/>
    <tag k="amenity" v="cafe"/>
    <tag k="building" v="yes"/>
    <tag k="name" v="White Cliffs Cafe"/>
    <tag k="outdoor_seating" v="yes"/>
  </way>
  <way id="70931716" version="5" timestamp="2018-12-02T19:15:26Z" changeset="65103238" uid="242345" user="confusedbuffalo">
    <nd ref="845361609"/>
    <nd ref="845361664"/>
    <nd ref="845361861"/>
    <nd ref="845362029"/>
    <nd ref="845361609"/>
    <tag k="addr:city" v="Dover"/>
    <tag k="addr:country" v="GB"/>
    <tag k="addr:county" v="Kent"/>
    <tag k="addr:postcode" v="CT17 9QA"/>
    <tag k="addr:street" v="Clarendon Road"/>
    <tag k="amenity" v="pub"/>
    <tag k="building" v="yes"/>
    <tag k="name" v="The Malvern"/>
    <tag k="phone" v="+44 1304204010"/>
  </way>
  <way id="70931723" version="5" timestamp="2021-10-01T13:03:16Z" changeset="111963069" uid="8808716" user="20180911">
    <nd ref="696029431"/>
    <nd ref="696029433"/>
    <nd ref="9137722174"/>
    <nd ref="845361693"/>
    <nd ref="845362111"/>
    <nd ref="696029431"/>
    <tag k="addr:city" v="Dover"/>
    <tag k="addr:country" v="GB"/>
    <tag k="addr:county" v="Kent"/>
    <tag k="addr:housenumber" v="1"/>
    <tag k="addr:postcode" v="CT16 1JT"/>
    <tag k="addr:street" v="Cambridge Terrace"/>
    <tag k="amenity" v="restaurant"/>
    <tag k="building" v="yes"/>
    <tag k="cuisine" v="indian"/>
    <tag k="delivery" v="yes"/>
    <tag k="name" v="Cinnamon Island"/>
    <tag k="phone" v="+44 1304241688"/>
  </way>
  <way id="70931727" version="3" timestamp="2011-05-26T12:57:54Z" changeset="8253367" uid="47487" user="IJMacD">
    <nd ref="845361678"/>
    <nd ref="845361706"/>
    <nd ref="845361830"/>
    <nd ref="845362057"/>
    <nd ref="845361678"/>
    <tag k="addr:city" v="Dover"/>
    <tag k="addr:country" v="GB"/>
    <tag k="addr:county" v="Kent"/>
    <tag k="addr:housenumber" v="322"/>
    <tag k="addr:postcode" v="CT17 0SX"/>
    <tag k="addr:street" v="London Road"/>
    <tag k="amenity" v="restaurant"/>
    <tag k="building" v="yes"/>
    <tag k="cuisine" v="indian"/>
    <tag k="name" v="Taste of India"/>
    <tag k="phone" v="+44 1304 240122"/>
  </way>
  <way id="70931729" version="2" timestamp="2011-05-19T22:24:35Z" changeset="8194110" uid="47487" user="IJMacD">
    <nd ref="845361767"/>
    <nd ref="845361696"/>
    <nd ref="845361544"/>
    <nd ref="845361844"/>
    <nd ref="845361959"/>
    <nd ref="845361596"/>
    <nd ref="845361767"/>
    <tag k="addr:city" v="Dover"/>
    <tag k="addr:country" v="GB"/>
    <tag k="addr:county" v="Kent"/>
    <tag k="addr:postcode" v="CT17 9SB"/>
    <tag k="addr:street" v="Station Approach Road"/>
    <tag k="amenity" v="pub"/>
    <tag k="building" v="yes"/>
    <tag k="name" v="The Priory Hotel"/>
  </way>
  <way id="70931735" version="3" timestamp="2018-12-02T19:15:27Z" changeset="65103238" uid="242345" user="confusedbuffalo">
    <nd ref="845362116"/>
    <nd ref="801415724"/>
    <nd ref="801415403"/>
    <nd ref="845361578"/>
    <nd ref="845362116"/>
    <tag k="addr:city" v="Dover"/>
    <tag k="addr:country" v="GB"/>
    <tag k="addr:county" v="Kent"/>
    <tag k="addr:housenumber" v="1"/>
    <tag k="addr:postcode" v="CT16 2BZ"/>
    <tag k="addr:street" v="Sheridan Road"/>
    <tag k="amenity" v="fast_food"/>
    <tag k="building" v="yes"/>
    <tag k="cuisine" v="chinese"/>
    <tag k="name" v="Beijing Takeaway"/>
    <tag k="phone" v="+44 1304827703"/>
  </way>
  <way id="71168483" version="8" timestamp="2023-07-30T09:59:55Z" changeset="139202601" uid="242345" user="confusedbuffalo">
    <nd ref="694814983"/>
    <nd ref="694814988"/>
    <nd ref="694814997"/>
    <nd ref="847291180"/>
    <nd ref="9249097610"/>
    <nd ref="694814983"/>
    <tag k="addr:city" v="Dover"/>
    <tag k="addr:country" v="GB"/>
    <tag k="addr:county" v="Kent"/>
    <tag k="addr:postcode" v="CT16 2LX"/>
    <tag k="addr:street" v="Barton Road"/>
    <tag k="amenity" v="school"/>
    <tag k="capacity" v="210"/>
    <tag k="contact:phone" v="+44 1304 201275"/>
    <tag k="contact:website" v="http://www.charlton.kent.sch.uk/"/>
    <tag k="denomination" v="anglican"/>
    <tag k="diocese" v="Diocese of Canterbury"/>
    <tag k="isced:level" v="1"/>
    <tag k="max_age" v="11"/>
    <tag k="min_age" v="4"/>
    <tag k="name" v="Charlton Church of England Primary School"/>
    <tag k="ref:GB:uprn" v="100062289316"/>
    <tag k="ref:edubase" v="141659"/>
    <tag k="ref:edubase:group" v="2897"/>
    <tag k="religion" v="christian"/>
    <tag k="school:trust" v="yes"/>
    <tag k="school:trust:name" v="The Diocese of Canterbury Academies Trust"/>
    <tag k="school:trust:type" v="multi_academy"/>
    <tag k="school:type" v="academy"/>
    <tag k="source:addr" v="http://www.charlton.kent.sch.uk/"/>
    <tag k="wikidata" v="Q67149823"/>
  </way>
  <way id="114942062" version="1" timestamp="2011-05-26T12:57:51Z" changeset="8253367" uid="47487" user="IJMacD">
    <nd ref="1300646444"/>
    <nd ref="1300646439"/>
    <nd ref="1300646442"/>
    <nd ref="1300646436"/>
    <nd ref="1300646444"/>
    <tag k="addr:city" v="Dover"/>
    <tag k="addr:country" v="GB"/>
    <tag k="addr:county" v="Kent"/>
    <tag k="addr:housenumber" v="14"/>
    <tag k="addr:postcode" v="CT17 0ST"/>
    <tag k="addr:street" v="London Road"/>
    <tag k="building" v="yes"/>
    <tag k="name" v="Turner's Model Shop"/>
    <tag k="phone" v="+44 1304 203711"/>
  </way>
  <way id="114945151" version="2" timestamp="2011-05-29T22:13:35Z" changeset="8286699" uid="47487" user="IJMacD">
    <nd ref="1300696920"/>
    <nd ref="1300696821"/>
    <nd ref="1300696919"/>
    <nd ref="1300696857"/>
    <nd ref="1300696920"/>
    <tag k="addr:city" v="Dover"/>
    <tag k="addr:street" v="London Road"/>
    <tag k="building" v="yes"/>
    <tag k="name" v="King's Hall"/>
  </way>
  <way id="158339571" version="6" timestamp="2024-09-20T16:08:31Z" changeset="156875631" uid="11471297" user="Palgrave Peter">
    <nd ref="1705639361"/>
    <nd ref="1705639356"/>
    <nd ref="1705639346"/>
    <nd ref="1705639289"/>
    <nd ref="8482415131"/>
    <nd ref="1705639277"/>
    <nd ref="1705639252"/>
    <nd ref="8482415130"/>
    <nd ref="8482415129"/>
    <nd ref="1705639247"/>
    <nd ref="1705639246"/>
    <nd ref="1705639249"/>
    <nd ref="1705639281"/>
    <nd ref="1705639283"/>
    <nd ref="1705639285"/>
    <nd ref="1705639327"/>
    <nd ref="1705639350"/>
    <nd ref="1705639361"/>
    <tag k="addr:city" v="Dover"/>
    <tag k="addr:country" v="GB"/>
    <tag k="addr:county" v="Kent"/>
    <tag k="addr:postcode" v="CT17 0HD"/>
    <tag k="addr:street" v="Coombe Valley Road"/>
    <tag k="amenity" v="hospital"/>
    <tag k="emergency" v="no"/>
    <tag k="healthcare" v="hospital"/>
    <tag k="name" v="Buckland Hospital"/>
    <tag k="phone" v="+44 1304201624"/>
    <tag k="wikidata" v="Q30293037"/>
  </way>
  <way id="167792638" version="6" timestamp="2023-07-02T15:04:56Z" changeset="138027381" uid="5229644" user="Nathan_A_RF">
    <nd ref="1673834707"/>
    <nd ref="1791514046"/>
    <nd ref="1791514047"/>
    <nd ref="1674081733"/>
    <nd ref="1674081673"/>
    <nd ref="1674081661"/>
    <nd ref="1674081647"/>
    <nd ref="1674081747"/>
    <nd ref="1674081632"/>
    <nd ref="1674081756"/>
    <nd ref="1674081748"/>
    <nd ref="1674081640"/>
    <nd ref="1674081590"/>
    <nd ref="1674081615"/>
    <nd ref="1674081634"/>
    <nd ref="1674081645"/>
    <nd ref="1674081598"/>
    <nd ref="1674081700"/>
    <nd ref="1674081680"/>
    <nd ref="1674081594"/>
    <nd ref="1674081648"/>
    <nd ref="1674081723"/>
    <nd ref="1791514048"/>
    <nd ref="1791514051"/>
    <nd ref="1791514053"/>
    <nd ref="1791514055"/>
    <nd ref="1590450436"/>
    <nd ref="1590450265"/>
    <nd ref="1590450270"/>
    <nd ref="1590450456"/>
    <nd ref="1791514071"/>
    <nd ref="1791514072"/>
    <nd ref="1674067947"/>
    <nd ref="1674067664"/>
    <nd ref="1674067656"/>
    <nd ref="1674067897"/>
    <nd ref="1674067710"/>
    <nd ref="1674067949"/>
    <nd ref="1674067676"/>
    <nd ref="1674067873"/>
    <nd ref="1674067802"/>
    <nd ref="1674067673"/>
    <nd ref="1674067914"/>
    <nd ref="1674067693"/>
    <nd ref="1674067895"/>
    <nd ref="1674067695"/>
    <nd ref="1674067848"/>
    <nd ref="1791514028"/>
    <nd ref="1674100056"/>
    <nd ref="11020090863"/>
    <nd ref="1674100051"/>
    <nd ref="1674100040"/>
    <nd ref="11020090864"/>
    <nd ref="1674100039"/>
    <nd ref="1674100273"/>
    <nd ref="1674067759"/>
    <nd ref="1674100006"/>
    <nd ref="1674100220"/>
    <nd ref="1674100207"/>
    <nd ref="1674100096"/>
    <nd ref="1674100093"/>
    <nd ref="1674100167"/>
    <nd ref="1674100142"/>
    <nd ref="1674100154"/>
    <nd ref="1674100063"/>
    <nd ref="1674100164"/>
    <nd ref="1674100163"/>
    <nd ref="1674100152"/>
    <nd ref="1674100171"/>
    <nd ref="1674100249"/>
    <nd ref="1674100244"/>
    <nd ref="1674100270"/>
    <nd ref="1674100092"/>
    <nd ref="1674100058"/>
    <nd ref="1674100181"/>
    <nd ref="1674100178"/>
    <nd ref="1674100022"/>
    <nd ref="1674100042"/>
    <nd ref="1674100230"/>
    <nd ref="1674100113"/>
    <nd ref="7924298902"/>
    <nd ref="1674100235"/>
    <nd ref="1791514031"/>
    <nd ref="1791514035"/>
    <nd ref="1791514034"/>
    <nd ref="1791514036"/>
    <nd ref="1791514033"/>
    <nd ref="1791514032"/>
    <nd ref="1791514039"/>
    <nd ref="1791514040"/>
    <nd ref="1791514041"/>
    <nd ref="1791514042"/>
    <nd ref="1791514043"/>
    <nd ref="1791514044"/>
    <nd ref="1791514045"/>
    <nd ref="1674081730"/>
    <nd ref="1518055989"/>
    <nd ref="1674081579"/>
    <nd ref="1674081750"/>
    <nd ref="298421622"/>
    <nd ref="1674081764"/>
    <nd ref="1607409378"/>
    <nd ref="1674081743"/>
    <nd ref="137725710"/>
    <nd ref="1674081681"/>
    <nd ref="1674081610"/>
    <nd ref="1674081675"/>
    <nd ref="137725714"/>
    <nd ref="1674081739"/>
    <nd ref="1674081639"/>
    <nd ref="137725745"/>
    <nd ref="1674081596"/>
    <nd ref="137725720"/>
    <nd ref="1673834443"/>
    <nd ref="1607409350"/>
    <nd ref="137725727"/>
    <nd ref="1673834363"/>
    <nd ref="356732039"/>
    <nd ref="1673834996"/>
    <nd ref="137725734"/>
    <nd ref="1673834652"/>
    <nd ref="1673835012"/>
    <nd ref="137725740"/>
    <nd ref="1673834707"/>
    <tag k="addr:postcode" v="CT17 9FL"/>
    <tag k="addr:street" v="Samphire Road"/>
    <tag k="leisure" v="park"/>
    <tag k="name" v="Samphire Hoe Country Park"/>
    <tag k="old_name" v="Site A"/>
    <tag k="wikidata" v="Q7410114"/>
  </way>
  <way id="177949982" version="1" timestamp="2012-08-26T09:04:30Z" changeset="12863589" uid="190869" user="elbatrop">
    <nd ref="1883498420"/>
    <nd ref="1883498417"/>
    <nd ref="1883498416"/>
    <nd ref="1883498419"/>
    <nd ref="1883498420"/>
    <tag k="addr:city" v="Dover"/>
    <tag k="addr:housenumber" v="46-48"/>
    <tag k="addr:postcode" v="CT17 9PB"/>
    <tag k="addr:street" v="Eaton Road"/>
    <tag k="amenity" v="pub"/>
    <tag k="building" v="yes"/>
    <tag k="name" v="Boars Head"/>
    <tag k="operator" v="Punch Taverns"/>
  </way>
  <way id="183147630" version="2" timestamp="2023-10-28T20:38:24Z" changeset="143282739" uid="24119" user="Mauls">
    <nd ref="1935067538"/>
    <nd ref="1935067586"/>
    <nd ref="1935067547"/>
    <nd ref="1935067511"/>
    <nd ref="1935067631"/>
    <nd ref="1935067578"/>
    <nd ref="1935067597"/>
    <nd ref="1935067626"/>
    <nd ref="1935067498"/>
    <nd ref="1935067544"/>
    <nd ref="1935067559"/>
    <nd ref="1935067497"/>
    <nd ref="1935067573"/>
    <nd ref="1935067538"/>
    <tag k="addr:housename" v="Harbour House"/>
    <tag k="addr:street" v="Marine Parade"/>
    <tag k="building" v="yes"/>
    <tag k="name" v="Dover Harbour Board"/>
    <tag k="office" v="yes"/>
    <tag k="source" v="Bing"/>
  </way>
  <way id="183256288" version="3" timestamp="2024-11-11T05:24:06Z" changeset="158993756" uid="1472" user="AndiBing">
    <nd ref="1936365866"/>
    <nd ref="1936365869"/>
    <nd ref="1936365828"/>
    <nd ref="1936365872"/>
    <nd ref="1936365826"/>
    <nd ref="1936365865"/>
    <nd ref="1936365832"/>
    <nd ref="1936365811"/>
    <nd ref="1936365874"/>
    <nd ref="1936365862"/>
    <nd ref="1936365873"/>
    <nd ref="1936365817"/>
    <nd ref="1936365845"/>
    <nd ref="1936365858"/>
    <nd ref="1936365824"/>
    <nd ref="1936365848"/>
    <nd ref="1936365870"/>
    <nd ref="1936365876"/>
    <nd ref="1936365854"/>
    <nd ref="1936365812"/>
    <nd ref="1936365866"/>
    <tag k="addr:housename" v="Connaught Pumping Station"/>
    <tag k="addr:street" v="Connaught Road"/>
    <tag k="building" v="service"/>
    <tag k="building:material" v="brick"/>
    <tag k="building:prefabricated" v="no"/>
    <tag k="name" v="Connaught Pumping Station"/>
    <tag k="note" v="https://webapps.kent.gov.uk/KCC.ExploringKentsPast.Web.Sites.Public/SingleResult.aspx?uid=MKE26442"/>
    <tag k="source" v="local knowledge"/>
  </way>
  <way id="184322047" version="6" timestamp="2024-10-03T09:30:15Z" changeset="157409966" uid="2812670" user="manof25">
    <nd ref="1947891312"/>
    <nd ref="1947891315"/>
    <nd ref="1947891314"/>
    <nd ref="1947891325"/>
    <nd ref="1947891312"/>
    <tag k="addr:city" v="Dover"/>
    <tag k="addr:country" v="GB"/>
    <tag k="addr:housename" v="Castleton Retail Park"/>
    <tag k="addr:postcode" v="CT16 2QH"/>
    <tag k="addr:street" v="Charlton Green"/>
    <tag k="addr:unit" v="3"/>
    <tag k="brand" v="Farmfoods"/>
    <tag k="brand:wikidata" v="Q5435841"/>
    <tag k="brand:wikipedia" v="en:Farmfoods"/>
    <tag k="building" v="yes"/>
    <tag k="contact:website" v="https://www.farmfoods.co.uk/store-finder.php?branch_code=745"/>
    <tag k="fhrs:id" v="254217"/>
    <tag k="name" v="Farmfoods"/>
    <tag k="opening_hours" v="Mo-Fr 07:00-22:00; Sa 07:00-19:00; Su 10:00-16:00"/>
    <tag k="opening_hours:url" v="https://www.farmfoods.co.uk/store-finder.php?branch_code=745"/>
    <tag k="phone" v="+44 1304 211444"/>
    <tag k="shop" v="frozen_food"/>
    <tag k="source" v="receipt"/>
  </way>
  <way id="184322050" version="3" timestamp="2024-04-03T22:43:33Z" changeset="149546189" uid="6816132" user="CjMalone">
    <nd ref="1947891318"/>
    <nd ref="1947891315"/>
    <nd ref="1947891312"/>
    <nd ref="1947891327"/>
    <nd ref="1947891322"/>
    <nd ref="1947891320"/>
    <nd ref="1947891318"/>
    <tag k="addr:city" v="Dover"/>
    <tag k="addr:country" v="GB"/>
    <tag k="addr:housename" v="Castleton Retail Park"/>
    <tag k="addr:postcode" v="CT16 2QH"/>
    <tag k="addr:street" v="Charlton Green"/>
    <tag k="addr:unit" v="4"/>
    <tag k="brand" v="Poundstretcher"/>
    <tag k="brand:wikidata" v="Q7235675"/>
    <tag k="brand:wikipedia" v="en:Poundstretcher"/>
    <tag k="building" v="yes"/>
    <tag k="fhrs:id" v="509535"/>
    <tag k="name" v="Poundstretcher"/>
    <tag k="shop" v="variety_store"/>
    <tag k="website" v="https://www.poundstretcher.co.uk/dover-527"/>
  </way>
  <way id="184322745" version="8" timestamp="2025-01-15T16:24:07Z" changeset="161387506" uid="1867429" user="James_Griffiths">
    <nd ref="1947903403"/>
    <nd ref="1947903405"/>
    <nd ref="12504938804"/>
    <nd ref="1947903408"/>
    <nd ref="1947903411"/>
    <nd ref="1947903409"/>
    <nd ref="1947903407"/>
    <nd ref="1947903403"/>
    <tag k="addr:city" v="Dover"/>
    <tag k="addr:housenumber" v="55,57"/>
    <tag k="addr:postcode" v="CT16 1EB"/>
    <tag k="addr:street" v="High Street"/>
    <tag k="building" v="yes"/>
    <tag k="check_date" v="2016-11-04"/>
    <tag k="disused:shop" v="frozen_food"/>
    <tag k="old_name" v="Iceland"/>
    <tag k="source:addr" v="FHRS Open Data"/>
  </way>
  <way id="184647763" version="4" timestamp="2023-10-28T19:04:23Z" changeset="143278723" uid="24119" user="Mauls">
    <nd ref="1951470985"/>
    <nd ref="1951471001"/>
    <nd ref="1951470983"/>
    <nd ref="1951471042"/>
    <nd ref="1951470985"/>
    <tag k="addr:city" v="Dover"/>
    <tag k="addr:housename" v="Lifeboat House"/>
    <tag k="addr:postcode" v="CT17 9BX"/>
    <tag k="addr:street" v="Esplanade"/>
    <tag k="amenity" v="cafe"/>
    <tag k="building" v="yes"/>
    <tag k="name" v="Pedaler on the Port"/>
  </way>
  <way id="188028622" version="2" timestamp="2019-03-21T02:29:08Z" changeset="68359027" uid="9451067" user="b-jazz-bot">
    <nd ref="1986479955"/>
    <nd ref="1986489999"/>
    <nd ref="696029525"/>
    <nd ref="1986479958"/>
    <nd ref="1986479955"/>
    <tag k="addr:city" v="Dover"/>
    <tag k="addr:housenumber" v="77"/>
    <tag k="addr:postcode" v="CT16 1BB"/>
    <tag k="addr:street" v="Biggin Street"/>
    <tag k="building" v="yes"/>
    <tag k="lawyer" v="solicitor"/>
    <tag k="name" v="Frederic Hall Solicitors"/>
    <tag k="office" v="lawyer"/>
    <tag k="phone" v="+44 1304 202411"/>
    <tag k="website" v="https://www.frederic-hall.co.uk/"/>
  </way>
  <way id="188036443" version="10" timestamp="2024-04-21T08:28:40Z" changeset="150291514" uid="6816132" user="CjMalone">
    <nd ref="1986584539"/>
    <nd ref="1986584541"/>
    <nd ref="1986584544"/>
    <nd ref="730945572"/>
    <nd ref="1986584546"/>
    <nd ref="1986584547"/>
    <nd ref="696029584"/>
    <nd ref="696029585"/>
    <nd ref="697337406"/>
    <nd ref="1986584543"/>
    <nd ref="730896491"/>
    <nd ref="1986584539"/>
    <tag k="addr:city" v="Dover"/>
    <tag k="addr:country" v="GB"/>
    <tag k="addr:county" v="Kent"/>
    <tag k="addr:housenumber" v="18-19"/>
    <tag k="addr:postcode" v="CT16 1BH"/>
    <tag k="addr:street" v="Biggin Street"/>
    <tag k="brand" v="Boots"/>
    <tag k="brand:wikidata" v="Q6123139"/>
    <tag k="brand:wikipedia" v="en:Boots (company)"/>
    <tag k="building" v="yes"/>
    <tag k="dispensing" v="yes"/>
    <tag k="fhrs:id" v="254477"/>
    <tag k="name" v="Boots"/>
    <tag k="pharmacy" v="yes"/>
    <tag k="shop" v="chemist"/>
    <tag k="source:addr" v="FHRS Open Data"/>
    <tag k="website" v="https://www.boots.com/stores/987-dover-biggin-street-ct16-1bh"/>
    <tag k="wheelchair" v="yes"/>
  </way>
  <way id="310055618" version="4" timestamp="2021-02-26T16:17:59Z" changeset="100062458" uid="5008136" user="JayTurnr">
    <nd ref="1986818929"/>
    <nd ref="3154011652"/>
    <nd ref="8461555083"/>
    <nd ref="695863721"/>
    <nd ref="1986818931"/>
    <nd ref="1986818929"/>
    <tag k="addr:city" v="Dover"/>
    <tag k="addr:housenumber" v="5"/>
    <tag k="addr:postcode" v="CT16 1NW"/>
    <tag k="addr:street" v="King Street"/>
    <tag k="area" v="yes"/>
    <tag k="name" v="Geering &amp; Colyer Lettings"/>
    <tag k="office" v="estate_agent"/>
    <tag k="phone" v="+44 1304503156"/>
    <tag k="website" v="https://www.geeringandcolyer.co.uk/toletoffice/dover/1870"/>
  </way>
  <way id="321508732" version="4" timestamp="2023-11-03T11:40:41Z" changeset="143570574" uid="24119" user="Mauls">
    <nd ref="3282636125"/>
    <nd ref="3282636070"/>
    <nd ref="3282636077"/>
    <nd ref="3282636129"/>
    <nd ref="11296087549"/>
    <nd ref="11296087551"/>
    <nd ref="11296087552"/>
    <nd ref="11296087550"/>
    <nd ref="3282636128"/>
    <nd ref="3282636087"/>
    <nd ref="3282636125"/>
    <tag k="addr:street" v="Lord Warden Square"/>
    <tag k="building" v="yes"/>
    <tag k="name" v="Freight Clearance Facility"/>
    <tag k="office" v="government"/>
  </way>
  <way id="334114684" version="4" timestamp="2020-01-09T19:21:42Z" changeset="79390156" uid="345975" user="VlIvYur">
    <nd ref="3412067117"/>
    <nd ref="3412067118"/>
    <nd ref="3412067119"/>
    <nd ref="3412067120"/>
    <nd ref="3412067117"/>
    <tag k="addr:city" v="Dover"/>
    <tag k="addr:housename" v="Churchill House"/>
    <tag k="addr:housenumber" v="6"/>
    <tag k="addr:postcode" v="CT16 1QN"/>
    <tag k="addr:street" v="Castle Hill Road"/>
    <tag k="building" v="detached"/>
    <tag k="email" v="toastofdover@gmail.com"/>
    <tag k="name" v="Churchill"/>
    <tag k="phone" v="+44 1304 204622"/>
    <tag k="tourism" v="guest_house"/>
    <tag k="website" v="http://toastofdover.com"/>
  </way>
  <way id="389654142" version="6" timestamp="2024-09-19T12:24:53Z" changeset="156817730" uid="11471297" user="Palgrave Peter">
    <nd ref="3928215154"/>
    <nd ref="697119475"/>
    <nd ref="1925620086"/>
    <nd ref="1925620085"/>
    <nd ref="1925620083"/>
    <nd ref="3928215147"/>
    <nd ref="1925620082"/>
    <nd ref="1925620081"/>
    <nd ref="3928215136"/>
    <nd ref="3928215135"/>
    <nd ref="1518055743"/>
    <nd ref="12186108528"/>
    <nd ref="3928215134"/>
    <nd ref="3928215138"/>
    <nd ref="3928215141"/>
    <nd ref="3035695694"/>
    <nd ref="3035695704"/>
    <nd ref="3928215148"/>
    <nd ref="3035695650"/>
    <nd ref="3928215151"/>
    <nd ref="3035695663"/>
    <nd ref="3928215155"/>
    <nd ref="3928215154"/>
    <tag k="addr:city" v="Dover"/>
    <tag k="addr:country" v="GB"/>
    <tag k="addr:postcode" v="CT17 9HJ"/>
    <tag k="addr:street" v="St. Davids Avenue"/>
    <tag k="amenity" v="school"/>
    <tag k="capacity" v="135"/>
    <tag k="contact:phone" v="+44 1304 202651"/>
    <tag k="contact:website" v="http://www.aycliffe.kent.sch.uk/"/>
    <tag k="isced:level" v="1"/>
    <tag k="max_age" v="11"/>
    <tag k="min_age" v="4"/>
    <tag k="name" v="Aycliffe Community Primary School"/>
    <tag k="ref:GB:uprn" v="200001851339"/>
    <tag k="ref:edubase" v="118449"/>
    <tag k="school:trust" v="no"/>
    <tag k="school:type" v="community"/>
    <tag k="wikidata" v="Q66226270"/>
  </way>
  <way id="390400382" version="4" timestamp="2023-07-30T09:59:59Z" changeset="139202603" uid="242345" user="confusedbuffalo">
    <nd ref="3935615424"/>
    <nd ref="3935615426"/>
    <nd ref="3935615425"/>
    <nd ref="3935615423"/>
    <nd ref="3935615421"/>
    <nd ref="3935615418"/>
    <nd ref="3935615409"/>
    <nd ref="3935615410"/>
    <nd ref="3935615411"/>
    <nd ref="3935615412"/>
    <nd ref="3935615413"/>
    <nd ref="3935615414"/>
    <nd ref="3935615415"/>
    <nd ref="3935615416"/>
    <nd ref="3935615417"/>
    <nd ref="3935615419"/>
    <nd ref="3935615420"/>
    <nd ref="3935615422"/>
    <nd ref="3935615424"/>
    <tag k="addr:city" v="Dover"/>
    <tag k="addr:country" v="GB"/>
    <tag k="addr:postcode" v="CT16 2ND"/>
    <tag k="addr:street" v="Barton Road"/>
    <tag k="amenity" v="school"/>
    <tag k="capacity" v="240"/>
    <tag k="contact:phone" v="+44 1304 201643"/>
    <tag k="contact:website" v="http://www.bartonjuniorschool.org/"/>
    <tag k="fhrs:id" v="254739"/>
    <tag k="isced:level" v="1"/>
    <tag k="max_age" v="11"/>
    <tag k="min_age" v="7"/>
    <tag k="name" v="Barton Junior School"/>
    <tag k="ref:GB:uprn" v="100062289419"/>
    <tag k="ref:edubase" v="138169"/>
    <tag k="ref:edubase:group" v="4958"/>
    <tag k="school:trust" v="yes"/>
    <tag k="school:trust:name" v="Samphire Star Education Trust"/>
    <tag k="school:trust:type" v="multi_academy"/>
    <tag k="school:type" v="academy"/>
    <tag k="source:addr" v="FHRS Open Data"/>
    <tag k="wikidata" v="Q67149529"/>
  </way>
  <way id="403150716" version="2" timestamp="2022-01-08T17:06:06Z" changeset="115917402" uid="242345" user="confusedbuffalo">
    <nd ref="4055298702"/>
    <nd ref="4055298700"/>
    <nd ref="4055298699"/>
    <nd ref="697094908"/>
    <nd ref="4055298698"/>
    <nd ref="697082538"/>
    <nd ref="4055298701"/>
    <nd ref="856879374"/>
    <nd ref="697094921"/>
    <nd ref="856879370"/>
    <nd ref="4055298705"/>
    <nd ref="4055298706"/>
    <nd ref="4055298704"/>
    <nd ref="4055298703"/>
    <nd ref="4055298702"/>
    <tag k="addr:city" v="Dover"/>
    <tag k="addr:country" v="GB"/>
    <tag k="addr:county" v="Kent"/>
    <tag k="addr:postcode" v="CT16 1DH"/>
    <tag k="addr:street" v="Maison Dieu Road"/>
    <tag k="amenity" v="college"/>
    <tag k="contact:phone" v="+44 1304 244332"/>
    <tag k="contact:website" v="http://www.eastkent.ac.uk/dover"/>
    <tag k="name" v="East Kent College"/>
  </way>
  <way id="403795263" version="4" timestamp="2022-01-08T17:06:06Z" changeset="115917402" uid="242345" user="confusedbuffalo">
    <nd ref="4061048274"/>
    <nd ref="4061048279"/>
    <nd ref="4061048280"/>
    <nd ref="4061048277"/>
    <nd ref="4061048283"/>
    <nd ref="4061048284"/>
    <nd ref="4061048285"/>
    <nd ref="4061048288"/>
    <nd ref="4061048589"/>
    <nd ref="4061048287"/>
    <nd ref="4061048286"/>
    <nd ref="4061048282"/>
    <nd ref="4061048281"/>
    <nd ref="4061048278"/>
    <nd ref="4061048276"/>
    <nd ref="4061048275"/>
    <nd ref="4061048274"/>
    <tag k="addr:city" v="Dover"/>
    <tag k="addr:country" v="GB"/>
    <tag k="addr:county" v="Kent"/>
    <tag k="addr:postcode" v="CT16 1QX"/>
    <tag k="addr:street" v="Laureston Place"/>
    <tag k="amenity" v="school"/>
    <tag k="capacity" v="210"/>
    <tag k="contact:phone" v="+44 1304 206887"/>
    <tag k="denomination" v="anglican"/>
    <tag k="diocese" v="Diocese of Canterbury"/>
    <tag k="isced:level" v="1"/>
    <tag k="max_age" v="11"/>
    <tag k="min_age" v="4"/>
    <tag k="name" v="St. Mary's Church of England Primary School"/>
    <tag k="ref:GB:uprn" v="100062288992"/>
    <tag k="ref:edubase" v="118748"/>
    <tag k="religion" v="christian"/>
    <tag k="school:boarding" v="no"/>
    <tag k="school:gender" v="mixed"/>
    <tag k="school:selective" v="no"/>
    <tag k="school:trust" v="no"/>
    <tag k="school:type" v="voluntary_aided"/>
    <tag k="website" v="https://www.st-marys-dover.kent.sch.uk/"/>
    <tag k="wikidata" v="Q66226558"/>
  </way>
  <way id="453760485" version="6" timestamp="2024-09-18T12:34:02Z" changeset="156771267" uid="11471297" user="Palgrave Peter">
    <nd ref="4504502027"/>
    <nd ref="4504502028"/>
    <nd ref="4504502029"/>
    <nd ref="4504502030"/>
    <nd ref="4504502031"/>
    <nd ref="4504502032"/>
    <nd ref="4504502033"/>
    <nd ref="4504502034"/>
    <nd ref="4504502035"/>
    <nd ref="4504502036"/>
    <nd ref="4504502037"/>
    <nd ref="4504502038"/>
    <nd ref="4504502039"/>
    <nd ref="4504502040"/>
    <nd ref="4504502041"/>
    <nd ref="4504502043"/>
    <nd ref="4504502046"/>
    <nd ref="4504502047"/>
    <nd ref="4504502048"/>
    <nd ref="4504502049"/>
    <nd ref="4504502050"/>
    <nd ref="4504502051"/>
    <nd ref="4504502052"/>
    <nd ref="4504502027"/>
    <tag k="addr:city" v="Dover"/>
    <tag k="addr:country" v="GB"/>
    <tag k="addr:postcode" v="CT16 2PB"/>
    <tag k="addr:street" v="Heathfield Avenue"/>
    <tag k="amenity" v="school"/>
    <tag k="capacity" v="232"/>
    <tag k="isced:level" v="0;1"/>
    <tag k="max_age" v="7"/>
    <tag k="min_age" v="3"/>
    <tag k="name" v="Shatterlocks Infant and Nursery School"/>
    <tag k="phone" v="+441304204264"/>
    <tag k="ref:GB:uprn" v="100062289420"/>
    <tag k="ref:edubase" v="138170"/>
    <tag k="ref:edubase:group" v="4958"/>
    <tag k="school:trust" v="yes"/>
    <tag k="school:trust:name" v="Samphire Star Education Trust"/>
    <tag k="school:trust:type" v="multi_academy"/>
    <tag k="school:type" v="academy"/>
    <tag k="source:addr" v="edubase"/>
    <tag k="source:geometry" v="OS_Open_Map_Local_FunctionalSite"/>
    <tag k="website" v="https://www.shatterlocks.com/"/>
    <tag k="wikidata" v="Q66229524"/>
  </way>
  <way id="454039007" version="7" timestamp="2023-07-16T12:27:40Z" changeset="138577155" uid="242345" user="confusedbuffalo">
    <nd ref="4506778209"/>
    <nd ref="4506778210"/>
    <nd ref="4506778211"/>
    <nd ref="4506778212"/>
    <nd ref="4506778214"/>
    <nd ref="4506778215"/>
    <nd ref="4506778216"/>
    <nd ref="4506778217"/>
    <nd ref="4506778218"/>
    <nd ref="4506778219"/>
    <nd ref="4506778209"/>
    <tag k="addr:city" v="Dover"/>
    <tag k="addr:country" v="GB"/>
    <tag k="addr:postcode" v="CT16 1EZ"/>
    <tag k="addr:street" v="Castle Avenue"/>
    <tag k="amenity" v="school"/>
    <tag k="capacity" v="210"/>
    <tag k="denomination" v="roman_catholic"/>
    <tag k="diocese" v="Archdiocese of Southwark"/>
    <tag k="isced:level" v="1"/>
    <tag k="max_age" v="11"/>
    <tag k="min_age" v="4"/>
    <tag k="name" v="St Richard's Catholic Primary School"/>
    <tag k="phone" v="+44 1304 201118"/>
    <tag k="ref:GB:uprn" v="100062288989"/>
    <tag k="ref:edubase" v="141497"/>
    <tag k="ref:edubase:group" v="3594"/>
    <tag k="religion" v="christian"/>
    <tag k="school:trust" v="yes"/>
    <tag k="school:trust:name" v="Kent Catholic Schools' Partnership"/>
    <tag k="school:trust:type" v="multi_academy"/>
    <tag k="school:type" v="academy"/>
    <tag k="source:addr" v="edubase"/>
    <tag k="source:geometry" v="OS_Open_Map_Local_FunctionalSite"/>
    <tag k="source:name" v="edubase"/>
    <tag k="website" v="https://www.st-richards.kent.sch.uk"/>
    <tag k="wikidata" v="Q67149806"/>
  </way>
  <way id="490904278" version="3" timestamp="2019-03-25T05:19:40Z" changeset="68493302" uid="9451067" user="b-jazz-bot">
    <nd ref="4830787542"/>
    <nd ref="4830787543"/>
    <nd ref="4830787544"/>
    <nd ref="4830787545"/>
    <nd ref="4830787546"/>
    <nd ref="4830787547"/>
    <nd ref="4830787548"/>
    <nd ref="4830787531"/>
    <nd ref="4830787532"/>
    <nd ref="4830787533"/>
    <nd ref="4830787538"/>
    <nd ref="4830787539"/>
    <nd ref="4830787540"/>
    <nd ref="4830787541"/>
    <nd ref="4830787534"/>
    <nd ref="4830787535"/>
    <nd ref="4830787536"/>
    <nd ref="4830787537"/>
    <nd ref="4830787542"/>
    <tag k="addr:city" v="Dover"/>
    <tag k="addr:postcode" v="CT17 9DP"/>
    <tag k="addr:street" v="Western Close"/>
    <tag k="church" v="ruins"/>
    <tag k="historic" v="ruins"/>
    <tag k="name" v="Knights Templar Church"/>
    <tag k="operator" v="Historic England"/>
    <tag k="website" v="https://www.english-heritage.org.uk/visit/places/knights-templar-church-dover/"/>
    <tag k="wikidata" v="Q18160910"/>
  </way>
  <way id="624260895" version="11" timestamp="2024-04-22T07:37:05Z" changeset="150331808" uid="6816132" user="CjMalone">
    <nd ref="5894911937"/>
    <nd ref="6955976561"/>
    <nd ref="5894911925"/>
    <nd ref="9411392510"/>
    <nd ref="5894911924"/>
    <nd ref="6955976560"/>
    <nd ref="6955976559"/>
    <nd ref="6955976558"/>
    <nd ref="6955976557"/>
    <nd ref="5894911936"/>
    <nd ref="5894911935"/>
    <nd ref="6955976562"/>
    <nd ref="5894911934"/>
    <nd ref="5894911933"/>
    <nd ref="5894911937"/>
    <tag k="addr:city" v="Dover"/>
    <tag k="addr:county" v="Kent"/>
    <tag k="addr:postcode" v="CT16 1QD"/>
    <tag k="addr:street" v="St James Street"/>
    <tag k="addr:unit" v="8"/>
    <tag k="brand" v="Travelodge"/>
    <tag k="brand:wikidata" v="Q9361374"/>
    <tag k="brand:wikipedia" v="en:Travelodge UK"/>
    <tag k="building" v="hotel"/>
    <tag k="building:levels" v="4"/>
    <tag k="fhrs:authority" v="Dover"/>
    <tag k="fhrs:id" v="1055033"/>
    <tag k="fhrs:local_authority_id" v="PI/000078673"/>
    <tag k="internet_access" v="wlan"/>
    <tag k="internet_access:fee" v="customers"/>
    <tag k="internet_access:ssid" v="Travelodge WiFi"/>
    <tag k="name" v="Travelodge"/>
    <tag k="source:addr" v="FHRS Open Data"/>
    <tag k="tourism" v="hotel"/>
    <tag k="website" v="https://www.travelodge.co.uk/hotels/640/Dover-hotel"/>
  </way>
  <way id="679099619" version="3" timestamp="2021-02-03T15:29:30Z" changeset="98652888" uid="281267" user="smb1001">
    <nd ref="6359015871"/>
    <nd ref="6359015872"/>
    <nd ref="6359015873"/>
    <nd ref="6359015874"/>
    <nd ref="6359015871"/>
    <tag k="addr:city" v="Dover"/>
    <tag k="addr:street" v="Church Road"/>
    <tag k="amenity" v="place_of_worship"/>
    <tag k="building" v="yes"/>
    <tag k="denomination" v="anglican"/>
    <tag k="name" v="St Martin's Church"/>
    <tag k="religion" v="christian"/>
    <tag k="wikidata" v="Q105079712"/>
  </way>
  <way id="748845476" version="3" timestamp="2024-02-11T19:21:02Z" changeset="147340540" uid="20252098" user="DoubleCart">
    <nd ref="7003101375"/>
    <nd ref="11611388030"/>
    <nd ref="7003101373"/>
    <nd ref="7003101370"/>
    <nd ref="7003101371"/>
    <nd ref="7003101372"/>
    <nd ref="7003101374"/>
    <nd ref="7003101375"/>
    <tag k="addr:city" v="Dover"/>
    <tag k="addr:postcode" v="CT17 9BZ"/>
    <tag k="addr:street" v="Snargate Street"/>
    <tag k="building" v="yes"/>
    <tag k="building:levels" v="3"/>
    <tag k="name" v="Maritime House"/>
  </way>
  <way id="755657041" version="2" timestamp="2023-10-28T20:00:11Z" changeset="143280881" uid="24119" user="Mauls">
    <nd ref="7058200073"/>
    <nd ref="7058240106"/>
    <nd ref="7058240105"/>
    <nd ref="11296237194"/>
    <nd ref="11296237195"/>
    <nd ref="7058240107"/>
    <nd ref="7058200073"/>
    <tag k="addr:housenumber" v="115"/>
    <tag k="addr:street" v="Snargate Street"/>
    <tag k="amenity" v="restaurant"/>
    <tag k="building" v="yes"/>
    <tag k="name" v="Istanbul House"/>
  </way>
  <way id="755657043" version="2" timestamp="2023-10-28T20:00:11Z" changeset="143280881" uid="24119" user="Mauls">
    <nd ref="7058200079"/>
    <nd ref="7058200077"/>
    <nd ref="11296237186"/>
    <nd ref="11296237187"/>
    <nd ref="7058200076"/>
    <nd ref="7058200078"/>
    <nd ref="7058200079"/>
    <tag k="addr:housenumber" v="106"/>
    <tag k="addr:street" v="Snargate Street"/>
    <tag k="building" v="yes"/>
  </way>
  <way id="908032783" version="1" timestamp="2021-02-17T10:45:39Z" changeset="99444653" uid="1191591" user="telstarbox">
    <nd ref="8431555420"/>
    <nd ref="8431555421"/>
    <nd ref="8431555422"/>
    <nd ref="8431555423"/>
    <nd ref="8431555420"/>
    <tag k="addr:city" v="Dover"/>
    <tag k="addr:housenumber" v="28"/>
    <tag k="addr:street" v="Danes Court"/>
    <tag k="building" v="house"/>
  </way>
  <way id="937338147" version="4" timestamp="2023-11-03T11:40:41Z" changeset="143570574" uid="24119" user="Mauls">
    <nd ref="8685023809"/>
    <nd ref="8685023810"/>
    <nd ref="8732017213"/>
    <nd ref="8685023816"/>
    <nd ref="8685023811"/>
    <nd ref="11297508950"/>
    <nd ref="8685023812"/>
    <nd ref="8685023813"/>
    <nd ref="8685023814"/>
    <nd ref="3924255750"/>
    <nd ref="3924258098"/>
    <nd ref="3924258061"/>
    <nd ref="3924258119"/>
    <nd ref="11297508952"/>
    <nd ref="3924258114"/>
    <nd ref="8685023815"/>
    <nd ref="8685023809"/>
    <tag k="addr:street" v="Bullwark Street"/>
    <tag k="landuse" v="industrial"/>
    <tag k="name" v="Dover Concrete Plant"/>
  </way>
  <way id="1056698878" version="1" timestamp="2022-05-02T18:59:41Z" changeset="120474678" uid="341454" user="MA_Mapper">
    <nd ref="9709826386"/>
    <nd ref="9709826415"/>
    <nd ref="9709826414"/>
    <nd ref="9709826385"/>
    <nd ref="9709826386"/>
    <tag k="addr:housenumber" v="24"/>
    <tag k="addr:street" v="High Street"/>
    <tag k="building" v="yes"/>
  </way>
  <way id="1056698879" version="1" timestamp="2022-05-02T18:59:41Z" changeset="120474678" uid="341454" user="MA_Mapper">
    <nd ref="9709826385"/>
    <nd ref="9709826416"/>
    <nd ref="9709826388"/>
    <nd ref="9709826405"/>
    <nd ref="9709826386"/>
    <nd ref="9709826385"/>
    <tag k="addr:housenumber" v="26"/>
    <tag k="addr:street" v="High Street"/>
    <tag k="building" v="yes"/>
  </way>
  <way id="1219060882" version="1" timestamp="2023-10-28T18:16:18Z" changeset="143276280" uid="24119" user="Mauls">
    <nd ref="11296092500"/>
    <nd ref="11295831342"/>
    <nd ref="11296092501"/>
    <nd ref="11296092502"/>
    <nd ref="11296092503"/>
    <nd ref="11296092504"/>
    <nd ref="11296092500"/>
    <tag k="addr:city" v="Dover"/>
    <tag k="addr:housenumber" v="9"/>
    <tag k="addr:postcode" v="CT17 9DQ"/>
    <tag k="addr:street" v="Clarence Place"/>
    <tag k="amenity" v="pub"/>
    <tag k="building" v="yes"/>
    <tag k="name" v="Cinque Port Arms"/>
  </way>
  <relation id="17961060" version="2" timestamp="2024-09-16T17:37:59Z" changeset="156698878" uid="21426772" user="Hyperioum">
    <member type="way" ref="70931713" role="outer"/>
    <member type="way" ref="1309607424" role="outer"/>
    <tag k="addr:city" v="Dover"/>
    <tag k="addr:country" v="GB"/>
    <tag k="addr:county" v="Kent"/>
    <tag k="addr:housenumber" v="4"/>
    <tag k="addr:postcode" v="CT16 1DF"/>
    <tag k="addr:street" v="Park Place"/>
    <tag k="building" v="yes"/>
    <tag k="name" v="Merlins"/>
    <tag k="shop" v="tattoo"/>
    <tag k="type" v="multipolygon"/>
  </relation>

</osm>
