<?xml version="1.0" encoding="UTF-8"?>
<osm version="0.6" generator="Overpass API 0.7.62.5 1bd436f1">
<note>The data included in this document is from www.openstreetmap.org. The data is made available under ODbL.</note>
<meta osm_base="2025-03-05T18:19:01Z" areas="2024-12-31T00:49:33Z"/>

  <node id="769219208" lat="51.1489126" lon="1.3830127" version="3" timestamp="2023-10-13T17:59:16Z" changeset="142534528" uid="20152636" user="HV2023">
    <tag k="addr:city" v="St Margaret's Bay"/>
    <tag k="addr:postcode" v="CT15 6DZ"/>
    <tag k="addr:street" v="Beach Road"/>
    <tag k="fee" v="yes"/>
    <tag k="museum" v="history"/>
    <tag k="name" v="St Margaret's Museum"/>
    <tag k="source" v="OS_OpenData_StreetView"/>
    <tag k="tourism" v="museum"/>
    <tag k="website" v="https://baytrust.org.uk/st-margarets-museum/"/>
  </node>
  <node id="910431653" lat="51.1541240" lon="1.3716733" version="4" timestamp="2024-08-16T19:07:42Z" changeset="155343414" uid="20092260" user="Doggy77">
    <tag k="addr:city" v="Dover"/>
    <tag k="addr:country" v="GB"/>
    <tag k="addr:postcode" v="CT15 6AU"/>
    <tag k="addr:street" v="High Street"/>
    <tag k="addr:village" v="St Margarets at Cliffe"/>
    <tag k="amenity" v="post_office"/>
    <tag k="check_date:opening_hours" v="2024-08-16"/>
    <tag k="name" v="St Margarets at Cliffe Post Office"/>
    <tag k="opening_hours" v="Mo-Fr 09:00-17:30; Sa 09:00-12:30"/>
    <tag k="ref:pol_id" v="3014"/>
    <tag k="wheelchair" v="no"/>
  </node>
  <node id="2262002418" lat="51.1541756" lon="1.3716180" version="6" timestamp="2024-04-28T17:32:02Z" changeset="150629338" uid="4833194" user="motogs">
    <tag k="addr:city" v="St. Margaret's at Cliffe"/>
    <tag k="addr:place" v="St Margaret's at Cliffe"/>
    <tag k="addr:postcode" v="CT15 6AU"/>
    <tag k="addr:street" v="High Street"/>
    <tag k="amenity" v="pub"/>
    <tag k="brewery" v="various"/>
    <tag k="fhrs:id" v="254731"/>
    <tag k="name" v="The Smugglers"/>
    <tag k="opening_hours" v="Mo-Sa 12:00-15:00,17:30-23:00; Su 12:00-19:00"/>
    <tag k="outdoor_seating" v="yes"/>
    <tag k="phone" v="+44 1304 853404"/>
    <tag k="real_ale" v="yes"/>
    <tag k="source:addr" v="FHRS Open Data"/>
    <tag k="website" v="https://www.thesmugglers-inn.co.uk/"/>
  </node>
  <node id="2994386927" lat="51.1488730" lon="1.3829753" version="3" timestamp="2022-10-26T09:59:20Z" changeset="128075216" uid="11552842" user="northberg">
    <tag k="addr:city" v="St Margaret's Bay"/>
    <tag k="addr:postcode" v="CT15 6DZ"/>
    <tag k="addr:street" v="Beach Road"/>
    <tag k="amenity" v="cafe"/>
    <tag k="cuisine" v="british;coffee;bistro"/>
    <tag k="internet_access" v="wlan"/>
    <tag k="internet_access:fee" v="no"/>
    <tag k="name" v="The Pines Garden Tea Room"/>
    <tag k="opening_hours" v="We-Su 10:00-16:00"/>
    <tag k="outdoor_seating" v="yes"/>
    <tag k="phone" v="+44 1304 853 173"/>
    <tag k="website" v="https://baytrust.org.uk/the-pines-garden-tea-room/"/>
  </node>
  <node id="10129954813" lat="51.1506431" lon="1.3783190" version="3" timestamp="2023-11-07T16:22:29Z" changeset="143744394" uid="19880472" user="aknight22">
    <tag k="addr:city" v="St Margarets Bay"/>
    <tag k="addr:housenumber" v="1-2"/>
    <tag k="addr:postcode" v="CT15 6DH"/>
    <tag k="addr:street" v="The Droveway"/>
    <tag k="amenity" v="cafe"/>
    <tag k="bar" v="yes"/>
    <tag k="cuisine" v="pizza;burger;breakfast"/>
    <tag k="name" v="FirstLight CafÃ© &amp; Bar"/>
    <tag k="opening_hours" v="Mo-We 10:00-16:00; Th-Su 10:00-21:00"/>
    <tag k="outdoor_seating" v="yes"/>
    <tag k="phone" v="+44 1304 853217"/>
    <tag k="website" v="https://www.firstlightcafe.co.uk/"/>
  </node>
  <way id="145635086" version="10" timestamp="2024-09-05T11:23:44Z" changeset="156226158" uid="11471297" user="Palgrave Peter">
    <nd ref="1590121118"/>
    <nd ref="1590121112"/>
    <nd ref="661013884"/>
    <nd ref="7747072189"/>
    <nd ref="12157570087"/>
    <nd ref="661013894"/>
    <nd ref="1590121140"/>
    <nd ref="4834363475"/>
    <nd ref="661013888"/>
    <nd ref="1590121095"/>
    <nd ref="7747072183"/>
    <nd ref="1590121146"/>
    <nd ref="6832793245"/>
    <nd ref="6832793244"/>
    <nd ref="6832793243"/>
    <nd ref="6832793242"/>
    <nd ref="7747072182"/>
    <nd ref="6832793241"/>
    <nd ref="661013886"/>
    <nd ref="6832793239"/>
    <nd ref="6832793240"/>
    <nd ref="1590121118"/>
    <tag k="addr:city" v="Dover"/>
    <tag k="addr:country" v="GB"/>
    <tag k="addr:postcode" v="CT15 6AG"/>
    <tag k="addr:street" v="Reach Road"/>
    <tag k="brand" v="Parkdean Resorts"/>
    <tag k="brand:wikidata" v="Q7138226"/>
    <tag k="contact:website" v="https://www.parkdeanresorts.co.uk/location/kent-sussex/st-margarets-bay/"/>
    <tag k="fee" v="no"/>
    <tag k="name" v="St Margarets Bay Holiday Park"/>
    <tag k="operator" v="Parkdean Resorts UK Limited"/>
    <tag k="tourism" v="caravan_site"/>
  </way>
  <way id="169004813" version="6" timestamp="2023-11-20T18:37:15Z" changeset="144258519" uid="19880472" user="aknight22">
    <nd ref="11333012437"/>
    <nd ref="11333012439"/>
    <nd ref="11333012440"/>
    <nd ref="11333012443"/>
    <nd ref="1801802534"/>
    <nd ref="1801802536"/>
    <nd ref="1801802538"/>
    <nd ref="1801802537"/>
    <nd ref="1801802539"/>
    <nd ref="11364790105"/>
    <nd ref="1801802541"/>
    <nd ref="3949958214"/>
    <nd ref="1801802543"/>
    <nd ref="1801802542"/>
    <nd ref="1801802540"/>
    <nd ref="1801802535"/>
    <nd ref="1590121187"/>
    <nd ref="3949955119"/>
    <nd ref="11333012438"/>
    <nd ref="11333012441"/>
    <nd ref="11333012434"/>
    <nd ref="11333012435"/>
    <nd ref="11333012436"/>
    <nd ref="11333012437"/>
    <tag k="addr:city" v="St. Margaret's-at-Cliffe"/>
    <tag k="addr:postcode" v="CT15 6SS"/>
    <tag k="addr:street" v="Sea Street"/>
    <tag k="amenity" v="school"/>
    <tag k="capacity" v="210"/>
    <tag k="contact:phone" v="+44 1304 852639"/>
    <tag k="contact:website" v="https://www.stmargaretsprimary.co.uk/"/>
    <tag k="isced:level" v="1"/>
    <tag k="max_age" v="11"/>
    <tag k="min_age" v="5"/>
    <tag k="name" v="St. Margaret's-at-Cliffe Primary School"/>
    <tag k="ref:GB:uprn" v="100062288026"/>
    <tag k="ref:edubase" v="118495"/>
    <tag k="religion" v="none"/>
    <tag k="school:boarding" v="no"/>
    <tag k="school:gender" v="mixed"/>
    <tag k="school:selective" v="no"/>
    <tag k="school:trust" v="no"/>
    <tag k="school:type" v="community"/>
    <tag k="source" v="Bing"/>
    <tag k="wikidata" v="Q66226301"/>
  </way>
  <way id="391743304" version="5" timestamp="2023-11-08T13:25:48Z" changeset="143780583" uid="19880472" user="aknight22">
    <nd ref="1801802531"/>
    <nd ref="1801802530"/>
    <nd ref="1801802529"/>
    <nd ref="1801802528"/>
    <nd ref="11333012438"/>
    <nd ref="11333012441"/>
    <nd ref="11333012434"/>
    <nd ref="11333012435"/>
    <nd ref="11333012436"/>
    <nd ref="11333012437"/>
    <nd ref="11333012439"/>
    <nd ref="11333012440"/>
    <nd ref="11333012443"/>
    <nd ref="1801802534"/>
    <nd ref="1801802533"/>
    <nd ref="11333012442"/>
    <nd ref="1801802532"/>
    <nd ref="1801802531"/>
    <tag k="addr:city" v="St. Margaret's-at-Cliffe"/>
    <tag k="addr:postcode" v="CT15 6SS"/>
    <tag k="addr:street" v="Sea Street"/>
    <tag k="amenity" v="school"/>
    <tag k="capacity" v="80"/>
    <tag k="contact:phone" v="+44 1304 853033"/>
    <tag k="contact:website" v="http://www.portal-house.kent.sch.uk/"/>
    <tag k="fhrs:id" v="1030622"/>
    <tag k="isced:level" v="2"/>
    <tag k="max_age" v="16"/>
    <tag k="min_age" v="11"/>
    <tag k="name" v="Portal House School"/>
    <tag k="ref:GB:uprn" v="100062288026"/>
    <tag k="ref:edubase" v="119062"/>
    <tag k="religion" v="none"/>
    <tag k="school:boarding" v="no"/>
    <tag k="school:gender" v="male"/>
    <tag k="school:selective" v="no"/>
    <tag k="school:trust" v="no"/>
    <tag k="school:type" v="special"/>
    <tag k="wikidata" v="Q66226677"/>
  </way>
  <way id="463269646" version="5" timestamp="2024-08-16T19:05:43Z" changeset="155343414" uid="20092260" user="Doggy77">
    <nd ref="4585540419"/>
    <nd ref="4585540420"/>
    <nd ref="11377891836"/>
    <nd ref="4585540421"/>
    <nd ref="4585540422"/>
    <nd ref="4585540419"/>
    <tag k="addr:city" v="St. Margaret's-at-Cliffe"/>
    <tag k="addr:postcode" v="CT15 6AU"/>
    <tag k="addr:street" v="High Street"/>
    <tag k="brand" v="Premier"/>
    <tag k="brand:wikidata" v="Q7240340"/>
    <tag k="building" v="yes"/>
    <tag k="fhrs:id" v="962759"/>
    <tag k="name" v="The Village Shop"/>
    <tag k="opening_hours" v="Mo-Sa 07:00-20:00; Su 08:00-20:00"/>
    <tag k="operator" v="premier"/>
    <tag k="shop" v="convenience"/>
    <tag k="source:addr" v="FHRS Open Data"/>
  </way>
  <way id="487356600" version="5" timestamp="2023-11-12T17:35:28Z" changeset="143942196" uid="19880472" user="aknight22">
    <nd ref="4798273386"/>
    <nd ref="4798273387"/>
    <nd ref="4798273388"/>
    <nd ref="4798273389"/>
    <nd ref="11343839767"/>
    <nd ref="11343839768"/>
    <nd ref="11343861669"/>
    <nd ref="11343861670"/>
    <nd ref="4798273386"/>
    <tag k="addr:city" v="St Margarets Bay"/>
    <tag k="addr:housenumber" v="29"/>
    <tag k="addr:postcode" v="CT15 6BZ"/>
    <tag k="addr:street" v="The Droveway"/>
    <tag k="amenity" v="place_of_worship"/>
    <tag k="building" v="yes"/>
    <tag k="check_date" v="2023-10-13"/>
    <tag k="denomination" v="catholic"/>
    <tag k="name" v="Saint Francis Church"/>
    <tag k="religion" v="christian"/>
  </way>
  <way id="837166268" version="2" timestamp="2021-03-17T15:19:02Z" changeset="101198941" uid="5008136" user="JayTurnr">
    <nd ref="7813311552"/>
    <nd ref="7813311568"/>
    <nd ref="7813311564"/>
    <nd ref="7813311561"/>
    <nd ref="27413888"/>
    <nd ref="7813311557"/>
    <nd ref="7813311555"/>
    <nd ref="7813311552"/>
    <tag k="addr:city" v="Swingate"/>
    <tag k="addr:postcode" v="CT15 5DP"/>
    <tag k="addr:street" v="Deal Road"/>
    <tag k="amenity" v="restaurant"/>
    <tag k="bar" v="yes"/>
    <tag k="building" v="yes"/>
    <tag k="cuisine" v="indian"/>
    <tag k="name" v="The Swingate Inn, Namaste Curry House"/>
    <tag k="opening_hours" v="Th 17:00-21:00, Fr 17:00-22:30, Sa 17:00-22:30"/>
    <tag k="outdoor_seating" v="no"/>
    <tag k="phone" v="+44 1304 204043"/>
    <tag k="source:addr" v="http://www.swingate.co.uk/"/>
    <tag k="source:phone" v="http://www.swingate.co.uk/"/>
    <tag k="takeaway" v="yes"/>
    <tag k="website" v="http://www.swingate.co.uk/"/>
    <tag k="wikidata" v="Q26323602"/>
  </way>
  <way id="1089519353" version="1" timestamp="2022-08-26T17:54:24Z" changeset="125417814" uid="2214008" user="douguk">
    <nd ref="9980283734"/>
    <nd ref="9980283735"/>
    <nd ref="9980283736"/>
    <nd ref="9980283737"/>
    <nd ref="9980283734"/>
    <tag k="addr:city" v="Dover"/>
    <tag k="addr:housename" v="Little Banks"/>
    <tag k="addr:postcode" v="CT15 6BB"/>
    <tag k="addr:street" v="Kingsdown Road"/>
    <tag k="building" v="house"/>
    <tag k="building:levels" v="1"/>
    <tag k="name" v="Little Banks"/>
  </way>
  <way id="1151613188" version="3" timestamp="2023-10-13T20:25:46Z" changeset="142542607" uid="3999" user="BarryMyles">
    <nd ref="10712948894"/>
    <nd ref="10712948895"/>
    <nd ref="10712948896"/>
    <nd ref="10712948897"/>
    <nd ref="10712948894"/>
    <tag k="addr:city" v="St Margarets Bay"/>
    <tag k="addr:postcode" v="CT15 6DQ"/>
    <tag k="addr:street" v="Bay Hill"/>
    <tag k="building" v="yes"/>
    <tag k="name" v="St Margarets Bay Telephone Exchange"/>
    <tag k="operator" v="Openreach"/>
    <tag k="operator:wikidata" v="Q7096543"/>
    <tag k="ref" v="NDSMB"/>
    <tag k="telecom" v="exchange"/>
  </way>
  <way id="1221800812" version="3" timestamp="2024-08-21T18:48:59Z" changeset="155573324" uid="20092260" user="Doggy77">
    <nd ref="11331429817"/>
    <nd ref="11331429818"/>
    <nd ref="11331429819"/>
    <nd ref="11331429820"/>
    <nd ref="11331429821"/>
    <nd ref="11331429822"/>
    <nd ref="11331429823"/>
    <nd ref="11331429824"/>
    <nd ref="11331429825"/>
    <nd ref="11331429826"/>
    <nd ref="11331429827"/>
    <nd ref="11331429828"/>
    <nd ref="11331429829"/>
    <nd ref="11331429830"/>
    <nd ref="11331429817"/>
    <tag k="addr:housenumber" v="6"/>
    <tag k="addr:street" v="The Droveway"/>
    <tag k="building" v="detached"/>
  </way>
  <way id="1221800813" version="3" timestamp="2024-08-21T18:49:03Z" changeset="155573324" uid="20092260" user="Doggy77">
    <nd ref="11331429831"/>
    <nd ref="11331429832"/>
    <nd ref="11331429833"/>
    <nd ref="11331429834"/>
    <nd ref="11331429835"/>
    <nd ref="11331429836"/>
    <nd ref="11331429831"/>
    <tag k="addr:housenumber" v="8"/>
    <tag k="addr:street" v="The Droveway"/>
    <tag k="building" v="detached"/>
  </way>
  <way id="1221800814" version="3" timestamp="2024-08-21T18:49:08Z" changeset="155573324" uid="20092260" user="Doggy77">
    <nd ref="11331429837"/>
    <nd ref="11331429838"/>
    <nd ref="11331429839"/>
    <nd ref="11331429840"/>
    <nd ref="11331429841"/>
    <nd ref="11331429842"/>
    <nd ref="11331429837"/>
    <tag k="addr:housenumber" v="8A"/>
    <tag k="addr:street" v="The Droveway"/>
    <tag k="building" v="detached"/>
  </way>
  <way id="1221800820" version="3" timestamp="2024-08-21T18:49:21Z" changeset="155573324" uid="20092260" user="Doggy77">
    <nd ref="11331445877"/>
    <nd ref="11331445878"/>
    <nd ref="11331445879"/>
    <nd ref="11331445880"/>
    <nd ref="11331445877"/>
    <tag k="addr:housenumber" v="5"/>
    <tag k="addr:street" v="The Droveway"/>
    <tag k="building" v="house"/>
    <tag k="house" v="terraced"/>
  </way>
  <way id="1221800821" version="3" timestamp="2024-08-21T18:49:26Z" changeset="155573324" uid="20092260" user="Doggy77">
    <nd ref="11331445878"/>
    <nd ref="11331445881"/>
    <nd ref="11331445882"/>
    <nd ref="11331445879"/>
    <nd ref="11331445878"/>
    <tag k="addr:housenumber" v="4"/>
    <tag k="addr:street" v="The Droveway"/>
    <tag k="building" v="house"/>
    <tag k="house" v="terraced"/>
  </way>
  <way id="1221800831" version="3" timestamp="2024-08-21T18:49:18Z" changeset="155573324" uid="20092260" user="Doggy77">
    <nd ref="11331445939"/>
    <nd ref="11331445940"/>
    <nd ref="11331445941"/>
    <nd ref="11331445942"/>
    <nd ref="11331445939"/>
    <tag k="addr:housenumber" v="15"/>
    <tag k="addr:street" v="The Droveway"/>
    <tag k="building" v="detached"/>
  </way>
  <way id="1221993510" version="3" timestamp="2024-08-21T18:49:12Z" changeset="155573324" uid="20092260" user="Doggy77">
    <nd ref="11332982503"/>
    <nd ref="11332982504"/>
    <nd ref="11332982505"/>
    <nd ref="11332982506"/>
    <nd ref="11332982507"/>
    <nd ref="11332982508"/>
    <nd ref="11332982509"/>
    <nd ref="11332982510"/>
    <nd ref="11332982511"/>
    <nd ref="11332982512"/>
    <nd ref="11332982513"/>
    <nd ref="11332982514"/>
    <nd ref="11332982526"/>
    <nd ref="11332982503"/>
    <tag k="addr:housenumber" v="12"/>
    <tag k="addr:street" v="The Droveway"/>
    <tag k="building" v="house"/>
    <tag k="house" v="terraced"/>
  </way>
  <way id="1221993521" version="3" timestamp="2024-08-21T18:45:03Z" changeset="155573324" uid="20092260" user="Doggy77">
    <nd ref="11333012386"/>
    <nd ref="11333012387"/>
    <nd ref="11333012388"/>
    <nd ref="11333012389"/>
    <nd ref="11333012390"/>
    <nd ref="11333012391"/>
    <nd ref="11333012386"/>
    <tag k="addr:housenumber" v="4"/>
    <tag k="addr:street" v="Droveway Gardens"/>
    <tag k="building" v="detached"/>
  </way>
  <way id="1221993522" version="3" timestamp="2024-08-21T18:45:05Z" changeset="155573324" uid="20092260" user="Doggy77">
    <nd ref="11333012392"/>
    <nd ref="11333012393"/>
    <nd ref="11333012394"/>
    <nd ref="11333012395"/>
    <nd ref="11333012396"/>
    <nd ref="11333012397"/>
    <nd ref="11333012392"/>
    <tag k="addr:housenumber" v="6"/>
    <tag k="addr:street" v="Droveway Gardens"/>
    <tag k="building" v="detached"/>
  </way>
  <way id="1221993523" version="3" timestamp="2024-08-21T18:45:09Z" changeset="155573324" uid="20092260" user="Doggy77">
    <nd ref="11333012398"/>
    <nd ref="11333012399"/>
    <nd ref="11333012400"/>
    <nd ref="11333012401"/>
    <nd ref="11333012402"/>
    <nd ref="11333012403"/>
    <nd ref="11333012404"/>
    <nd ref="11333012405"/>
    <nd ref="11333012398"/>
    <tag k="addr:housenumber" v="7"/>
    <tag k="addr:street" v="Droveway Gardens"/>
    <tag k="building" v="detached"/>
  </way>
  <way id="1221993524" version="4" timestamp="2024-08-21T18:45:20Z" changeset="155573324" uid="20092260" user="Doggy77">
    <nd ref="11333012406"/>
    <nd ref="11333012408"/>
    <nd ref="11333012409"/>
    <nd ref="11333012410"/>
    <nd ref="11333012411"/>
    <nd ref="11333012412"/>
    <nd ref="11333012406"/>
    <tag k="addr:housenumber" v="11"/>
    <tag k="addr:street" v="Droveway Gardens"/>
    <tag k="building" v="semidetached_house"/>
  </way>
  <way id="1221993525" version="3" timestamp="2024-08-21T18:45:17Z" changeset="155573324" uid="20092260" user="Doggy77">
    <nd ref="11333012414"/>
    <nd ref="11333012415"/>
    <nd ref="11333012416"/>
    <nd ref="11333012417"/>
    <nd ref="11333012418"/>
    <nd ref="11333012411"/>
    <nd ref="11333012412"/>
    <nd ref="11333012419"/>
    <nd ref="11333012414"/>
    <tag k="addr:housenumber" v="12"/>
    <tag k="addr:street" v="Droveway Gardens"/>
    <tag k="building" v="semidetached_house"/>
  </way>
  <way id="1222540819" version="3" timestamp="2024-08-21T18:45:12Z" changeset="155573324" uid="20092260" user="Doggy77">
    <nd ref="11333012408"/>
    <nd ref="11333012406"/>
    <nd ref="11338951310"/>
    <nd ref="11338951308"/>
    <nd ref="11338951309"/>
    <nd ref="11338951307"/>
    <nd ref="11333012408"/>
    <tag k="addr:housenumber" v="10"/>
    <tag k="addr:street" v="Droveway Gardens"/>
    <tag k="building" v="semidetached_house"/>
  </way>
  <way id="1222540820" version="3" timestamp="2024-08-21T18:45:28Z" changeset="155573324" uid="20092260" user="Doggy77">
    <nd ref="11338951311"/>
    <nd ref="11338951312"/>
    <nd ref="11338951313"/>
    <nd ref="11338951314"/>
    <nd ref="11338951315"/>
    <nd ref="11338951326"/>
    <nd ref="11338951311"/>
    <tag k="addr:housenumber" v="13"/>
    <tag k="addr:street" v="Droveway Gardens"/>
    <tag k="building" v="semidetached_house"/>
  </way>
  <way id="1222540821" version="3" timestamp="2024-08-21T18:45:23Z" changeset="155573324" uid="20092260" user="Doggy77">
    <nd ref="11338951312"/>
    <nd ref="11338951311"/>
    <nd ref="11338951325"/>
    <nd ref="11338951324"/>
    <nd ref="11338951316"/>
    <nd ref="11338951317"/>
    <nd ref="11338951318"/>
    <nd ref="11338951319"/>
    <nd ref="11338951312"/>
    <tag k="addr:housenumber" v="14"/>
    <tag k="addr:street" v="Droveway Gardens"/>
    <tag k="building" v="semidetached_house"/>
  </way>
  <way id="1222540822" version="3" timestamp="2024-08-21T18:45:25Z" changeset="155573324" uid="20092260" user="Doggy77">
    <nd ref="11338951320"/>
    <nd ref="11338951321"/>
    <nd ref="11338951322"/>
    <nd ref="11338951318"/>
    <nd ref="11338951319"/>
    <nd ref="11338951323"/>
    <nd ref="11338951320"/>
    <tag k="addr:housenumber" v="15"/>
    <tag k="addr:street" v="Droveway Gardens"/>
    <tag k="building" v="semidetached_house"/>
  </way>
  <way id="1225959742" version="3" timestamp="2024-08-21T18:59:27Z" changeset="155573324" uid="20092260" user="Doggy77">
    <nd ref="11369075088"/>
    <nd ref="11369075089"/>
    <nd ref="11369075090"/>
    <nd ref="11369075091"/>
    <nd ref="11369075092"/>
    <nd ref="11369075093"/>
    <nd ref="11369075094"/>
    <nd ref="11369075095"/>
    <nd ref="11369075096"/>
    <nd ref="11369075097"/>
    <nd ref="11369075098"/>
    <nd ref="11369075099"/>
    <nd ref="11369075088"/>
    <tag k="addr:housenumber" v="19"/>
    <tag k="addr:street" v="Reach Close"/>
    <tag k="building" v="semidetached_house"/>
  </way>
  <way id="1225959743" version="3" timestamp="2024-08-21T18:59:24Z" changeset="155573324" uid="20092260" user="Doggy77">
    <nd ref="11369075095"/>
    <nd ref="11369075100"/>
    <nd ref="11369075101"/>
    <nd ref="11369075102"/>
    <nd ref="11369075103"/>
    <nd ref="11369075104"/>
    <nd ref="11369075105"/>
    <nd ref="11369075106"/>
    <nd ref="11369075094"/>
    <nd ref="11369075095"/>
    <tag k="addr:housenumber" v="20"/>
    <tag k="addr:street" v="Reach Close"/>
    <tag k="building" v="semidetached_house"/>
  </way>
  <way id="1225959744" version="3" timestamp="2024-08-21T18:59:20Z" changeset="155573324" uid="20092260" user="Doggy77">
    <nd ref="11369075107"/>
    <nd ref="11369075108"/>
    <nd ref="11369075109"/>
    <nd ref="11369075110"/>
    <nd ref="11369075111"/>
    <nd ref="11369075112"/>
    <nd ref="11369075107"/>
    <tag k="addr:housenumber" v="21"/>
    <tag k="addr:street" v="Reach Close"/>
    <tag k="building" v="semidetached_house"/>
  </way>
  <way id="1225959745" version="3" timestamp="2024-08-21T18:59:18Z" changeset="155573324" uid="20092260" user="Doggy77">
    <nd ref="11369075111"/>
    <nd ref="11369075113"/>
    <nd ref="11369075114"/>
    <nd ref="11369075115"/>
    <nd ref="11369075116"/>
    <nd ref="11369075117"/>
    <nd ref="11369075118"/>
    <nd ref="11369075110"/>
    <nd ref="11369075111"/>
    <tag k="addr:housenumber" v="22"/>
    <tag k="addr:street" v="Reach Close"/>
    <tag k="building" v="semidetached_house"/>
  </way>
  <way id="1225959746" version="3" timestamp="2024-08-21T18:59:12Z" changeset="155573324" uid="20092260" user="Doggy77">
    <nd ref="11369075119"/>
    <nd ref="11369075120"/>
    <nd ref="11369075121"/>
    <nd ref="11369075122"/>
    <nd ref="11369075123"/>
    <nd ref="11369075124"/>
    <nd ref="11369075119"/>
    <tag k="addr:housenumber" v="23"/>
    <tag k="addr:street" v="Reach Close"/>
    <tag k="building" v="semidetached_house"/>
  </way>
  <way id="1225959747" version="3" timestamp="2024-08-21T18:59:15Z" changeset="155573324" uid="20092260" user="Doggy77">
    <nd ref="11369075124"/>
    <nd ref="11369075125"/>
    <nd ref="11369075126"/>
    <nd ref="11369075127"/>
    <nd ref="11369075128"/>
    <nd ref="11369075123"/>
    <nd ref="11369075124"/>
    <tag k="addr:housenumber" v="24"/>
    <tag k="addr:street" v="Reach Close"/>
    <tag k="building" v="semidetached_house"/>
  </way>
  <way id="1225959748" version="3" timestamp="2024-08-21T18:59:05Z" changeset="155573324" uid="20092260" user="Doggy77">
    <nd ref="11369075129"/>
    <nd ref="11369075130"/>
    <nd ref="11369075131"/>
    <nd ref="11369075132"/>
    <nd ref="11369075129"/>
    <tag k="addr:housenumber" v="25"/>
    <tag k="addr:street" v="Reach Close"/>
    <tag k="building" v="house"/>
    <tag k="house" v="terraced"/>
  </way>
  <way id="1225959749" version="5" timestamp="2024-08-21T18:59:09Z" changeset="155573324" uid="20092260" user="Doggy77">
    <nd ref="11369075130"/>
    <nd ref="11369075133"/>
    <nd ref="11369075134"/>
    <nd ref="11369075131"/>
    <nd ref="11369075130"/>
    <tag k="addr:housenumber" v="26"/>
    <tag k="addr:street" v="Reach Close"/>
    <tag k="building" v="house"/>
    <tag k="house" v="terraced"/>
  </way>
  <way id="1225959750" version="5" timestamp="2024-08-21T18:59:03Z" changeset="155573324" uid="20092260" user="Doggy77">
    <nd ref="11369075133"/>
    <nd ref="11369075135"/>
    <nd ref="11369075136"/>
    <nd ref="11369075134"/>
    <nd ref="11369075133"/>
    <tag k="addr:housenumber" v="27"/>
    <tag k="addr:street" v="Reach Close"/>
    <tag k="building" v="house"/>
    <tag k="house" v="terraced"/>
  </way>
  <way id="1225959751" version="5" timestamp="2024-08-21T18:58:59Z" changeset="155573324" uid="20092260" user="Doggy77">
    <nd ref="11369075135"/>
    <nd ref="11369075137"/>
    <nd ref="11369075138"/>
    <nd ref="11369075136"/>
    <nd ref="11369075135"/>
    <tag k="addr:housenumber" v="28"/>
    <tag k="addr:street" v="Reach Close"/>
    <tag k="building" v="house"/>
    <tag k="house" v="terraced"/>
  </way>
  <way id="1228010377" version="3" timestamp="2024-08-21T18:59:49Z" changeset="155573324" uid="20092260" user="Doggy77">
    <nd ref="11387637823"/>
    <nd ref="11387637824"/>
    <nd ref="11387637825"/>
    <nd ref="11387637826"/>
    <nd ref="11387637827"/>
    <nd ref="11387637828"/>
    <nd ref="11387637823"/>
    <tag k="addr:housenumber" v="29"/>
    <tag k="addr:street" v="Reach Close"/>
    <tag k="building" v="semidetached_house"/>
  </way>
  <way id="1228010378" version="3" timestamp="2024-08-21T18:59:53Z" changeset="155573324" uid="20092260" user="Doggy77">
    <nd ref="11387637825"/>
    <nd ref="11387637829"/>
    <nd ref="11387637830"/>
    <nd ref="11387637831"/>
    <nd ref="11387637832"/>
    <nd ref="11387637826"/>
    <nd ref="11387637825"/>
    <tag k="addr:housenumber" v="30"/>
    <tag k="addr:street" v="Reach Close"/>
    <tag k="building" v="semidetached_house"/>
  </way>
  <way id="1228010379" version="3" timestamp="2024-08-21T19:00:25Z" changeset="155573324" uid="20092260" user="Doggy77">
    <nd ref="11387637833"/>
    <nd ref="11387637834"/>
    <nd ref="11387637835"/>
    <nd ref="11387637836"/>
    <nd ref="11387637837"/>
    <nd ref="11387637838"/>
    <nd ref="11387637839"/>
    <nd ref="11387637840"/>
    <nd ref="11387637841"/>
    <nd ref="11387637842"/>
    <nd ref="11387637833"/>
    <tag k="addr:housenumber" v="31"/>
    <tag k="addr:street" v="Reach Close"/>
    <tag k="building" v="semidetached_house"/>
  </way>
  <way id="1228010380" version="3" timestamp="2024-08-21T19:00:28Z" changeset="155573324" uid="20092260" user="Doggy77">
    <nd ref="11387637840"/>
    <nd ref="11387637843"/>
    <nd ref="11387637844"/>
    <nd ref="11387637845"/>
    <nd ref="11387637846"/>
    <nd ref="11387637839"/>
    <nd ref="11387637840"/>
    <tag k="addr:housenumber" v="32"/>
    <tag k="addr:street" v="Reach Close"/>
    <tag k="building" v="semidetached_house"/>
  </way>
  <way id="1228010381" version="3" timestamp="2024-08-21T19:00:30Z" changeset="155573324" uid="20092260" user="Doggy77">
    <nd ref="11387637847"/>
    <nd ref="11387637848"/>
    <nd ref="11387637849"/>
    <nd ref="11387637850"/>
    <nd ref="11387637851"/>
    <nd ref="11387637852"/>
    <nd ref="11387637847"/>
    <tag k="addr:housenumber" v="34"/>
    <tag k="addr:street" v="Reach Close"/>
    <tag k="building" v="semidetached_house"/>
  </way>
  <way id="1228010382" version="3" timestamp="2024-08-21T19:00:33Z" changeset="155573324" uid="20092260" user="Doggy77">
    <nd ref="11387637848"/>
    <nd ref="11387637853"/>
    <nd ref="11387637854"/>
    <nd ref="11387637855"/>
    <nd ref="11387637856"/>
    <nd ref="11387637849"/>
    <nd ref="11387637848"/>
    <tag k="addr:housenumber" v="33"/>
    <tag k="addr:street" v="Reach Close"/>
    <tag k="building" v="semidetached_house"/>
  </way>
  <way id="1228228117" version="3" timestamp="2024-08-15T12:29:17Z" changeset="155280750" uid="20092260" user="Doggy77">
    <nd ref="11389745630"/>
    <nd ref="11389745631"/>
    <nd ref="11389745632"/>
    <nd ref="11389745633"/>
    <nd ref="11389745630"/>
    <tag k="addr:housenumber" v="4"/>
    <tag k="addr:street" v="Vicarage Lane"/>
    <tag k="building" v="semidetached_house"/>
  </way>
  <way id="1228228118" version="3" timestamp="2024-08-15T12:29:14Z" changeset="155280750" uid="20092260" user="Doggy77">
    <nd ref="11389745631"/>
    <nd ref="11389745634"/>
    <nd ref="11389745635"/>
    <nd ref="11389745636"/>
    <nd ref="11389745637"/>
    <nd ref="11389745638"/>
    <nd ref="11389745639"/>
    <nd ref="11389745640"/>
    <nd ref="11389745630"/>
    <nd ref="11389745631"/>
    <tag k="addr:housenumber" v="4"/>
    <tag k="addr:street" v="Vicarage Lane"/>
    <tag k="building" v="semidetached_house"/>
  </way>
  <way id="1228228120" version="3" timestamp="2024-08-16T18:59:10Z" changeset="155343125" uid="20092260" user="Doggy77">
    <nd ref="11389745645"/>
    <nd ref="11389745646"/>
    <nd ref="11389745647"/>
    <nd ref="11389745648"/>
    <nd ref="11389745645"/>
    <tag k="addr:housenumber" v="2"/>
    <tag k="addr:street" v="Vicarage Lane"/>
    <tag k="building" v="semidetached_house"/>
  </way>
  <way id="1228886202" version="3" timestamp="2024-08-21T19:03:37Z" changeset="155573324" uid="20092260" user="Doggy77">
    <nd ref="11396460850"/>
    <nd ref="11396460851"/>
    <nd ref="11396460852"/>
    <nd ref="11396460853"/>
    <nd ref="11396460850"/>
    <tag k="addr:housenumber" v="11"/>
    <tag k="addr:street" v="Roman Way"/>
    <tag k="building" v="semidetached_house"/>
  </way>
  <way id="1228886203" version="3" timestamp="2024-08-21T19:03:34Z" changeset="155573324" uid="20092260" user="Doggy77">
    <nd ref="11396460850"/>
    <nd ref="11396460854"/>
    <nd ref="11396460855"/>
    <nd ref="11396460856"/>
    <nd ref="11396460857"/>
    <nd ref="11396460858"/>
    <nd ref="11396460859"/>
    <nd ref="11396460851"/>
    <nd ref="11396460850"/>
    <tag k="addr:housenumber" v="12"/>
    <tag k="addr:street" v="Roman Way"/>
    <tag k="building" v="semidetached_house"/>
  </way>
  <way id="1229132951" version="3" timestamp="2024-08-21T19:03:33Z" changeset="155573324" uid="20092260" user="Doggy77">
    <nd ref="11398687543"/>
    <nd ref="11398687544"/>
    <nd ref="11398687545"/>
    <nd ref="11398687546"/>
    <nd ref="11398687543"/>
    <tag k="addr:housenumber" v="10"/>
    <tag k="addr:street" v="Roman Way"/>
    <tag k="building" v="semidetached_house"/>
  </way>
  <way id="1229132952" version="3" timestamp="2024-08-21T19:03:30Z" changeset="155573324" uid="20092260" user="Doggy77">
    <nd ref="11398687543"/>
    <nd ref="11398687547"/>
    <nd ref="11398687548"/>
    <nd ref="11398687544"/>
    <nd ref="11398687543"/>
    <tag k="addr:housenumber" v="9"/>
    <tag k="addr:street" v="Roman Way"/>
    <tag k="building" v="semidetached_house"/>
  </way>
  <way id="1229132953" version="3" timestamp="2024-08-21T19:06:08Z" changeset="155573324" uid="20092260" user="Doggy77">
    <nd ref="11398687549"/>
    <nd ref="11398687550"/>
    <nd ref="11398687551"/>
    <nd ref="11398687552"/>
    <nd ref="11398687553"/>
    <nd ref="11398687554"/>
    <nd ref="11398687549"/>
    <tag k="addr:housenumber" v="8"/>
    <tag k="addr:street" v="Roman Way"/>
    <tag k="building" v="semidetached_house"/>
  </way>
  <way id="1229132954" version="3" timestamp="2024-08-21T19:06:05Z" changeset="155573324" uid="20092260" user="Doggy77">
    <nd ref="11398687549"/>
    <nd ref="11398687555"/>
    <nd ref="11398687556"/>
    <nd ref="11398687557"/>
    <nd ref="11398687558"/>
    <nd ref="11398687559"/>
    <nd ref="11398687550"/>
    <nd ref="11398687549"/>
    <tag k="addr:housenumber" v="7"/>
    <tag k="addr:street" v="Roman Way"/>
    <tag k="building" v="semidetached_house"/>
  </way>
  <way id="1229132955" version="3" timestamp="2024-08-21T19:04:04Z" changeset="155573324" uid="20092260" user="Doggy77">
    <nd ref="11398687560"/>
    <nd ref="11398687561"/>
    <nd ref="11398687566"/>
    <nd ref="11398687562"/>
    <nd ref="11398687563"/>
    <nd ref="11398687560"/>
    <tag k="addr:housenumber" v="22"/>
    <tag k="addr:street" v="Roman Way"/>
    <tag k="building" v="semidetached_house"/>
  </way>
  <way id="1229132956" version="3" timestamp="2024-08-21T19:04:07Z" changeset="155573324" uid="20092260" user="Doggy77">
    <nd ref="11398687563"/>
    <nd ref="11398687564"/>
    <nd ref="11398687565"/>
    <nd ref="11398687562"/>
    <nd ref="11398687563"/>
    <tag k="addr:housenumber" v="21"/>
    <tag k="addr:street" v="Roman Way"/>
    <tag k="building" v="semidetached_house"/>
  </way>
  <way id="1229132957" version="3" timestamp="2024-08-21T19:06:10Z" changeset="155573324" uid="20092260" user="Doggy77">
    <nd ref="11398687567"/>
    <nd ref="11398687568"/>
    <nd ref="11398736175"/>
    <nd ref="11398736169"/>
    <nd ref="11398736170"/>
    <nd ref="11398736171"/>
    <nd ref="11398736172"/>
    <nd ref="11398687567"/>
    <tag k="addr:housenumber" v="24"/>
    <tag k="addr:street" v="Roman Way"/>
    <tag k="building" v="semidetached_house"/>
  </way>
  <way id="1229132958" version="3" timestamp="2024-08-21T19:06:12Z" changeset="155573324" uid="20092260" user="Doggy77">
    <nd ref="11398687568"/>
    <nd ref="11398736173"/>
    <nd ref="11398736174"/>
    <nd ref="11398736175"/>
    <nd ref="11398687568"/>
    <tag k="addr:housenumber" v="23"/>
    <tag k="addr:street" v="Roman Way"/>
    <tag k="building" v="semidetached_house"/>
  </way>
  <way id="1229132959" version="3" timestamp="2024-08-21T19:06:00Z" changeset="155573324" uid="20092260" user="Doggy77">
    <nd ref="11398736176"/>
    <nd ref="11398736177"/>
    <nd ref="11398736178"/>
    <nd ref="11398736179"/>
    <nd ref="11398736176"/>
    <tag k="addr:housenumber" v="26"/>
    <tag k="addr:street" v="Roman Way"/>
    <tag k="building" v="semidetached_house"/>
  </way>
  <way id="1229132960" version="3" timestamp="2024-08-21T19:06:03Z" changeset="155573324" uid="20092260" user="Doggy77">
    <nd ref="11398736176"/>
    <nd ref="11398736180"/>
    <nd ref="11398736181"/>
    <nd ref="11398736182"/>
    <nd ref="11398736183"/>
    <nd ref="11398736177"/>
    <nd ref="11398736176"/>
    <tag k="addr:housenumber" v="25"/>
    <tag k="addr:street" v="Roman Way"/>
    <tag k="building" v="semidetached_house"/>
  </way>
  <way id="1229132961" version="3" timestamp="2024-08-21T19:05:53Z" changeset="155573324" uid="20092260" user="Doggy77">
    <nd ref="11398736184"/>
    <nd ref="11398736185"/>
    <nd ref="11398736186"/>
    <nd ref="11398736187"/>
    <nd ref="11398736184"/>
    <tag k="addr:housenumber" v="28"/>
    <tag k="addr:street" v="Roman Way"/>
    <tag k="building" v="semidetached_house"/>
  </way>
  <way id="1229132962" version="3" timestamp="2024-08-21T19:05:44Z" changeset="155573324" uid="20092260" user="Doggy77">
    <nd ref="11398736185"/>
    <nd ref="11398736188"/>
    <nd ref="11398736189"/>
    <nd ref="11398736190"/>
    <nd ref="11398736184"/>
    <nd ref="11398736185"/>
    <tag k="addr:housenumber" v="27"/>
    <tag k="addr:street" v="Roman Way"/>
    <tag k="building" v="semidetached_house"/>
  </way>
  <way id="1229132963" version="3" timestamp="2024-08-21T19:05:58Z" changeset="155573324" uid="20092260" user="Doggy77">
    <nd ref="11398736191"/>
    <nd ref="11398736192"/>
    <nd ref="11398736193"/>
    <nd ref="11398736194"/>
    <nd ref="11398736191"/>
    <tag k="addr:housenumber" v="6"/>
    <tag k="addr:street" v="Roman Way"/>
    <tag k="building" v="semidetached_house"/>
  </way>
  <way id="1229132964" version="3" timestamp="2024-08-21T19:05:56Z" changeset="155573324" uid="20092260" user="Doggy77">
    <nd ref="11398736191"/>
    <nd ref="11398736195"/>
    <nd ref="11398736196"/>
    <nd ref="11398736192"/>
    <nd ref="11398736191"/>
    <tag k="addr:housenumber" v="5"/>
    <tag k="addr:street" v="Roman Way"/>
    <tag k="building" v="semidetached_house"/>
  </way>
  <way id="1229132965" version="3" timestamp="2024-08-21T19:05:40Z" changeset="155573324" uid="20092260" user="Doggy77">
    <nd ref="11398736197"/>
    <nd ref="11398736198"/>
    <nd ref="11398736199"/>
    <nd ref="11398736200"/>
    <nd ref="11398736201"/>
    <nd ref="11398736202"/>
    <nd ref="11398736197"/>
    <tag k="addr:housenumber" v="30"/>
    <tag k="addr:street" v="Roman Way"/>
    <tag k="building" v="semidetached_house"/>
  </way>
  <way id="1229132966" version="3" timestamp="2024-08-21T19:05:42Z" changeset="155573324" uid="20092260" user="Doggy77">
    <nd ref="11398736201"/>
    <nd ref="11398736203"/>
    <nd ref="11398736204"/>
    <nd ref="11398736202"/>
    <nd ref="11398736201"/>
    <tag k="addr:housenumber" v="29"/>
    <tag k="addr:street" v="Roman Way"/>
    <tag k="building" v="semidetached_house"/>
  </way>
  <way id="1229132967" version="3" timestamp="2024-08-15T12:36:12Z" changeset="155280750" uid="20092260" user="Doggy77">
    <nd ref="11398736205"/>
    <nd ref="11398736206"/>
    <nd ref="11398736207"/>
    <nd ref="11398736208"/>
    <nd ref="11398736209"/>
    <nd ref="11398736210"/>
    <nd ref="11398736211"/>
    <nd ref="11398736219"/>
    <nd ref="11398736212"/>
    <nd ref="11398736205"/>
    <tag k="addr:housenumber" v="31"/>
    <tag k="addr:street" v="Roman Way"/>
    <tag k="building" v="semidetached_house"/>
  </way>
  <way id="1229132968" version="3" timestamp="2024-08-15T12:36:16Z" changeset="155280750" uid="20092260" user="Doggy77">
    <nd ref="11398736212"/>
    <nd ref="11398736213"/>
    <nd ref="11398736214"/>
    <nd ref="11398736215"/>
    <nd ref="11398736216"/>
    <nd ref="11398736217"/>
    <nd ref="11398736218"/>
    <nd ref="11398736219"/>
    <nd ref="11398736212"/>
    <tag k="addr:housenumber" v="32"/>
    <tag k="addr:street" v="Roman Way"/>
    <tag k="building" v="semidetached_house"/>
  </way>
  <way id="1229132969" version="3" timestamp="2024-08-21T19:05:50Z" changeset="155573324" uid="20092260" user="Doggy77">
    <nd ref="11398736220"/>
    <nd ref="11398736221"/>
    <nd ref="11398736222"/>
    <nd ref="11398736223"/>
    <nd ref="11398736224"/>
    <nd ref="11398736225"/>
    <nd ref="11398736220"/>
    <tag k="addr:housenumber" v="4"/>
    <tag k="addr:street" v="Roman Way"/>
    <tag k="building" v="semidetached_house"/>
  </way>
  <way id="1229132970" version="3" timestamp="2024-08-21T19:05:46Z" changeset="155573324" uid="20092260" user="Doggy77">
    <nd ref="11398736220"/>
    <nd ref="11398736226"/>
    <nd ref="11398736227"/>
    <nd ref="11398736228"/>
    <nd ref="11398736229"/>
    <nd ref="11398736230"/>
    <nd ref="11398736231"/>
    <nd ref="11398736221"/>
    <nd ref="11398736220"/>
    <tag k="addr:housenumber" v="3"/>
    <tag k="addr:street" v="Roman Way"/>
    <tag k="building" v="semidetached_house"/>
  </way>
  <way id="1229523106" version="3" timestamp="2024-08-21T18:25:27Z" changeset="155573324" uid="20092260" user="Doggy77">
    <nd ref="11401637926"/>
    <nd ref="11401637927"/>
    <nd ref="11401637928"/>
    <nd ref="11401637929"/>
    <nd ref="11401637930"/>
    <nd ref="11401637931"/>
    <nd ref="11401637932"/>
    <nd ref="11401637933"/>
    <nd ref="11401637926"/>
    <tag k="addr:housenumber" v="2"/>
    <tag k="addr:street" v="Langdon Close"/>
    <tag k="building" v="detached"/>
  </way>
  <way id="1229523107" version="3" timestamp="2024-08-21T18:25:30Z" changeset="155573324" uid="20092260" user="Doggy77">
    <nd ref="11401637934"/>
    <nd ref="11401637935"/>
    <nd ref="11401637936"/>
    <nd ref="11401637937"/>
    <nd ref="11401637938"/>
    <nd ref="11401637939"/>
    <nd ref="11401637934"/>
    <tag k="addr:housenumber" v="4"/>
    <tag k="addr:street" v="Langdon Close"/>
    <tag k="building" v="semidetached_house"/>
  </way>
  <way id="1229523108" version="3" timestamp="2024-08-21T18:25:34Z" changeset="155573324" uid="20092260" user="Doggy77">
    <nd ref="11401637934"/>
    <nd ref="11401637940"/>
    <nd ref="11401637941"/>
    <nd ref="11401637942"/>
    <nd ref="11401637943"/>
    <nd ref="11401637935"/>
    <nd ref="11401637934"/>
    <tag k="addr:housenumber" v="6"/>
    <tag k="addr:street" v="Langdon Close"/>
    <tag k="building" v="semidetached_house"/>
  </way>
  <way id="1229523109" version="3" timestamp="2024-08-21T18:25:38Z" changeset="155573324" uid="20092260" user="Doggy77">
    <nd ref="11401637944"/>
    <nd ref="11401637945"/>
    <nd ref="11401637946"/>
    <nd ref="11401637947"/>
    <nd ref="11401637948"/>
    <nd ref="11401637949"/>
    <nd ref="11401637944"/>
    <tag k="addr:housenumber" v="8"/>
    <tag k="addr:street" v="Langdon Close"/>
    <tag k="building" v="detached"/>
  </way>
  <way id="1229523117" version="3" timestamp="2024-08-21T18:25:44Z" changeset="155573324" uid="20092260" user="Doggy77">
    <nd ref="11401651487"/>
    <nd ref="11401651495"/>
    <nd ref="11401651488"/>
    <nd ref="11401651489"/>
    <nd ref="11401651490"/>
    <nd ref="11401651491"/>
    <nd ref="11401651492"/>
    <nd ref="11401651493"/>
    <nd ref="11401651494"/>
    <nd ref="11401651487"/>
    <tag k="addr:housenumber" v="10"/>
    <tag k="addr:street" v="Langdon Close"/>
    <tag k="building" v="semidetached_house"/>
  </way>
  <way id="1229523118" version="3" timestamp="2024-08-21T18:25:47Z" changeset="155573324" uid="20092260" user="Doggy77">
    <nd ref="11401651495"/>
    <nd ref="11401651496"/>
    <nd ref="11401651497"/>
    <nd ref="11401651498"/>
    <nd ref="11401651499"/>
    <nd ref="11401651488"/>
    <nd ref="11401651495"/>
    <tag k="addr:housenumber" v="12"/>
    <tag k="addr:street" v="Langdon Close"/>
    <tag k="building" v="semidetached_house"/>
  </way>
  <way id="1229523119" version="3" timestamp="2024-08-21T18:25:50Z" changeset="155573324" uid="20092260" user="Doggy77">
    <nd ref="11401651500"/>
    <nd ref="11401651501"/>
    <nd ref="11401651502"/>
    <nd ref="11401651503"/>
    <nd ref="11401651504"/>
    <nd ref="11401651505"/>
    <nd ref="11401651506"/>
    <nd ref="11401651507"/>
    <nd ref="11401651500"/>
    <tag k="addr:housenumber" v="14"/>
    <tag k="addr:street" v="Langdon Close"/>
    <tag k="building" v="detached"/>
  </way>
  <way id="1229523121" version="3" timestamp="2024-08-21T18:26:13Z" changeset="155573324" uid="20092260" user="Doggy77">
    <nd ref="11401651510"/>
    <nd ref="11401651514"/>
    <nd ref="11401651515"/>
    <nd ref="11401651516"/>
    <nd ref="11401651517"/>
    <nd ref="11401651511"/>
    <nd ref="11401651510"/>
    <tag k="addr:housenumber" v="11"/>
    <tag k="addr:street" v="Langdon Close"/>
    <tag k="building" v="semidetached_house"/>
  </way>
  <way id="1229523122" version="3" timestamp="2024-08-21T18:25:58Z" changeset="155573324" uid="20092260" user="Doggy77">
    <nd ref="11401651518"/>
    <nd ref="11401651519"/>
    <nd ref="11401651520"/>
    <nd ref="11401651521"/>
    <nd ref="11401651522"/>
    <nd ref="11401651523"/>
    <nd ref="11401651524"/>
    <nd ref="11401651525"/>
    <nd ref="11401651526"/>
    <nd ref="11401651527"/>
    <nd ref="11401651528"/>
    <nd ref="11401651529"/>
    <nd ref="11401651518"/>
    <tag k="addr:housenumber" v="9"/>
    <tag k="addr:street" v="Langdon Close"/>
    <tag k="building" v="detached"/>
  </way>
  <way id="1229523123" version="3" timestamp="2024-08-21T18:25:55Z" changeset="155573324" uid="20092260" user="Doggy77">
    <nd ref="11401651530"/>
    <nd ref="11401651531"/>
    <nd ref="11401651536"/>
    <nd ref="11401651537"/>
    <nd ref="11401651532"/>
    <nd ref="11401651533"/>
    <nd ref="11401651534"/>
    <nd ref="11401651535"/>
    <nd ref="11401651530"/>
    <tag k="addr:housenumber" v="7"/>
    <tag k="addr:street" v="Langdon Close"/>
    <tag k="building" v="semidetached_house"/>
  </way>
  <way id="1229523124" version="3" timestamp="2024-08-21T18:25:53Z" changeset="155573324" uid="20092260" user="Doggy77">
    <nd ref="11401651533"/>
    <nd ref="11401651538"/>
    <nd ref="11401651539"/>
    <nd ref="11401651540"/>
    <nd ref="11401651541"/>
    <nd ref="11401651532"/>
    <nd ref="11401651533"/>
    <tag k="addr:housenumber" v="5"/>
    <tag k="addr:street" v="Langdon Close"/>
    <tag k="building" v="semidetached_house"/>
  </way>
  <way id="1229523125" version="3" timestamp="2024-08-21T18:25:23Z" changeset="155573324" uid="20092260" user="Doggy77">
    <nd ref="11401651542"/>
    <nd ref="11401651543"/>
    <nd ref="11401651544"/>
    <nd ref="11401651545"/>
    <nd ref="11401651546"/>
    <nd ref="11401651547"/>
    <nd ref="11401651542"/>
    <tag k="addr:housenumber" v="3"/>
    <tag k="addr:street" v="Langdon Close"/>
    <tag k="building" v="semidetached_house"/>
  </way>
  <way id="1229523126" version="3" timestamp="2024-08-21T18:25:20Z" changeset="155573324" uid="20092260" user="Doggy77">
    <nd ref="11401651544"/>
    <nd ref="11401651548"/>
    <nd ref="11401651549"/>
    <nd ref="11401651550"/>
    <nd ref="11401651551"/>
    <nd ref="11401651552"/>
    <nd ref="11401651553"/>
    <nd ref="11401651554"/>
    <nd ref="11401651555"/>
    <nd ref="11401651556"/>
    <nd ref="11401651557"/>
    <nd ref="11401651558"/>
    <nd ref="11401651559"/>
    <nd ref="11401651545"/>
    <nd ref="11401651544"/>
    <tag k="addr:housenumber" v="1"/>
    <tag k="addr:street" v="Langdon Close"/>
    <tag k="building" v="semidetached_house"/>
  </way>

</osm>
