<?xml version="1.0" encoding="UTF-8"?>
<osm version="0.6" generator="Overpass API 0.7.62.4 2390de5a">
<note>The data included in this document is from www.openstreetmap.org. The data is made available under ODbL.</note>
<meta osm_base="2024-11-26T21:40:49Z" areas="2024-11-26T19:39:14Z"/>

  <way id="564457044" version="3" timestamp="2024-06-20T19:18:18Z" changeset="152962732" uid="95856" user="john paul jones &amp; gringo">
    <nd ref="5438457357"/>
    <nd ref="5438457358"/>
    <nd ref="5438457359"/>
    <nd ref="5438457360"/>
    <nd ref="5438457361"/>
    <nd ref="5438457362"/>
    <nd ref="5438457363"/>
    <nd ref="5438457364"/>
    <nd ref="5438457357"/>
    <tag k="addr:city" v="Wisbech"/>
    <tag k="addr:country" v="GB"/>
    <tag k="addr:housename" v="Meeko House"/>
    <tag k="addr:housenumber" v="172"/>
    <tag k="addr:postcode" v="PE14 0LP"/>
    <tag k="addr:street" v="March Road"/>
    <tag k="addr:suburb" v="Friday Bridge"/>
    <tag k="building" v="hospital"/>
    <tag k="building:levels" v="1"/>
    <tag k="name" v="Meeko House"/>
    <tag k="website" v="https://www.cambiangroup.com/ourservices/service/home.aspx?id=167"/>
  </way>
  <way id="564457045" version="4" timestamp="2024-10-21T18:00:34Z" changeset="158181738" uid="21226027" user="DorneyLake123">
    <nd ref="5438457365"/>
    <nd ref="5438457366"/>
    <nd ref="5438457367"/>
    <nd ref="5438457368"/>
    <nd ref="5438457369"/>
    <nd ref="5438457370"/>
    <nd ref="5438457365"/>
    <tag k="addr:city" v="Wisbech"/>
    <tag k="addr:country" v="GB"/>
    <tag k="addr:housename" v="Home Tree"/>
    <tag k="addr:housenumber" v="172"/>
    <tag k="addr:postcode" v="PE14 0LP"/>
    <tag k="addr:street" v="March Road"/>
    <tag k="addr:suburb" v="Friday Bridge"/>
    <tag k="amenity" v="school"/>
    <tag k="building" v="hospital"/>
    <tag k="building:levels" v="3"/>
    <tag k="name" v="Home Tree School"/>
    <tag k="ref:edubase" v="141879"/>
    <tag k="website" v="https://www.cambiangroup.com/ourservices/service/home.aspx?Id=237&amp;s=16"/>
  </way>
  <way id="1055938130" version="2" timestamp="2024-06-20T19:43:27Z" changeset="152963704" uid="95856" user="john paul jones &amp; gringo">
    <nd ref="9702621442"/>
    <nd ref="9702621443"/>
    <nd ref="9702621444"/>
    <nd ref="9702621445"/>
    <nd ref="9702621446"/>
    <nd ref="9702621447"/>
    <nd ref="9702621448"/>
    <nd ref="9702621449"/>
    <nd ref="9702621450"/>
    <nd ref="9702621451"/>
    <nd ref="9702621442"/>
    <tag k="addr:city" v="Wisbech"/>
    <tag k="addr:country" v="GB"/>
    <tag k="addr:housenumber" v="6"/>
    <tag k="addr:postcode" v="PE13 4DB"/>
    <tag k="addr:street" v="March Road"/>
    <tag k="addr:suburb" v="Rings End"/>
    <tag k="amenity" v="pub"/>
    <tag k="building" v="yes"/>
    <tag k="cuisine" v="fish_and_chips;chinese;pizza"/>
    <tag k="name" v="Foreman's Pub"/>
    <tag k="website" v="https://www.facebook.com/ForemansPubLTD"/>
  </way>

</osm>
