<?xml version="1.0" encoding="UTF-8"?>
<osm version="0.6" generator="Overpass API 0.7.62.4 2390de5a">
<note>The data included in this document is from www.openstreetmap.org. The data is made available under ODbL.</note>
<meta osm_base="2024-11-27T00:29:33Z" areas="2024-11-26T19:45:15Z"/>

  <way id="4593865" version="6" timestamp="2019-02-22T22:09:06Z" changeset="67482128" uid="2274390" user="dzidek23">
    <nd ref="29043998"/>
    <nd ref="2313007848"/>
    <nd ref="29043999"/>
    <nd ref="2313007919"/>
    <nd ref="2313007936"/>
    <nd ref="29044000"/>
    <nd ref="29044001"/>
    <nd ref="2313007906"/>
    <nd ref="2313007972"/>
    <nd ref="6296634080"/>
    <nd ref="29043998"/>
    <tag k="addr:postcode" v="CB7 4DB"/>
    <tag k="addr:street" v="Barton Road"/>
    <tag k="building" v="public"/>
    <tag k="name" v="The Forum"/>
  </way>
  <way id="57833289" version="14" timestamp="2024-09-09T15:54:13Z" changeset="156401613" uid="21425661" user="CjMalone">
    <nd ref="2282192212"/>
    <nd ref="717516857"/>
    <nd ref="717516863"/>
    <nd ref="2306600349"/>
    <nd ref="2306600401"/>
    <nd ref="2282192224"/>
    <nd ref="2282192212"/>
    <tag k="addr:city" v="Ely"/>
    <tag k="addr:housenumber" v="7"/>
    <tag k="addr:postcode" v="CB7 4ZH"/>
    <tag k="addr:street" v="The Cloisters"/>
    <tag k="brand" v="B&amp;M"/>
    <tag k="brand:wikidata" v="Q4836931"/>
    <tag k="building" v="yes"/>
    <tag k="check_date" v="2024-09-09"/>
    <tag k="check_date:opening_hours" v="2024-09-09"/>
    <tag k="name" v="B&amp;M"/>
    <tag k="opening_hours" v="Mo-Sa 08:00-20:00; Su 10:00-16:00"/>
    <tag k="phone" v="+44 333 034 6836"/>
    <tag k="shop" v="variety_store"/>
    <tag k="source" v="OS_OpenData_StreetView"/>
    <tag k="website" v="https://www.bmstores.co.uk/stores/ely-836"/>
    <tag k="wheelchair" v="yes"/>
  </way>
  <way id="57833293" version="15" timestamp="2024-03-18T15:23:16Z" changeset="148822297" uid="84263" user="Robert Whittaker">
    <nd ref="717516921"/>
    <nd ref="2306600642"/>
    <nd ref="717516922"/>
    <nd ref="717516923"/>
    <nd ref="717516924"/>
    <nd ref="8811757940"/>
    <nd ref="8811757939"/>
    <nd ref="717516907"/>
    <nd ref="8811757938"/>
    <nd ref="8811757937"/>
    <nd ref="8811757936"/>
    <nd ref="717516914"/>
    <nd ref="8811757941"/>
    <nd ref="717516921"/>
    <tag k="addr:city" v="Ely"/>
    <tag k="addr:postcode" v="CB7 4QJ"/>
    <tag k="addr:street" v="Bray's Lane"/>
    <tag k="branch" v="Ely"/>
    <tag k="brand" v="Waitrose"/>
    <tag k="brand:wikidata" v="Q771734"/>
    <tag k="brand:wikipedia" v="en:Waitrose"/>
    <tag k="building" v="yes"/>
    <tag k="fhrs:id" v="336496"/>
    <tag k="name" v="Waitrose"/>
    <tag k="official_name" v="Waitrose &amp; Partners"/>
    <tag k="opening_hours" v="Mo-Fr 07:30-21:00; Sa 07:30-20:00; Su 10:00-16:00"/>
    <tag k="operator" v="Waitrose &amp; Partners"/>
    <tag k="shop" v="supermarket"/>
    <tag k="source" v="OS_OpenData_StreetView"/>
    <tag k="website" v="https://www.waitrose.com/find-a-store/ely"/>
    <tag k="wheelchair" v="yes"/>
  </way>
  <way id="120284468" version="7" timestamp="2021-03-18T21:11:28Z" changeset="101285689" uid="12876943" user="high-res landsurfer">
    <nd ref="1349064287"/>
    <nd ref="2303727822"/>
    <nd ref="2303727841"/>
    <nd ref="1349064262"/>
    <nd ref="1349064245"/>
    <nd ref="1349064277"/>
    <nd ref="1349064307"/>
    <nd ref="1349064383"/>
    <nd ref="1349064319"/>
    <nd ref="1349064404"/>
    <nd ref="1349064274"/>
    <nd ref="2785196242"/>
    <nd ref="1349064306"/>
    <nd ref="1349064297"/>
    <nd ref="1349064349"/>
    <nd ref="1349064253"/>
    <nd ref="1349064285"/>
    <nd ref="1349064281"/>
    <nd ref="1349064310"/>
    <nd ref="1349064387"/>
    <nd ref="1349064269"/>
    <nd ref="1349064257"/>
    <nd ref="2303727798"/>
    <nd ref="1349064353"/>
    <nd ref="2303727832"/>
    <nd ref="1349064287"/>
    <tag k="addr:city" v="Ely"/>
    <tag k="addr:housename" v="Hereward Works"/>
    <tag k="addr:postcode" v="CB7 4BP"/>
    <tag k="addr:street" v="Station Road"/>
    <tag k="building" v="industrial"/>
    <tag k="name" v="Standen Engineering"/>
    <tag k="source" v="Bing;survey (seen from train)"/>
    <tag k="website" v="https://standen.co.uk/"/>
  </way>
  <way id="151868436" version="13" timestamp="2023-04-04T04:49:16Z" changeset="134477928" uid="238419" user="HubMiner">
    <nd ref="1647071055"/>
    <nd ref="2785196006"/>
    <nd ref="2785196029"/>
    <nd ref="2785196254"/>
    <nd ref="2785196233"/>
    <nd ref="1647071066"/>
    <nd ref="2785195936"/>
    <nd ref="29865257"/>
    <nd ref="2785195962"/>
    <nd ref="2785196335"/>
    <nd ref="1647071064"/>
    <nd ref="2785195871"/>
    <nd ref="1647071049"/>
    <nd ref="2785196284"/>
    <nd ref="2499692138"/>
    <nd ref="1647071055"/>
    <tag k="addr:city" v="Ely"/>
    <tag k="addr:postcode" v="CB7 4AS"/>
    <tag k="addr:street" v="Lisle Lane"/>
    <tag k="branch" v="Ely Superstore"/>
    <tag k="brand" v="Sainsbury's"/>
    <tag k="brand:wikidata" v="Q152096"/>
    <tag k="brand:wikipedia" v="en:Sainsbury's"/>
    <tag k="building" v="retail"/>
    <tag k="fhrs:id" v="408467"/>
    <tag k="layer" v="1"/>
    <tag k="name" v="Sainsbury's"/>
    <tag k="opening_hours" v="Mo-Sa 08:00-22:00; Su 10:00-16:00"/>
    <tag k="shop" v="supermarket"/>
    <tag k="website" v="https://stores.sainsburys.co.uk/2271/ely"/>
    <tag k="wheelchair" v="yes"/>
  </way>
  <way id="171051354" version="3" timestamp="2023-09-23T22:17:59Z" changeset="141662765" uid="11022773" user="GeoFens">
    <nd ref="1821522491"/>
    <nd ref="1821522562"/>
    <nd ref="1821522456"/>
    <nd ref="1821522330"/>
    <nd ref="1821522410"/>
    <nd ref="1821522476"/>
    <nd ref="1821522491"/>
    <tag k="addr:city" v="Ely"/>
    <tag k="addr:housename" v="Ely Tool Hire"/>
    <tag k="addr:place" v="Mile Hill"/>
    <tag k="addr:postcode" v="CB6 2SJ"/>
    <tag k="addr:street" v="Downham Road"/>
    <tag k="building" v="yes"/>
    <tag k="name" v="Ely Tool Hire"/>
    <tag k="shop" v="tool_hire"/>
  </way>
  <way id="178940115" version="9" timestamp="2023-12-07T03:42:16Z" changeset="144851150" uid="6816132" user="CjMalone">
    <nd ref="1892949828"/>
    <nd ref="1892949793"/>
    <nd ref="1892949769"/>
    <nd ref="1892949780"/>
    <nd ref="1892949796"/>
    <nd ref="1892949771"/>
    <nd ref="1892949825"/>
    <nd ref="1892949755"/>
    <nd ref="1892949778"/>
    <nd ref="1892949813"/>
    <nd ref="1892949774"/>
    <nd ref="1892949802"/>
    <nd ref="1892949792"/>
    <nd ref="1892949768"/>
    <nd ref="1892949748"/>
    <nd ref="1892949747"/>
    <nd ref="1892949807"/>
    <nd ref="1892949828"/>
    <tag k="addr:city" v="Ely"/>
    <tag k="addr:housename" v="The Lamb"/>
    <tag k="addr:housenumber" v="2"/>
    <tag k="addr:postcode" v="CB7 4EJ"/>
    <tag k="addr:street" v="Lynn Road"/>
    <tag k="amenity" v="bar"/>
    <tag k="brand" v="Greene King"/>
    <tag k="brand:wikidata" v="Q5564162"/>
    <tag k="building" v="yes"/>
    <tag k="fhrs:id" v="336534"/>
    <tag k="name" v="The Lamb"/>
    <tag k="phone" v="+44 1353 663574"/>
    <tag k="tourism" v="hotel"/>
    <tag k="website" v="https://www.greeneking.co.uk/pubs/cambridgeshire/lamb-hotel"/>
    <tag k="wheelchair" v="yes"/>
    <tag k="wheelchair:description" v="Entrance around the back for wheelchairs, disabled toilet"/>
    <tag k="wikidata" v="Q26616593"/>
  </way>
  <way id="217408134" version="6" timestamp="2023-02-06T18:17:21Z" changeset="132169511" uid="84263" user="Robert Whittaker">
    <nd ref="2266782496"/>
    <nd ref="2266782499"/>
    <nd ref="2266782498"/>
    <nd ref="2266782497"/>
    <nd ref="2266782489"/>
    <nd ref="2266782488"/>
    <nd ref="2266782493"/>
    <nd ref="2266782492"/>
    <nd ref="2266782491"/>
    <nd ref="2266782490"/>
    <nd ref="2266782495"/>
    <nd ref="2266782494"/>
    <nd ref="2266782496"/>
    <tag k="addr:city" v="Ely"/>
    <tag k="addr:housenumber" v="29"/>
    <tag k="addr:postcode" v="CB7 4HF"/>
    <tag k="addr:street" v="St Mary's Street"/>
    <tag k="building" v="yes"/>
    <tag k="name" v="Oliver Cromwell's House"/>
    <tag k="source:addr" v="FHRS Open Data"/>
    <tag k="tourism" v="attraction"/>
    <tag k="website" v="https://www.olivercromwellshouse.co.uk/"/>
    <tag k="wheelchair" v="limited"/>
    <tag k="wikidata" v="Q7087467"/>
  </way>
  <way id="219013930" version="14" timestamp="2023-07-01T16:53:37Z" changeset="137999462" uid="3190283" user="robhlam">
    <nd ref="2282192224"/>
    <nd ref="8811757950"/>
    <nd ref="717516920"/>
    <nd ref="717516919"/>
    <nd ref="717516917"/>
    <nd ref="8811757954"/>
    <nd ref="8811757955"/>
    <nd ref="2282192212"/>
    <nd ref="2282192224"/>
    <tag k="addr:city" v="Ely"/>
    <tag k="addr:housenumber" v="11"/>
    <tag k="addr:postcode" v="CB7 4ZH"/>
    <tag k="addr:street" v="The Cloisters"/>
    <tag k="branch" v="Ely"/>
    <tag k="brand" v="Iceland"/>
    <tag k="brand:wikidata" v="Q721810"/>
    <tag k="brand:wikipedia" v="en:Iceland (supermarket)"/>
    <tag k="building" v="yes"/>
    <tag k="contact:website" v="https://www.iceland.co.uk/store-finder/store?StoreID=992&amp;StoreName=ELY"/>
    <tag k="fhrs:id" v="336571"/>
    <tag k="name" v="Iceland"/>
    <tag k="opening_hours" v="Mo-Sa 08:00-18:30; Su 10:00-16:00"/>
    <tag k="shop" v="frozen_food"/>
    <tag k="source" v="OS_OpenData_StreetView"/>
    <tag k="website" v="https://www.iceland.co.uk/store-finder/store?StoreID=992&amp;StoreName=ELY"/>
    <tag k="wheelchair" v="yes"/>
  </way>
  <way id="221342873" version="4" timestamp="2019-03-06T19:34:54Z" changeset="67856444" uid="84263" user="Robert Whittaker">
    <nd ref="2303727794"/>
    <nd ref="2303727793"/>
    <nd ref="2521227370"/>
    <nd ref="2303727845"/>
    <nd ref="2303727799"/>
    <nd ref="2303727805"/>
    <nd ref="2303727810"/>
    <nd ref="2303727794"/>
    <tag k="addr:city" v="Ely"/>
    <tag k="addr:housename" v="The Fountain"/>
    <tag k="addr:housenumber" v="1"/>
    <tag k="addr:postcode" v="CB7 4JF"/>
    <tag k="addr:street" v="Silver Street"/>
    <tag k="amenity" v="pub"/>
    <tag k="building" v="yes"/>
    <tag k="fhrs:id" v="336557"/>
    <tag k="listed_status" v="Grade II"/>
    <tag k="name" v="The Fountain"/>
    <tag k="wikidata" v="Q26544180"/>
  </way>
  <way id="221607192" version="4" timestamp="2024-07-12T08:52:07Z" changeset="153845331" uid="20378261" user="Oppy Enson">
    <nd ref="2306406281"/>
    <nd ref="2306406484"/>
    <nd ref="2306406420"/>
    <nd ref="2306406351"/>
    <nd ref="2306406360"/>
    <nd ref="2306406254"/>
    <nd ref="2306406502"/>
    <nd ref="2306406424"/>
    <nd ref="2306406367"/>
    <nd ref="2306406334"/>
    <nd ref="2306406391"/>
    <nd ref="2306406374"/>
    <nd ref="2306406498"/>
    <nd ref="2306406490"/>
    <nd ref="10012002108"/>
    <nd ref="2306406412"/>
    <nd ref="2306406408"/>
    <nd ref="2306406474"/>
    <nd ref="2306406439"/>
    <nd ref="2306406413"/>
    <nd ref="2306406398"/>
    <nd ref="2306406269"/>
    <nd ref="2306406414"/>
    <nd ref="2306406320"/>
    <nd ref="2306406519"/>
    <nd ref="2306406393"/>
    <nd ref="2306406450"/>
    <nd ref="2306406520"/>
    <nd ref="2306406410"/>
    <nd ref="29043944"/>
    <nd ref="2306406503"/>
    <nd ref="2306406284"/>
    <nd ref="2306406468"/>
    <nd ref="2306406332"/>
    <nd ref="2306406418"/>
    <nd ref="2306406395"/>
    <nd ref="2306406488"/>
    <nd ref="2306406411"/>
    <nd ref="2306406461"/>
    <nd ref="2306406350"/>
    <nd ref="2306406504"/>
    <nd ref="2306406285"/>
    <nd ref="2306406417"/>
    <nd ref="2306406406"/>
    <nd ref="2306406409"/>
    <nd ref="2306406457"/>
    <nd ref="2306406281"/>
    <tag k="addr:postcode" v="CB7 4DB"/>
    <tag k="addr:street" v="Barton Square"/>
    <tag k="building" v="school"/>
    <tag k="name" v="Junior School"/>
    <tag k="nohousenumber" v="yes"/>
  </way>
  <way id="221608236" version="9" timestamp="2024-01-19T12:40:50Z" changeset="146442450" uid="20378261" user="Oppy Enson">
    <nd ref="2306416288"/>
    <nd ref="2306416284"/>
    <nd ref="2313007808"/>
    <nd ref="2524577563"/>
    <nd ref="2306416363"/>
    <nd ref="2313007993"/>
    <nd ref="9009252834"/>
    <nd ref="2306416370"/>
    <nd ref="2306416336"/>
    <nd ref="2306416328"/>
    <nd ref="2306416268"/>
    <nd ref="2306416280"/>
    <nd ref="2306416288"/>
    <tag k="addr:city" v="Ely"/>
    <tag k="addr:housenumber" v="25"/>
    <tag k="addr:postcode" v="CB7 4ER"/>
    <tag k="addr:street" v="St Mary's Street"/>
    <tag k="amenity" v="restaurant"/>
    <tag k="building" v="yes"/>
    <tag k="check_date" v="2024-01-19"/>
    <tag k="fhrs:id" v="336564"/>
    <tag k="name" v="The Old Fire Engine House"/>
    <tag k="opening_hours" v="Tu-Sa 10:30-11:30,12:15-14:00,15:45-17:15,18:30-20:15; Su 12:15-14:00,15:45-17:15; PH off"/>
    <tag k="phone" v="+44 1353 662582"/>
    <tag k="website" v="http://www.theoldfireenginehouse.co.uk/"/>
    <tag k="wheelchair" v="limited"/>
    <tag k="wikidata" v="Q26461482"/>
  </way>
  <way id="221627835" version="18" timestamp="2023-06-01T06:35:31Z" changeset="136814996" uid="12752888" user="U42">
    <nd ref="2306600665"/>
    <nd ref="2306600365"/>
    <nd ref="2306600476"/>
    <nd ref="2306600407"/>
    <nd ref="2306600637"/>
    <nd ref="2496360134"/>
    <nd ref="2443320133"/>
    <nd ref="2443320136"/>
    <nd ref="2443320137"/>
    <nd ref="3024644737"/>
    <nd ref="3024644738"/>
    <nd ref="611071343"/>
    <nd ref="2306600539"/>
    <nd ref="2306600665"/>
    <tag k="addr:city" v="Ely"/>
    <tag k="addr:housename" v="The Almonry"/>
    <tag k="addr:housenumber" v="36"/>
    <tag k="addr:postcode" v="CB7 4JU"/>
    <tag k="addr:street" v="High Street"/>
    <tag k="amenity" v="restaurant"/>
    <tag k="building" v="yes"/>
    <tag k="diet:vegetarian" v="yes"/>
    <tag k="fhrs:id" v="336530"/>
    <tag k="indoor_seating" v="yes"/>
    <tag k="listed_status" v="Grade I"/>
    <tag k="name" v="The Almonry"/>
    <tag k="opening_hours" v="Tu-Sa 09:00-17:00; Su 10:00-17:00"/>
    <tag k="outdoor_seating" v="yes"/>
    <tag k="payment:cash" v="yes"/>
    <tag k="payment:credit_cards" v="yes"/>
    <tag k="payment:debit_cards" v="yes"/>
    <tag k="smoking" v="no"/>
    <tag k="toilets:wheelchair" v="yes"/>
    <tag k="website" v="https://www.elycathedral.org/plan-your-visit/eat-drink-shop/the-almonry-restaurant"/>
    <tag k="wheelchair" v="limited"/>
  </way>
  <way id="221627840" version="7" timestamp="2023-01-11T17:04:16Z" changeset="131154899" uid="84263" user="Robert Whittaker">
    <nd ref="2306600361"/>
    <nd ref="2306600643"/>
    <nd ref="2306600348"/>
    <nd ref="2306600415"/>
    <nd ref="2306600381"/>
    <nd ref="4382399067"/>
    <nd ref="2306600577"/>
    <nd ref="2306600442"/>
    <nd ref="2306600471"/>
    <nd ref="2306600441"/>
    <nd ref="2306600487"/>
    <nd ref="4382399065"/>
    <nd ref="2306600361"/>
    <tag k="addr:city" v="Ely"/>
    <tag k="addr:postcode" v="CB7 4LA"/>
    <tag k="addr:street" v="High Street"/>
    <tag k="amenity" v="bank"/>
    <tag k="atm" v="yes"/>
    <tag k="brand" v="Barclays"/>
    <tag k="brand:wikidata" v="Q245343"/>
    <tag k="brand:wikipedia" v="en:Barclays"/>
    <tag k="building" v="yes"/>
    <tag k="name" v="Barclays"/>
  </way>
  <way id="221627876" version="9" timestamp="2021-07-30T20:15:45Z" changeset="108909252" uid="299668" user="innocenceisdeath">
    <nd ref="2488643407"/>
    <nd ref="2306600559"/>
    <nd ref="2306600472"/>
    <nd ref="2306600482"/>
    <nd ref="2306600425"/>
    <nd ref="2306600414"/>
    <nd ref="2306600620"/>
    <nd ref="2480090439"/>
    <nd ref="2488643416"/>
    <nd ref="2488643414"/>
    <nd ref="2306600542"/>
    <nd ref="2306600376"/>
    <nd ref="2488643411"/>
    <nd ref="2488643407"/>
    <tag k="addr:city" v="Ely"/>
    <tag k="addr:housename" v="The Old Palace"/>
    <tag k="addr:postcode" v="CB7 4EW"/>
    <tag k="addr:street" v="Palace Green"/>
    <tag k="alt_name" v="The Bishop's Palace"/>
    <tag k="building" v="school"/>
    <tag k="building:levels" v="4"/>
    <tag k="listed_status" v="Grade I"/>
    <tag k="name" v="The Old Palace"/>
    <tag k="old_name" v="The Bishop's Palace"/>
    <tag k="roof:levels" v="0"/>
  </way>
  <way id="221878222" version="9" timestamp="2024-09-03T19:47:48Z" changeset="156157798" uid="21425661" user="CjMalone">
    <nd ref="2308623465"/>
    <nd ref="2308623477"/>
    <nd ref="2308623673"/>
    <nd ref="2308623856"/>
    <nd ref="2308623606"/>
    <nd ref="2308623518"/>
    <nd ref="2308624180"/>
    <nd ref="2308623946"/>
    <nd ref="2308623373"/>
    <nd ref="2308623413"/>
    <nd ref="2308624033"/>
    <nd ref="2308623474"/>
    <nd ref="2308623465"/>
    <tag k="addr:city" v="Ely"/>
    <tag k="addr:housename" v="Nationwide"/>
    <tag k="addr:housenumber" v="51"/>
    <tag k="addr:postcode" v="CB7 4NT"/>
    <tag k="addr:street" v="Market Place"/>
    <tag k="amenity" v="bank"/>
    <tag k="atm" v="yes"/>
    <tag k="brand" v="Nationwide"/>
    <tag k="brand:wikidata" v="Q846735"/>
    <tag k="brand:wikipedia" v="en:Nationwide Building Society"/>
    <tag k="building" v="yes"/>
    <tag k="check_date" v="2024-09-02"/>
    <tag k="name" v="Nationwide"/>
    <tag k="opening_hours" v="Mo-Tu,Th-Fr 09:00-16:30; We 10:00-16:30; Sa 09:00-12:00; Su,PH off"/>
    <tag k="phone" v="+44 345 266 0555"/>
    <tag k="website" v="https://www.nationwide.co.uk/branches/ely/51-market-place"/>
    <tag k="wheelchair" v="yes"/>
  </way>
  <way id="221878250" version="7" timestamp="2023-08-05T16:09:48Z" changeset="139486763" uid="16853522" user="edm000">
    <nd ref="2308623839"/>
    <nd ref="2524565125"/>
    <nd ref="2308623460"/>
    <nd ref="2308623401"/>
    <nd ref="2308623900"/>
    <nd ref="2308624182"/>
    <nd ref="2308624119"/>
    <nd ref="2308623839"/>
    <tag k="addr:city" v="Ely"/>
    <tag k="addr:housename" v="Liberty Belle"/>
    <tag k="addr:housenumber" v="29a"/>
    <tag k="addr:postcode" v="CB7 4AA"/>
    <tag k="addr:street" v="Fore Hill"/>
    <tag k="amenity" v="pub"/>
    <tag k="building" v="yes"/>
    <tag k="fhrs:id" v="807463"/>
    <tag k="name" v="Drayman's Son"/>
    <tag k="old_name" v="Liberty Belle"/>
    <tag k="pub" v="micropub"/>
    <tag k="toilets:wheelchair" v="no"/>
    <tag k="wheelchair" v="limited"/>
    <tag k="wheelchair:description" v="Small"/>
  </way>
  <way id="221878251" version="6" timestamp="2021-10-01T11:20:10Z" changeset="111958958" uid="1868422" user="falcon2">
    <nd ref="2308623527"/>
    <nd ref="2308623851"/>
    <nd ref="2308623727"/>
    <nd ref="2308623521"/>
    <nd ref="2308623625"/>
    <nd ref="2308624282"/>
    <nd ref="2308623739"/>
    <nd ref="2525192993"/>
    <nd ref="2308624286"/>
    <nd ref="2308623527"/>
    <tag k="addr:city" v="Ely"/>
    <tag k="addr:housenumber" v="3-5"/>
    <tag k="addr:postcode" v="CB7 4PB"/>
    <tag k="addr:street" v="Market Street"/>
    <tag k="brand" v="WHSmith"/>
    <tag k="brand:wikidata" v="Q1548712"/>
    <tag k="brand:wikipedia" v="en:WHSmith"/>
    <tag k="building" v="yes"/>
    <tag k="fhrs:id" v="1021420"/>
    <tag k="name" v="WHSmith"/>
    <tag k="opening_hours" v="Mo-Sa 09:00-17:30; Su 10:00-16:00"/>
    <tag k="phone" v="+44 1353 659812"/>
    <tag k="shop" v="newsagent"/>
    <tag k="website" v="https://www.whsmith.co.uk/stores/details/?StoreID=3006"/>
  </way>
  <way id="221878294" version="3" timestamp="2018-12-03T17:55:31Z" changeset="65133697" uid="242345" user="confusedbuffalo">
    <nd ref="2308624241"/>
    <nd ref="2525192989"/>
    <nd ref="2308623765"/>
    <nd ref="2308624045"/>
    <nd ref="2308624111"/>
    <nd ref="2308623695"/>
    <nd ref="2308624269"/>
    <nd ref="2308623661"/>
    <nd ref="2308623530"/>
    <nd ref="2308623725"/>
    <nd ref="2308623748"/>
    <nd ref="2308623882"/>
    <nd ref="2308623710"/>
    <nd ref="2308623727"/>
    <nd ref="2308623780"/>
    <nd ref="2308624132"/>
    <nd ref="2308623851"/>
    <nd ref="2308623527"/>
    <nd ref="2308624241"/>
    <tag k="addr:city" v="Ely"/>
    <tag k="addr:housenumber" v="7"/>
    <tag k="addr:postcode" v="CB7 4PB"/>
    <tag k="addr:street" v="Market Street"/>
    <tag k="building" v="yes"/>
    <tag k="name" v="City Cycle Centre"/>
    <tag k="phone" v="+44 1353 663131"/>
    <tag k="shop" v="department_store"/>
    <tag k="website" v="http://www.citycyclecentre.com/"/>
    <tag k="wheelchair" v="limited"/>
  </way>
  <way id="221880338" version="8" timestamp="2023-11-24T14:42:23Z" changeset="144410977" uid="20378261" user="Oppy Enson">
    <nd ref="2308629998"/>
    <nd ref="2308630006"/>
    <nd ref="2308630020"/>
    <nd ref="8821127641"/>
    <nd ref="2308629927"/>
    <nd ref="2308630043"/>
    <nd ref="2308629967"/>
    <nd ref="2308629998"/>
    <tag k="addr:city" v="Ely"/>
    <tag k="addr:housename" v="Minster Tavern"/>
    <tag k="addr:housenumber" v="1"/>
    <tag k="addr:postcode" v="CB7 4EL"/>
    <tag k="addr:street" v="Minster Place"/>
    <tag k="amenity" v="pub"/>
    <tag k="building" v="yes"/>
    <tag k="building:levels" v="3"/>
    <tag k="fhrs:id" v="1021433"/>
    <tag k="name" v="The Minster Tavern"/>
    <tag k="operator" v="Stonegate"/>
    <tag k="operator:wikidata" v="Q7619176"/>
    <tag k="website" v="https://www.greatukpubs.co.uk/minster-tavern-ely"/>
  </way>
  <way id="221880339" version="8" timestamp="2024-04-28T17:56:12Z" changeset="150630142" uid="84263" user="Robert Whittaker">
    <nd ref="2308629977"/>
    <nd ref="2308629957"/>
    <nd ref="2308630035"/>
    <nd ref="2308629951"/>
    <nd ref="2308630043"/>
    <nd ref="8821127649"/>
    <nd ref="8821127648"/>
    <nd ref="8821127647"/>
    <nd ref="8821127650"/>
    <nd ref="8821127643"/>
    <nd ref="8821127651"/>
    <nd ref="8821127646"/>
    <nd ref="8821127645"/>
    <nd ref="8821127652"/>
    <nd ref="4382402246"/>
    <nd ref="2308629983"/>
    <nd ref="2308629977"/>
    <tag k="addr:city" v="Ely"/>
    <tag k="addr:country" v="GB"/>
    <tag k="addr:postcode" v="CB7 4EN"/>
    <tag k="addr:street" v="Minster Place"/>
    <tag k="amenity" v="bank"/>
    <tag k="atm" v="yes"/>
    <tag k="brand" v="Lloyds Bank"/>
    <tag k="brand:wikidata" v="Q1152847"/>
    <tag k="brand:wikipedia" v="en:Lloyds Bank"/>
    <tag k="building" v="yes"/>
    <tag k="name" v="Lloyds Bank"/>
    <tag k="website" v="https://branches.lloydsbank.com/cambridgeshire/minster-place"/>
  </way>
  <way id="221880342" version="6" timestamp="2023-02-05T22:32:57Z" changeset="132130577" uid="84263" user="Robert Whittaker">
    <nd ref="2308630014"/>
    <nd ref="2308629943"/>
    <nd ref="2308629931"/>
    <nd ref="2496164188"/>
    <nd ref="2496164189"/>
    <nd ref="2496164190"/>
    <nd ref="2496164191"/>
    <nd ref="2496164192"/>
    <nd ref="2496164193"/>
    <nd ref="2496164194"/>
    <nd ref="2496164195"/>
    <nd ref="2496164196"/>
    <nd ref="2308629965"/>
    <nd ref="2308630006"/>
    <nd ref="2308630020"/>
    <nd ref="2308629937"/>
    <nd ref="2308629949"/>
    <nd ref="2308630014"/>
    <tag k="addr:city" v="Ely"/>
    <tag k="addr:postcode" v="CB7 4EW"/>
    <tag k="addr:street" v="Palace Green"/>
    <tag k="amenity" v="community_centre"/>
    <tag k="building" v="yes"/>
    <tag k="name" v="Ely Cathedral Conference Centre"/>
  </way>
  <way id="222308180" version="12" timestamp="2024-07-15T22:33:09Z" changeset="153991674" uid="21425661" user="CjMalone">
    <nd ref="2312886248"/>
    <nd ref="2312886196"/>
    <nd ref="10612154497"/>
    <nd ref="2312886227"/>
    <nd ref="8038303647"/>
    <nd ref="8038303648"/>
    <nd ref="2312886148"/>
    <nd ref="8038303649"/>
    <nd ref="8038303650"/>
    <nd ref="2312886248"/>
    <tag k="addr:city" v="Ely"/>
    <tag k="addr:housenumber" v="64"/>
    <tag k="addr:postcode" v="CB7 4EY"/>
    <tag k="addr:street" v="St Mary's Street"/>
    <tag k="brand" v="Co-op Food"/>
    <tag k="brand:wikidata" v="Q3277439"/>
    <tag k="building" v="yes"/>
    <tag k="check_date" v="2024-07-15"/>
    <tag k="check_date:opening_hours" v="2024-07-15"/>
    <tag k="fhrs:id" v="1255287"/>
    <tag k="name" v="Co-op Food"/>
    <tag k="opening_hours" v="Mo-Su 07:00-22:00"/>
    <tag k="operator" v="The Co-operative Group"/>
    <tag k="operator:wikidata" v="Q117202"/>
    <tag k="shop" v="convenience"/>
    <tag k="website" v="https://www.coop.co.uk/store-finder/CB7-4EY/64-st-marys-street"/>
  </way>
  <way id="222308189" version="9" timestamp="2024-03-18T14:32:14Z" changeset="148820165" uid="84263" user="Robert Whittaker">
    <nd ref="2312886138"/>
    <nd ref="2312886140"/>
    <nd ref="2312886223"/>
    <nd ref="2312886076"/>
    <nd ref="8821127631"/>
    <nd ref="2524565133"/>
    <nd ref="2312886133"/>
    <nd ref="29043660"/>
    <nd ref="2312886138"/>
    <tag k="addr:city" v="Ely"/>
    <tag k="addr:housename" v="The Kings Arms"/>
    <tag k="addr:housenumber" v="12"/>
    <tag k="addr:postcode" v="CB7 4ES"/>
    <tag k="addr:street" v="St Mary's Street"/>
    <tag k="amenity" v="pub"/>
    <tag k="brand" v="Craft Union"/>
    <tag k="brand:wikidata" v="Q124956771"/>
    <tag k="building" v="yes"/>
    <tag k="fhrs:id" v="1213225"/>
    <tag k="name" v="The Kings Arms"/>
    <tag k="operator" v="Stonegate"/>
    <tag k="operator:wikidata" v="Q7619176"/>
    <tag k="phone" v="+44 1353 656828"/>
    <tag k="website" v="https://www.craftunionpubs.com/kings-arms-ely"/>
    <tag k="wheelchair" v="no"/>
  </way>
  <way id="222308207" version="4" timestamp="2022-06-04T13:05:03Z" changeset="121938419" uid="1868422" user="falcon2">
    <nd ref="2312886249"/>
    <nd ref="2312886080"/>
    <nd ref="2312886072"/>
    <nd ref="2312886158"/>
    <nd ref="2312886084"/>
    <nd ref="763441955"/>
    <nd ref="2312886249"/>
    <tag k="addr:city" v="Ely"/>
    <tag k="addr:housenumber" v="38a"/>
    <tag k="addr:postcode" v="CB7 4ES"/>
    <tag k="addr:street" v="St Mary's Street"/>
    <tag k="building" v="commercial"/>
    <tag k="name" v="Angela Mellor Gallery"/>
    <tag k="website" v="http://angelamellor.com/"/>
  </way>
  <way id="222308215" version="4" timestamp="2022-04-05T06:48:27Z" changeset="119328704" uid="364" user="Edward">
    <nd ref="2312886201"/>
    <nd ref="8821436038"/>
    <nd ref="2312886145"/>
    <nd ref="2312886058"/>
    <nd ref="2312886078"/>
    <nd ref="2312886077"/>
    <nd ref="2312886128"/>
    <nd ref="2312886158"/>
    <nd ref="2312886084"/>
    <nd ref="2312886232"/>
    <nd ref="8821436043"/>
    <nd ref="8821436039"/>
    <nd ref="8821436042"/>
    <nd ref="2312886088"/>
    <nd ref="2312886160"/>
    <nd ref="2312886075"/>
    <nd ref="8821436041"/>
    <nd ref="2312886122"/>
    <nd ref="2312886085"/>
    <nd ref="2312886114"/>
    <nd ref="2312886115"/>
    <nd ref="2312886201"/>
    <tag k="addr:city" v="Ely"/>
    <tag k="addr:housenumber" v="40-44"/>
    <tag k="addr:postcode" v="CB7 4EY"/>
    <tag k="addr:street" v="St Mary's Street"/>
    <tag k="building" v="yes"/>
    <tag k="fhrs:id" v="922029"/>
    <tag k="name" v="Poets House"/>
    <tag k="source:addr" v="FHRS Open Data"/>
    <tag k="tourism" v="hotel"/>
    <tag k="website" v="https://www.poetshouse.co.uk/"/>
    <tag k="wikidata" v="Q111368685"/>
  </way>
  <way id="222308219" version="4" timestamp="2023-01-18T19:56:28Z" changeset="131436329" uid="84263" user="Robert Whittaker">
    <nd ref="2312886083"/>
    <nd ref="2312886074"/>
    <nd ref="2312886213"/>
    <nd ref="2312886231"/>
    <nd ref="8821127623"/>
    <nd ref="2312886207"/>
    <nd ref="2312886193"/>
    <nd ref="8821127622"/>
    <nd ref="2312886218"/>
    <nd ref="8821127628"/>
    <nd ref="8821127627"/>
    <nd ref="2312886083"/>
    <tag k="addr:city" v="Ely"/>
    <tag k="addr:housenumber" v="32"/>
    <tag k="addr:postcode" v="CB7 4ES"/>
    <tag k="addr:street" v="St Mary's Street"/>
    <tag k="building" v="yes"/>
    <tag k="name" v="Peacock House"/>
    <tag k="source:addr:postcode" v="code-point_open"/>
  </way>
  <way id="222323395" version="5" timestamp="2019-03-06T19:34:55Z" changeset="67856444" uid="84263" user="Robert Whittaker">
    <nd ref="2313007860"/>
    <nd ref="2313007938"/>
    <nd ref="2313007827"/>
    <nd ref="2313007857"/>
    <nd ref="2308629996"/>
    <nd ref="2313008004"/>
    <nd ref="2313007847"/>
    <nd ref="2313007866"/>
    <nd ref="2313007829"/>
    <nd ref="3029556057"/>
    <nd ref="3029556058"/>
    <nd ref="2313007860"/>
    <tag k="addr:city" v="Ely"/>
    <tag k="addr:housename" v="Prince Albert"/>
    <tag k="addr:housenumber" v="62"/>
    <tag k="addr:postcode" v="CB7 4JF"/>
    <tag k="addr:street" v="Silver Street"/>
    <tag k="amenity" v="pub"/>
    <tag k="building" v="yes"/>
    <tag k="fhrs:id" v="517113"/>
    <tag k="name" v="The Prince Albert"/>
    <tag k="phone" v="+44 1353 663494"/>
  </way>
  <way id="222323457" version="9" timestamp="2024-10-18T10:26:18Z" changeset="158043900" uid="20378261" user="Oppy Enson">
    <nd ref="2313007834"/>
    <nd ref="2313007894"/>
    <nd ref="9550340246"/>
    <nd ref="2313007845"/>
    <nd ref="2313007804"/>
    <nd ref="2313007834"/>
    <tag k="addr:city" v="Ely"/>
    <tag k="addr:postcode" v="CB7 4HF"/>
    <tag k="addr:street" v="St Mary's Street"/>
    <tag k="amenity" v="veterinary"/>
    <tag k="building" v="yes"/>
    <tag k="name" v="Pet Doctors"/>
    <tag k="opening_hours" v="Mo-Fr 08:30-19:00"/>
    <tag k="website" v="https://petdoctors.co.uk/our-practices/ely/"/>
  </way>
  <way id="222323461" version="3" timestamp="2023-01-11T17:04:16Z" changeset="131154899" uid="84263" user="Robert Whittaker">
    <nd ref="2313007876"/>
    <nd ref="2313007849"/>
    <nd ref="2313007989"/>
    <nd ref="2313007913"/>
    <nd ref="2313007935"/>
    <nd ref="2313007987"/>
    <nd ref="2313007876"/>
    <tag k="addr:city" v="Ely"/>
    <tag k="addr:housename" v="Sextry House"/>
    <tag k="addr:housenumber" v="29a"/>
    <tag k="addr:street" v="St Mary's Street"/>
    <tag k="building" v="yes"/>
    <tag k="healthcare" v="complementary"/>
    <tag k="name" v="Ely Complementary Health Care"/>
    <tag k="phone" v="+44 1353 664476"/>
  </way>
  <way id="223913082" version="10" timestamp="2022-09-26T11:49:13Z" changeset="126652568" uid="6816132" user="CjMalone">
    <nd ref="2327572873"/>
    <nd ref="2327572874"/>
    <nd ref="2327572876"/>
    <nd ref="2327572877"/>
    <nd ref="2327572875"/>
    <nd ref="2327572878"/>
    <nd ref="2327572873"/>
    <tag k="addr:city" v="Ely"/>
    <tag k="addr:housenumber" v="41"/>
    <tag k="addr:postcode" v="CB7 4AS"/>
    <tag k="addr:street" v="Lisle Lane"/>
    <tag k="branch" v="Ely"/>
    <tag k="brand" v="ALDI"/>
    <tag k="brand:wikidata" v="Q41171672"/>
    <tag k="brand:wikipedia" v="en:Aldi"/>
    <tag k="building" v="yes"/>
    <tag k="contact:website" v="https://stores.aldi.co.uk/ely/41-lisle-lane"/>
    <tag k="fhrs:id" v="531067"/>
    <tag k="name" v="ALDI"/>
    <tag k="opening_hours" v="Mo-Sa 08:00-22:00; Su 10:00-16:00"/>
    <tag k="shop" v="supermarket"/>
  </way>
  <way id="224085637" version="3" timestamp="2020-10-17T12:54:13Z" changeset="92627647" uid="5925545" user="yak23">
    <nd ref="2329201684"/>
    <nd ref="2329201685"/>
    <nd ref="2329201686"/>
    <nd ref="2329201687"/>
    <nd ref="2329201684"/>
    <tag k="addr:street" v="New Barns Road"/>
    <tag k="building" v="retail"/>
    <tag k="name" v="Bevis Shoe Repairs"/>
    <tag k="shop" v="shoes;shoe_repair"/>
  </way>
  <way id="224119286" version="13" timestamp="2023-10-30T09:21:22Z" changeset="143353898" uid="37791" user="Fradeve11">
    <nd ref="2329488875"/>
    <nd ref="2481718156"/>
    <nd ref="2329488877"/>
    <nd ref="2481718183"/>
    <nd ref="2481718158"/>
    <nd ref="2481718184"/>
    <nd ref="2481718185"/>
    <nd ref="2481718186"/>
    <nd ref="2481718187"/>
    <nd ref="2481718188"/>
    <nd ref="2481718189"/>
    <nd ref="2481718190"/>
    <nd ref="2481718161"/>
    <nd ref="2481718191"/>
    <nd ref="2481718192"/>
    <nd ref="2481718193"/>
    <nd ref="2481718194"/>
    <nd ref="2329488885"/>
    <nd ref="2481718196"/>
    <nd ref="2481718163"/>
    <nd ref="2481718165"/>
    <nd ref="2481718154"/>
    <nd ref="2481718167"/>
    <nd ref="2481718169"/>
    <nd ref="2481718171"/>
    <nd ref="2481718173"/>
    <nd ref="2481718175"/>
    <nd ref="2481718177"/>
    <nd ref="2481718178"/>
    <nd ref="2481718181"/>
    <nd ref="2481718179"/>
    <nd ref="2481718182"/>
    <nd ref="2481718180"/>
    <nd ref="2481718152"/>
    <nd ref="2329488875"/>
    <tag k="addr:city" v="Ely"/>
    <tag k="addr:postcode" v="CB7 4RB"/>
    <tag k="addr:street" v="High Barns"/>
    <tag k="amenity" v="school"/>
    <tag k="building" v="yes"/>
    <tag k="capacity" v="180"/>
    <tag k="fhrs:id" v="336213"/>
    <tag k="isced:level" v="1"/>
    <tag k="max_age" v="7"/>
    <tag k="min_age" v="4"/>
    <tag k="name" v="Spring Meadow Infant School"/>
    <tag k="phone" v="+44 1353 664742"/>
    <tag k="ref:GB:uprn" v="10002589723"/>
    <tag k="ref:edubase" v="110760"/>
    <tag k="school:trust" v="no"/>
    <tag k="school:type" v="community"/>
    <tag k="source:addr" v="FHRS Open Data"/>
    <tag k="wikidata" v="Q66223576"/>
  </way>
  <way id="224119288" version="14" timestamp="2023-10-09T11:11:50Z" changeset="142344759" uid="37791" user="Fradeve11">
    <nd ref="6700067167"/>
    <nd ref="6700067169"/>
    <nd ref="6700067168"/>
    <nd ref="2329488930"/>
    <nd ref="2329488897"/>
    <nd ref="2329488896"/>
    <nd ref="2329488929"/>
    <nd ref="2329488928"/>
    <nd ref="2329488927"/>
    <nd ref="2329488926"/>
    <nd ref="2329488925"/>
    <nd ref="2329488924"/>
    <nd ref="2329488923"/>
    <nd ref="2329488922"/>
    <nd ref="2329488921"/>
    <nd ref="2329488920"/>
    <nd ref="2329488919"/>
    <nd ref="2329488918"/>
    <nd ref="2329488917"/>
    <nd ref="2329488916"/>
    <nd ref="2481733656"/>
    <nd ref="2329488915"/>
    <nd ref="2329488914"/>
    <nd ref="2329488913"/>
    <nd ref="2329488912"/>
    <nd ref="2329488911"/>
    <nd ref="2329488910"/>
    <nd ref="2329488909"/>
    <nd ref="2329488908"/>
    <nd ref="2329488907"/>
    <nd ref="2329488906"/>
    <nd ref="2329488905"/>
    <nd ref="2329488904"/>
    <nd ref="2329488903"/>
    <nd ref="2329488902"/>
    <nd ref="2329488901"/>
    <nd ref="2329488900"/>
    <nd ref="2329488899"/>
    <nd ref="6700067171"/>
    <nd ref="6700067170"/>
    <nd ref="6700067166"/>
    <nd ref="6700067167"/>
    <tag k="addr:city" v="Ely"/>
    <tag k="addr:postcode" v="CB7 4RB"/>
    <tag k="addr:street" v="High Barns"/>
    <tag k="amenity" v="school"/>
    <tag k="building" v="yes"/>
    <tag k="capacity" v="480"/>
    <tag k="denomination" v="anglican"/>
    <tag k="diocese" v="Diocese of Ely"/>
    <tag k="fhrs:id" v="336520"/>
    <tag k="isced:level" v="1"/>
    <tag k="max_age" v="11"/>
    <tag k="min_age" v="7"/>
    <tag k="name" v="Ely St Mary's CofE Junior School"/>
    <tag k="phone" v="+44 1353 662163"/>
    <tag k="ref:GB:uprn" v="10002597141"/>
    <tag k="ref:edubase" v="141707"/>
    <tag k="ref:edubase:group" v="2905"/>
    <tag k="religion" v="christian"/>
    <tag k="school:trust" v="yes"/>
    <tag k="school:trust:name" v="The Diocese of Ely Multi-Academy Trust"/>
    <tag k="school:trust:type" v="multi_academy"/>
    <tag k="school:type" v="academy"/>
    <tag k="source:addr" v="FHRS Open Data"/>
    <tag k="website" v="https://www.elystmarys.org.uk"/>
    <tag k="wikidata" v="Q67149829"/>
  </way>
  <way id="224229810" version="6" timestamp="2024-08-26T19:31:14Z" changeset="155799544" uid="21425661" user="CjMalone">
    <nd ref="2330514989"/>
    <nd ref="2330514990"/>
    <nd ref="2330514991"/>
    <nd ref="2330514992"/>
    <nd ref="2330514989"/>
    <tag k="addr:city" v="Ely"/>
    <tag k="addr:street" v="Lisle Lane"/>
    <tag k="brand" v="Travis Perkins"/>
    <tag k="brand:wikidata" v="Q2450664"/>
    <tag k="brand:wikipedia" v="en:Travis Perkins"/>
    <tag k="building" v="yes"/>
    <tag k="check_date" v="2024-08-26"/>
    <tag k="check_date:opening_hours" v="2024-08-26"/>
    <tag k="name" v="Travis Perkins"/>
    <tag k="opening_hours" v="Mo-Fr 07:30-17:00; Sa 08:00-12:00; Su closed"/>
    <tag k="shop" v="doityourself"/>
    <tag k="website" v="https://www.travisperkins.co.uk/branch-locator/3654"/>
  </way>
  <way id="224239860" version="8" timestamp="2021-09-28T19:39:30Z" changeset="111835229" uid="1868422" user="falcon2">
    <nd ref="2330598339"/>
    <nd ref="2330598340"/>
    <nd ref="2330598342"/>
    <nd ref="2330598343"/>
    <nd ref="2496313819"/>
    <nd ref="2496313812"/>
    <nd ref="2330598344"/>
    <nd ref="2330598345"/>
    <nd ref="2330598346"/>
    <nd ref="8811757918"/>
    <nd ref="8811757917"/>
    <nd ref="2330598339"/>
    <tag k="addr:city" v="Ely"/>
    <tag k="addr:housename" v="The Cutter Inn"/>
    <tag k="addr:housenumber" v="42"/>
    <tag k="addr:postcode" v="CB7 4BN"/>
    <tag k="addr:street" v="Annesdale"/>
    <tag k="amenity" v="pub"/>
    <tag k="building" v="yes"/>
    <tag k="fhrs:id" v="336150"/>
    <tag k="name" v="The Cutter Inn"/>
    <tag k="phone" v="+44 1353 662713"/>
    <tag k="website" v="https://www.thecutterinn.co.uk/"/>
    <tag k="wikidata" v="Q26419465"/>
  </way>
  <way id="224239867" version="5" timestamp="2017-10-19T07:46:54Z" changeset="53060217" uid="6819028" user="Hickishes">
    <nd ref="2330598399"/>
    <nd ref="2330598400"/>
    <nd ref="2330598403"/>
    <nd ref="2496333950"/>
    <nd ref="2496333951"/>
    <nd ref="2496333952"/>
    <nd ref="2496333953"/>
    <nd ref="2330598408"/>
    <nd ref="2330598409"/>
    <nd ref="2496333948"/>
    <nd ref="2496333949"/>
    <nd ref="2496333945"/>
    <nd ref="2496333946"/>
    <nd ref="2496333947"/>
    <nd ref="2330598401"/>
    <nd ref="2496326301"/>
    <nd ref="2330598402"/>
    <nd ref="2496326278"/>
    <nd ref="2496326230"/>
    <nd ref="2330598399"/>
    <tag k="addr:city" v="Ely"/>
    <tag k="addr:housename" v="The Maltings"/>
    <tag k="addr:postcode" v="CB7 4BB"/>
    <tag k="addr:street" v="Ship Lane"/>
    <tag k="amenity" v="arts_centre"/>
    <tag k="building" v="yes"/>
    <tag k="name" v="The Maltings"/>
    <tag k="toilets:wheelchair" v="yes"/>
    <tag k="wheelchair" v="limited"/>
  </way>
  <way id="224239953" version="7" timestamp="2023-01-11T17:10:00Z" changeset="131155069" uid="84263" user="Robert Whittaker">
    <nd ref="2330598866"/>
    <nd ref="2330598867"/>
    <nd ref="2330598868"/>
    <nd ref="2330598874"/>
    <nd ref="2330598869"/>
    <nd ref="2330598866"/>
    <tag k="addr:city" v="Ely"/>
    <tag k="addr:housenumber" v="11"/>
    <tag k="addr:postcode" v="CB7 4AJ"/>
    <tag k="addr:street" v="Broad Street"/>
    <tag k="building" v="yes"/>
    <tag k="fhrs:id" v="1425685"/>
    <tag k="name" v="Ely Oriental Groceries"/>
    <tag k="opening_hours" v="Tu-Su 09:30-17:30"/>
    <tag k="payment:contactless" v="yes"/>
    <tag k="phone" v="+44 1353 66 24 33"/>
    <tag k="shop" v="grocery"/>
    <tag k="website" v="https://www.elyorientalgroceries.co.uk/"/>
  </way>
  <way id="224244796" version="9" timestamp="2024-01-19T12:40:50Z" changeset="146442450" uid="20378261" user="Oppy Enson">
    <nd ref="29044105"/>
    <nd ref="8821436044"/>
    <nd ref="8821436045"/>
    <nd ref="2330639544"/>
    <nd ref="2330639545"/>
    <nd ref="2330639548"/>
    <nd ref="29044105"/>
    <tag k="addr:city" v="Ely"/>
    <tag k="addr:housenumber" v="1a"/>
    <tag k="addr:postcode" v="CB6 1AG"/>
    <tag k="addr:street" v="Downham Road"/>
    <tag k="amenity" v="fast_food"/>
    <tag k="building" v="commercial"/>
    <tag k="check_date" v="2024-01-19"/>
    <tag k="cuisine" v="chinese"/>
    <tag k="drive_through" v="no"/>
    <tag k="fhrs:id" v="1266967"/>
    <tag k="name" v="New Dragon Inn"/>
    <tag k="opening_hours" v="Mo,We,Th 16:30-22:30; Fr,Sa 16:30-23:00; Su 16:30-22:30; PH 16:30-22:30"/>
    <tag k="payment:cards" v="no"/>
    <tag k="payment:cash" v="yes"/>
    <tag k="payment:credit_cards" v="no"/>
    <tag k="payment:debit_cards" v="no"/>
    <tag k="phone" v="+44 1353 668 833"/>
    <tag k="source:building" v="Bing"/>
    <tag k="wheelchair" v="yes"/>
  </way>
  <way id="224244799" version="3" timestamp="2023-01-31T15:45:38Z" changeset="131927261" uid="90943" user="chris_debian">
    <nd ref="2330639600"/>
    <nd ref="2330639588"/>
    <nd ref="2330639589"/>
    <nd ref="2330639593"/>
    <nd ref="2330639594"/>
    <nd ref="2330639604"/>
    <nd ref="2330639602"/>
    <nd ref="2330639600"/>
    <tag k="addr:city" v="Ely"/>
    <tag k="addr:housenumber" v="8"/>
    <tag k="addr:postcode" v="CB6 1AH"/>
    <tag k="addr:street" v="Downham Road"/>
    <tag k="building" v="retail"/>
    <tag k="name" v="Rowley Fine Art"/>
    <tag k="shop" v="auction"/>
    <tag k="source:building" v="Bing"/>
    <tag k="website" v="https://www.rowleyfineart.com/"/>
  </way>
  <way id="224247690" version="2" timestamp="2018-06-26T08:40:42Z" changeset="60173685" uid="8445041" user="SteveThomason">
    <nd ref="2330668388"/>
    <nd ref="2330668392"/>
    <nd ref="2330668394"/>
    <nd ref="2330668396"/>
    <nd ref="2330668399"/>
    <nd ref="2330668401"/>
    <nd ref="2330668388"/>
    <tag k="addr:housename" v="George Court"/>
    <tag k="addr:postcode" v="CB7 4JW"/>
    <tag k="addr:street" v="Bartholomew's Walk"/>
    <tag k="building" v="yes"/>
    <tag k="name" v="Anglia Security Services Ltd (Ely)"/>
  </way>
  <way id="224247708" version="3" timestamp="2019-03-08T00:05:28Z" changeset="67904672" uid="84263" user="Robert Whittaker">
    <nd ref="2330668616"/>
    <nd ref="2330668618"/>
    <nd ref="2330668620"/>
    <nd ref="2330668621"/>
    <nd ref="2330668622"/>
    <nd ref="2330668624"/>
    <nd ref="2330668625"/>
    <nd ref="2330668626"/>
    <nd ref="2330668628"/>
    <nd ref="2330668629"/>
    <nd ref="2330668616"/>
    <tag k="addr:city" v="Ely"/>
    <tag k="addr:housenumber" v="5"/>
    <tag k="addr:postcode" v="CB7 4EX"/>
    <tag k="addr:street" v="St Thomas Place"/>
    <tag k="amenity" v="childcare"/>
    <tag k="building" v="yes"/>
    <tag k="fhrs:id" v="336118"/>
    <tag k="name" v="Ely Day Nursery"/>
    <tag k="operator" v="Bright Horizons"/>
    <tag k="source:addr" v="FHRS Open Data"/>
  </way>
  <way id="224247720" version="6" timestamp="2024-07-12T11:37:55Z" changeset="153851611" uid="20378261" user="Oppy Enson">
    <nd ref="2330668750"/>
    <nd ref="2330668753"/>
    <nd ref="2330668755"/>
    <nd ref="2330668757"/>
    <nd ref="2330668750"/>
    <tag k="addr:housenumber" v="9-10"/>
    <tag k="addr:street" v="The Dock"/>
    <tag k="addr:unit" v="9-10"/>
    <tag k="brand" v="Wolseley"/>
    <tag k="brand:wikidata" v="Q8030423"/>
    <tag k="building" v="yes"/>
    <tag k="name" v="Wolseley"/>
    <tag k="shop" v="trade"/>
    <tag k="trade" v="plumbing"/>
    <tag k="website" v="https://www.wolseley.co.uk/branch/ely/"/>
  </way>
  <way id="224247723" version="4" timestamp="2024-07-12T11:37:55Z" changeset="153851611" uid="20378261" user="Oppy Enson">
    <nd ref="2330668776"/>
    <nd ref="2330668779"/>
    <nd ref="2330668781"/>
    <nd ref="2330668782"/>
    <nd ref="2330668776"/>
    <tag k="addr:housenumber" v="4"/>
    <tag k="addr:street" v="The Dock"/>
    <tag k="building" v="yes"/>
    <tag k="name" v="Beggs and Partners"/>
    <tag k="opening_hours" v="Mo-Fr 07:00-17:00"/>
  </way>
  <way id="224296672" version="4" timestamp="2021-06-10T13:47:10Z" changeset="106160115" uid="84263" user="Robert Whittaker">
    <nd ref="2331168803"/>
    <nd ref="2331168805"/>
    <nd ref="2331168806"/>
    <nd ref="2331168807"/>
    <nd ref="2331168808"/>
    <nd ref="2331168809"/>
    <nd ref="2331168810"/>
    <nd ref="2331168811"/>
    <nd ref="2331168812"/>
    <nd ref="2331168813"/>
    <nd ref="2331168803"/>
    <tag k="addr:housename" v="Annesdale Lodge"/>
    <tag k="addr:housenumber" v="8"/>
    <tag k="addr:postcode" v="CB7 4BN"/>
    <tag k="addr:street" v="Annesdale"/>
    <tag k="building" v="yes"/>
    <tag k="fhrs:id" v="336231"/>
    <tag k="name" v="Riverside Inn"/>
    <tag k="tourism" v="guest_house"/>
    <tag k="website" v="https://www.riversideinn-ely.co.uk/"/>
  </way>
  <way id="224296674" version="6" timestamp="2023-01-11T17:10:00Z" changeset="131155069" uid="84263" user="Robert Whittaker">
    <nd ref="2331168813"/>
    <nd ref="2331168815"/>
    <nd ref="2331168828"/>
    <nd ref="2331168817"/>
    <nd ref="2331168810"/>
    <nd ref="2331168811"/>
    <nd ref="2331168812"/>
    <nd ref="2331168813"/>
    <tag k="addr:housenumber" v="5-5a"/>
    <tag k="addr:street" v="Annesdale"/>
    <tag k="amenity" v="restaurant"/>
    <tag k="building" v="yes"/>
    <tag k="cuisine" v="south_american"/>
    <tag k="fhrs:id" v="1500624"/>
    <tag k="name" v="Urban Fresh"/>
    <tag k="phone" v="+44 1353240024"/>
    <tag k="website" v="https://www.urbanfreshely.uk/"/>
  </way>
  <way id="224296679" version="4" timestamp="2021-06-07T13:13:50Z" changeset="105974711" uid="84263" user="Robert Whittaker">
    <nd ref="2331168848"/>
    <nd ref="2331168850"/>
    <nd ref="737914644"/>
    <nd ref="737942808"/>
    <nd ref="2331168856"/>
    <nd ref="2331168857"/>
    <nd ref="2331168859"/>
    <nd ref="2331168861"/>
    <nd ref="2331168848"/>
    <tag k="addr:city" v="Ely"/>
    <tag k="addr:housenumber" v="1"/>
    <tag k="addr:street" v="Annesdale"/>
    <tag k="building" v="yes"/>
    <tag k="name" v="The Boat Yard"/>
  </way>
  <way id="224296716" version="2" timestamp="2020-07-11T14:55:32Z" changeset="87856048" uid="1788343" user="Jeenu">
    <nd ref="2331169026"/>
    <nd ref="2303727768"/>
    <nd ref="2331169027"/>
    <nd ref="2331169028"/>
    <nd ref="2331169029"/>
    <nd ref="2331169030"/>
    <nd ref="2331169031"/>
    <nd ref="2331169032"/>
    <nd ref="2331169033"/>
    <nd ref="2331169026"/>
    <tag k="addr:city" v="Ely"/>
    <tag k="addr:housenumber" v="3a"/>
    <tag k="addr:postcode" v="CB7 4BU"/>
    <tag k="addr:street" v="Castlehythe"/>
    <tag k="building" v="garage"/>
    <tag k="building:levels" v="1"/>
    <tag k="name" v="St Peter's Garage"/>
  </way>
  <way id="225563429" version="7" timestamp="2022-06-03T18:04:54Z" changeset="121908553" uid="1868422" user="falcon2">
    <nd ref="2343296358"/>
    <nd ref="2343296359"/>
    <nd ref="2343296369"/>
    <nd ref="2343296361"/>
    <nd ref="2343296363"/>
    <nd ref="2343296358"/>
    <tag k="addr:city" v="Ely"/>
    <tag k="addr:housenumber" v="21"/>
    <tag k="addr:postcode" v="CB7 4BD"/>
    <tag k="addr:street" v="Broad Street"/>
    <tag k="amenity" v="fast_food"/>
    <tag k="building" v="yes"/>
    <tag k="cuisine" v="fish_and_chips"/>
    <tag k="drive_through" v="no"/>
    <tag k="fhrs:id" v="941104"/>
    <tag k="indoor_seating" v="no"/>
    <tag k="name" v="Alan Fish Bar"/>
    <tag k="opening_hours" v="Mo-Sa 12:00-14:00, 16:30-21:00"/>
    <tag k="outdoor_seating" v="no"/>
    <tag k="payment:cash" v="yes"/>
    <tag k="phone" v="+44 1353 611 881"/>
    <tag k="takeaway" v="only"/>
    <tag k="toilets" v="no"/>
    <tag k="website" v="https://alanfishbarely.wixsite.com/alanfishbarely"/>
    <tag k="wheelchair" v="yes"/>
  </way>
  <way id="236290247" version="5" timestamp="2023-01-22T19:11:06Z" changeset="131578287" uid="84263" user="Robert Whittaker">
    <nd ref="717516920"/>
    <nd ref="8811757951"/>
    <nd ref="8811757952"/>
    <nd ref="2443311873"/>
    <nd ref="2443311874"/>
    <nd ref="8811757953"/>
    <nd ref="717516919"/>
    <nd ref="717516920"/>
    <tag k="addr:city" v="Ely"/>
    <tag k="addr:housenumber" v="11"/>
    <tag k="addr:postcode" v="CB7 4ZH"/>
    <tag k="addr:street" v="The Cloisters"/>
    <tag k="brand" v="Bonmarché"/>
    <tag k="brand:wikidata" v="Q4942146"/>
    <tag k="brand:wikipedia" v="en:Bonmarché"/>
    <tag k="building" v="yes"/>
    <tag k="name" v="Bonmarché"/>
    <tag k="shop" v="clothes"/>
    <tag k="website" v="https://www.bonmarche.co.uk/storelanding/?storename=ely"/>
    <tag k="wheelchair" v="yes"/>
  </way>
  <way id="245223858" version="14" timestamp="2024-07-09T10:56:12Z" changeset="153739242" uid="616774" user="mueschel">
    <nd ref="2308623735"/>
    <nd ref="611071350"/>
    <nd ref="2308623822"/>
    <nd ref="10611276498"/>
    <nd ref="10611276499"/>
    <nd ref="10611276500"/>
    <nd ref="10611276501"/>
    <nd ref="2524565110"/>
    <nd ref="2524565120"/>
    <nd ref="10611276502"/>
    <nd ref="10611276496"/>
    <nd ref="2785195956"/>
    <nd ref="2308623735"/>
    <tag k="addr:city" v="Ely"/>
    <tag k="addr:housename" v="Royal Standard"/>
    <tag k="addr:housenumber" v="24"/>
    <tag k="addr:postcode" v="CB7 4AF"/>
    <tag k="addr:street" v="Fore Hill"/>
    <tag k="amenity" v="pub"/>
    <tag k="building" v="yes"/>
    <tag k="dog_friendly" v="yes"/>
    <tag k="fhrs:id" v="587031"/>
    <tag k="indoor_seating" v="yes"/>
    <tag k="name" v="The Royal Standard"/>
    <tag k="operator" v="Green King"/>
    <tag k="outdoor_seating" v="yes"/>
    <tag k="payment:cash" v="yes"/>
    <tag k="phone" v="+44 1353 645194"/>
    <tag k="website" v="https://www.theroyalstandardely.com/"/>
    <tag k="wheelchair" v="limited"/>
    <tag k="wikidata" v="Q26419462"/>
  </way>
  <way id="245297217" version="8" timestamp="2024-07-31T13:25:54Z" changeset="154649857" uid="21425661" user="CjMalone">
    <nd ref="2308623765"/>
    <nd ref="2525192990"/>
    <nd ref="2308624241"/>
    <nd ref="2525192989"/>
    <nd ref="2308623765"/>
    <tag k="addr:city" v="Ely"/>
    <tag k="addr:housename" v="Thomas Cook"/>
    <tag k="addr:housenumber" v="11"/>
    <tag k="addr:postcode" v="CB7 4PB"/>
    <tag k="addr:street" v="Market Street"/>
    <tag k="brand" v="Hays Travel"/>
    <tag k="brand:wikidata" v="Q70250954"/>
    <tag k="brand:wikipedia" v="en:Hays Travel"/>
    <tag k="building" v="yes"/>
    <tag k="check_date" v="2024-07-29"/>
    <tag k="check_date:opening_hours" v="2024-07-29"/>
    <tag k="contact:facebook" v="https://facebook.com/HaysTravelEly"/>
    <tag k="name" v="Hays Travel"/>
    <tag k="not:addr:postcode" v="CB7 4LZ"/>
    <tag k="opening_hours" v="Mo-Tu 09:15-17:30; We 10:00-17:30; Th-Fr 09:15-17:30; Sa 09:15-17:00; Su closed"/>
    <tag k="phone" v="+44 1353 464029"/>
    <tag k="shop" v="travel_agency"/>
    <tag k="source:addr:postcode" v="ons_uprn_lookup"/>
    <tag k="website" v="https://www.haystravel.co.uk/branches/ely/"/>
  </way>
  <way id="245297219" version="12" timestamp="2022-05-02T11:13:20Z" changeset="120450151" uid="290680" user="wheelmap_visitor">
    <nd ref="717516855"/>
    <nd ref="2525192995"/>
    <nd ref="2525192996"/>
    <nd ref="2525192994"/>
    <nd ref="717516855"/>
    <tag k="addr:city" v="Ely"/>
    <tag k="addr:housenumber" v="10"/>
    <tag k="addr:postcode" v="CB7 4PB"/>
    <tag k="addr:street" v="Market Street"/>
    <tag k="amenity" v="cafe"/>
    <tag k="brand" v="Costa"/>
    <tag k="brand:wikidata" v="Q608845"/>
    <tag k="brand:wikipedia" v="en:Costa Coffee"/>
    <tag k="building" v="yes"/>
    <tag k="cuisine" v="coffee_shop"/>
    <tag k="fhrs:id" v="336157"/>
    <tag k="name" v="Costa"/>
    <tag k="opening_hours" v="Mo-Sa 07:30-17:30; Su 08:30-17:00"/>
    <tag k="takeaway" v="yes"/>
    <tag k="toilets:wheelchair" v="yes"/>
    <tag k="wheelchair" v="yes"/>
  </way>
  <way id="245297220" version="8" timestamp="2023-02-06T14:13:07Z" changeset="132159713" uid="84263" user="Robert Whittaker">
    <nd ref="2525192996"/>
    <nd ref="2525192998"/>
    <nd ref="2525192999"/>
    <nd ref="717516864"/>
    <nd ref="2525192994"/>
    <nd ref="2525192996"/>
    <tag k="addr:city" v="Ely"/>
    <tag k="addr:housenumber" v="2"/>
    <tag k="addr:postcode" v="CB7 4PE"/>
    <tag k="addr:street" v="Newnham Street"/>
    <tag k="building" v="yes"/>
    <tag k="name" v="The Motorist Centre"/>
    <tag k="phone" v="+44 1353 664508"/>
    <tag k="shop" v="car_parts"/>
    <tag k="website" v="https://www.themotoristcentre.co.uk/"/>
    <tag k="wheelchair" v="no"/>
  </way>
  <way id="245297221" version="4" timestamp="2019-03-06T19:34:57Z" changeset="67856444" uid="84263" user="Robert Whittaker">
    <nd ref="2525192998"/>
    <nd ref="2525193000"/>
    <nd ref="2525193001"/>
    <nd ref="2525192999"/>
    <nd ref="2525192998"/>
    <tag k="addr:city" v="Ely"/>
    <tag k="addr:postcode" v="CB7 4PE"/>
    <tag k="addr:street" v="Newnham Street"/>
    <tag k="building" v="yes"/>
    <tag k="fhrs:id" v="336244"/>
    <tag k="name" v="Labas"/>
    <tag k="shop" v="convenience"/>
    <tag k="wheelchair" v="yes"/>
  </way>
  <way id="248088123" version="2" timestamp="2019-03-08T00:05:28Z" changeset="67904672" uid="84263" user="Robert Whittaker">
    <nd ref="2549310476"/>
    <nd ref="2549310480"/>
    <nd ref="2549310478"/>
    <nd ref="2549310474"/>
    <nd ref="2549310476"/>
    <tag k="addr:city" v="Ely"/>
    <tag k="addr:postcode" v="CB7 5TL"/>
    <tag k="addr:street" v="Soham Road"/>
    <tag k="addr:village" v="Stuntney"/>
    <tag k="amenity" v="community_centre"/>
    <tag k="building" v="civic"/>
    <tag k="fhrs:id" v="336560"/>
    <tag k="name" v="Stuntney Social Club"/>
    <tag k="source:addr" v="FHRS Open Data"/>
  </way>
  <way id="256335664" version="12" timestamp="2023-06-05T23:40:41Z" changeset="136992300" uid="5229644" user="Nathan_A_RF">
    <nd ref="29042304"/>
    <nd ref="2620000783"/>
    <nd ref="2620000815"/>
    <nd ref="2620000790"/>
    <nd ref="2620000817"/>
    <nd ref="10958497978"/>
    <nd ref="29042321"/>
    <nd ref="10958497980"/>
    <nd ref="2620000739"/>
    <nd ref="2620000786"/>
    <nd ref="2620000770"/>
    <nd ref="10958497979"/>
    <nd ref="2620000756"/>
    <nd ref="29042296"/>
    <nd ref="29042298"/>
    <nd ref="717516831"/>
    <nd ref="717516828"/>
    <nd ref="717516826"/>
    <nd ref="2620000752"/>
    <nd ref="2620000764"/>
    <nd ref="2620000797"/>
    <nd ref="2620000778"/>
    <nd ref="717516824"/>
    <nd ref="717516825"/>
    <nd ref="2620000749"/>
    <nd ref="2620000781"/>
    <nd ref="2620000787"/>
    <nd ref="2620000777"/>
    <nd ref="2620000774"/>
    <nd ref="2620000820"/>
    <nd ref="717516823"/>
    <nd ref="717516829"/>
    <nd ref="717516830"/>
    <nd ref="29042304"/>
    <tag k="addr:city" v="Ely"/>
    <tag k="addr:postcode" v="CB7 4DJ"/>
    <tag k="addr:street" v="Angel Drove"/>
    <tag k="branch" v="Ely Superstore"/>
    <tag k="brand" v="Tesco"/>
    <tag k="brand:wikidata" v="Q487494"/>
    <tag k="brand:wikipedia" v="en:Tesco"/>
    <tag k="building" v="yes"/>
    <tag k="fhrs:id" v="336489"/>
    <tag k="name" v="Tesco"/>
    <tag k="opening_hours" v="Mo-Sa 06:00-24:00; Su 10:00-16:00"/>
    <tag k="operator" v="Tesco Stores Ltd"/>
    <tag k="optician" v="yes"/>
    <tag k="pharmacy" v="yes"/>
    <tag k="phone" v="+44 345 677 9256"/>
    <tag k="shop" v="supermarket"/>
    <tag k="source" v="OS_OpenData_StreetView"/>
    <tag k="website" v="https://www.tesco.com/store-locator/ely/angel-drove"/>
    <tag k="wheelchair" v="yes"/>
  </way>
  <way id="263195043" version="6" timestamp="2024-10-18T10:29:26Z" changeset="158044017" uid="20378261" user="Oppy Enson">
    <nd ref="2688190473"/>
    <nd ref="2688190476"/>
    <nd ref="2688190478"/>
    <nd ref="2688190480"/>
    <nd ref="2688190482"/>
    <nd ref="2688190484"/>
    <nd ref="2688190473"/>
    <tag k="addr:city" v="Ely"/>
    <tag k="addr:housenumber" v="16"/>
    <tag k="addr:postcode" v="CB6 3AY"/>
    <tag k="addr:street" v="West End"/>
    <tag k="amenity" v="pub"/>
    <tag k="building" v="yes"/>
    <tag k="check_date:opening_hours" v="2024-10-18"/>
    <tag k="fhrs:id" v="336573"/>
    <tag k="name" v="West End House"/>
    <tag k="opening_hours:signed" v="no"/>
    <tag k="source:addr" v="FHRS Open Data"/>
  </way>
  <way id="300487265" version="2" timestamp="2018-10-22T11:43:21Z" changeset="63756275" uid="669183" user="Andy_W">
    <nd ref="3045662379"/>
    <nd ref="3045662378"/>
    <nd ref="3045662381"/>
    <nd ref="3045662380"/>
    <nd ref="3045662379"/>
    <tag k="addr:city" v="Ely"/>
    <tag k="addr:housename" v="Orwell Pit Farm"/>
    <tag k="addr:postcode" v="CB6 2SJ"/>
    <tag k="addr:street" v="Downham Road"/>
    <tag k="building" v="yes"/>
    <tag k="name" v="W R Jackson &amp; Son"/>
  </way>
  <way id="305535721" version="4" timestamp="2023-09-23T22:17:59Z" changeset="141662765" uid="11022773" user="GeoFens">
    <nd ref="3101751903"/>
    <nd ref="3101751901"/>
    <nd ref="3101751902"/>
    <nd ref="3101751904"/>
    <nd ref="3101751903"/>
    <tag k="addr:postcode" v="CB6 2SH"/>
    <tag k="addr:street" v="Downham Road"/>
    <tag k="building" v="pavilion"/>
    <tag k="name" v="The Robins (Ely Function Room &amp; Bar)"/>
  </way>
  <way id="320806243" version="7" timestamp="2023-01-31T15:45:38Z" changeset="131927261" uid="90943" user="chris_debian">
    <nd ref="3274530283"/>
    <nd ref="3274530285"/>
    <nd ref="3274530284"/>
    <nd ref="3274530294"/>
    <nd ref="3274530281"/>
    <nd ref="3274530296"/>
    <nd ref="3274530295"/>
    <nd ref="3274530288"/>
    <nd ref="3274530282"/>
    <nd ref="3274530287"/>
    <nd ref="3274530286"/>
    <nd ref="3274530280"/>
    <nd ref="3274530291"/>
    <nd ref="3274530290"/>
    <nd ref="3274530292"/>
    <nd ref="3274530289"/>
    <nd ref="3274530293"/>
    <nd ref="3274530283"/>
    <tag k="addr:city" v="Ely"/>
    <tag k="addr:housenumber" v="37"/>
    <tag k="addr:postcode" v="CB7 4HF"/>
    <tag k="addr:street" v="St Mary's Street"/>
    <tag k="amenity" v="doctors"/>
    <tag k="building" v="yes"/>
    <tag k="emergency" v="yes"/>
    <tag k="healthcare" v="doctor"/>
    <tag k="name" v="St Mary's Surgery"/>
    <tag k="website" v="https://www.nhs.uk/Services/GP/Overview/DefaultView.aspx?id=43951"/>
  </way>
  <way id="353847654" version="4" timestamp="2023-04-26T22:27:24Z" changeset="135404206" uid="3999" user="BarryMyles">
    <nd ref="3596480514"/>
    <nd ref="3596480149"/>
    <nd ref="3596480510"/>
    <nd ref="3596480511"/>
    <nd ref="3596480174"/>
    <nd ref="3596480501"/>
    <nd ref="3596480551"/>
    <nd ref="3596480150"/>
    <nd ref="3596480532"/>
    <nd ref="3596480178"/>
    <nd ref="3596480538"/>
    <nd ref="3596480536"/>
    <nd ref="3596480514"/>
    <tag k="addr:city" v="Ely"/>
    <tag k="addr:postcode" v="CB6 1AE"/>
    <tag k="addr:street" v="Egremont Street"/>
    <tag k="building" v="yes"/>
    <tag k="name" v="Ely Telephone Exchange"/>
    <tag k="operator" v="Openreach"/>
    <tag k="operator:wikidata" v="Q7096543"/>
    <tag k="ref" v="EAELY"/>
    <tag k="telecom" v="exchange"/>
  </way>
  <way id="353855170" version="6" timestamp="2019-02-22T01:04:10Z" changeset="67448750" uid="2400834" user="Gyrwa">
    <nd ref="6294676168"/>
    <nd ref="6294676167"/>
    <nd ref="3596559366"/>
    <nd ref="3596558655"/>
    <nd ref="6294676170"/>
    <nd ref="3596558643"/>
    <nd ref="6294676169"/>
    <nd ref="3596558645"/>
    <nd ref="3596559397"/>
    <nd ref="3596558656"/>
    <nd ref="3596558610"/>
    <nd ref="3596558660"/>
    <nd ref="3596558670"/>
    <nd ref="3596559338"/>
    <nd ref="3596559336"/>
    <nd ref="3596558609"/>
    <nd ref="4918546759"/>
    <nd ref="4918546757"/>
    <nd ref="6011117358"/>
    <nd ref="3596559316"/>
    <nd ref="3596559310"/>
    <nd ref="3596558613"/>
    <nd ref="3596559340"/>
    <nd ref="4918546758"/>
    <nd ref="6294676171"/>
    <nd ref="6294676172"/>
    <nd ref="3596558630"/>
    <nd ref="3596558633"/>
    <nd ref="3596558632"/>
    <nd ref="6294676105"/>
    <nd ref="3596559406"/>
    <nd ref="3596559407"/>
    <nd ref="6294676168"/>
    <tag k="addr:city" v="Ely"/>
    <tag k="addr:postcode" v="CB6 1DN"/>
    <tag k="addr:street" v="Lynn Road"/>
    <tag k="building" v="hospital"/>
    <tag k="name" v="Princess of Wales Hospital"/>
    <tag k="phone" v="+44 1353 652000"/>
  </way>
  <way id="489586365" version="1" timestamp="2017-04-26T13:19:37Z" changeset="48162802" uid="281267" user="smb1001">
    <nd ref="29042809"/>
    <nd ref="4818176276"/>
    <nd ref="4818176289"/>
    <nd ref="4818176450"/>
    <nd ref="4818176242"/>
    <nd ref="4818176463"/>
    <nd ref="29042809"/>
    <tag k="addr:housenumber" v="7"/>
    <tag k="addr:postcode" v="CB7 4HZ"/>
    <tag k="addr:street" v="Barton Road"/>
    <tag k="building" v="hotel"/>
    <tag k="name" v="Nyton Hotel"/>
    <tag k="tourism" v="hotel"/>
  </way>
  <way id="489605836" version="4" timestamp="2024-07-12T08:06:40Z" changeset="153843357" uid="20378261" user="Oppy Enson">
    <nd ref="4818341545"/>
    <nd ref="4818341681"/>
    <nd ref="4818341527"/>
    <nd ref="4818341558"/>
    <nd ref="4818341545"/>
    <tag k="addr:city" v="Ely"/>
    <tag k="addr:housenumber" v="44"/>
    <tag k="addr:street" v="Newnham Street"/>
    <tag k="building" v="retail"/>
    <tag k="name" v="Lucky Panda"/>
    <tag k="opening_hours" v="Mo off; Tu-Sa,PH 16:30-22:30; Su 16:30-21:30"/>
  </way>
  <way id="489605860" version="2" timestamp="2021-05-03T11:09:28Z" changeset="104051040" uid="281267" user="smb1001">
    <nd ref="4818341703"/>
    <nd ref="4818341710"/>
    <nd ref="4818341624"/>
    <nd ref="4818341538"/>
    <nd ref="4818341619"/>
    <nd ref="4818341627"/>
    <nd ref="4818341537"/>
    <nd ref="4818341723"/>
    <nd ref="4818341718"/>
    <nd ref="4818341549"/>
    <nd ref="4818341524"/>
    <nd ref="4818341703"/>
    <tag k="addr:postcode" v="CB7 4EE"/>
    <tag k="addr:street" v="Nutholt Lane"/>
    <tag k="building" v="yes"/>
    <tag k="name" v="East Cambridgeshire District Council"/>
  </way>
  <way id="489605867" version="9" timestamp="2024-07-12T08:09:23Z" changeset="153843478" uid="20378261" user="Oppy Enson">
    <nd ref="4818341642"/>
    <nd ref="4818341719"/>
    <nd ref="4818341543"/>
    <nd ref="4818341541"/>
    <nd ref="10610537139"/>
    <nd ref="10610537137"/>
    <nd ref="10610537138"/>
    <nd ref="4818341593"/>
    <nd ref="4818341642"/>
    <tag k="addr:city" v="Ely"/>
    <tag k="addr:housenumber" v="26-28"/>
    <tag k="addr:postcode" v="CB7 4PE"/>
    <tag k="addr:street" v="Newnham Street"/>
    <tag k="building" v="retail"/>
    <tag k="name" v="Newnham Street Carpets"/>
    <tag k="opening_hours" v="Mo-Fr 09:00-17:00; Sa 10:00-16:00"/>
    <tag k="shop" v="flooring"/>
    <tag k="website" v="https://newnhamstreetcarpets.co.uk/"/>
  </way>
  <way id="492126934" version="9" timestamp="2024-09-16T18:43:36Z" changeset="156701170" uid="21425661" user="CjMalone">
    <nd ref="4841747726"/>
    <nd ref="4841747986"/>
    <nd ref="4841747725"/>
    <nd ref="9949264858"/>
    <nd ref="9949264847"/>
    <nd ref="4841747673"/>
    <nd ref="4841747925"/>
    <nd ref="4841747677"/>
    <nd ref="4841747726"/>
    <tag k="addr:housename" v="St Johns Place"/>
    <tag k="addr:street" v="St Johns Road"/>
    <tag k="brand" v="One Stop"/>
    <tag k="brand:wikidata" v="Q65954217"/>
    <tag k="building" v="retail"/>
    <tag k="check_date" v="2023-10-06"/>
    <tag k="name" v="One Stop"/>
    <tag k="opening_hours" v="PH,Mo-Su 07:00-22:00"/>
    <tag k="shop" v="convenience"/>
    <tag k="wheelchair" v="limited"/>
  </way>
  <way id="546478474" version="3" timestamp="2021-10-01T20:42:17Z" changeset="111981121" uid="1868422" user="falcon2">
    <nd ref="5281132260"/>
    <nd ref="5281132261"/>
    <nd ref="5281132262"/>
    <nd ref="5281132263"/>
    <nd ref="5281132264"/>
    <nd ref="5281132265"/>
    <nd ref="5281132266"/>
    <nd ref="5281132267"/>
    <nd ref="5281132268"/>
    <nd ref="5281132269"/>
    <nd ref="5281132260"/>
    <tag k="addr:city" v="Ely"/>
    <tag k="addr:postcode" v="CB6 2FG"/>
    <tag k="addr:street" v="School Road"/>
    <tag k="building" v="school"/>
    <tag k="name" v="Isle of Ely Primary School"/>
    <tag k="phone" v="+44 1353 612 818"/>
    <tag k="website" v="https://isleofelyprimary.org/"/>
  </way>
  <way id="546479754" version="5" timestamp="2021-10-05T17:50:39Z" changeset="112134674" uid="1868422" user="falcon2">
    <nd ref="5281148351"/>
    <nd ref="5281148352"/>
    <nd ref="5281148353"/>
    <nd ref="5281148354"/>
    <nd ref="5281148351"/>
    <tag k="addr:city" v="Ely"/>
    <tag k="addr:housenumber" v="5"/>
    <tag k="addr:parentstreet" v="Downham Road"/>
    <tag k="addr:postcode" v="CB6 2FE"/>
    <tag k="addr:street" v="Ely Leisure Village"/>
    <tag k="alt_name" v="Kentucky Fried Chicken"/>
    <tag k="amenity" v="fast_food"/>
    <tag k="brand" v="KFC"/>
    <tag k="brand:wikidata" v="Q524757"/>
    <tag k="brand:wikipedia" v="en:KFC"/>
    <tag k="building" v="yes"/>
    <tag k="cuisine" v="chicken"/>
    <tag k="drive_through" v="yes"/>
    <tag k="fhrs:id" v="973559"/>
    <tag k="name" v="KFC"/>
    <tag k="opening_hours" v="Mo-We 11:00-22:00; Th-Fr 11:00-21:00; Sa-Su 11:00-22:00"/>
    <tag k="source:addr" v="FHRS Open Data"/>
    <tag k="takeaway" v="yes"/>
    <tag k="website" v="https://www.kfc.co.uk/kfc-near-me/ely-leisure-village"/>
  </way>
  <way id="546479756" version="7" timestamp="2024-09-03T10:20:44Z" changeset="156135122" uid="21425661" user="CjMalone">
    <nd ref="5281148362"/>
    <nd ref="5281148363"/>
    <nd ref="5281148364"/>
    <nd ref="5281148365"/>
    <nd ref="5281148362"/>
    <tag k="addr:city" v="Ely"/>
    <tag k="addr:housenumber" v="3"/>
    <tag k="addr:parentstreet" v="Downham Road"/>
    <tag k="addr:postcode" v="CB6 2FE"/>
    <tag k="addr:street" v="Ely Leisure Village"/>
    <tag k="amenity" v="fast_food"/>
    <tag k="brand" v="McDonald's"/>
    <tag k="brand:wikidata" v="Q38076"/>
    <tag k="brand:wikipedia" v="en:McDonald's"/>
    <tag k="building" v="yes"/>
    <tag k="check_date" v="2024-08-31"/>
    <tag k="cuisine" v="burger"/>
    <tag k="drive_through" v="yes"/>
    <tag k="fhrs:id" v="957853"/>
    <tag k="internet_access" v="wlan"/>
    <tag k="name" v="McDonald's"/>
    <tag k="not:addr:postcode" v="CB6 2SH"/>
    <tag k="opening_hours" v="24/7"/>
    <tag k="phone" v="+44 1353 650011"/>
    <tag k="self_service" v="yes"/>
    <tag k="source:addr" v="FHRS Open Data"/>
    <tag k="takeaway" v="yes"/>
    <tag k="website" v="https://www.mcdonalds.com/gb/en-gb/location/ely/ely-leisure-village/3-ely-leisure-village/8261500.html"/>
  </way>
  <way id="546479763" version="6" timestamp="2023-09-23T21:59:46Z" changeset="141662427" uid="11022773" user="GeoFens">
    <nd ref="5281148402"/>
    <nd ref="11214263523"/>
    <nd ref="11214263522"/>
    <nd ref="11214263524"/>
    <nd ref="8949017448"/>
    <nd ref="5281148388"/>
    <nd ref="5281148394"/>
    <nd ref="11214263525"/>
    <nd ref="11214263527"/>
    <nd ref="11214263526"/>
    <nd ref="5281148411"/>
    <nd ref="5281148410"/>
    <nd ref="5281148409"/>
    <nd ref="5281148408"/>
    <nd ref="5281148407"/>
    <nd ref="5281148406"/>
    <nd ref="5281148405"/>
    <nd ref="5281148404"/>
    <nd ref="5281148403"/>
    <nd ref="5281148402"/>
    <tag k="addr:city" v="Ely"/>
    <tag k="addr:housenumber" v="6"/>
    <tag k="addr:parentstreet" v="Downham Road"/>
    <tag k="addr:postcode" v="CB6 2FE"/>
    <tag k="addr:street" v="Ely Leisure Village"/>
    <tag k="amenity" v="cinema"/>
    <tag k="brand" v="Cineworld"/>
    <tag k="brand:wikidata" v="Q5120901"/>
    <tag k="brand:wikipedia" v="en:Cineworld"/>
    <tag k="building" v="yes"/>
    <tag k="fhrs:id" v="965986"/>
    <tag k="name" v="Cineworld"/>
    <tag k="source:addr" v="FHRS Open Data"/>
    <tag k="website" v="https://www.cineworld.co.uk/cinemas/ely/097"/>
  </way>
  <way id="565848498" version="3" timestamp="2019-02-06T17:49:38Z" changeset="66971436" uid="346039" user="fitzsimons">
    <nd ref="5448493243"/>
    <nd ref="5448493244"/>
    <nd ref="5448493245"/>
    <nd ref="5448493246"/>
    <nd ref="5448493247"/>
    <nd ref="5448493248"/>
    <nd ref="5448493249"/>
    <nd ref="5448493250"/>
    <nd ref="5448493251"/>
    <nd ref="5448493252"/>
    <nd ref="5448493243"/>
    <tag k="addr:city" v="Ely"/>
    <tag k="addr:postcode" v="CB7 4FA"/>
    <tag k="addr:street" v="Lisle Lane"/>
    <tag k="building" v="apartments"/>
    <tag k="building:levels" v="3"/>
    <tag k="name" v="Roslyn Court"/>
  </way>
  <way id="713593260" version="2" timestamp="2021-12-03T04:01:43Z" changeset="114505455" uid="493595" user="Yorvik Prestigitator">
    <nd ref="6709366552"/>
    <nd ref="6709366551"/>
    <nd ref="6709366550"/>
    <nd ref="6709366548"/>
    <nd ref="6709366547"/>
    <nd ref="6709366549"/>
    <nd ref="6709366552"/>
    <tag k="addr:city" v="Queen Adelaide"/>
    <tag k="addr:street" v="Ely Road"/>
    <tag k="amenity" v="community_centre"/>
    <tag k="building" v="public"/>
    <tag k="community_centre" v="village_hall"/>
    <tag k="name" v="Queen Adelaide Village Hall"/>
  </way>
  <way id="726986496" version="3" timestamp="2021-06-11T09:05:41Z" changeset="106202542" uid="84263" user="Robert Whittaker">
    <nd ref="6813221543"/>
    <nd ref="6813221544"/>
    <nd ref="6813221545"/>
    <nd ref="6813221546"/>
    <nd ref="6813221547"/>
    <nd ref="6813221548"/>
    <nd ref="6813221543"/>
    <tag k="addr:city" v="Ely"/>
    <tag k="addr:housenumber" v="2"/>
    <tag k="addr:postcode" v="CB6 2FU"/>
    <tag k="addr:street" v="Forsythia Road"/>
    <tag k="amenity" v="social_facility"/>
    <tag k="building" v="yes"/>
    <tag k="fhrs:id" v="1158060"/>
    <tag k="name" v="The Orchards"/>
    <tag k="social_facility" v="group_home"/>
    <tag k="social_facility:for" v="senior"/>
    <tag k="source:addr" v="FHRS Open Data"/>
  </way>
  <way id="1155334002" version="1" timestamp="2023-03-18T23:22:09Z" changeset="133841434" uid="3999" user="BarryMyles">
    <nd ref="10744325650"/>
    <nd ref="10744325651"/>
    <nd ref="10744325652"/>
    <nd ref="10744325653"/>
    <nd ref="10744325650"/>
    <tag k="addr:city" v="Prickwillow"/>
    <tag k="addr:postcode" v="CB7 4UN"/>
    <tag k="addr:street" v="Main Street"/>
    <tag k="building" v="yes"/>
    <tag k="name" v="Prickwillow Telephone Exchange"/>
    <tag k="operator" v="Openreach"/>
    <tag k="operator:wikidata" v="Q7096543"/>
    <tag k="ref" v="EAPRI"/>
    <tag k="telecom" v="exchange"/>
  </way>

</osm>
