<?xml version="1.0" encoding="UTF-8"?>
<osm version="0.6" generator="Overpass API 0.7.62.5 1bd436f1">
<note>The data included in this document is from www.openstreetmap.org. The data is made available under ODbL.</note>
<meta osm_base="2025-03-06T02:03:18Z" areas="2024-12-31T00:49:33Z"/>

  <relation id="2593946" version="8" timestamp="2021-07-10T14:56:37Z" changeset="107751303" uid="281267" user="smb1001">
    <member type="way" ref="192558335" role="outer"/>
    <member type="way" ref="192502160" role="outer"/>
    <member type="way" ref="192502127" role="outer"/>
    <member type="way" ref="192502126" role="outer"/>
    <member type="way" ref="190279288" role="outer"/>
    <member type="node" ref="27397828" role="admin_centre"/>
    <tag k="admin_level" v="10"/>
    <tag k="boundary" v="administrative"/>
    <tag k="council_name" v="Sandwich Town Council"/>
    <tag k="council_style" v="town"/>
    <tag k="designation" v="civil_parish"/>
    <tag k="name" v="Sandwich"/>
    <tag k="old_name:nl" v="Zandwijds"/>
    <tag k="ref:gss" v="E04004919"/>
    <tag k="type" v="boundary"/>
    <tag k="wikidata" v="Q26163"/>
    <tag k="wikipedia" v="en:Sandwich, Kent"/>
  </relation>
  <relation id="2594093" version="7" timestamp="2021-07-10T15:35:34Z" changeset="107751700" uid="281267" user="smb1001">
    <member type="way" ref="192502127" role="outer"/>
    <member type="way" ref="190284222" role="outer"/>
    <member type="way" ref="180859926" role="outer"/>
    <member type="way" ref="180953193" role="outer"/>
    <member type="way" ref="192508864" role="outer"/>
    <member type="way" ref="192724950" role="outer"/>
    <member type="way" ref="192717720" role="outer"/>
    <member type="way" ref="192560137" role="outer"/>
    <member type="node" ref="29434240" role="admin_centre"/>
    <tag k="admin_level" v="10"/>
    <tag k="boundary" v="administrative"/>
    <tag k="designation" v="civil_parish"/>
    <tag k="name" v="Worth"/>
    <tag k="ref:gss" v="E04004930"/>
    <tag k="type" v="boundary"/>
    <tag k="wikidata" v="Q2799576"/>
  </relation>
  <relation id="2594112" version="6" timestamp="2018-05-26T06:43:28Z" changeset="59287920" uid="364" user="Edward">
    <member type="way" ref="180852001" role="outer"/>
    <member type="way" ref="190115458" role="outer"/>
    <member type="way" ref="192511330" role="outer"/>
    <member type="way" ref="192511331" role="outer"/>
    <member type="way" ref="192556549" role="outer"/>
    <member type="way" ref="302798156" role="outer"/>
    <member type="way" ref="189598257" role="outer"/>
    <member type="node" ref="29216663" role="admin_centre"/>
    <tag k="admin_level" v="10"/>
    <tag k="boundary" v="administrative"/>
    <tag k="designation" v="civil_parish"/>
    <tag k="name" v="Stourmouth"/>
    <tag k="ref:gss" v="E04004923"/>
    <tag k="type" v="boundary"/>
    <tag k="wikidata" v="Q5220240"/>
  </relation>
  <relation id="2595002" version="8" timestamp="2021-07-10T15:16:30Z" changeset="107751700" uid="281267" user="smb1001">
    <member type="way" ref="192511332" role="outer"/>
    <member type="way" ref="302798156" role="outer"/>
    <member type="way" ref="192556549" role="outer"/>
    <member type="way" ref="192556546" role="outer"/>
    <member type="way" ref="192558334" role="outer"/>
    <member type="way" ref="192560947" role="outer"/>
    <member type="node" ref="27392800" role="admin_centre"/>
    <tag k="admin_level" v="10"/>
    <tag k="boundary" v="administrative"/>
    <tag k="designation" v="civil_parish"/>
    <tag k="name" v="Preston"/>
    <tag k="ref:gss" v="E04004914"/>
    <tag k="type" v="boundary"/>
    <tag k="wikidata" v="Q1984604"/>
  </relation>
  <relation id="2595014" version="4" timestamp="2021-07-10T15:41:31Z" changeset="107751700" uid="281267" user="smb1001">
    <member type="way" ref="192556546" role="outer"/>
    <member type="way" ref="192511331" role="outer"/>
    <member type="way" ref="190115459" role="outer"/>
    <member type="way" ref="192502167" role="outer"/>
    <member type="way" ref="192558335" role="outer"/>
    <member type="way" ref="192558333" role="outer"/>
    <member type="way" ref="192560138" role="outer"/>
    <member type="node" ref="28156442" role="admin_centre"/>
    <tag k="admin_level" v="10"/>
    <tag k="boundary" v="administrative"/>
    <tag k="designation" v="civil_parish"/>
    <tag k="name" v="Ash"/>
    <tag k="ref:gss" v="E04004901"/>
    <tag k="type" v="boundary"/>
    <tag k="wikidata" v="Q4804328"/>
  </relation>
  <relation id="2595025" version="5" timestamp="2021-07-10T15:37:42Z" changeset="107751700" uid="281267" user="smb1001">
    <member type="way" ref="192558333" role="outer"/>
    <member type="way" ref="192502160" role="outer"/>
    <member type="way" ref="192560137" role="outer"/>
    <member type="way" ref="192560136" role="outer"/>
    <member type="way" ref="192615610" role="outer"/>
    <member type="way" ref="192615614" role="outer"/>
    <member type="node" ref="29218166" role="admin_centre"/>
    <tag k="admin_level" v="10"/>
    <tag k="boundary" v="administrative"/>
    <tag k="designation" v="civil_parish"/>
    <tag k="name" v="Woodnesborough"/>
    <tag k="ref:gss" v="E04004929"/>
    <tag k="type" v="boundary"/>
    <tag k="wikidata" v="Q3192739"/>
  </relation>
  <relation id="2595032" version="6" timestamp="2021-07-10T15:31:53Z" changeset="107751700" uid="281267" user="smb1001">
    <member type="way" ref="192560947" role="outer"/>
    <member type="way" ref="192560948" role="outer"/>
    <member type="way" ref="192615613" role="outer"/>
    <member type="way" ref="189602607" role="outer"/>
    <member type="way" ref="189601720" role="outer"/>
    <member type="way" ref="202992161" role="outer"/>
    <member type="node" ref="26237118" role="admin_centre"/>
    <tag k="admin_level" v="10"/>
    <tag k="boundary" v="administrative"/>
    <tag k="designation" v="civil_parish"/>
    <tag k="name" v="Wingham"/>
    <tag k="ref:gss" v="E04004928"/>
    <tag k="type" v="boundary"/>
    <tag k="wikidata" v="Q2632094"/>
  </relation>
  <relation id="2595941" version="5" timestamp="2021-07-10T15:21:39Z" changeset="107751700" uid="281267" user="smb1001">
    <member type="way" ref="192615613" role="outer"/>
    <member type="way" ref="192560946" role="outer"/>
    <member type="way" ref="192615611" role="outer"/>
    <member type="way" ref="192713146" role="outer"/>
    <member type="way" ref="192615616" role="outer"/>
    <member type="way" ref="192615610" role="outer"/>
    <member type="way" ref="192615612" role="outer"/>
    <member type="node" ref="31398380" role="admin_centre"/>
    <tag k="admin_level" v="10"/>
    <tag k="boundary" v="administrative"/>
    <tag k="designation" v="civil_parish"/>
    <tag k="name" v="Goodnestone"/>
    <tag k="ref:gss" v="E04004907"/>
    <tag k="type" v="boundary"/>
    <tag k="wikidata" v="Q2195317"/>
  </relation>
  <relation id="2595964" version="4" timestamp="2021-07-10T15:22:45Z" changeset="107751700" uid="281267" user="smb1001">
    <member type="way" ref="192615612" role="outer"/>
    <member type="way" ref="192615614" role="outer"/>
    <member type="way" ref="192560138" role="outer"/>
    <member type="way" ref="192558334" role="outer"/>
    <member type="way" ref="192560948" role="outer"/>
    <member type="node" ref="28371755" role="admin_centre"/>
    <tag k="admin_level" v="10"/>
    <tag k="boundary" v="administrative"/>
    <tag k="designation" v="civil_parish"/>
    <tag k="name" v="Staple"/>
    <tag k="ref:gss" v="E04004922"/>
    <tag k="type" v="boundary"/>
    <tag k="wikidata" v="Q2232081"/>
  </relation>
  <relation id="2596017" version="3" timestamp="2021-07-10T15:28:38Z" changeset="107751700" uid="281267" user="smb1001">
    <member type="way" ref="192615611" role="outer"/>
    <member type="way" ref="192615615" role="outer"/>
    <member type="way" ref="189605567" role="outer"/>
    <member type="way" ref="192625087" role="outer"/>
    <member type="node" ref="27301286" role="admin_centre"/>
    <tag k="admin_level" v="10"/>
    <tag k="boundary" v="administrative"/>
    <tag k="designation" v="civil_parish"/>
    <tag k="name" v="Aylesham"/>
    <tag k="ref:gss" v="E04004902"/>
    <tag k="type" v="boundary"/>
    <tag k="wikidata" v="Q2485028"/>
  </relation>
  <relation id="2596822" version="6" timestamp="2021-07-10T15:37:32Z" changeset="107751700" uid="281267" user="smb1001">
    <member type="way" ref="192625087" role="outer"/>
    <member type="way" ref="192625088" role="outer"/>
    <member type="way" ref="192713145" role="outer"/>
    <member type="way" ref="192997754" role="outer"/>
    <member type="way" ref="192717724" role="outer"/>
    <member type="way" ref="192713144" role="outer"/>
    <member type="way" ref="192713146" role="outer"/>
    <member type="node" ref="27223701" role="admin_centre"/>
    <tag k="admin_level" v="10"/>
    <tag k="boundary" v="administrative"/>
    <tag k="designation" v="civil_parish"/>
    <tag k="name" v="Nonington"/>
    <tag k="ref:gss" v="E04004912"/>
    <tag k="type" v="boundary"/>
    <tag k="wikidata" v="Q3141352"/>
  </relation>
  <relation id="2596858" version="5" timestamp="2021-07-10T15:44:02Z" changeset="107751700" uid="281267" user="smb1001">
    <member type="way" ref="192560136" role="outer"/>
    <member type="way" ref="192717720" role="outer"/>
    <member type="way" ref="192717719" role="outer"/>
    <member type="way" ref="192724952" role="outer"/>
    <member type="way" ref="192713144" role="outer"/>
    <member type="way" ref="192615616" role="outer"/>
    <member type="node" ref="26237119" role="admin_centre"/>
    <tag k="admin_level" v="10"/>
    <tag k="boundary" v="administrative"/>
    <tag k="designation" v="civil_parish"/>
    <tag k="name" v="Eastry"/>
    <tag k="ref:gss" v="E04004905"/>
    <tag k="type" v="boundary"/>
    <tag k="wikidata" v="Q5330905"/>
  </relation>
  <relation id="2596933" version="7" timestamp="2021-07-10T15:27:56Z" changeset="107751700" uid="281267" user="smb1001">
    <member type="way" ref="192717719" role="outer"/>
    <member type="way" ref="192724950" role="outer"/>
    <member type="way" ref="192724951" role="outer"/>
    <member type="way" ref="192730706" role="outer"/>
    <member type="way" ref="193007434" role="outer"/>
    <member type="way" ref="192724949" role="outer"/>
    <member type="way" ref="192997755" role="outer"/>
    <member type="node" ref="29433474" role="admin_centre"/>
    <tag k="admin_level" v="10"/>
    <tag k="boundary" v="administrative"/>
    <tag k="designation" v="civil_parish"/>
    <tag k="name" v="Northbourne"/>
    <tag k="ref:gss" v="E04004913"/>
    <tag k="type" v="boundary"/>
    <tag k="wikidata" v="Q2455830"/>
  </relation>
  <relation id="2596994" version="4" timestamp="2021-07-10T15:47:20Z" changeset="107751700" uid="281267" user="smb1001">
    <member type="way" ref="192508864" role="outer"/>
    <member type="way" ref="192508844" role="outer"/>
    <member type="way" ref="192730785" role="outer"/>
    <member type="way" ref="192730804" role="outer"/>
    <member type="way" ref="192724951" role="outer"/>
    <member type="node" ref="29434234" role="admin_centre"/>
    <tag k="admin_level" v="10"/>
    <tag k="boundary" v="administrative"/>
    <tag k="designation" v="civil_parish"/>
    <tag k="name" v="Sholden"/>
    <tag k="ref:gss" v="E04004921"/>
    <tag k="type" v="boundary"/>
    <tag k="wikidata" v="Q7500223"/>
  </relation>
  <relation id="2598923" version="6" timestamp="2024-10-01T12:26:11Z" changeset="157337150" uid="30525" user="Colin Smale">
    <member type="way" ref="192992808" role="outer"/>
    <member type="way" ref="1319862830" role="outer"/>
    <member type="way" ref="180942242" role="outer"/>
    <member type="way" ref="191500358" role="outer"/>
    <member type="way" ref="191500152" role="outer"/>
    <member type="way" ref="193000351" role="outer"/>
    <member type="way" ref="192992812" role="outer"/>
    <member type="node" ref="30935425" role="admin_centre"/>
    <tag k="admin_level" v="10"/>
    <tag k="boundary" v="administrative"/>
    <tag k="designation" v="civil_parish"/>
    <tag k="name" v="Denton with Wootton"/>
    <tag k="ref:gss" v="E04004904"/>
    <tag k="type" v="boundary"/>
    <tag k="wikidata" v="Q19794183"/>
  </relation>
  <relation id="2599027" version="5" timestamp="2021-07-10T15:02:03Z" changeset="107751369" uid="281267" user="smb1001">
    <member type="way" ref="192997758" role="outer"/>
    <member type="way" ref="192997755" role="outer"/>
    <member type="way" ref="192724952" role="outer"/>
    <member type="way" ref="192717724" role="outer"/>
    <member type="way" ref="193001547" role="outer"/>
    <member type="way" ref="193001542" role="outer"/>
    <member type="way" ref="192997757" role="outer"/>
    <member type="node" ref="29264929" role="admin_centre"/>
    <tag k="admin_level" v="10"/>
    <tag k="boundary" v="administrative"/>
    <tag k="designation" v="civil_parish"/>
    <tag k="name" v="Tilmanstone"/>
    <tag k="ref:gss" v="E04004926"/>
    <tag k="type" v="boundary"/>
    <tag k="wikidata" v="Q745557"/>
  </relation>
  <relation id="2599056" version="8" timestamp="2018-05-26T06:43:47Z" changeset="59287920" uid="364" user="Edward">
    <member type="way" ref="192992812" role="outer"/>
    <member type="way" ref="192713147" role="outer"/>
    <member type="way" ref="192713145" role="outer"/>
    <member type="way" ref="193000346" role="outer"/>
    <member type="way" ref="193001542" role="outer"/>
    <member type="way" ref="193001551" role="outer"/>
    <member type="way" ref="193216522" role="outer"/>
    <member type="way" ref="193401511" role="outer"/>
    <member type="node" ref="27222817" role="admin_centre"/>
    <tag k="admin_level" v="10"/>
    <tag k="boundary" v="administrative"/>
    <tag k="designation" v="civil_parish"/>
    <tag k="name" v="Shepherdswell with Coldred"/>
    <tag k="ref:gss" v="E04004920"/>
    <tag k="type" v="boundary"/>
    <tag k="wikidata" v="Q19794200"/>
  </relation>
  <relation id="2599083" version="3" timestamp="2021-07-10T15:16:36Z" changeset="107751700" uid="281267" user="smb1001">
    <member type="way" ref="193001547" role="outer"/>
    <member type="way" ref="193000346" role="outer"/>
    <member type="way" ref="192997754" role="outer"/>
    <member type="node" ref="29264931" role="admin_centre"/>
    <tag k="admin_level" v="10"/>
    <tag k="boundary" v="administrative"/>
    <tag k="designation" v="civil_parish"/>
    <tag k="name" v="Eythorne"/>
    <tag k="ref:gss" v="E04004906"/>
    <tag k="type" v="boundary"/>
    <tag k="wikidata" v="Q1990804"/>
  </relation>
  <relation id="2599160" version="9" timestamp="2021-07-10T15:10:10Z" changeset="107751700" uid="281267" user="smb1001">
    <member type="way" ref="192730785" role="outer"/>
    <member type="way" ref="192730727" role="outer"/>
    <member type="way" ref="193007454" role="outer"/>
    <member type="way" ref="193015002" role="outer"/>
    <member type="way" ref="193018110" role="outer"/>
    <member type="way" ref="192730706" role="outer"/>
    <member type="way" ref="192730804" role="outer"/>
    <member type="node" ref="17915906" role="admin_centre"/>
    <tag k="admin_level" v="10"/>
    <tag k="boundary" v="administrative"/>
    <tag k="council_name" v="Deal Town Council"/>
    <tag k="council_style" v="town"/>
    <tag k="designation" v="civil_parish"/>
    <tag k="name" v="Deal"/>
    <tag k="ref:gss" v="E04004931"/>
    <tag k="type" v="boundary"/>
    <tag k="wikidata" v="Q1011096"/>
  </relation>
  <relation id="2599220" version="11" timestamp="2021-07-10T15:30:04Z" changeset="107751700" uid="281267" user="smb1001">
    <member type="way" ref="193018111" role="outer"/>
    <member type="way" ref="193007454" role="outer"/>
    <member type="way" ref="193007437" role="outer"/>
    <member type="way" ref="396024723" role="outer"/>
    <member type="node" ref="29433470" role="admin_centre"/>
    <tag k="admin_level" v="10"/>
    <tag k="boundary" v="administrative"/>
    <tag k="designation" v="civil_parish"/>
    <tag k="name" v="Walmer"/>
    <tag k="ref:gss" v="E04004934"/>
    <tag k="type" v="boundary"/>
    <tag k="wikidata" v="Q2551894"/>
  </relation>
  <relation id="2599250" version="7" timestamp="2021-07-10T15:13:17Z" changeset="107751700" uid="281267" user="smb1001">
    <member type="way" ref="193015002" role="outer"/>
    <member type="way" ref="193018111" role="outer"/>
    <member type="way" ref="193018109" role="outer"/>
    <member type="way" ref="193209871" role="outer"/>
    <member type="way" ref="193018108" role="outer"/>
    <member type="way" ref="193019619" role="outer"/>
    <member type="node" ref="29433469" role="admin_centre"/>
    <tag k="admin_level" v="10"/>
    <tag k="boundary" v="administrative"/>
    <tag k="designation" v="civil_parish"/>
    <tag k="name" v="Ripple"/>
    <tag k="ref:gss" v="E04004916"/>
    <tag k="type" v="boundary"/>
    <tag k="wikidata" v="Q1818234"/>
  </relation>
  <relation id="2599274" version="4" timestamp="2021-07-10T15:47:50Z" changeset="107751700" uid="281267" user="smb1001">
    <member type="way" ref="193018108" role="outer"/>
    <member type="way" ref="193019620" role="outer"/>
    <member type="way" ref="193218792" role="outer"/>
    <member type="way" ref="192997758" role="outer"/>
    <member type="way" ref="192724949" role="outer"/>
    <member type="way" ref="193019621" role="outer"/>
    <member type="node" ref="29433468" role="admin_centre"/>
    <tag k="admin_level" v="10"/>
    <tag k="boundary" v="administrative"/>
    <tag k="designation" v="civil_parish"/>
    <tag k="name" v="Sutton"/>
    <tag k="ref:gss" v="E04004924"/>
    <tag k="type" v="boundary"/>
    <tag k="wikidata" v="Q7650188"/>
  </relation>
  <relation id="2599292" version="3" timestamp="2021-07-10T15:33:13Z" changeset="107751700" uid="281267" user="smb1001">
    <member type="way" ref="193018110" role="outer"/>
    <member type="way" ref="193007434" role="outer"/>
    <member type="way" ref="193019621" role="outer"/>
    <member type="way" ref="193019619" role="outer"/>
    <member type="node" ref="29433473" role="admin_centre"/>
    <tag k="admin_level" v="10"/>
    <tag k="boundary" v="administrative"/>
    <tag k="designation" v="civil_parish"/>
    <tag k="name" v="Great Mongeham"/>
    <tag k="ref:gss" v="E04004933"/>
    <tag k="type" v="boundary"/>
    <tag k="wikidata" v="Q2687068"/>
  </relation>
  <relation id="2602515" version="12" timestamp="2017-04-16T17:23:55Z" changeset="47843808" uid="30525" user="Colin Smale">
    <member type="way" ref="193018109" role="outer"/>
    <member type="way" ref="396024723" role="outer"/>
    <member type="way" ref="193014970" role="outer"/>
    <member type="way" ref="193209870" role="outer"/>
    <member type="way" ref="193210541" role="outer"/>
    <member type="node" ref="29432963" role="admin_centre"/>
    <tag k="admin_level" v="10"/>
    <tag k="boundary" v="administrative"/>
    <tag k="designation" v="civil_parish"/>
    <tag k="name" v="Ringwould with Kingsdown"/>
    <tag k="ref:gss" v="E04004915"/>
    <tag k="type" v="boundary"/>
    <tag k="wikidata" v="Q19794197"/>
  </relation>
  <relation id="2602526" version="6" timestamp="2021-07-10T15:38:54Z" changeset="107751700" uid="281267" user="smb1001">
    <member type="way" ref="193209872" role="outer"/>
    <member type="way" ref="193209870" role="outer"/>
    <member type="way" ref="193221525" role="outer"/>
    <member type="way" ref="193223563" role="outer"/>
    <member type="way" ref="193210542" role="outer"/>
    <member type="node" ref="27413886" role="admin_centre"/>
    <tag k="admin_level" v="10"/>
    <tag k="boundary" v="administrative"/>
    <tag k="designation" v="civil_parish"/>
    <tag k="name" v="St. Margaret's at Cliffe"/>
    <tag k="ref:gss" v="E04004918"/>
    <tag k="type" v="boundary"/>
    <tag k="wikidata" v="Q3495338"/>
  </relation>
  <relation id="2602539" version="12" timestamp="2021-07-10T15:48:41Z" changeset="107751700" uid="281267" user="smb1001">
    <member type="node" ref="27414035" role="admin_centre"/>
    <member type="way" ref="193001551" role="outer"/>
    <member type="way" ref="192997757" role="outer"/>
    <member type="way" ref="193218792" role="outer"/>
    <member type="way" ref="193218793" role="outer"/>
    <member type="way" ref="193221528" role="outer"/>
    <member type="way" ref="193223564" role="outer"/>
    <member type="way" ref="193409296" role="outer"/>
    <member type="way" ref="193403312" role="outer"/>
    <tag k="admin_level" v="10"/>
    <tag k="boundary" v="administrative"/>
    <tag k="designation" v="civil_parish"/>
    <tag k="name" v="Whitfield"/>
    <tag k="ref:gss" v="E04004927"/>
    <tag k="type" v="boundary"/>
    <tag k="wikidata" v="Q7996443"/>
  </relation>
  <relation id="2602569" version="6" timestamp="2018-05-26T06:43:24Z" changeset="59287920" uid="364" user="Edward">
    <member type="way" ref="193209871" role="outer"/>
    <member type="way" ref="193210541" role="outer"/>
    <member type="way" ref="193221525" role="outer"/>
    <member type="way" ref="193222202" role="outer"/>
    <member type="way" ref="193218793" role="outer"/>
    <member type="way" ref="193019620" role="outer"/>
    <member type="node" ref="29432957" role="admin_centre"/>
    <tag k="admin_level" v="10"/>
    <tag k="boundary" v="administrative"/>
    <tag k="designation" v="civil_parish"/>
    <tag k="name" v="Langdon"/>
    <tag k="ref:gss" v="E04004910"/>
    <tag k="type" v="boundary"/>
    <tag k="wikidata" v="Q2319169"/>
  </relation>
  <relation id="2602606" version="4" timestamp="2021-07-10T15:44:51Z" changeset="107751700" uid="281267" user="smb1001">
    <member type="node" ref="27220336" role="admin_centre"/>
    <member type="way" ref="193221528" role="outer"/>
    <member type="way" ref="193222202" role="outer"/>
    <member type="way" ref="193223563" role="outer"/>
    <member type="way" ref="193223562" role="outer"/>
    <member type="way" ref="764453718" role="outer"/>
    <tag k="admin_level" v="10"/>
    <tag k="boundary" v="administrative"/>
    <tag k="designation" v="civil_parish"/>
    <tag k="name" v="Guston"/>
    <tag k="ref:gss" v="E04004908"/>
    <tag k="type" v="boundary"/>
    <tag k="wikidata" v="Q5621647"/>
  </relation>
  <relation id="2604590" version="5" timestamp="2021-07-10T15:31:42Z" changeset="107751700" uid="281267" user="smb1001">
    <member type="way" ref="193401511" role="outer"/>
    <member type="way" ref="193000351" role="outer"/>
    <member type="way" ref="192992809" role="outer"/>
    <member type="way" ref="193403311" role="outer"/>
    <member type="way" ref="193401496" role="outer"/>
    <member type="node" ref="29430579" role="admin_centre"/>
    <tag k="admin_level" v="10"/>
    <tag k="boundary" v="administrative"/>
    <tag k="designation" v="civil_parish"/>
    <tag k="name" v="Lydden"/>
    <tag k="ref:gss" v="E04004911"/>
    <tag k="type" v="boundary"/>
    <tag k="wikidata" v="Q2624651"/>
  </relation>
  <relation id="2604636" version="5" timestamp="2021-07-10T15:33:41Z" changeset="107751700" uid="281267" user="smb1001">
    <member type="way" ref="193403312" role="outer"/>
    <member type="way" ref="193216522" role="outer"/>
    <member type="way" ref="193401496" role="outer"/>
    <member type="way" ref="193404656" role="outer"/>
    <member type="way" ref="193403310" role="outer"/>
    <member type="node" ref="29430725" role="admin_centre"/>
    <tag k="admin_level" v="10"/>
    <tag k="boundary" v="administrative"/>
    <tag k="designation" v="civil_parish"/>
    <tag k="name" v="Temple Ewell"/>
    <tag k="ref:gss" v="E04004925"/>
    <tag k="type" v="boundary"/>
    <tag k="wikidata" v="Q2703021"/>
  </relation>
  <relation id="2604659" version="6" timestamp="2017-04-16T17:21:52Z" changeset="47843808" uid="30525" user="Colin Smale">
    <member type="node" ref="27300987" role="admin_centre"/>
    <member type="way" ref="193404656" role="outer"/>
    <member type="way" ref="193403311" role="outer"/>
    <member type="way" ref="180942315" role="outer"/>
    <member type="way" ref="191477307" role="outer"/>
    <member type="way" ref="193407438" role="outer"/>
    <member type="way" ref="193404655" role="outer"/>
    <member type="way" ref="193404657" role="outer"/>
    <tag k="admin_level" v="10"/>
    <tag k="boundary" v="administrative"/>
    <tag k="designation" v="civil_parish"/>
    <tag k="name" v="Alkham"/>
    <tag k="ref:gss" v="E04004900"/>
    <tag k="type" v="boundary"/>
    <tag k="wikidata" v="Q578630"/>
  </relation>
  <relation id="2604711" version="4" timestamp="2021-07-10T15:41:14Z" changeset="107751700" uid="281267" user="smb1001">
    <member type="way" ref="193404655" role="outer"/>
    <member type="way" ref="193407441" role="outer"/>
    <member type="way" ref="193407439" role="outer"/>
    <member type="way" ref="193409294" role="outer"/>
    <member type="way" ref="193407440" role="outer"/>
    <member type="node" ref="27216459" role="admin_centre"/>
    <tag k="admin_level" v="10"/>
    <tag k="boundary" v="administrative"/>
    <tag k="designation" v="civil_parish"/>
    <tag k="name" v="Hougham Without"/>
    <tag k="ref:gss" v="E04004909"/>
    <tag k="type" v="boundary"/>
    <tag k="wikidata" v="Q4690189"/>
  </relation>
  <relation id="2604751" version="5" timestamp="2021-07-10T15:35:02Z" changeset="107751700" uid="281267" user="smb1001">
    <member type="way" ref="193404657" role="outer"/>
    <member type="way" ref="193403310" role="outer"/>
    <member type="way" ref="193409296" role="outer"/>
    <member type="way" ref="193409295" role="outer"/>
    <member type="way" ref="193407440" role="outer"/>
    <member type="node" ref="697169050" role="admin_centre"/>
    <tag k="admin_level" v="10"/>
    <tag k="boundary" v="administrative"/>
    <tag k="designation" v="civil_parish"/>
    <tag k="name" v="River"/>
    <tag k="ref:gss" v="E04004917"/>
    <tag k="type" v="boundary"/>
    <tag k="wikidata" v="Q2784912"/>
  </relation>
  <relation id="2604777" version="7" timestamp="2024-10-22T11:34:10Z" changeset="158207441" uid="22017007" user="Jofuso">
    <member type="node" ref="21421224" role="admin_centre"/>
    <member type="way" ref="193223564" role="outer"/>
    <member type="way" ref="193409295" role="outer"/>
    <member type="way" ref="193409294" role="outer"/>
    <member type="way" ref="181501628" role="outer"/>
    <member type="way" ref="180953195" role="outer"/>
    <member type="way" ref="193210542" role="outer"/>
    <member type="way" ref="193223562" role="outer"/>
    <member type="way" ref="764453718" role="outer"/>
    <tag k="admin_level" v="10"/>
    <tag k="boundary" v="administrative"/>
    <tag k="council_name" v="Dover Town Council"/>
    <tag k="council_style" v="town"/>
    <tag k="designation" v="civil_parish"/>
    <tag k="name" v="Dover"/>
    <tag k="name:ar" v="دوفر"/>
    <tag k="name:fa" v="دوور"/>
    <tag k="name:ur" v="ڈوور"/>
    <tag k="ref:gss" v="E04004932"/>
    <tag k="type" v="boundary"/>
    <tag k="wikidata" v="Q24666009"/>
  </relation>
  <relation id="2604781" version="6" timestamp="2021-07-10T15:10:03Z" changeset="107751700" uid="281267" user="smb1001">
    <member type="way" ref="193407441" role="outer"/>
    <member type="way" ref="193407442" role="outer"/>
    <member type="way" ref="192053676" role="outer"/>
    <member type="way" ref="191474385" role="outer"/>
    <member type="way" ref="180942324" role="outer"/>
    <member type="way" ref="193407438" role="outer"/>
    <member type="node" ref="2039201551" role="admin_centre"/>
    <tag k="admin_level" v="10"/>
    <tag k="boundary" v="administrative"/>
    <tag k="designation" v="civil_parish"/>
    <tag k="name" v="Capel-le-Ferne"/>
    <tag k="ref:gss" v="E04004903"/>
    <tag k="type" v="boundary"/>
    <tag k="wikidata" v="Q1006783"/>
  </relation>

</osm>
