<?xml version="1.0" encoding="UTF-8"?>
<osm version="0.6" generator="Overpass API 0.7.62.4 2390de5a">
<note>The data included in this document is from www.openstreetmap.org. The data is made available under ODbL.</note>
<meta osm_base="2025-01-20T16:26:34Z" areas="2024-12-31T00:49:33Z"/>

  <relation id="1609349" version="9" timestamp="2019-05-09T19:01:46Z" changeset="70085673" uid="30525" user="Colin Smale">
    <member type="way" ref="115951213" role="outer"/>
    <member type="way" ref="114987809" role="outer"/>
    <member type="way" ref="688973339" role="outer"/>
    <member type="way" ref="115084607" role="outer"/>
    <member type="way" ref="129014711" role="outer"/>
    <member type="way" ref="42716963" role="outer"/>
    <member type="way" ref="688973338" role="outer"/>
    <tag k="admin_level" v="10"/>
    <tag k="boundary" v="administrative"/>
    <tag k="council_name" v="Little Downham Parish Council"/>
    <tag k="designation" v="civil_parish"/>
    <tag k="name" v="Downham"/>
    <tag k="ref:gss" v="E04012828"/>
    <tag k="type" v="boundary"/>
    <tag k="wikidata" v="Q20023091"/>
  </relation>
  <relation id="1609351" version="11" timestamp="2022-09-02T18:41:25Z" changeset="125711307" uid="30525" user="Colin Smale">
    <member type="way" ref="76642462" role="outer"/>
    <member type="way" ref="614068823" role="outer"/>
    <member type="way" ref="350373183" role="outer"/>
    <member type="way" ref="65613414" role="outer"/>
    <member type="way" ref="614068822" role="outer"/>
    <member type="way" ref="115952125" role="outer"/>
    <member type="way" ref="65617934" role="outer"/>
    <member type="way" ref="115951531" role="outer"/>
    <member type="way" ref="619826430" role="outer"/>
    <member type="way" ref="114987809" role="outer"/>
    <member type="way" ref="114987808" role="outer"/>
    <member type="way" ref="1091333825" role="outer"/>
    <tag k="admin_level" v="10"/>
    <tag k="boundary" v="administrative"/>
    <tag k="designation" v="civil_parish"/>
    <tag k="name" v="Littleport"/>
    <tag k="ref:gss" v="E04001636"/>
    <tag k="type" v="boundary"/>
    <tag k="wikidata" v="Q1997485"/>
  </relation>
  <relation id="1609357" version="17" timestamp="2022-09-02T21:03:13Z" changeset="125715867" uid="177389" user="Garmin-User">
    <member type="way" ref="321443658" role="outer"/>
    <member type="way" ref="143288484" role="outer"/>
    <member type="way" ref="143288594" role="outer"/>
    <member type="way" ref="144001525" role="outer"/>
    <member type="way" ref="143288583" role="outer"/>
    <member type="way" ref="115104225" role="outer"/>
    <member type="way" ref="115104226" role="outer"/>
    <member type="way" ref="115088548" role="outer"/>
    <member type="way" ref="688973337" role="outer"/>
    <member type="way" ref="688973338" role="outer"/>
    <member type="way" ref="114987808" role="outer"/>
    <member type="way" ref="1091336484" role="outer"/>
    <member type="node" ref="1593040792" role="admin_centre"/>
    <tag k="admin_level" v="10"/>
    <tag k="boundary" v="administrative"/>
    <tag k="council_name" v="City of Ely Council"/>
    <tag k="council_style" v="city"/>
    <tag k="designation" v="civil_parish"/>
    <tag k="name" v="Ely"/>
    <tag k="ref:gss" v="E04012829"/>
    <tag k="type" v="boundary"/>
    <tag k="website" v="https://cityofelycouncil.org.uk/"/>
    <tag k="wikidata" v="Q209176"/>
    <tag k="wikipedia" v="en:Ely, Cambridgeshire"/>
  </relation>
  <relation id="1609364" version="12" timestamp="2022-06-13T08:47:52Z" changeset="122313728" uid="10222347" user="borovac">
    <member type="way" ref="115129282" role="outer"/>
    <member type="way" ref="115104225" role="outer"/>
    <member type="way" ref="115104218" role="outer"/>
    <member type="way" ref="115113172" role="outer"/>
    <member type="way" ref="115149283" role="outer"/>
    <member type="way" ref="868059638" role="outer"/>
    <member type="node" ref="24972762" role="admin_centre"/>
    <tag k="admin_level" v="10"/>
    <tag k="boundary" v="administrative"/>
    <tag k="council_name" v="Soham Town Council"/>
    <tag k="council_style" v="town"/>
    <tag k="designation" v="civil_parish"/>
    <tag k="name" v="Soham"/>
    <tag k="ref:gss" v="E04001641"/>
    <tag k="type" v="boundary"/>
    <tag k="wikidata" v="Q2148571"/>
    <tag k="wikipedia" v="en:Soham"/>
  </relation>
  <relation id="1609560" version="11" timestamp="2024-05-09T19:28:14Z" changeset="151116614" uid="30525" user="Colin Smale">
    <member type="way" ref="115129282" role="outer"/>
    <member type="way" ref="115149312" role="outer"/>
    <member type="way" ref="321328863" role="outer"/>
    <member type="way" ref="321328856" role="outer"/>
    <member type="way" ref="868059633" role="outer"/>
    <member type="way" ref="868059634" role="outer"/>
    <member type="way" ref="868059635" role="outer"/>
    <member type="way" ref="868059636" role="outer"/>
    <member type="way" ref="868059637" role="outer"/>
    <member type="node" ref="36636872" role="admin_centre"/>
    <member type="way" ref="1281257073" role="outer"/>
    <tag k="admin_level" v="10"/>
    <tag k="boundary" v="administrative"/>
    <tag k="designation" v="civil_parish"/>
    <tag k="name" v="Isleham"/>
    <tag k="ref:gss" v="E04001633"/>
    <tag k="type" v="boundary"/>
    <tag k="wikidata" v="Q2289646"/>
  </relation>
  <relation id="1609573" version="12" timestamp="2024-05-09T19:31:31Z" changeset="151116614" uid="30525" user="Colin Smale">
    <member type="way" ref="1281257072" role="outer"/>
    <member type="way" ref="321328858" role="outer"/>
    <member type="way" ref="321328859" role="outer"/>
    <member type="way" ref="321346918" role="outer"/>
    <member type="node" ref="36636871" role="admin_centre"/>
    <member type="way" ref="1281257066" role="outer"/>
    <member type="way" ref="1281257062" role="outer"/>
    <member type="way" ref="1281257067" role="outer"/>
    <member type="way" ref="1281257073" role="outer"/>
    <member type="way" ref="1281257061" role="outer"/>
    <tag k="admin_level" v="10"/>
    <tag k="boundary" v="administrative"/>
    <tag k="designation" v="civil_parish"/>
    <tag k="name" v="Chippenham"/>
    <tag k="ref:gss" v="E04001626"/>
    <tag k="type" v="boundary"/>
    <tag k="wikidata" v="Q1913461"/>
  </relation>
  <relation id="1609601" version="13" timestamp="2024-05-09T19:31:31Z" changeset="151116614" uid="30525" user="Colin Smale">
    <member type="way" ref="320702809" role="outer"/>
    <member type="way" ref="633042986" role="outer"/>
    <member type="way" ref="320878202" role="outer"/>
    <member type="way" ref="619824995" role="outer"/>
    <member type="way" ref="320873097" role="outer"/>
    <member type="node" ref="36636868" role="admin_centre"/>
    <member type="way" ref="1281257066" role="outer"/>
    <tag k="admin_level" v="10"/>
    <tag k="boundary" v="administrative"/>
    <tag k="designation" v="civil_parish"/>
    <tag k="name" v="Kennett"/>
    <tag k="ref:gss" v="E04001634"/>
    <tag k="type" v="boundary"/>
    <tag k="wikidata" v="Q2580055"/>
  </relation>
  <relation id="1609621" version="12" timestamp="2024-05-09T19:31:31Z" changeset="151116614" uid="30525" user="Colin Smale">
    <member type="way" ref="115149265" role="outer"/>
    <member type="way" ref="1000290827" role="outer"/>
    <member type="way" ref="320433753" role="outer"/>
    <member type="way" ref="320436067" role="outer"/>
    <member type="node" ref="25292436" role="admin_centre"/>
    <member type="way" ref="1281257063" role="outer"/>
    <member type="way" ref="1281257062" role="outer"/>
    <tag k="admin_level" v="10"/>
    <tag k="boundary" v="administrative"/>
    <tag k="designation" v="civil_parish"/>
    <tag k="name" v="Snailwell"/>
    <tag k="ref:gss" v="E04001640"/>
    <tag k="type" v="boundary"/>
    <tag k="wikidata" v="Q3315322"/>
  </relation>
  <relation id="1609729" version="7" timestamp="2022-01-18T17:01:26Z" changeset="116307588" uid="281267" user="smb1001">
    <member type="way" ref="115194645" role="outer"/>
    <member type="way" ref="115194649" role="outer"/>
    <member type="node" ref="26052902" role="admin_centre"/>
    <tag k="admin_level" v="10"/>
    <tag k="boundary" v="administrative"/>
    <tag k="designation" v="civil_parish"/>
    <tag k="name" v="Reach"/>
    <tag k="ref:gss" v="E04001639"/>
    <tag k="type" v="boundary"/>
    <tag k="wikidata" v="Q2682534"/>
  </relation>
  <relation id="1609775" version="13" timestamp="2024-03-07T17:29:06Z" changeset="148353231" uid="10420541" user="Thingummy">
    <member type="node" ref="25292433" role="admin_centre"/>
    <member type="way" ref="115194645" role="outer"/>
    <member type="way" ref="115194657" role="outer"/>
    <member type="way" ref="115113181" role="outer"/>
    <member type="way" ref="122525880" role="outer"/>
    <member type="way" ref="122525885" role="outer"/>
    <member type="way" ref="116003013" role="outer"/>
    <member type="way" ref="619509228" role="outer"/>
    <member type="way" ref="619509227" role="outer"/>
    <member type="way" ref="619509234" role="outer"/>
    <member type="way" ref="320436061" role="outer"/>
    <member type="way" ref="320433755" role="outer"/>
    <member type="way" ref="115194651" role="outer"/>
    <tag k="admin_level" v="10"/>
    <tag k="boundary" v="administrative"/>
    <tag k="designation" v="civil_parish"/>
    <tag k="name" v="Burwell"/>
    <tag k="ref:gss" v="E04001624"/>
    <tag k="type" v="boundary"/>
    <tag k="wikidata" v="Q1982669"/>
  </relation>
  <relation id="1609932" version="8" timestamp="2021-07-10T15:19:05Z" changeset="107751700" uid="281267" user="smb1001">
    <member type="way" ref="115194650" role="outer"/>
    <member type="way" ref="115194646" role="outer"/>
    <member type="way" ref="115194651" role="outer"/>
    <member type="way" ref="115194649" role="outer"/>
    <member type="way" ref="115194657" role="outer"/>
    <member type="way" ref="115113200" role="outer"/>
    <member type="way" ref="116022987" role="outer"/>
    <member type="way" ref="320433759" role="outer"/>
    <member type="node" ref="26113428" role="admin_centre"/>
    <tag k="admin_level" v="10"/>
    <tag k="boundary" v="administrative"/>
    <tag k="designation" v="civil_parish"/>
    <tag k="name" v="Swaffham Prior"/>
    <tag k="ref:gss" v="E04001646"/>
    <tag k="type" v="boundary"/>
    <tag k="wikidata" v="Q2088589"/>
  </relation>
  <relation id="1610000" version="6" timestamp="2022-01-18T17:01:26Z" changeset="116307588" uid="281267" user="smb1001">
    <member type="way" ref="115214014" role="outer"/>
    <member type="way" ref="116027296" role="outer"/>
    <member type="way" ref="115194650" role="outer"/>
    <member type="way" ref="115194648" role="outer"/>
    <member type="way" ref="115194655" role="outer"/>
    <member type="way" ref="115194652" role="outer"/>
    <member type="way" ref="115210921" role="outer"/>
    <member type="node" ref="25905299" role="admin_centre"/>
    <tag k="admin_level" v="10"/>
    <tag k="boundary" v="administrative"/>
    <tag k="designation" v="civil_parish"/>
    <tag k="name" v="Swaffham Bulbeck"/>
    <tag k="ref:gss" v="E04001645"/>
    <tag k="type" v="boundary"/>
    <tag k="wikidata" v="Q2476397"/>
  </relation>
  <relation id="1610007" version="9" timestamp="2022-01-18T17:01:26Z" changeset="116307588" uid="281267" user="smb1001">
    <member type="way" ref="115210921" role="outer"/>
    <member type="way" ref="115194656" role="outer"/>
    <member type="way" ref="115219743" role="outer"/>
    <member type="way" ref="116107605" role="outer"/>
    <member type="way" ref="116107606" role="outer"/>
    <member type="way" ref="115194647" role="outer"/>
    <member type="node" ref="25905426" role="admin_centre"/>
    <tag k="admin_level" v="10"/>
    <tag k="boundary" v="administrative"/>
    <tag k="designation" v="civil_parish"/>
    <tag k="name" v="Bottisham"/>
    <tag k="ref:gss" v="E04001621"/>
    <tag k="type" v="boundary"/>
    <tag k="wikidata" v="Q4949032"/>
  </relation>
  <relation id="1610054" version="7" timestamp="2022-01-21T14:52:41Z" changeset="116435130" uid="281267" user="smb1001">
    <member type="way" ref="42718007" role="outer"/>
    <member type="way" ref="118309444" role="outer"/>
    <member type="way" ref="115219746" role="outer"/>
    <member type="way" ref="115194654" role="outer"/>
    <member type="node" ref="26164919" role="admin_centre"/>
    <tag k="admin_level" v="10"/>
    <tag k="boundary" v="administrative"/>
    <tag k="designation" v="civil_parish"/>
    <tag k="name" v="Brinkley"/>
    <tag k="ref:gss" v="E04001622"/>
    <tag k="type" v="boundary"/>
    <tag k="wikidata" v="Q953314"/>
  </relation>
  <relation id="1610058" version="8" timestamp="2023-05-03T10:08:40Z" changeset="135652552" uid="30525" user="Colin Smale">
    <member type="way" ref="115276006" role="outer"/>
    <member type="way" ref="115194654" role="outer"/>
    <member type="way" ref="115194656" role="outer"/>
    <member type="way" ref="115194652" role="outer"/>
    <member type="way" ref="325327488" role="outer"/>
    <member type="node" ref="262786678" role="admin_centre"/>
    <member type="way" ref="1168230289" role="outer"/>
    <tag k="admin_level" v="10"/>
    <tag k="boundary" v="administrative"/>
    <tag k="designation" v="civil_parish"/>
    <tag k="name" v="Burrough Green"/>
    <tag k="ref:gss" v="E04013229"/>
    <tag k="type" v="boundary"/>
    <tag k="wikidata" v="Q2694821"/>
  </relation>
  <relation id="1610065" version="7" timestamp="2023-05-03T10:08:40Z" changeset="135652552" uid="30525" user="Colin Smale">
    <member type="way" ref="115219743" role="outer"/>
    <member type="way" ref="116029552" role="outer"/>
    <member type="way" ref="115219746" role="outer"/>
    <member type="node" ref="262786680" role="admin_centre"/>
    <member type="way" ref="1168230289" role="outer"/>
    <tag k="admin_level" v="10"/>
    <tag k="boundary" v="administrative"/>
    <tag k="designation" v="civil_parish"/>
    <tag k="name" v="Westley Waterless"/>
    <tag k="ref:gss" v="E04013230"/>
    <tag k="type" v="boundary"/>
    <tag k="wikidata" v="Q957867"/>
  </relation>
  <relation id="1610067" version="7" timestamp="2022-01-21T14:52:41Z" changeset="116435130" uid="281267" user="smb1001">
    <member type="way" ref="115276028" role="outer"/>
    <member type="way" ref="115194655" role="outer"/>
    <member type="way" ref="115276006" role="outer"/>
    <member type="way" ref="325327492" role="outer"/>
    <member type="node" ref="248410335" role="admin_centre"/>
    <tag k="admin_level" v="10"/>
    <tag k="boundary" v="administrative"/>
    <tag k="designation" v="civil_parish"/>
    <tag k="name" v="Dullingham"/>
    <tag k="ref:gss" v="E04001629"/>
    <tag k="type" v="boundary"/>
    <tag k="wikidata" v="Q2144078"/>
  </relation>
  <relation id="1610072" version="8" timestamp="2022-01-21T14:52:41Z" changeset="116435130" uid="281267" user="smb1001">
    <member type="way" ref="115276047" role="outer"/>
    <member type="way" ref="115219739" role="outer"/>
    <member type="way" ref="325327491" role="outer"/>
    <member type="way" ref="115276028" role="outer"/>
    <member type="way" ref="115194648" role="outer"/>
    <member type="way" ref="115194646" role="outer"/>
    <member type="way" ref="320433756" role="outer"/>
    <member type="node" ref="248410336" role="admin_centre"/>
    <tag k="admin_level" v="10"/>
    <tag k="boundary" v="administrative"/>
    <tag k="designation" v="civil_parish"/>
    <tag k="name" v="Stetchworth"/>
    <tag k="ref:gss" v="E04001642"/>
    <tag k="type" v="boundary"/>
    <tag k="wikidata" v="Q2142868"/>
  </relation>
  <relation id="1610074" version="9" timestamp="2022-01-21T14:52:41Z" changeset="116435130" uid="281267" user="smb1001">
    <member type="way" ref="115276047" role="outer"/>
    <member type="way" ref="115308536" role="outer"/>
    <member type="way" ref="115308509" role="outer"/>
    <member type="way" ref="619509232" role="outer"/>
    <member type="way" ref="619509229" role="outer"/>
    <member type="way" ref="320433757" role="outer"/>
    <member type="node" ref="248410259" role="admin_centre"/>
    <tag k="admin_level" v="10"/>
    <tag k="boundary" v="administrative"/>
    <tag k="designation" v="civil_parish"/>
    <tag k="name" v="Woodditton"/>
    <tag k="ref:gss" v="E04001654"/>
    <tag k="type" v="boundary"/>
    <tag k="wikidata" v="Q2204023"/>
  </relation>
  <relation id="1610114" version="11" timestamp="2024-05-09T19:28:14Z" changeset="151116614" uid="30525" user="Colin Smale">
    <member type="way" ref="115319889" role="outer"/>
    <member type="way" ref="115308522" role="outer"/>
    <member type="way" ref="115308509" role="outer"/>
    <member type="way" ref="619509238" role="outer"/>
    <member type="way" ref="320433760" role="outer"/>
    <member type="node" ref="248410258" role="admin_centre"/>
    <member type="way" ref="1281257068" role="outer"/>
    <tag k="admin_level" v="10"/>
    <tag k="boundary" v="administrative"/>
    <tag k="designation" v="civil_parish"/>
    <tag k="name" v="Cheveley"/>
    <tag k="ref:gss" v="E04001625"/>
    <tag k="type" v="boundary"/>
    <tag k="wikidata" v="Q2254959"/>
  </relation>
  <relation id="1610116" version="10" timestamp="2024-05-09T19:28:14Z" changeset="151116614" uid="30525" user="Colin Smale">
    <member type="way" ref="115319889" role="outer"/>
    <member type="way" ref="115319888" role="outer"/>
    <member type="way" ref="116037633" role="outer"/>
    <member type="way" ref="325067245" role="outer"/>
    <member type="way" ref="320836038" role="outer"/>
    <member type="node" ref="29277001" role="admin_centre"/>
    <member type="way" ref="1281257070" role="outer"/>
    <tag k="admin_level" v="10"/>
    <tag k="boundary" v="administrative"/>
    <tag k="designation" v="civil_parish"/>
    <tag k="name" v="Ashley"/>
    <tag k="ref:gss" v="E04001620"/>
    <tag k="type" v="boundary"/>
    <tag k="wikidata" v="Q2708018"/>
  </relation>
  <relation id="1610551" version="11" timestamp="2024-05-09T19:28:14Z" changeset="151116614" uid="30525" user="Colin Smale">
    <member type="node" ref="25292435" role="admin_centre"/>
    <member type="way" ref="115149265" role="outer"/>
    <member type="way" ref="1000290827" role="outer"/>
    <member type="way" ref="115149312" role="outer"/>
    <member type="way" ref="115149283" role="outer"/>
    <member type="way" ref="116003012" role="outer"/>
    <member type="way" ref="116003013" role="outer"/>
    <member type="way" ref="320436054" role="outer"/>
    <member type="way" ref="619509230" role="outer"/>
    <member type="way" ref="619509231" role="outer"/>
    <member type="way" ref="1281257061" role="outer"/>
    <tag k="admin_level" v="10"/>
    <tag k="boundary" v="administrative"/>
    <tag k="designation" v="civil_parish"/>
    <tag k="name" v="Fordham"/>
    <tag k="ref:gss" v="E04001631"/>
    <tag k="type" v="boundary"/>
    <tag k="wikidata" v="Q660891"/>
  </relation>
  <relation id="1610553" version="7" timestamp="2021-07-10T15:48:44Z" changeset="107751700" uid="281267" user="smb1001">
    <member type="way" ref="116078393" role="outer"/>
    <member type="way" ref="116022811" role="outer"/>
    <member type="way" ref="115113200" role="outer"/>
    <member type="way" ref="115113181" role="outer"/>
    <member type="way" ref="122525880" role="outer"/>
    <member type="way" ref="122525885" role="outer"/>
    <member type="way" ref="116003012" role="outer"/>
    <member type="way" ref="115113172" role="outer"/>
    <member type="way" ref="115113208" role="outer"/>
    <member type="node" ref="24972761" role="admin_centre"/>
    <tag k="admin_level" v="10"/>
    <tag k="boundary" v="administrative"/>
    <tag k="designation" v="civil_parish"/>
    <tag k="name" v="Wicken"/>
    <tag k="ref:gss" v="E04001650"/>
    <tag k="type" v="boundary"/>
    <tag k="wikidata" v="Q7998321"/>
  </relation>
  <relation id="1610569" version="6" timestamp="2022-01-25T11:15:21Z" changeset="116580440" uid="281267" user="smb1001">
    <member type="way" ref="116078394" role="outer"/>
    <member type="way" ref="116078843" role="outer"/>
    <member type="way" ref="115104227" role="outer"/>
    <member type="way" ref="115104228" role="outer"/>
    <member type="way" ref="116078393" role="outer"/>
    <member type="node" ref="24972760" role="admin_centre"/>
    <tag k="admin_level" v="10"/>
    <tag k="boundary" v="administrative"/>
    <tag k="designation" v="civil_parish"/>
    <tag k="name" v="Stretham"/>
    <tag k="ref:gss" v="E04001643"/>
    <tag k="type" v="boundary"/>
    <tag k="wikidata" v="Q655898"/>
  </relation>
  <relation id="1610574" version="8" timestamp="2022-01-25T11:15:21Z" changeset="116580440" uid="281267" user="smb1001">
    <member type="way" ref="115104227" role="outer"/>
    <member type="way" ref="115104224" role="outer"/>
    <member type="way" ref="115093576" role="outer"/>
    <member type="way" ref="115104229" role="outer"/>
    <member type="way" ref="116078844" role="outer"/>
    <member type="way" ref="688976527" role="outer"/>
    <member type="node" ref="21345918" role="admin_centre"/>
    <tag k="admin_level" v="10"/>
    <tag k="boundary" v="administrative"/>
    <tag k="designation" v="civil_parish"/>
    <tag k="name" v="Wilburton"/>
    <tag k="ref:gss" v="E04012834"/>
    <tag k="type" v="boundary"/>
    <tag k="wikidata" v="Q2224144"/>
  </relation>
  <relation id="1610580" version="6" timestamp="2022-01-25T14:30:05Z" changeset="116588108" uid="281267" user="smb1001">
    <member type="way" ref="115104226" role="outer"/>
    <member type="way" ref="115104223" role="outer"/>
    <member type="way" ref="115104224" role="outer"/>
    <member type="way" ref="115104228" role="outer"/>
    <member type="way" ref="115113208" role="outer"/>
    <member type="way" ref="115104218" role="outer"/>
    <member type="node" ref="29125076" role="admin_centre"/>
    <tag k="admin_level" v="10"/>
    <tag k="boundary" v="administrative"/>
    <tag k="council_name" v="Little Thetford Parish Council"/>
    <tag k="designation" v="civil_parish"/>
    <tag k="name" v="Thetford"/>
    <tag k="ref:gss" v="E04001647"/>
    <tag k="type" v="boundary"/>
    <tag k="wikidata" v="Q7783560"/>
  </relation>
  <relation id="1610582" version="13" timestamp="2022-01-25T14:30:05Z" changeset="116588108" uid="281267" user="smb1001">
    <member type="way" ref="115088549" role="outer"/>
    <member type="way" ref="115084608" role="outer"/>
    <member type="way" ref="688973339" role="outer"/>
    <member type="way" ref="688973337" role="outer"/>
    <member type="way" ref="115088548" role="outer"/>
    <member type="way" ref="115104223" role="outer"/>
    <member type="way" ref="688976528" role="outer"/>
    <member type="way" ref="688976527" role="outer"/>
    <member type="node" ref="29125075" role="admin_centre"/>
    <tag k="admin_level" v="10"/>
    <tag k="boundary" v="administrative"/>
    <tag k="designation" v="civil_parish"/>
    <tag k="name" v="Witchford"/>
    <tag k="ref:gss" v="E04012836"/>
    <tag k="type" v="boundary"/>
    <tag k="wikidata" v="Q3488171"/>
  </relation>
  <relation id="1610586" version="11" timestamp="2022-01-25T14:30:05Z" changeset="116588108" uid="281267" user="smb1001">
    <member type="way" ref="116080408" role="outer"/>
    <member type="way" ref="115088549" role="outer"/>
    <member type="way" ref="115093576" role="outer"/>
    <member type="way" ref="115093577" role="outer"/>
    <member type="way" ref="115093574" role="outer"/>
    <member type="way" ref="688976528" role="outer"/>
    <member type="way" ref="688991006" role="outer"/>
    <member type="node" ref="7640146297" role="admin_centre"/>
    <tag k="admin_level" v="10"/>
    <tag k="boundary" v="administrative"/>
    <tag k="designation" v="civil_parish"/>
    <tag k="name" v="Wentworth"/>
    <tag k="ref:gss" v="E04001648"/>
    <tag k="type" v="boundary"/>
    <tag k="wikidata" v="Q2181555"/>
  </relation>
  <relation id="1610591" version="7" timestamp="2021-07-10T15:26:08Z" changeset="107751700" uid="281267" user="smb1001">
    <member type="way" ref="116080408" role="outer"/>
    <member type="way" ref="115084608" role="outer"/>
    <member type="way" ref="115084607" role="outer"/>
    <member type="way" ref="129014705" role="outer"/>
    <member type="way" ref="115088550" role="outer"/>
    <tag k="admin_level" v="10"/>
    <tag k="boundary" v="administrative"/>
    <tag k="designation" v="civil_parish"/>
    <tag k="name" v="Coveney"/>
    <tag k="ref:gss" v="E04001627"/>
    <tag k="type" v="boundary"/>
    <tag k="wikidata" v="Q2367212"/>
  </relation>
  <relation id="1610592" version="11" timestamp="2021-07-10T15:36:37Z" changeset="107751700" uid="281267" user="smb1001">
    <member type="way" ref="115088550" role="outer"/>
    <member type="way" ref="115093573" role="outer"/>
    <member type="way" ref="129014709" role="outer"/>
    <member type="node" ref="271097454" role="admin_centre"/>
    <member type="way" ref="688991005" role="outer"/>
    <member type="way" ref="688991006" role="outer"/>
    <tag k="admin_level" v="10"/>
    <tag k="boundary" v="administrative"/>
    <tag k="designation" v="civil_parish"/>
    <tag k="name" v="Witcham"/>
    <tag k="ref:gss" v="E04012835"/>
    <tag k="type" v="boundary"/>
    <tag k="wikidata" v="Q2940887"/>
  </relation>
  <relation id="1610597" version="10" timestamp="2022-01-25T14:30:05Z" changeset="116588108" uid="281267" user="smb1001">
    <member type="way" ref="115093575" role="outer"/>
    <member type="way" ref="115093577" role="outer"/>
    <member type="way" ref="115104229" role="outer"/>
    <member type="way" ref="116079150" role="outer"/>
    <member type="way" ref="688984091" role="outer"/>
    <member type="way" ref="688984090" role="outer"/>
    <member type="node" ref="24965736" role="admin_centre"/>
    <tag k="admin_level" v="10"/>
    <tag k="boundary" v="administrative"/>
    <tag k="designation" v="civil_parish"/>
    <tag k="name" v="Haddenham"/>
    <tag k="ref:gss" v="E04012830"/>
    <tag k="type" v="boundary"/>
    <tag k="wikidata" v="Q2537605"/>
  </relation>
  <relation id="1610646" version="9" timestamp="2022-01-18T17:01:26Z" changeset="116307588" uid="281267" user="smb1001">
    <member type="way" ref="115214014" role="outer"/>
    <member type="way" ref="115194647" role="outer"/>
    <member type="way" ref="116030207" role="outer"/>
    <member type="way" ref="118304327" role="outer"/>
    <member type="way" ref="118249526" role="outer"/>
    <member type="way" ref="118248045" role="outer"/>
    <member type="node" ref="25905373" role="admin_centre"/>
    <tag k="admin_level" v="10"/>
    <tag k="boundary" v="administrative"/>
    <tag k="designation" v="civil_parish"/>
    <tag k="name" v="Lode"/>
    <tag k="ref:gss" v="E04001637"/>
    <tag k="type" v="boundary"/>
    <tag k="wikidata" v="Q1925664"/>
  </relation>
  <relation id="1610803" version="9" timestamp="2022-01-21T14:52:41Z" changeset="116435130" uid="281267" user="smb1001">
    <member type="way" ref="325077072" role="outer"/>
    <member type="way" ref="115319888" role="outer"/>
    <member type="way" ref="115308522" role="outer"/>
    <member type="way" ref="115308536" role="outer"/>
    <member type="way" ref="115219739" role="outer"/>
    <member type="way" ref="325327489" role="outer"/>
    <member type="way" ref="325081966" role="outer"/>
    <member type="node" ref="264671508" role="admin_centre"/>
    <tag k="admin_level" v="10"/>
    <tag k="boundary" v="administrative"/>
    <tag k="designation" v="civil_parish"/>
    <tag k="name" v="Kirtling"/>
    <tag k="ref:gss" v="E04001635"/>
    <tag k="type" v="boundary"/>
    <tag k="wikidata" v="Q2637470"/>
  </relation>
  <relation id="1630161" version="7" timestamp="2021-07-10T15:41:14Z" changeset="107751700" uid="281267" user="smb1001">
    <member type="way" ref="129014708" role="outer"/>
    <member type="way" ref="115093573" role="outer"/>
    <member type="way" ref="688986439" role="outer"/>
    <member type="node" ref="29125079" role="admin_centre"/>
    <tag k="admin_level" v="10"/>
    <tag k="boundary" v="administrative"/>
    <tag k="designation" v="civil_parish"/>
    <tag k="name" v="Mepal"/>
    <tag k="ref:gss" v="E04012831"/>
    <tag k="type" v="boundary"/>
    <tag k="wikidata" v="Q4680234"/>
  </relation>
  <relation id="1630173" version="14" timestamp="2024-11-16T23:58:36Z" changeset="159226087" uid="10420541" user="Thingummy">
    <member type="way" ref="115093574" role="outer"/>
    <member type="way" ref="115093575" role="outer"/>
    <member type="way" ref="688984092" role="outer"/>
    <member type="way" ref="117913452" role="outer"/>
    <member type="way" ref="1334615859" role="outer"/>
    <member type="way" ref="377392007" role="outer"/>
    <member type="way" ref="129014702" role="outer"/>
    <member type="way" ref="688986439" role="outer"/>
    <member type="way" ref="688991005" role="outer"/>
    <member type="node" ref="29125077" role="admin_centre"/>
    <tag k="admin_level" v="10"/>
    <tag k="boundary" v="administrative"/>
    <tag k="designation" v="civil_parish"/>
    <tag k="name" v="Sutton"/>
    <tag k="ref:gss" v="E04012832"/>
    <tag k="type" v="boundary"/>
    <tag k="wikidata" v="Q2081463"/>
  </relation>

</osm>
